{"type": "FeatureCollection", "features": [{"type": "Feature", "bbox": [136.23538993111538, 36.21682893541259, 136.34915676799676, 36.31984633250261], "geometry": {"type": "LineString", "coordinates": [[136.34915676799676, 36.31984633250261], [136.34815228480932, 36.31956287025412], [136.3461675168977, 36.31901648652047], [136.34352631518095, 36.31829550983571], [136.3415132911698, 36.31773157757732], [136.3401760340845, 36.31733956137646], [136.33849851407524, 36.31682797726023], [136.33738016740233, 36.31641157158424], [136.33615474498424, 36.31592378207807], [136.33494121987133, 36.31540030065662], [136.3335492351829, 36.31472215426993], [136.3324784777301, 36.31413918632353], [136.33150289871764, 36.313591910292075], [136.3303726547398, 36.312854277380154], [136.32957553530264, 36.31233079595893], [136.32852857245996, 36.311569368437006], [136.3278147341581, 36.31103398971061], [136.32730315004187, 36.310546200204385], [136.32636921159724, 36.309743132114875], [136.32504861073892, 36.30848201778173], [136.32425149130177, 36.30756592529434], [136.32302606888368, 36.30616204330073], [136.32051573752256, 36.30312823051804], [136.31869544985284, 36.300903434477505], [136.3174609061674, 36.299415081618235], [136.3160094349538, 36.29764238316886], [136.3135110008975, 36.2948703110967], [136.31227368117436, 36.293644888678614], [136.3114884590425, 36.29285966654669], [136.3105625512785, 36.29200990153487], [136.30919198173888, 36.29079161749979], [136.30863994678543, 36.29033476098664], [136.3078690014196, 36.28968754759302], [136.3067839672009, 36.288840459474955], [136.3062509679355, 36.28843119218186], [136.30434739913073, 36.28705110479825], [136.3012172974927, 36.28496257255813], [136.29513539516108, 36.28135055075097], [136.2885966363167, 36.27752437745312], [136.28233770208624, 36.27382907451073], [136.2773313161298, 36.27085950717526], [136.27068786100085, 36.266919119749275], [136.26800344827222, 36.26535800297245], [136.26373945414946, 36.26284529215013], [136.26008460204423, 36.260599080960446], [136.25797164067092, 36.25909526160467], [136.25616325030637, 36.25766758500106], [136.25349825397961, 36.25521198124284], [136.25159468517484, 36.25317516262169], [136.25032262532113, 36.25151334705515], [136.24938273822374, 36.250252232722005], [136.248692694532, 36.249193372574325], [136.24787178048484, 36.247872771716004], [136.24670584459216, 36.24594540830117], [136.24486637251812, 36.24291417326788], [136.24290569664902, 36.23962099923557], [136.24090694940412, 36.23630878951519], [136.23965630469934, 36.23428529587568], [136.23895674316338, 36.23295755663429], [136.23830001192596, 36.23164409415898], [136.23761472715603, 36.23005937312905], [136.23681522825802, 36.227832197627436], [136.23644165288, 36.22651492801435], [136.2361418407935, 36.225230019071205], [136.2358848590046, 36.223959386893966], [136.2356278772162, 36.22214703076105], [136.23546131494572, 36.22004120777075], [136.23538993111538, 36.21682893541259]]}, "properties": {"id": "TRACK_TOKYO_4135", "line_name": "北陸新幹線", "station_group_ids": [], "mode": "shinkansen", "operator_id": "西日本旅客鉄道", "line_color": "#2C62C9", "tags": ["tokyo", "track_centerline"]}}, {"type": "Feature", "bbox": [136.22425162623938, 36.0628888936904, 136.25316383185145, 36.214027735805075], "geometry": {"type": "LineString", "coordinates": [[136.23533644051372, 36.214027735805075], [136.23532092674623, 36.21374515394882], [136.23534948027816, 36.2120414598686], [136.23543514087464, 36.210547158356746], [136.2356350155991, 36.20890295080176], [136.23584916708955, 36.20758948832645], [136.23613470241025, 36.20624747231898], [136.2365487286254, 36.20469130482098], [136.23804778905924, 36.20009418615746], [136.24647583994238, 36.17509259450219], [136.2509640201515, 36.16171688708624], [136.25185036937614, 36.159044752376474], [136.2523262615773, 36.157407683204326], [136.25263083258608, 36.15577061403235], [136.2528402251546, 36.154590401373184], [136.25303058203508, 36.153238867521964], [136.25316383185145, 36.15065001394743], [136.25310672478713, 36.14840380275774], [136.2528402251546, 36.14606241312782], [136.25240240432936, 36.143778130562055], [136.25188844075205, 36.141798419005056], [136.2512983344226, 36.140085207080745], [136.25000390763546, 36.13692528286475], [136.24815744589478, 36.13309910956713], [136.24708510213486, 36.13084211148748], [136.24551465787079, 36.126868411607575], [136.24501497105962, 36.12508381585303], [136.24432492736776, 36.12156221356412], [136.2441583650973, 36.11889721723742], [136.2441262423738, 36.1172173177672], [136.2444117776945, 36.112981877176594], [136.2447211076252, 36.109329404532446], [136.24526659906087, 36.1026933852192], [136.2454664737853, 36.09965243405367], [136.24547123270725, 36.09851505169274], [136.24539984887724, 36.09698743772691], [136.24522852768462, 36.09583101967797], [136.24494299236392, 36.094546110734655], [136.24454324291492, 36.09307560383297], [136.24405783286977, 36.09177641812374], [136.24342965516416, 36.09036301828621], [136.24278720069265, 36.08923515376938], [136.241744996772, 36.08762187920729], [136.24078788237682, 36.086339135573496], [136.2394434869086, 36.08472110208942], [136.23812288605018, 36.08310306860528], [136.23654054448116, 36.081211397105676], [136.235413473118, 36.07969171467653], [136.23454496985084, 36.078180756937684], [136.23405718034462, 36.076931539909594], [136.2337002611938, 36.07564663096622], [136.23350514539118, 36.07440217286006], [136.23331002958878, 36.07267627047713], [136.2330562324595, 36.07108821639508], [136.23267, 36.07002000000011], [136.2325645444556, 36.069663872843535], [136.2324485457316, 36.069479464615654], [136.23213326714824, 36.069018444045696], [136.2317347074296, 36.068554449149474], [136.2312677382073, 36.06814101779969], [136.23059216957017, 36.06769724832202], [136.2295214121175, 36.06693344133919], [136.22849586442373, 36.066188670044255], [136.22711722237545, 36.06524501090212], [136.225828488636, 36.0644100229423], [136.22481483824743, 36.063603385661224], [136.22425162623938, 36.0628888936904]]}, "properties": {"id": "TRACK_TOKYO_4136", "line_name": "北陸新幹線", "station_group_ids": [], "mode": "shinkansen", "operator_id": "西日本旅客鉄道", "line_color": "#2C62C9", "tags": ["tokyo", "track_centerline"]}}, {"type": "Feature", "bbox": [136.35246981680473, 36.32073594453004, 136.4530357969627, 36.40092341954761], "geometry": {"type": "LineString", "coordinates": [[136.4530357969627, 36.40092341954761], [136.45249327985323, 36.39441321423516], [136.45227377457547, 36.39246086647967], [136.45204534631887, 36.391047466641965], [136.4518311948284, 36.38994815565735], [136.45154565950781, 36.38874890731029], [136.45111735652642, 36.38729267717457], [136.45046062528877, 36.385422420823886], [136.44980389405112, 36.38386625332589], [136.4492899304738, 36.38280977263912], [136.4477908700402, 36.3800657782071], [136.44462618690204, 36.37511649931463], [136.44048592475167, 36.36862057076809], [136.43938780349754, 36.366670602473675], [136.43816951946246, 36.36425307009159], [136.43729387781207, 36.362273358534594], [136.43647534322633, 36.36017943284929], [136.435618737264, 36.35799032872376], [136.43489538111817, 36.356239045423365], [136.43415298928414, 36.35462101193929], [136.4335634540255, 36.3533671311676], [136.43259263393486, 36.35169674954136], [136.4316503673765, 36.35024051940559], [136.43013703017664, 36.34818466509637], [136.4289663353618, 36.34679981879083], [136.42735306079965, 36.34507233010061], [136.42599676802627, 36.34377314439138], [136.42466902878505, 36.34260244957636], [136.4229900810991, 36.34128755942436], [136.4215052974314, 36.340202525205655], [136.42013472789176, 36.33930308894543], [136.41859283715996, 36.33831799208889], [136.4132247731303, 36.33496295207044], [136.4104755438841, 36.33325906763338], [136.4059188760574, 36.33048699556139], [136.4033728527811, 36.329130702787836], [136.4012670297908, 36.32814322647039], [136.39807855204265, 36.32687021483224], [136.39551539664717, 36.32604977667734], [136.39253631146767, 36.325259795623424], [136.3898808329849, 36.32470776067004], [136.38710162252994, 36.324288975532966], [136.3852932321655, 36.32408910080835], [136.38249439115714, 36.323881889412576], [136.37838982092183, 36.3238343001924], [136.37505857551355, 36.3238461974974], [136.36843177661171, 36.323858094802404], [136.36562728438366, 36.3236983734825], [136.36356429169143, 36.32343425331072], [136.36215803023674, 36.323198686671105], [136.36079459908035, 36.3229345664995], [136.35879585183523, 36.322463433220264], [136.35709073007843, 36.32200181778512], [136.3541283011259, 36.32118804212104], [136.35246981680473, 36.32073594453004]]}, "properties": {"id": "TRACK_TOKYO_4140", "line_name": "北陸新幹線", "station_group_ids": [], "mode": "shinkansen", "operator_id": "西日本旅客鉄道", "line_color": "#2C62C9", "tags": ["tokyo", "track_centerline"]}}, {"type": "Feature", "bbox": [136.34915676799676, 36.31984633250261, 136.35246981680473, 36.32073594453004], "geometry": {"type": "LineString", "coordinates": [[136.35246981680473, 36.32073594453004], [136.34915676799676, 36.31984633250261]]}, "properties": {"id": "TRACK_TOKYO_4141", "line_name": "北陸新幹線", "station_group_ids": [], "mode": "shinkansen", "operator_id": "西日本旅客鉄道", "line_color": "#2C62C9", "tags": ["tokyo", "track_centerline"]}}, {"type": "Feature", "bbox": [136.23533644051372, 36.214027735805075, 136.23538993111538, 36.21682893541259], "geometry": {"type": "LineString", "coordinates": [[136.23538993111538, 36.21682893541259], [136.23533644051372, 36.214027735805075]]}, "properties": {"id": "TRACK_TOKYO_4142", "line_name": "北陸新幹線", "station_group_ids": [], "mode": "shinkansen", "operator_id": "西日本旅客鉄道", "line_color": "#2C62C9", "tags": ["tokyo", "track_centerline"]}}]}