{"type": "FeatureCollection", "features": [{"type": "Feature", "bbox": [134.69071, 34.82643, 134.69071, 34.82643], "geometry": {"type": "Point", "coordinates": [134.69071, 34.82643]}, "properties": {"id": "PS_128ACCE9A6F9", "station_group_id": "SG_8CA513076677", "operator_id": "jr_west", "operator_ids": "jr_west", "name_en": "姫路", "name_ja": "姫路", "label_rank": 72, "tags": ["tokyo", "v3"]}}, {"type": "Feature", "bbox": [133.918045, 34.665845000000004, 133.918045, 34.665845000000004], "geometry": {"type": "Point", "coordinates": [133.918045, 34.665845000000004]}, "properties": {"id": "PS_30C165E9F7C3", "station_group_id": "SG_491FD54DE8E0", "operator_id": "jr_west", "operator_ids": "jr_west", "name_en": "岡山", "name_ja": "岡山", "label_rank": 72, "tags": ["tokyo", "v3"]}}, {"type": "Feature", "bbox": [134.47436, 34.81827, 134.47436, 34.81827], "geometry": {"type": "Point", "coordinates": [134.47436, 34.81827]}, "properties": {"id": "PS_67CF4D2940E0", "station_group_id": "SG_1E7497CD0187", "operator_id": "jr_west", "operator_ids": "jr_west", "name_en": "相生", "name_ja": "相生", "label_rank": 72, "tags": ["tokyo", "v3"]}}]}