{"type": "FeatureCollection", "features": [{"type": "Feature", "bbox": [129.86901914323914, 32.75134827591614, 129.86913811628926, 32.75353738004151], "geometry": {"type": "LineString", "coordinates": [[129.86901914323914, 32.75134827591614], [129.86913811628926, 32.75353738004151]]}, "properties": {"id": "GEOM_TOKYO_4118", "route_id": "R_04ADEAE1", "route_name": null, "route_color": "#7C4DFF", "route_text_color": null, "line_name": "西九州新幹線", "operator_id": "九州旅客鉄道", "representation": "service_path", "min_zoom": 0, "max_zoom": 24, "offset_rank": 0}}, {"type": "Feature", "bbox": [129.86913811628926, 32.75353738004151, 130.04168651572434, 32.851580889614866], "geometry": {"type": "LineString", "coordinates": [[129.86913811628926, 32.75353738004151], [129.8692342861716, 32.7561042236016], [129.8693151878458, 32.7571607042882], [129.86935325922184, 32.75771273924158], [129.86946747335014, 32.7582457385069], [129.86963879454254, 32.7588358448362], [129.87000047261552, 32.75969245079841], [129.87055250756873, 32.760720377952964], [129.8717707916038, 32.76289044639026], [129.8728558258225, 32.764889193635156], [129.8734268964639, 32.76572676390924], [129.8741121812335, 32.76664047693538], [129.87472132325104, 32.76738286876929], [129.87552082214904, 32.768296581795596], [129.8767962132481, 32.76970522271097], [129.87837617535615, 32.77143747032335], [129.88001324452807, 32.77318875362357], [129.88163127801215, 32.77482582279555], [129.88334448993635, 32.77636771352741], [129.8855335940616, 32.77808092545155], [129.8869612706651, 32.779070781230075], [129.8889600179101, 32.78028906526498], [129.89069226552226, 32.78127892104345], [129.89225319194225, 32.782116491317595], [129.89425193918714, 32.78301116865566], [129.8964981503766, 32.7839058459939], [129.89893471844664, 32.78470534489196], [129.9022659638548, 32.7856190579181], [129.905578173575, 32.78624723562365], [129.90858581228645, 32.78660891369657], [129.91104141604444, 32.786837341953174], [129.91338280567413, 32.78698962745756], [129.91747547860416, 32.787237091402176], [129.9205973314439, 32.78742744828264], [129.92472807574995, 32.78767491222726], [129.93036263941178, 32.78803659030018], [129.93546420380835, 32.78832212562088], [129.94507722627213, 32.78895030332632], [129.94698079507668, 32.78904548176655], [129.94871304268906, 32.789178731582865], [129.95014627136834, 32.789331810240924], [129.95127651534597, 32.78945078329133], [129.95275178116958, 32.789641140171796], [129.95465534997425, 32.78993857279738], [129.957391730131, 32.79045015691378], [129.96002341400344, 32.791009330250006], [129.96253612482565, 32.79165654364368], [129.96392573005312, 32.79213243584485], [129.9672569754614, 32.79321747006344], [129.97001715022816, 32.79426443290606], [129.97235853985774, 32.7952733243726], [129.9749664291203, 32.79651064409558], [129.9788877808578, 32.79852842702849], [129.98269491846713, 32.800565245649636], [129.98751094754311, 32.80305892078371], [129.99299322570062, 32.805933309678835], [129.99975089495706, 32.80947394765542], [130.00542352999503, 32.81244351499072], [130.0097255954936, 32.814670690492164], [130.0121811992518, 32.815984152967474], [130.0153791948435, 32.81802097158845], [130.01796804841786, 32.81986743332891], [130.01985258153456, 32.82142835974889], [130.02175615033923, 32.82310350029695], [130.02369779052015, 32.82506417616571], [130.024916074555, 32.826453781393184], [130.02609628721382, 32.82776724386832], [130.02739071400094, 32.82946142010462], [130.02897067610888, 32.83172666698215], [130.03100749472992, 32.83471527000552], [130.03315852747915, 32.83787519422134], [130.03420549032194, 32.83922672807256], [130.0353095602286, 32.84052115485969], [130.0365088085756, 32.84173943889476], [130.0385456271964, 32.84360493632329], [130.04003041086412, 32.84497550586275], [130.04050630306529, 32.845508505128066], [130.04098219526657, 32.84625089696175], [130.04128676627533, 32.846879074667356], [130.0414771231558, 32.847488216684894], [130.0415913372841, 32.84809735870243], [130.04168651572434, 32.84866842934372], [130.04166748003627, 32.849277571361256], [130.0415913372841, 32.849867677690725], [130.04149615884387, 32.85045778402019], [130.0411154450827, 32.851580889614866]]}, "properties": {"id": "GEOM_TOKYO_4119", "route_id": "R_04ADEAE1", "route_name": null, "route_color": "#7C4DFF", "route_text_color": null, "line_name": "西九州新幹線", "operator_id": "九州旅客鉄道", "representation": "service_path", "min_zoom": 0, "max_zoom": 24, "offset_rank": 0}}, {"type": "Feature", "bbox": [130.04064118526958, 32.851580889614866, 130.0411154450827, 32.85316599117493], "geometry": {"type": "LineString", "coordinates": [[130.0411154450827, 32.851580889614866], [130.04064118526958, 32.85316599117493]]}, "properties": {"id": "GEOM_TOKYO_4120", "route_id": "R_04ADEAE1", "route_name": null, "route_color": "#7C4DFF", "route_text_color": null, "line_name": "西九州新幹線", "operator_id": "九州旅客鉄道", "representation": "service_path", "min_zoom": 0, "max_zoom": 24, "offset_rank": 0}}, {"type": "Feature", "bbox": [129.95756327958088, 32.85316599117493, 130.04064118526958, 32.932261954110515], "geometry": {"type": "LineString", "coordinates": [[130.04064118526958, 32.85316599117493], [130.03996303888323, 32.855676322536226], [130.0389517679556, 32.85923361673974], [130.03785007750992, 32.86282184393673], [130.03712196244214, 32.865063296204085], [130.03667938269484, 32.86619116072086], [130.03592271409525, 32.86771877468669], [130.0353373666876, 32.868803808905284], [130.03445220719345, 32.87027431580691], [130.0337240921258, 32.87144501062181], [130.03328151237872, 32.87200180449713], [130.03268188820516, 32.87282985692718], [130.0318538357751, 32.87391489114589], [130.03131131866564, 32.874585899149565], [130.03059748036412, 32.87537112128149], [130.0297265976359, 32.876284834307626], [130.0289984825681, 32.87698439584341], [130.02805621600976, 32.877940939167786], [130.02681413736468, 32.878954589556315], [130.02560061225176, 32.879982516710754], [130.02450130126692, 32.88079629237484], [130.02358758824084, 32.8814387468463], [130.02233123282986, 32.882266799276294], [130.02146035010162, 32.88282359315167], [130.02026110175473, 32.88345177085728], [130.01946160285672, 32.88392290413651], [130.01800537272118, 32.884651019204284], [130.01612083960458, 32.88553617869843], [130.01386511057092, 32.88644989172457], [130.01102403412995, 32.88750637241117], [130.0092679919078, 32.88812027335064], [130.00464231971227, 32.8898905923391], [130.00085897671306, 32.89128971541055], [129.99791796290992, 32.89237474962914], [129.99440587846527, 32.8937453191686], [129.99272122007312, 32.894516264534445], [129.9916932929185, 32.8949731210476], [129.98983731333396, 32.895915387605896], [129.98805271757954, 32.896900484462265], [129.9864251662517, 32.897899858084656], [129.9844264190067, 32.89921332056002], [129.98212785967496, 32.90086942542001], [129.97970080944913, 32.90286817266485], [129.9778591066306, 32.904595661355074], [129.97616017147232, 32.90618038238506], [129.97470394133677, 32.9076080589885], [129.97304783647678, 32.90926416384866], [129.97119185689235, 32.911091589901105], [129.96890757432675, 32.91329021187056], [129.96686599678367, 32.9152604055833], [129.96545259694608, 32.91667380542077], [129.96332535880686, 32.91877249002789], [129.96236881548248, 32.919814693948354], [129.96171208424494, 32.92072840697466], [129.96108390653933, 32.92179916442734], [129.96068415709055, 32.9227699845178], [129.96028440764155, 32.92419766112124], [129.95982755112834, 32.926653264879235], [129.95949918550957, 32.928266539441154], [129.9591708198908, 32.92922308276553], [129.95852196442013, 32.930527089090845], [129.95756327958088, 32.932261954110515]]}, "properties": {"id": "GEOM_TOKYO_4121", "route_id": "R_04ADEAE1", "route_name": null, "route_color": "#7C4DFF", "route_text_color": null, "line_name": "西九州新幹線", "operator_id": "九州旅客鉄道", "representation": "service_path", "min_zoom": 0, "max_zoom": 24, "offset_rank": 0}}, {"type": "Feature", "bbox": [129.9567052459421, 32.932261954110515, 129.95756327958088, 32.93379646851332], "geometry": {"type": "LineString", "coordinates": [[129.95756327958088, 32.932261954110515], [129.9567052459421, 32.93379646851332]]}, "properties": {"id": "GEOM_TOKYO_4122", "route_id": "R_04ADEAE1", "route_name": null, "route_color": "#7C4DFF", "route_text_color": null, "line_name": "西九州新幹線", "operator_id": "九州旅客鉄道", "representation": "service_path", "min_zoom": 0, "max_zoom": 24, "offset_rank": 0}}, {"type": "Feature", "bbox": [129.94587869836437, 32.93379646851332, 129.99895971448825, 33.105783910033665], "geometry": {"type": "LineString", "coordinates": [[129.9567052459421, 32.93379646851332], [129.95439716876626, 32.938055703714156], [129.95208909159032, 32.94224355508487], [129.94929084544708, 32.9473118070278], [129.94847706978317, 32.94911067954848], [129.94807732033394, 32.950110053171045], [129.94744914262856, 32.9518089883295], [129.94686379522102, 32.953550753785976], [129.94667819726237, 32.95435025268398], [129.94647832253793, 32.95537817983859], [129.9462356175153, 32.95673447261197], [129.94609284985495, 32.95780523006482], [129.94596435896062, 32.95911869254013], [129.9458929751304, 32.96030366412106], [129.94587869836437, 32.96158857306443], [129.94597863572676, 32.96345882941529], [129.94616423368518, 32.965329085765916], [129.94643549223986, 32.96692808356215], [129.94679241139067, 32.96859846518839], [129.94712077700956, 32.96981199030154], [129.94756335675686, 32.9712967739693], [129.94829147182463, 32.973124200022085], [129.94891964953024, 32.97460898368979], [129.94973342519438, 32.976179427953866], [129.95076135234888, 32.97797830047449], [129.9521319218884, 32.98033396687049], [129.9539450711751, 32.98336064127011], [129.95578677399374, 32.98647297626627], [129.95652916582765, 32.98782926903965], [129.95718589706541, 32.98909990121689], [129.95792828889932, 32.99077028284313], [129.95857074337096, 32.99246921800159], [129.95917036754452, 32.99426809052221], [129.9596557775899, 32.996323944831374], [129.96004125027264, 32.99830841531053], [129.96022684823117, 33.0001929484273], [129.96032678559357, 33.00193471388377], [129.9603410623596, 33.00324817635908], [129.96031250882743, 33.00434748734392], [129.96019829469913, 33.00564667305332], [129.95999841997457, 33.007245670849386], [129.9596700543558, 33.00898743630586], [129.95917036754452, 33.01110039767917], [129.95842797571072, 33.013641662033706], [129.95761420004658, 33.016268586984495], [129.95680042438244, 33.018981172531426], [129.9561579699108, 33.020994196542574], [129.95458752564696, 33.026133832315736], [129.95341683083188, 33.02998855914558], [129.95298852785072, 33.031815985198364], [129.9527458228281, 33.03295812648122], [129.95258877840172, 33.033857562741446], [129.95238890367716, 33.03525668581307], [129.95228896631488, 33.03674146948083], [129.95220330571863, 33.03809776225438], [129.9522461360168, 33.039553992390154], [129.95230324308102, 33.04088173163154], [129.95247456427342, 33.04282337181246], [129.9526316086998, 33.043908406031164], [129.95293142078663, 33.0456216179557], [129.95333117023563, 33.04719206221955], [129.95373091968463, 33.048619738823334], [129.95441620445433, 33.05048999517402], [129.9549587215638, 33.05180345764933], [129.9556440063335, 33.05325968778527], [129.9564435052315, 33.054830132049176], [129.9576284768125, 33.056800325762254], [129.9588705554578, 33.05861347504896], [129.96002697350673, 33.060083981950584], [129.9611976683218, 33.061468828256125], [129.96249685403097, 33.062839397795585], [129.96416723565721, 33.06448122588989], [129.96553780519673, 33.0656804742369], [129.9670511423966, 33.06687972258413], [129.96832177457384, 33.06785054267459], [129.97022058445668, 33.06923538898013], [129.9721051175735, 33.07059168175351], [129.97520317580347, 33.07286168755337], [129.97695921802608, 33.07416087326277], [129.98024287421447, 33.07657364672292], [129.98471150198384, 33.07985730291131], [129.98686729365534, 33.08159906836778], [129.98886604090046, 33.083426494420394], [129.98982258422495, 33.084482975107164], [129.991050386104, 33.085824991114634], [129.9920640364927, 33.08706706975971], [129.9928492586248, 33.08816638074455], [129.9935488201604, 33.089180031133026], [129.99441970288865, 33.090550600672714], [129.9952334785528, 33.09197827727627], [129.99607580774887, 33.09366293566865], [129.9968181995829, 33.0954189778912], [129.99738927022418, 33.096975145389024], [129.99791751056773, 33.09873118761158], [129.99821732265434, 33.099944712724664], [129.99848858120902, 33.101358112562366], [129.99867417916766, 33.1024859770792], [129.99883122359404, 33.103685225426204], [129.99890260742404, 33.10488447377321], [129.99895971448825, 33.105783910033665]]}, "properties": {"id": "GEOM_TOKYO_4123", "route_id": "R_04ADEAE1", "route_name": null, "route_color": "#7C4DFF", "route_text_color": null, "line_name": "西九州新幹線", "operator_id": "九州旅客鉄道", "representation": "service_path", "min_zoom": 0, "max_zoom": 24, "offset_rank": 0}}]}