{"type": "FeatureCollection", "features": [{"type": "Feature", "bbox": [140.01964, 36.93054, 140.02177, 36.93278], "geometry": {"type": "LineString", "coordinates": [[140.01964, 36.93054], [140.01977, 36.9307], [140.02, 36.93098], [140.02034, 36.93132], [140.02064, 36.93165], [140.02112, 36.93216], [140.02177, 36.93278]]}, "properties": {"id": "GEOM_TOKYO_3073", "route_id": "R_86450D72", "route_name": null, "route_color": "#2D9C5B", "route_text_color": null, "line_name": "東北新幹線", "operator_id": "jr_east", "representation": "service_path", "min_zoom": 0, "max_zoom": 24, "offset_rank": 0}}, {"type": "Feature", "bbox": [139.89857, 36.56066, 140.01076, 36.91821], "geometry": {"type": "LineString", "coordinates": [[139.89857, 36.56066], [139.89897, 36.56235], [139.89971, 36.56531], [139.89998, 36.56636], [139.9003, 36.56755], [139.90054, 36.56863], [139.90073, 36.56947], [139.90121, 36.57204], [139.90176, 36.57541], [139.90214, 36.57755], [139.90224, 36.57806], [139.90264, 36.58035], [139.90312, 36.58295], [139.90345, 36.58474], [139.90376, 36.58647], [139.90393, 36.58737], [139.904, 36.58777], [139.90409, 36.58832], [139.90429, 36.5894], [139.90435, 36.58971], [139.9044, 36.59008], [139.90442, 36.59017], [139.90452, 36.59076], [139.90463, 36.59138], [139.90465, 36.5915], [139.90493, 36.59305], [139.90501, 36.59356], [139.90503, 36.59364], [139.90511, 36.59415], [139.90517, 36.5945], [139.9053, 36.59521], [139.90534, 36.5955], [139.90537, 36.5956], [139.90551, 36.5964], [139.90558, 36.59682], [139.90567, 36.59736], [139.90573, 36.59773], [139.9059, 36.5991], [139.9059, 36.59917], [139.90595, 36.5995], [139.90604, 36.6003], [139.90614, 36.60116], [139.90616, 36.60132], [139.90624, 36.60204], [139.90635, 36.60312], [139.90637, 36.60322], [139.90641, 36.60359], [139.9065, 36.60443], [139.90655, 36.60476], [139.90661, 36.60533], [139.9067, 36.60603], [139.90671, 36.60617], [139.90689, 36.60768], [139.90692, 36.60795], [139.90694, 36.60808], [139.90694, 36.60813], [139.90701, 36.60875], [139.90703, 36.60892], [139.90708, 36.60929], [139.90713, 36.60979], [139.90719, 36.6103], [139.90725, 36.61083], [139.90734, 36.61164], [139.90736, 36.61169], [139.90736, 36.61182], [139.90753, 36.61327], [139.90754, 36.61336], [139.90761, 36.614], [139.90768, 36.6147], [139.90779, 36.61572], [139.90779, 36.61577], [139.90781, 36.61596], [139.90783, 36.61627], [139.90784, 36.61634], [139.90786, 36.61654], [139.90799, 36.61773], [139.90843, 36.62186], [139.90893, 36.62604], [139.909, 36.6267], [139.90937, 36.63014], [139.90949, 36.6311], [139.9097, 36.6327], [139.90982, 36.63364], [139.9099, 36.63419], [139.90992, 36.63442], [139.90999, 36.63486], [139.91, 36.63499], [139.91009, 36.63567], [139.91015, 36.63607], [139.91021, 36.63653], [139.91021, 36.63659], [139.91023, 36.6367], [139.91028, 36.63695], [139.91029, 36.63707], [139.91037, 36.63761], [139.91048, 36.63848], [139.91066, 36.63965], [139.91074, 36.64018], [139.91077, 36.64041], [139.91093, 36.6415], [139.91103, 36.64216], [139.91121, 36.64345], [139.91132, 36.64409], [139.91139, 36.64463], [139.91141, 36.64478], [139.91159, 36.64597], [139.91195, 36.64851], [139.91228, 36.65071], [139.91244, 36.65183], [139.91251, 36.65225], [139.91262, 36.65297], [139.91268, 36.65328], [139.91272, 36.65358], [139.91276, 36.65385], [139.91288, 36.65455], [139.91289, 36.65466], [139.91293, 36.65486], [139.91295, 36.65501], [139.91324, 36.65682], [139.91332, 36.65729], [139.91333, 36.65746], [139.91343, 36.65798], [139.9135, 36.65845], [139.9135, 36.6585], [139.91352, 36.65852], [139.91362, 36.65928], [139.91364, 36.65937], [139.91372, 36.65995], [139.91386, 36.66085], [139.91393, 36.66135], [139.91396, 36.66158], [139.91411, 36.66252], [139.91422, 36.66329], [139.9143, 36.66384], [139.91435, 36.66415], [139.9144, 36.66441], [139.91442, 36.66464], [139.91456, 36.6655], [139.91458, 36.66557], [139.91468, 36.66626], [139.91491, 36.66777], [139.91512, 36.66912], [139.91517, 36.66944], [139.91519, 36.66968], [139.91522, 36.66979], [139.91524, 36.66992], [139.91531, 36.67044], [139.91542, 36.67116], [139.9155, 36.67174], [139.91559, 36.67248], [139.91567, 36.67305], [139.91573, 36.67341], [139.91579, 36.67382], [139.91589, 36.67482], [139.9159, 36.67493], [139.91594, 36.67514], [139.91596, 36.67549], [139.91606, 36.67653], [139.91608, 36.6769], [139.91617, 36.67805], [139.91623, 36.67878], [139.91624, 36.67896], [139.91625, 36.67904], [139.91628, 36.67942], [139.91633, 36.67978], [139.91638, 36.6804], [139.91643, 36.68118], [139.91651, 36.68212], [139.91652, 36.68239], [139.91656, 36.68307], [139.91656, 36.68329], [139.91658, 36.68337], [139.91665, 36.68451], [139.91666, 36.68465], [139.91681, 36.68683], [139.91683, 36.687], [139.91686, 36.68727], [139.91688, 36.6878], [139.91693, 36.68832], [139.91693, 36.68853], [139.91701, 36.68964], [139.91706, 36.69063], [139.91709, 36.69085], [139.91713, 36.69139], [139.91715, 36.69162], [139.91719, 36.69185], [139.91727, 36.69256], [139.91734, 36.69303], [139.91737, 36.69326], [139.91749, 36.69405], [139.9176, 36.69465], [139.91767, 36.69506], [139.91782, 36.69577], [139.91797, 36.69641], [139.91807, 36.69677], [139.91817, 36.69721], [139.91828, 36.69764], [139.9183, 36.69766], [139.91842, 36.69811], [139.91846, 36.69828], [139.91848, 36.69834], [139.91867, 36.69899], [139.91893, 36.69983], [139.91906, 36.70026], [139.9191, 36.70038], [139.91949, 36.7015], [139.91966, 36.70196], [139.91979, 36.70232], [139.9203, 36.70361], [139.92048, 36.70409], [139.92053, 36.70421], [139.9207, 36.70465], [139.92083, 36.705], [139.92119, 36.70592], [139.92123, 36.70601], [139.92162, 36.70704], [139.92167, 36.70717], [139.92176, 36.70741], [139.92218, 36.70851], [139.92227, 36.70873], [139.9223, 36.7088], [139.92232, 36.70887], [139.92248, 36.70928], [139.92269, 36.70979], [139.92277, 36.71003], [139.92319, 36.71113], [139.92353, 36.71201], [139.92357, 36.71211], [139.92364, 36.71229], [139.92385, 36.71284], [139.92479, 36.71533], [139.92502, 36.71594], [139.92535, 36.71679], [139.92576, 36.71788], [139.92625, 36.71913], [139.92649, 36.71973], [139.9268, 36.72053], [139.92683, 36.72062], [139.92685, 36.72065], [139.92752, 36.72242], [139.92764, 36.72272], [139.92845, 36.72483], [139.92875, 36.7256], [139.92911, 36.72654], [139.92924, 36.72685], [139.92947, 36.72746], [139.92955, 36.72768], [139.92962, 36.72787], [139.9297, 36.72805], [139.92989, 36.72854], [139.93007, 36.72902], [139.93063, 36.73045], [139.93095, 36.73127], [139.93118, 36.73186], [139.93195, 36.73386], [139.93259, 36.73552], [139.93282, 36.73615], [139.93306, 36.73676], [139.93323, 36.7372], [139.93347, 36.73782], [139.93362, 36.73821], [139.93378, 36.73859], [139.93417, 36.73955], [139.93463, 36.74072], [139.93488, 36.7413], [139.935, 36.7416], [139.93514, 36.74197], [139.93521, 36.74211], [139.93537, 36.74245], [139.93569, 36.74317], [139.93623, 36.74437], [139.93664, 36.74536], [139.93701, 36.74615], [139.938, 36.74836], [139.93846, 36.7494], [139.9395, 36.75169], [139.93962, 36.75195], [139.94013, 36.75311], [139.94036, 36.75366], [139.94041, 36.75376], [139.94077, 36.75461], [139.94105, 36.75523], [139.94115, 36.75547], [139.94132, 36.75583], [139.94141, 36.75604], [139.94149, 36.75621], [139.94155, 36.75635], [139.94194, 36.75723], [139.94262, 36.75874], [139.94271, 36.75893], [139.94342, 36.76053], [139.9438, 36.76137], [139.94383, 36.76143], [139.94405, 36.76188], [139.94421, 36.76224], [139.94433, 36.76253], [139.94459, 36.76313], [139.94484, 36.7637], [139.94493, 36.76389], [139.94499, 36.76403], [139.94514, 36.76436], [139.94536, 36.76482], [139.94539, 36.7649], [139.94543, 36.76499], [139.94547, 36.76508], [139.94551, 36.76516], [139.9457, 36.76559], [139.9459, 36.76603], [139.94598, 36.76622], [139.9463, 36.76693], [139.94668, 36.76779], [139.9467, 36.7678], [139.94694, 36.76835], [139.94698, 36.76845], [139.94708, 36.76868], [139.94713, 36.76878], [139.94719, 36.7689], [139.94726, 36.76907], [139.9473, 36.76915], [139.94733, 36.76923], [139.94743, 36.76944], [139.9477, 36.77005], [139.94792, 36.77054], [139.94805, 36.77087], [139.94816, 36.77112], [139.94821, 36.77123], [139.94826, 36.77133], [139.94832, 36.77146], [139.94836, 36.77155], [139.9485, 36.77185], [139.94895, 36.77287], [139.94936, 36.77385], [139.94962, 36.77446], [139.95011, 36.77571], [139.95063, 36.77713], [139.95116, 36.77869], [139.95142, 36.77945], [139.95148, 36.77966], [139.95178, 36.78062], [139.95194, 36.78114], [139.95225, 36.7822], [139.9525, 36.78311], [139.95252, 36.78321], [139.95273, 36.78401], [139.95288, 36.78466], [139.95296, 36.78498], [139.95327, 36.7863], [139.95343, 36.78709], [139.95351, 36.78744], [139.95358, 36.78778], [139.95367, 36.78827], [139.95389, 36.78953], [139.95395, 36.78989], [139.95419, 36.79137], [139.95432, 36.79207], [139.95452, 36.7931], [139.95477, 36.79458], [139.9548, 36.79471], [139.95487, 36.7951], [139.95527, 36.79717], [139.95538, 36.79787], [139.95558, 36.79913], [139.95654, 36.80453], [139.95678, 36.80586], [139.95687, 36.80642], [139.95702, 36.80724], [139.9571, 36.8077], [139.9574, 36.80929], [139.9576, 36.81037], [139.95773, 36.81115], [139.95787, 36.81199], [139.95821, 36.8138], [139.95827, 36.81414], [139.95833, 36.81443], [139.95847, 36.81521], [139.95886, 36.81738], [139.95895, 36.81792], [139.95914, 36.81903], [139.95944, 36.8207], [139.95963, 36.82179], [139.9597, 36.82222], [139.95975, 36.82252], [139.95979, 36.82272], [139.95983, 36.82291], [139.96004, 36.82412], [139.9601, 36.82444], [139.96015, 36.82474], [139.96022, 36.82512], [139.96032, 36.82572], [139.96033, 36.82582], [139.96053, 36.82693], [139.96058, 36.82725], [139.9606, 36.82735], [139.96074, 36.8281], [139.9608, 36.82845], [139.961, 36.82957], [139.96107, 36.83002], [139.96121, 36.83076], [139.96143, 36.83197], [139.96149, 36.8323], [139.96154, 36.83262], [139.96165, 36.83326], [139.96174, 36.83378], [139.96179, 36.83406], [139.96184, 36.83435], [139.96186, 36.83449], [139.96193, 36.83491], [139.96198, 36.83517], [139.96203, 36.83544], [139.96207, 36.83563], [139.96212, 36.83593], [139.96216, 36.83616], [139.96221, 36.83644], [139.96248, 36.83797], [139.96309, 36.8414], [139.9633, 36.84255], [139.96374, 36.84498], [139.96392, 36.84596], [139.9644, 36.84835], [139.96456, 36.84914], [139.9649, 36.85058], [139.96519, 36.85165], [139.96583, 36.85344], [139.96635, 36.85471], [139.96742, 36.857], [139.9675, 36.85717], [139.9679, 36.8578], [139.96878, 36.85925], [139.96942, 36.86039], [139.9704, 36.86188], [139.9715, 36.86341], [139.9726, 36.86497], [139.97342, 36.86614], [139.97495, 36.8683], [139.97732, 36.87158], [139.97816, 36.87276], [139.97973, 36.87496], [139.98187, 36.87797], [139.98372, 36.88056], [139.98443, 36.88156], [139.98686, 36.88498], [139.98926, 36.88837], [139.98964, 36.88889], [139.99209, 36.89239], [139.99395, 36.89492], [139.99484, 36.89616], [139.99582, 36.89754], [139.9967, 36.89876], [139.9968, 36.89892], [139.99713, 36.8994], [139.99787, 36.90042], [139.9979, 36.90044], [139.99794, 36.90051], [139.99823, 36.90091], [139.99825, 36.90094], [139.99857, 36.90139], [139.99886, 36.90179], [139.99891, 36.90187], [139.99897, 36.90195], [140.00029, 36.90378], [140.00034, 36.90384], [140.001, 36.90475], [140.00125, 36.9051], [140.00221, 36.90642], [140.0033, 36.90792], [140.00338, 36.90804], [140.00343, 36.90811], [140.00378, 36.90859], [140.00381, 36.90862], [140.00427, 36.90927], [140.00439, 36.90943], [140.00495, 36.91021], [140.00521, 36.91057], [140.00544, 36.91087], [140.00545, 36.91089], [140.00554, 36.91101], [140.00575, 36.91131], [140.00577, 36.91134], [140.0058, 36.91138], [140.00592, 36.91155], [140.0065, 36.91235], [140.0066, 36.91248], [140.00686, 36.91283], [140.00687, 36.91285], [140.00729, 36.91344], [140.00755, 36.91378], [140.00758, 36.91384], [140.00778, 36.91411], [140.00794, 36.91433], [140.00886, 36.9156], [140.00903, 36.91584], [140.00911, 36.91594], [140.00919, 36.91605], [140.00925, 36.91612], [140.0097, 36.91675], [140.01005, 36.91723], [140.01052, 36.91788], [140.01072, 36.91815], [140.01076, 36.91821]]}, "properties": {"id": "GEOM_TOKYO_3074", "route_id": "R_86450D72", "route_name": null, "route_color": "#2D9C5B", "route_text_color": null, "line_name": "東北新幹線", "operator_id": "jr_east", "representation": "service_path", "min_zoom": 0, "max_zoom": 24, "offset_rank": 0}}, {"type": "Feature", "bbox": [140.01076, 36.91821, 140.01964, 36.93054], "geometry": {"type": "LineString", "coordinates": [[140.01076, 36.91821], [140.01096, 36.91848], [140.01156, 36.9193], [140.01172, 36.91953], [140.01191, 36.91976], [140.01399, 36.92268], [140.01494, 36.92401], [140.01663, 36.92641], [140.01825, 36.92866], [140.01905, 36.92978], [140.01958, 36.93047], [140.01964, 36.93054]]}, "properties": {"id": "GEOM_TOKYO_3075", "route_id": "R_86450D72", "route_name": null, "route_color": "#2D9C5B", "route_text_color": null, "line_name": "東北新幹線", "operator_id": "jr_east", "representation": "service_path", "min_zoom": 0, "max_zoom": 24, "offset_rank": 0}}, {"type": "Feature", "bbox": [140.02177, 36.93278, 140.18778, 37.12221], "geometry": {"type": "LineString", "coordinates": [[140.02177, 36.93278], [140.02184, 36.93284], [140.02459, 36.93534], [140.02491, 36.93562], [140.02558, 36.93622], [140.02657, 36.93712], [140.02909, 36.93942], [140.03101, 36.94118], [140.03174, 36.94186], [140.03471, 36.94464], [140.03695, 36.94671], [140.03766, 36.94736], [140.0394, 36.94895], [140.04189, 36.95122], [140.04498, 36.95412], [140.04615, 36.95516], [140.04877, 36.9576], [140.05057, 36.95959], [140.05283, 36.9622], [140.05414, 36.9637], [140.05713, 36.96707], [140.05926, 36.96955], [140.06071, 36.97124], [140.06476, 36.97593], [140.06563, 36.97692], [140.06968, 36.98158], [140.07137, 36.98354], [140.07206, 36.98432], [140.07233, 36.98467], [140.07288, 36.98532], [140.07382, 36.98639], [140.07532, 36.98812], [140.07576, 36.98864], [140.07596, 36.98886], [140.07784, 36.99101], [140.08104, 36.99489], [140.08278, 36.99707], [140.08303, 36.99736], [140.084, 36.99858], [140.0851, 36.99999], [140.08616, 37.00137], [140.08636, 37.00167], [140.08747, 37.00309], [140.08798, 37.00375], [140.08853, 37.00449], [140.08913, 37.00529], [140.08954, 37.00587], [140.09003, 37.00653], [140.09069, 37.00742], [140.09137, 37.00836], [140.09255, 37.00996], [140.0936, 37.0114], [140.09617, 37.01495], [140.09941, 37.01942], [140.10175, 37.02267], [140.10179, 37.02272], [140.10362, 37.02524], [140.10745, 37.03047], [140.10908, 37.03273], [140.11116, 37.03554], [140.11347, 37.03874], [140.11473, 37.04048], [140.11565, 37.04177], [140.1194, 37.04682], [140.12043, 37.04821], [140.12143, 37.04954], [140.12168, 37.04991], [140.12448, 37.05383], [140.1247, 37.05408], [140.12579, 37.05546], [140.12661, 37.05645], [140.12732, 37.05735], [140.12921, 37.05959], [140.13019, 37.06065], [140.13149, 37.06203], [140.13311, 37.06376], [140.13984, 37.07092], [140.14152, 37.07272], [140.14347, 37.07486], [140.14405, 37.07552], [140.1465, 37.07813], [140.15324, 37.08529], [140.15329, 37.08535], [140.1536, 37.08567], [140.1543, 37.08641], [140.15458, 37.08672], [140.15574, 37.08798], [140.15581, 37.08805], [140.15723, 37.08957], [140.15786, 37.09025], [140.16156, 37.09421], [140.1663, 37.09929], [140.16994, 37.10319], [140.17039, 37.10365], [140.17155, 37.10489], [140.17157, 37.10491], [140.17179, 37.10513], [140.17588, 37.1095], [140.17663, 37.11029], [140.17761, 37.11135], [140.17778, 37.11155], [140.17849, 37.11231], [140.17864, 37.11248], [140.17874, 37.11259], [140.17879, 37.11265], [140.181, 37.11494], [140.18105, 37.115], [140.18126, 37.11522], [140.1816, 37.11559], [140.18411, 37.11827], [140.18772, 37.12215], [140.18778, 37.12221]]}, "properties": {"id": "GEOM_TOKYO_3076", "route_id": "R_86450D72", "route_name": null, "route_color": "#2D9C5B", "route_text_color": null, "line_name": "東北新幹線", "operator_id": "jr_east", "representation": "service_path", "min_zoom": 0, "max_zoom": 24, "offset_rank": 0}}, {"type": "Feature", "bbox": [140.08708, 36.99573, 140.08762, 36.99729], "geometry": {"type": "LineString", "coordinates": [[140.08762, 36.99729], [140.08708, 36.99573]]}, "properties": {"id": "GEOM_TOKYO_3305", "route_id": "R_20E64CE3", "route_name": null, "route_color": "#3AA76D", "route_text_color": null, "line_name": "東北線", "operator_id": "jr_east", "representation": "service_path", "min_zoom": 0, "max_zoom": 24, "offset_rank": 0}}, {"type": "Feature", "bbox": [139.9501, 36.7196, 139.95071, 36.72189], "geometry": {"type": "LineString", "coordinates": [[139.95071, 36.7196], [139.95068, 36.71972], [139.9505, 36.72036], [139.9504, 36.72078], [139.95024, 36.72138], [139.9501, 36.72189]]}, "properties": {"id": "GEOM_TOKYO_3306", "route_id": "R_20E64CE3", "route_name": null, "route_color": "#3AA76D", "route_text_color": null, "line_name": "東北線", "operator_id": "jr_east", "representation": "service_path", "min_zoom": 0, "max_zoom": 24, "offset_rank": 0}}, {"type": "Feature", "bbox": [139.92839, 36.75564, 139.9449, 36.80561], "geometry": {"type": "LineString", "coordinates": [[139.9449, 36.75564], [139.94481, 36.75576], [139.94473, 36.75589], [139.94465, 36.75602], [139.94456, 36.75613], [139.94447, 36.75627], [139.94443, 36.75634], [139.94416, 36.75673], [139.94364, 36.75753], [139.9429, 36.75864], [139.94289, 36.75866], [139.94251, 36.7592], [139.94236, 36.75943], [139.94227, 36.7596], [139.94155, 36.76066], [139.94131, 36.76102], [139.94057, 36.76213], [139.94041, 36.76238], [139.94022, 36.76266], [139.939, 36.76446], [139.93833, 36.76549], [139.93758, 36.76658], [139.93742, 36.76682], [139.93677, 36.76779], [139.93631, 36.76847], [139.93568, 36.76939], [139.93535, 36.76993], [139.93523, 36.77011], [139.9349, 36.7706], [139.93481, 36.77074], [139.93459, 36.771], [139.93436, 36.7713], [139.93408, 36.77163], [139.93375, 36.77203], [139.93254, 36.77342], [139.93192, 36.77415], [139.9313, 36.77487], [139.9304, 36.776], [139.93011, 36.77641], [139.92979, 36.77694], [139.92955, 36.77733], [139.92935, 36.77773], [139.92925, 36.77793], [139.929, 36.77862], [139.92875, 36.77944], [139.92858, 36.78024], [139.92849, 36.7808], [139.92844, 36.78115], [139.92839, 36.78191], [139.92843, 36.78267], [139.92849, 36.78347], [139.92861, 36.78463], [139.92885, 36.78654], [139.92886, 36.78664], [139.92896, 36.78728], [139.92904, 36.78785], [139.92905, 36.78797], [139.92907, 36.78813], [139.92926, 36.78939], [139.92945, 36.79057], [139.92959, 36.79148], [139.92975, 36.79248], [139.9298, 36.79285], [139.92994, 36.79373], [139.93001, 36.79415], [139.93002, 36.79425], [139.93003, 36.79428], [139.93026, 36.79577], [139.93034, 36.79625], [139.93037, 36.79648], [139.93042, 36.7968], [139.93043, 36.79683], [139.93052, 36.79748], [139.93053, 36.79751], [139.9306, 36.79799], [139.93086, 36.7996], [139.93088, 36.79979], [139.93091, 36.8], [139.93093, 36.8001], [139.93108, 36.80096], [139.93117, 36.80142], [139.93129, 36.80188], [139.93152, 36.80263], [139.9325, 36.8053], [139.93256, 36.80546], [139.93261, 36.80561]]}, "properties": {"id": "GEOM_TOKYO_3308", "route_id": "R_20E64CE3", "route_name": null, "route_color": "#3AA76D", "route_text_color": null, "line_name": "東北線", "operator_id": "jr_east", "representation": "service_path", "min_zoom": 0, "max_zoom": 24, "offset_rank": 0}}, {"type": "Feature", "bbox": [139.9449, 36.75372, 139.94618, 36.75564], "geometry": {"type": "LineString", "coordinates": [[139.94618, 36.75372], [139.9449, 36.75564]]}, "properties": {"id": "GEOM_TOKYO_3309", "route_id": "R_20E64CE3", "route_name": null, "route_color": "#3AA76D", "route_text_color": null, "line_name": "東北線", "operator_id": "jr_east", "representation": "service_path", "min_zoom": 0, "max_zoom": 24, "offset_rank": 0}}, {"type": "Feature", "bbox": [140.1195, 37.023, 140.12208, 37.02388], "geometry": {"type": "LineString", "coordinates": [[140.1195, 37.023], [140.12168, 37.02376], [140.12208, 37.02388]]}, "properties": {"id": "GEOM_TOKYO_3310", "route_id": "R_20E64CE3", "route_name": null, "route_color": "#3AA76D", "route_text_color": null, "line_name": "東北線", "operator_id": "jr_east", "representation": "service_path", "min_zoom": 0, "max_zoom": 24, "offset_rank": 0}}, {"type": "Feature", "bbox": [139.94196, 36.81934, 139.94719, 36.82427], "geometry": {"type": "LineString", "coordinates": [[139.94196, 36.81934], [139.9429, 36.81977], [139.94301, 36.81982], [139.94338, 36.82001], [139.94356, 36.82012], [139.94373, 36.82021], [139.94436, 36.82058], [139.94469, 36.82078], [139.94521, 36.82119], [139.94566, 36.82153], [139.94605, 36.82192], [139.94629, 36.82228], [139.94694, 36.82329], [139.94712, 36.82376], [139.94719, 36.82427]]}, "properties": {"id": "GEOM_TOKYO_3311", "route_id": "R_20E64CE3", "route_name": null, "route_color": "#3AA76D", "route_text_color": null, "line_name": "東北線", "operator_id": "jr_east", "representation": "service_path", "min_zoom": 0, "max_zoom": 24, "offset_rank": 0}}, {"type": "Feature", "bbox": [139.94618, 36.72189, 139.95243, 36.75372], "geometry": {"type": "LineString", "coordinates": [[139.94618, 36.75372], [139.94632, 36.75352], [139.94642, 36.75337], [139.94657, 36.75315], [139.9466, 36.75311], [139.94663, 36.75306], [139.94676, 36.75287], [139.94684, 36.75276], [139.94735, 36.75199], [139.94763, 36.75155], [139.94824, 36.75065], [139.94893, 36.74962], [139.94963, 36.74858], [139.95032, 36.74754], [139.9509, 36.74669], [139.95122, 36.7462], [139.95149, 36.74573], [139.95158, 36.74554], [139.95163, 36.74545], [139.95175, 36.74514], [139.9519, 36.74478], [139.95205, 36.74432], [139.95218, 36.74386], [139.95234, 36.74305], [139.95239, 36.74269], [139.95243, 36.74245], [139.95243, 36.74179], [139.95242, 36.74166], [139.95241, 36.74134], [139.95239, 36.74117], [139.95232, 36.74078], [139.95221, 36.74025], [139.95209, 36.73958], [139.95199, 36.73911], [139.95187, 36.73852], [139.95172, 36.73793], [139.95159, 36.73726], [139.95152, 36.73691], [139.9514, 36.73634], [139.95136, 36.73611], [139.95126, 36.73545], [139.95113, 36.73462], [139.95098, 36.73375], [139.95091, 36.73337], [139.95085, 36.73313], [139.95076, 36.7327], [139.95064, 36.73231], [139.95052, 36.73186], [139.95046, 36.73157], [139.95036, 36.73106], [139.95028, 36.7306], [139.95027, 36.73054], [139.95004, 36.72939], [139.94996, 36.72896], [139.94977, 36.72785], [139.94965, 36.72718], [139.94961, 36.72701], [139.9496, 36.72693], [139.94954, 36.72657], [139.94952, 36.72648], [139.9495, 36.72637], [139.94947, 36.72617], [139.94944, 36.72593], [139.94942, 36.72571], [139.9494, 36.72533], [139.94942, 36.725], [139.94947, 36.72461], [139.94951, 36.72438], [139.94965, 36.72379], [139.9498, 36.72323], [139.94983, 36.72306], [139.94986, 36.72295], [139.9499, 36.72281], [139.94994, 36.7226], [139.94998, 36.72242], [139.95, 36.72232], [139.9501, 36.72193], [139.9501, 36.72189]]}, "properties": {"id": "GEOM_TOKYO_3312", "route_id": "R_20E64CE3", "route_name": null, "route_color": "#3AA76D", "route_text_color": null, "line_name": "東北線", "operator_id": "jr_east", "representation": "service_path", "min_zoom": 0, "max_zoom": 24, "offset_rank": 0}}, {"type": "Feature", "bbox": [140.02193, 36.93247, 140.05933, 36.96915], "geometry": {"type": "LineString", "coordinates": [[140.05933, 36.96915], [140.05902, 36.96881], [140.05798, 36.96762], [140.05746, 36.96701], [140.0568, 36.96626], [140.05493, 36.96414], [140.05374, 36.96283], [140.05198, 36.9608], [140.051, 36.95968], [140.05074, 36.95938], [140.04892, 36.95737], [140.04638, 36.95503], [140.04392, 36.95276], [140.04361, 36.95247], [140.0407, 36.94979], [140.03755, 36.94692], [140.03658, 36.94601], [140.03453, 36.94408], [140.03166, 36.94142], [140.02929, 36.93921], [140.02851, 36.93848], [140.02568, 36.9359], [140.02472, 36.93498], [140.02302, 36.93345], [140.02193, 36.93247]]}, "properties": {"id": "GEOM_TOKYO_3313", "route_id": "R_20E64CE3", "route_name": null, "route_color": "#3AA76D", "route_text_color": null, "line_name": "東北線", "operator_id": "jr_east", "representation": "service_path", "min_zoom": 0, "max_zoom": 24, "offset_rank": 0}}, {"type": "Feature", "bbox": [140.05933, 36.96915, 140.06097, 36.97109], "geometry": {"type": "LineString", "coordinates": [[140.06097, 36.97109], [140.05933, 36.96915]]}, "properties": {"id": "GEOM_TOKYO_3316", "route_id": "R_20E64CE3", "route_name": null, "route_color": "#3AA76D", "route_text_color": null, "line_name": "東北線", "operator_id": "jr_east", "representation": "service_path", "min_zoom": 0, "max_zoom": 24, "offset_rank": 0}}, {"type": "Feature", "bbox": [140.06097, 36.97109, 140.08708, 36.99573], "geometry": {"type": "LineString", "coordinates": [[140.08708, 36.99573], [140.08614, 36.99331], [140.08601, 36.99298], [140.08583, 36.99262], [140.0857, 36.99236], [140.08546, 36.99203], [140.08533, 36.99187], [140.08516, 36.99169], [140.0848, 36.99135], [140.08461, 36.99118], [140.08417, 36.99084], [140.08326, 36.99035], [140.08227, 36.98981], [140.08162, 36.98949], [140.08129, 36.98933], [140.08107, 36.98924], [140.08088, 36.98917], [140.08053, 36.98904], [140.08013, 36.98892], [140.07972, 36.9888], [140.07835, 36.98848], [140.07792, 36.98834], [140.07757, 36.9882], [140.07716, 36.98797], [140.07684, 36.98776], [140.07637, 36.98746], [140.07606, 36.98722], [140.07529, 36.98661], [140.07385, 36.98534], [140.07265, 36.98433], [140.07208, 36.98379], [140.07175, 36.98344], [140.07117, 36.98282], [140.06958, 36.98099], [140.06935, 36.98071], [140.06848, 36.97969], [140.06627, 36.97718], [140.06591, 36.97677], [140.06551, 36.9763], [140.06437, 36.97502], [140.06246, 36.9728], [140.06097, 36.97109]]}, "properties": {"id": "GEOM_TOKYO_3318", "route_id": "R_20E64CE3", "route_name": null, "route_color": "#3AA76D", "route_text_color": null, "line_name": "東北線", "operator_id": "jr_east", "representation": "service_path", "min_zoom": 0, "max_zoom": 24, "offset_rank": 0}}, {"type": "Feature", "bbox": [139.95883, 36.84477, 139.98563, 36.88267], "geometry": {"type": "LineString", "coordinates": [[139.98563, 36.88267], [139.98485, 36.88159], [139.98461, 36.88125], [139.98259, 36.87843], [139.98071, 36.87581], [139.97928, 36.87379], [139.97816, 36.87222], [139.97565, 36.86866], [139.97373, 36.86599], [139.97302, 36.86499], [139.97123, 36.86246], [139.9706, 36.86155], [139.96998, 36.86066], [139.96821, 36.85817], [139.96674, 36.85609], [139.96511, 36.85381], [139.96351, 36.85149], [139.96272, 36.85034], [139.96208, 36.8494], [139.96056, 36.84724], [139.95975, 36.84606], [139.95939, 36.84556], [139.95916, 36.84522], [139.95883, 36.84477]]}, "properties": {"id": "GEOM_TOKYO_3319", "route_id": "R_20E64CE3", "route_name": null, "route_color": "#3AA76D", "route_text_color": null, "line_name": "東北線", "operator_id": "jr_east", "representation": "service_path", "min_zoom": 0, "max_zoom": 24, "offset_rank": 0}}, {"type": "Feature", "bbox": [139.95071, 36.68281, 139.96171, 36.7196], "geometry": {"type": "LineString", "coordinates": [[139.96171, 36.68281], [139.96157, 36.68315], [139.96124, 36.68408], [139.96096, 36.68482], [139.96073, 36.68548], [139.96031, 36.68664], [139.95996, 36.68749], [139.95973, 36.68798], [139.95969, 36.68806], [139.95937, 36.68885], [139.95918, 36.68928], [139.95901, 36.68968], [139.9588, 36.69019], [139.95875, 36.69029], [139.95857, 36.69071], [139.9584, 36.6911], [139.95815, 36.69168], [139.95761, 36.69295], [139.95747, 36.69327], [139.95741, 36.6934], [139.95734, 36.69361], [139.9573, 36.69373], [139.95704, 36.69474], [139.95689, 36.69539], [139.95682, 36.6956], [139.95673, 36.69602], [139.9566, 36.69651], [139.95619, 36.69812], [139.95586, 36.69943], [139.95569, 36.7001], [139.95563, 36.70033], [139.9556, 36.70045], [139.95557, 36.70052], [139.95513, 36.7023], [139.95503, 36.7027], [139.9548, 36.70361], [139.95475, 36.70379], [139.9546, 36.70439], [139.95448, 36.70487], [139.95444, 36.70502], [139.95419, 36.70599], [139.954, 36.70677], [139.95377, 36.70761], [139.95361, 36.70826], [139.95352, 36.70861], [139.95332, 36.7094], [139.95327, 36.70959], [139.95322, 36.70977], [139.95319, 36.7099], [139.95313, 36.71012], [139.95296, 36.71084], [139.95293, 36.71093], [139.9529, 36.71105], [139.95282, 36.71137], [139.9526, 36.71224], [139.95237, 36.71313], [139.95232, 36.71331], [139.95228, 36.71349], [139.95226, 36.71357], [139.95221, 36.71375], [139.9521, 36.71421], [139.952, 36.71452], [139.95189, 36.715], [139.95188, 36.71504], [139.95165, 36.71592], [139.95157, 36.71623], [139.95136, 36.71708], [139.95128, 36.71737], [139.95124, 36.71754], [139.95118, 36.71777], [139.95111, 36.71802], [139.95107, 36.71822], [139.951, 36.7185], [139.95096, 36.71869], [139.95087, 36.71899], [139.95071, 36.7196]]}, "properties": {"id": "GEOM_TOKYO_3322", "route_id": "R_20E64CE3", "route_name": null, "route_color": "#3AA76D", "route_text_color": null, "line_name": "東北線", "operator_id": "jr_east", "representation": "service_path", "min_zoom": 0, "max_zoom": 24, "offset_rank": 0}}, {"type": "Feature", "bbox": [139.95738, 36.84285, 139.95883, 36.84477], "geometry": {"type": "LineString", "coordinates": [[139.95883, 36.84477], [139.95738, 36.84285]]}, "properties": {"id": "GEOM_TOKYO_3324", "route_id": "R_20E64CE3", "route_name": null, "route_color": "#3AA76D", "route_text_color": null, "line_name": "東北線", "operator_id": "jr_east", "representation": "service_path", "min_zoom": 0, "max_zoom": 24, "offset_rank": 0}}, {"type": "Feature", "bbox": [139.94196, 36.81934, 139.94719, 36.82427], "geometry": {"type": "LineString", "coordinates": [[139.94196, 36.81934], [139.94215, 36.81948], [139.94235, 36.81962], [139.94243, 36.81968], [139.94252, 36.81974], [139.9426, 36.81979], [139.94271, 36.81987], [139.94296, 36.82005], [139.94408, 36.82084], [139.94473, 36.82131], [139.94542, 36.82177], [139.94597, 36.82228], [139.94644, 36.82289], [139.94659, 36.8231], [139.94669, 36.82323], [139.94704, 36.82389], [139.94719, 36.82427]]}, "properties": {"id": "GEOM_TOKYO_3325", "route_id": "R_20E64CE3", "route_name": null, "route_color": "#3AA76D", "route_text_color": null, "line_name": "東北線", "operator_id": "jr_east", "representation": "service_path", "min_zoom": 0, "max_zoom": 24, "offset_rank": 0}}, {"type": "Feature", "bbox": [139.98563, 36.88267, 139.98715, 36.88481], "geometry": {"type": "LineString", "coordinates": [[139.98715, 36.88481], [139.98655, 36.88395], [139.98563, 36.88267]]}, "properties": {"id": "GEOM_TOKYO_3327", "route_id": "R_20E64CE3", "route_name": null, "route_color": "#3AA76D", "route_text_color": null, "line_name": "東北線", "operator_id": "jr_east", "representation": "service_path", "min_zoom": 0, "max_zoom": 24, "offset_rank": 0}}, {"type": "Feature", "bbox": [140.12208, 37.02388, 140.15466, 37.05429], "geometry": {"type": "LineString", "coordinates": [[140.12208, 37.02388], [140.12446, 37.02464], [140.12665, 37.02538], [140.12741, 37.0257], [140.13015, 37.02711], [140.13169, 37.02792], [140.132, 37.02808], [140.1336, 37.02892], [140.13439, 37.02933], [140.13559, 37.02997], [140.13591, 37.03018], [140.13623, 37.03041], [140.13644, 37.03061], [140.13655, 37.03073], [140.13666, 37.03086], [140.13708, 37.0314], [140.1372, 37.03155], [140.13766, 37.03213], [140.13848, 37.03322], [140.13904, 37.0339], [140.13919, 37.03412], [140.13953, 37.03451], [140.14002, 37.03495], [140.14046, 37.03528], [140.14075, 37.03545], [140.14127, 37.03569], [140.14183, 37.03592], [140.14301, 37.0364], [140.14423, 37.03684], [140.14462, 37.03699], [140.14537, 37.03726], [140.14654, 37.03772], [140.14692, 37.03787], [140.14699, 37.03791], [140.14732, 37.03806], [140.14757, 37.0382], [140.14798, 37.03847], [140.14843, 37.03878], [140.14874, 37.03901], [140.14902, 37.0393], [140.14918, 37.03947], [140.14931, 37.03962], [140.14983, 37.04027], [140.15055, 37.04137], [140.15097, 37.04215], [140.15119, 37.04269], [140.15178, 37.0454], [140.15204, 37.04658], [140.15235, 37.048], [140.15236, 37.04804], [140.15247, 37.0486], [140.15258, 37.0491], [140.15262, 37.04926], [140.15273, 37.04973], [140.15293, 37.05038], [140.15306, 37.05075], [140.15318, 37.05112], [140.15323, 37.05124], [140.15341, 37.0517], [140.15419, 37.05337], [140.15436, 37.05374], [140.15451, 37.05401], [140.15466, 37.05429]]}, "properties": {"id": "GEOM_TOKYO_3329", "route_id": "R_20E64CE3", "route_name": null, "route_color": "#3AA76D", "route_text_color": null, "line_name": "東北線", "operator_id": "jr_east", "representation": "service_path", "min_zoom": 0, "max_zoom": 24, "offset_rank": 0}}, {"type": "Feature", "bbox": [139.93334, 36.80763, 139.94196, 36.81934], "geometry": {"type": "LineString", "coordinates": [[139.93334, 36.80763], [139.93347, 36.80802], [139.93367, 36.80855], [139.93396, 36.80938], [139.9341, 36.80977], [139.93416, 36.80989], [139.93422, 36.81009], [139.93425, 36.81017], [139.93446, 36.81074], [139.93467, 36.81134], [139.93483, 36.81178], [139.93503, 36.81226], [139.93509, 36.81239], [139.93518, 36.81258], [139.93535, 36.81294], [139.93554, 36.81329], [139.93567, 36.81352], [139.93588, 36.81387], [139.93596, 36.81398], [139.93605, 36.81412], [139.93647, 36.81465], [139.93703, 36.81524], [139.9376, 36.81577], [139.93913, 36.81703], [139.94123, 36.81878], [139.94174, 36.81919], [139.94196, 36.81934]]}, "properties": {"id": "GEOM_TOKYO_3331", "route_id": "R_20E64CE3", "route_name": null, "route_color": "#3AA76D", "route_text_color": null, "line_name": "東北線", "operator_id": "jr_east", "representation": "service_path", "min_zoom": 0, "max_zoom": 24, "offset_rank": 0}}, {"type": "Feature", "bbox": [139.93261, 36.80561, 139.93334, 36.80763], "geometry": {"type": "LineString", "coordinates": [[139.93261, 36.80561], [139.93334, 36.80763]]}, "properties": {"id": "GEOM_TOKYO_3332", "route_id": "R_20E64CE3", "route_name": null, "route_color": "#3AA76D", "route_text_color": null, "line_name": "東北線", "operator_id": "jr_east", "representation": "service_path", "min_zoom": 0, "max_zoom": 24, "offset_rank": 0}}, {"type": "Feature", "bbox": [140.02019, 36.93062, 140.02193, 36.93247], "geometry": {"type": "LineString", "coordinates": [[140.02193, 36.93247], [140.02019, 36.93062]]}, "properties": {"id": "GEOM_TOKYO_3334", "route_id": "R_20E64CE3", "route_name": null, "route_color": "#3AA76D", "route_text_color": null, "line_name": "東北線", "operator_id": "jr_east", "representation": "service_path", "min_zoom": 0, "max_zoom": 24, "offset_rank": 0}}, {"type": "Feature", "bbox": [139.98715, 36.88481, 140.02019, 36.93062], "geometry": {"type": "LineString", "coordinates": [[140.02019, 36.93062], [140.01958, 36.92984], [140.01727, 36.92678], [140.01511, 36.92384], [140.0149, 36.92354], [140.01334, 36.92131], [140.01223, 36.91976], [140.01214, 36.91969], [140.01207, 36.91959], [140.01185, 36.91928], [140.01153, 36.91883], [140.01128, 36.9185], [140.01069, 36.91768], [140.00955, 36.91612], [140.00941, 36.91591], [140.00867, 36.91489], [140.00844, 36.91458], [140.00836, 36.91448], [140.00804, 36.91403], [140.00772, 36.91358], [140.00769, 36.91355], [140.00757, 36.91338], [140.00739, 36.91313], [140.00703, 36.91264], [140.0068, 36.9123], [140.00665, 36.91211], [140.00658, 36.91201], [140.00657, 36.91199], [140.00625, 36.91156], [140.00603, 36.91126], [140.00556, 36.91062], [140.00549, 36.91051], [140.00547, 36.91048], [140.00488, 36.90967], [140.00447, 36.9091], [140.00409, 36.90858], [140.00342, 36.90765], [140.00236, 36.9062], [140.00121, 36.9046], [139.99984, 36.90271], [139.99957, 36.90235], [139.99937, 36.90206], [139.99895, 36.90149], [139.9967, 36.89832], [139.99596, 36.89728], [139.99426, 36.89489], [139.99399, 36.8945], [139.99315, 36.89332], [139.99266, 36.89264], [139.99205, 36.89179], [139.99154, 36.89106], [139.99059, 36.88974], [139.98965, 36.88841], [139.98913, 36.88768], [139.9883, 36.88648], [139.98715, 36.88481]]}, "properties": {"id": "GEOM_TOKYO_3335", "route_id": "R_20E64CE3", "route_name": null, "route_color": "#3AA76D", "route_text_color": null, "line_name": "東北線", "operator_id": "jr_east", "representation": "service_path", "min_zoom": 0, "max_zoom": 24, "offset_rank": 0}}, {"type": "Feature", "bbox": [139.94719, 36.82427, 139.95738, 36.84285], "geometry": {"type": "LineString", "coordinates": [[139.95738, 36.84285], [139.95696, 36.84233], [139.95568, 36.84092], [139.95431, 36.83942], [139.9537, 36.83876], [139.95288, 36.83788], [139.95196, 36.8368], [139.95164, 36.83644], [139.95151, 36.8363], [139.95047, 36.83511], [139.95006, 36.83464], [139.94991, 36.83446], [139.94916, 36.83353], [139.94901, 36.83336], [139.94874, 36.83302], [139.94865, 36.8329], [139.9483, 36.83246], [139.94792, 36.83196], [139.94781, 36.83179], [139.94772, 36.8316], [139.9476, 36.8313], [139.94748, 36.83095], [139.94744, 36.83072], [139.94737, 36.83022], [139.94731, 36.8285], [139.94726, 36.8268], [139.94725, 36.82623], [139.94719, 36.82427]]}, "properties": {"id": "GEOM_TOKYO_3338", "route_id": "R_20E64CE3", "route_name": null, "route_color": "#3AA76D", "route_text_color": null, "line_name": "東北線", "operator_id": "jr_east", "representation": "service_path", "min_zoom": 0, "max_zoom": 24, "offset_rank": 0}}, {"type": "Feature", "bbox": [140.08762, 36.99729, 140.1195, 37.023], "geometry": {"type": "LineString", "coordinates": [[140.08762, 36.99729], [140.0878, 36.99785], [140.08792, 36.99838], [140.08804, 36.99879], [140.08811, 36.99919], [140.08837, 37.00046], [140.08861, 37.00138], [140.08886, 37.00196], [140.08922, 37.00248], [140.08965, 37.00309], [140.09006, 37.00365], [140.09035, 37.00405], [140.09092, 37.0048], [140.09141, 37.00546], [140.09183, 37.006], [140.0923, 37.00657], [140.09293, 37.00725], [140.09347, 37.0078], [140.0938, 37.00813], [140.09489, 37.00913], [140.0956, 37.00978], [140.09658, 37.01068], [140.09701, 37.01109], [140.09757, 37.01156], [140.09806, 37.01196], [140.09867, 37.0124], [140.09928, 37.01278], [140.10135, 37.01391], [140.10146, 37.01398], [140.10316, 37.01489], [140.10596, 37.01642], [140.10765, 37.01736], [140.11068, 37.01898], [140.11168, 37.01954], [140.11186, 37.01964], [140.11219, 37.01982], [140.11327, 37.02043], [140.11384, 37.02073], [140.1145, 37.02108], [140.11517, 37.02141], [140.11577, 37.02169], [140.11619, 37.02187], [140.11673, 37.02206], [140.1195, 37.023]]}, "properties": {"id": "GEOM_TOKYO_3339", "route_id": "R_20E64CE3", "route_name": null, "route_color": "#3AA76D", "route_text_color": null, "line_name": "東北線", "operator_id": "jr_east", "representation": "service_path", "min_zoom": 0, "max_zoom": 24, "offset_rank": 0}}, {"type": "Feature", "bbox": [139.69115, 36.7259, 139.69181, 36.72615], "geometry": {"type": "LineString", "coordinates": [[139.69115, 36.72615], [139.69181, 36.7259]]}, "properties": {"id": "GEOM_TOKYO_3697", "route_id": "R_B0A7F334", "route_name": "鬼怒川線", "route_color": "#1F78FF", "route_text_color": "#ffffff", "line_name": "鬼怒川線", "operator_id": "tobu", "representation": "service_path", "min_zoom": 0, "max_zoom": 24, "offset_rank": 0}}, {"type": "Feature", "bbox": [139.71041, 36.77944, 139.71101, 36.7801], "geometry": {"type": "LineString", "coordinates": [[139.71101, 36.77944], [139.71041, 36.7801]]}, "properties": {"id": "GEOM_TOKYO_3698", "route_id": "R_B0A7F334", "route_name": "鬼怒川線", "route_color": "#1F78FF", "route_text_color": "#ffffff", "line_name": "鬼怒川線", "operator_id": "tobu", "representation": "service_path", "min_zoom": 0, "max_zoom": 24, "offset_rank": 0}}, {"type": "Feature", "bbox": [139.69238, 36.73256, 139.71331, 36.76042], "geometry": {"type": "LineString", "coordinates": [[139.71331, 36.76042], [139.71325, 36.76031], [139.71323, 36.76029], [139.71321, 36.76026], [139.71319, 36.7602], [139.71312, 36.76013], [139.71302, 36.75992], [139.71297, 36.75971], [139.71288, 36.75938], [139.7128, 36.75896], [139.71258, 36.7581], [139.71227, 36.75686], [139.71225, 36.75679], [139.71208, 36.7561], [139.71176, 36.75484], [139.71175, 36.75474], [139.71174, 36.75472], [139.71157, 36.75404], [139.71148, 36.75372], [139.71134, 36.75311], [139.71106, 36.75208], [139.71098, 36.75179], [139.71048, 36.7498], [139.71019, 36.74867], [139.71015, 36.74852], [139.7099, 36.74759], [139.70989, 36.74755], [139.70989, 36.74753], [139.70952, 36.74615], [139.70951, 36.74608], [139.70915, 36.74476], [139.70906, 36.74439], [139.70903, 36.74429], [139.70891, 36.74386], [139.70862, 36.74274], [139.70847, 36.74225], [139.70822, 36.74169], [139.70808, 36.74145], [139.70805, 36.74141], [139.70783, 36.74109], [139.70769, 36.74093], [139.70764, 36.74087], [139.70744, 36.74068], [139.707, 36.74033], [139.70666, 36.74011], [139.70653, 36.74002], [139.7057, 36.73959], [139.70563, 36.73955], [139.70526, 36.73937], [139.70467, 36.73907], [139.70436, 36.7389], [139.7033, 36.73835], [139.70275, 36.73806], [139.70268, 36.73803], [139.70224, 36.7378], [139.70184, 36.7376], [139.70118, 36.73724], [139.70024, 36.73674], [139.69973, 36.73647], [139.69891, 36.73603], [139.69884, 36.73599], [139.69842, 36.73576], [139.69798, 36.73553], [139.69698, 36.73498], [139.69589, 36.7344], [139.69504, 36.73397], [139.69407, 36.73347], [139.69311, 36.73296], [139.69296, 36.73288], [139.6924, 36.73258], [139.69238, 36.73256]]}, "properties": {"id": "GEOM_TOKYO_3699", "route_id": "R_B0A7F334", "route_name": "鬼怒川線", "route_color": "#1F78FF", "route_text_color": "#ffffff", "line_name": "鬼怒川線", "operator_id": "tobu", "representation": "service_path", "min_zoom": 0, "max_zoom": 24, "offset_rank": 0}}, {"type": "Feature", "bbox": [139.71331, 36.76042, 139.71384, 36.76117], "geometry": {"type": "LineString", "coordinates": [[139.71384, 36.76117], [139.71364, 36.76091], [139.71354, 36.76078], [139.71331, 36.76042]]}, "properties": {"id": "GEOM_TOKYO_3700", "route_id": "R_B0A7F334", "route_name": "鬼怒川線", "route_color": "#1F78FF", "route_text_color": "#ffffff", "line_name": "鬼怒川線", "operator_id": "tobu", "representation": "service_path", "min_zoom": 0, "max_zoom": 24, "offset_rank": 0}}, {"type": "Feature", "bbox": [139.7163, 36.82196, 139.71706, 36.82309], "geometry": {"type": "LineString", "coordinates": [[139.71706, 36.82309], [139.7163, 36.82196]]}, "properties": {"id": "GEOM_TOKYO_3701", "route_id": "R_B0A7F334", "route_name": "鬼怒川線", "route_color": "#1F78FF", "route_text_color": "#ffffff", "line_name": "鬼怒川線", "operator_id": "tobu", "representation": "service_path", "min_zoom": 0, "max_zoom": 24, "offset_rank": 0}}, {"type": "Feature", "bbox": [139.7091599, 36.80884424, 139.7163, 36.82196], "geometry": {"type": "LineString", "coordinates": [[139.7163, 36.82196], [139.7162, 36.82179], [139.71563, 36.82092], [139.71543, 36.82062], [139.71534, 36.82048], [139.71531, 36.82044], [139.71512, 36.82016], [139.71488, 36.81982], [139.71457, 36.81938], [139.71416, 36.8188], [139.71413, 36.81876], [139.7141, 36.81872], [139.71407, 36.81868], [139.71401, 36.81859], [139.71337, 36.81768], [139.7133, 36.81759], [139.71328, 36.81757], [139.71311, 36.81732], [139.713, 36.81716], [139.713, 36.81713], [139.71298, 36.81713], [139.71283, 36.81692], [139.71261, 36.8166], [139.71199, 36.81572], [139.71172, 36.81533], [139.71146, 36.81496], [139.71119, 36.81456], [139.71084, 36.81407], [139.71055, 36.81366], [139.71002, 36.81275], [139.70987, 36.81243], [139.70986, 36.81242], [139.70986, 36.8124], [139.70964, 36.81186], [139.70954, 36.81157], [139.7095, 36.81141], [139.70944, 36.8112], [139.7094, 36.81083], [139.70935, 36.81041], [139.7093, 36.81008], [139.7093, 36.81006], [139.70928, 36.80986], [139.70926, 36.80967], [139.70925, 36.80954], [139.70924, 36.80942], [139.70921, 36.80921], [139.70919, 36.80907], [139.7091599, 36.80884424]]}, "properties": {"id": "GEOM_TOKYO_3702", "route_id": "R_B0A7F334", "route_name": "鬼怒川線", "route_color": "#1F78FF", "route_text_color": "#ffffff", "line_name": "鬼怒川線", "operator_id": "tobu", "representation": "service_path", "min_zoom": 0, "max_zoom": 24, "offset_rank": 0}}, {"type": "Feature", "bbox": [139.68993, 36.72615, 139.6915, 36.73199], "geometry": {"type": "LineString", "coordinates": [[139.6915, 36.73199], [139.69127, 36.73182], [139.69115, 36.73169], [139.69111, 36.73164], [139.69106, 36.73157], [139.69102, 36.73148], [139.69097, 36.73134], [139.69058, 36.7302], [139.69031, 36.72941], [139.69008, 36.72878], [139.69001, 36.72854], [139.68995, 36.72832], [139.68993, 36.72812], [139.68994, 36.7278], [139.68996, 36.72767], [139.69003, 36.72743], [139.69005, 36.72739], [139.69007, 36.72734], [139.6902, 36.72711], [139.69029, 36.72698], [139.69037, 36.72689], [139.69061, 36.72664], [139.69073, 36.72652], [139.69103, 36.72627], [139.69115, 36.72615]]}, "properties": {"id": "GEOM_TOKYO_3703", "route_id": "R_B0A7F334", "route_name": "鬼怒川線", "route_color": "#1F78FF", "route_text_color": "#ffffff", "line_name": "鬼怒川線", "operator_id": "tobu", "representation": "service_path", "min_zoom": 0, "max_zoom": 24, "offset_rank": 0}}, {"type": "Feature", "bbox": [139.72284, 36.84193, 139.73355, 36.85203], "geometry": {"type": "LineString", "coordinates": [[139.72284, 36.84193], [139.72287, 36.84208], [139.72292, 36.84218], [139.72295, 36.84226], [139.72299, 36.84236], [139.72315, 36.84261], [139.72333, 36.84284], [139.72419, 36.84349], [139.72428, 36.84357], [139.72484, 36.84399], [139.72498, 36.84411], [139.725, 36.84411], [139.72503, 36.84413], [139.7258, 36.84473], [139.7266, 36.84534], [139.72675, 36.84545], [139.7269, 36.84557], [139.72691, 36.84557], [139.72747, 36.84601], [139.72754, 36.84605], [139.72759, 36.8461], [139.72803, 36.84646], [139.72809, 36.84651], [139.72814, 36.84656], [139.72818, 36.8466], [139.72825, 36.84665], [139.72833, 36.84671], [139.72839, 36.84677], [139.72859, 36.84693], [139.7289, 36.84726], [139.72896, 36.84732], [139.72902, 36.84739], [139.72914, 36.84751], [139.72931, 36.84768], [139.72943, 36.84783], [139.7296, 36.84798], [139.72981, 36.84816], [139.73011, 36.84835], [139.73046, 36.84853], [139.73054, 36.84855], [139.73062, 36.84858], [139.73068, 36.84859], [139.73085, 36.84865], [139.73102, 36.84874], [139.73142, 36.84895], [139.73153, 36.849], [139.73162, 36.84906], [139.73203, 36.84928], [139.73226, 36.8494], [139.73241, 36.84947], [139.73247, 36.84951], [139.73311, 36.84987], [139.73318, 36.84992], [139.73332, 36.85006], [139.73343, 36.85022], [139.73346, 36.85028], [139.73348, 36.85029], [139.73354, 36.85046], [139.73355, 36.85065], [139.73351, 36.85092], [139.73326, 36.85173], [139.73324, 36.85178], [139.73316, 36.85203]]}, "properties": {"id": "GEOM_TOKYO_3704", "route_id": "R_B0A7F334", "route_name": "鬼怒川線", "route_color": "#1F78FF", "route_text_color": "#ffffff", "line_name": "鬼怒川線", "operator_id": "tobu", "representation": "service_path", "min_zoom": 0, "max_zoom": 24, "offset_rank": 0}}, {"type": "Feature", "bbox": [139.71094, 36.76117, 139.71576, 36.77944], "geometry": {"type": "LineString", "coordinates": [[139.71101, 36.77944], [139.71124, 36.77919], [139.71145, 36.77895], [139.71146, 36.77892], [139.71148, 36.77889], [139.71164, 36.77865], [139.71181, 36.77835], [139.71195, 36.77807], [139.71211, 36.77765], [139.71216, 36.77745], [139.71215, 36.77723], [139.71212, 36.77717], [139.71212, 36.77715], [139.7119, 36.77679], [139.71167, 36.77641], [139.71162, 36.77632], [139.71143, 36.77601], [139.71118, 36.77562], [139.71114, 36.77553], [139.71113, 36.77548], [139.71107, 36.77534], [139.71101, 36.77503], [139.71096, 36.77425], [139.71094, 36.77353], [139.71105, 36.77331], [139.71127, 36.77306], [139.71141, 36.77293], [139.71158, 36.77276], [139.71247, 36.77192], [139.7125, 36.77188], [139.71267, 36.7717], [139.71274, 36.77161], [139.71281, 36.77152], [139.71285, 36.77149], [139.713, 36.77128], [139.71363, 36.77047], [139.71399, 36.76999], [139.71401, 36.76994], [139.71431, 36.76952], [139.71468, 36.76884], [139.71483, 36.76851], [139.71497, 36.76803], [139.71507, 36.76761], [139.71508, 36.7676], [139.71522, 36.76699], [139.71533, 36.76651], [139.7154, 36.76625], [139.71553, 36.76573], [139.71567, 36.76505], [139.71574, 36.76466], [139.71575, 36.7644], [139.71576, 36.76435], [139.71576, 36.76416], [139.71576, 36.76409], [139.71573, 36.76397], [139.71565, 36.76368], [139.71559, 36.76349], [139.71545, 36.76326], [139.71529, 36.76303], [139.71527, 36.76303], [139.71526, 36.763], [139.71516, 36.76287], [139.71498, 36.76266], [139.71468, 36.76226], [139.71384, 36.76117]]}, "properties": {"id": "GEOM_TOKYO_3705", "route_id": "R_B0A7F334", "route_name": "鬼怒川線", "route_color": "#1F78FF", "route_text_color": "#ffffff", "line_name": "鬼怒川線", "operator_id": "tobu", "representation": "service_path", "min_zoom": 0, "max_zoom": 24, "offset_rank": 0}}, {"type": "Feature", "bbox": [139.72281, 36.84122, 139.72284, 36.84193], "geometry": {"type": "LineString", "coordinates": [[139.72284, 36.84193], [139.72281, 36.84122]]}, "properties": {"id": "GEOM_TOKYO_3706", "route_id": "R_B0A7F334", "route_name": "鬼怒川線", "route_color": "#1F78FF", "route_text_color": "#ffffff", "line_name": "鬼怒川線", "operator_id": "tobu", "representation": "service_path", "min_zoom": 0, "max_zoom": 24, "offset_rank": 0}}, {"type": "Feature", "bbox": [139.71706, 36.82309, 139.7229, 36.84122], "geometry": {"type": "LineString", "coordinates": [[139.72281, 36.84122], [139.72281, 36.8411], [139.72281, 36.84092], [139.72281, 36.84069], [139.72283, 36.84043], [139.72283, 36.83992], [139.72284, 36.83985], [139.72284, 36.83951], [139.72285, 36.83928], [139.72288, 36.83901], [139.72288, 36.83875], [139.7229, 36.83857], [139.72288, 36.8383], [139.72285, 36.83812], [139.72278, 36.83775], [139.72275, 36.83748], [139.72265, 36.83721], [139.72253, 36.83698], [139.72229, 36.83672], [139.722, 36.83643], [139.7219, 36.83632], [139.72179, 36.83622], [139.72171, 36.83613], [139.72169, 36.8361], [139.72152, 36.83586], [139.72143, 36.83573], [139.72137, 36.83561], [139.72129, 36.83548], [139.72107, 36.83501], [139.72095, 36.8347], [139.72093, 36.83464], [139.72089, 36.83454], [139.7208, 36.83424], [139.72072, 36.83382], [139.7207, 36.83379], [139.72053, 36.83294], [139.72052, 36.83287], [139.72044, 36.83244], [139.72039, 36.83213], [139.72038, 36.83209], [139.72035, 36.83197], [139.72023, 36.83134], [139.72018, 36.83101], [139.72017, 36.83093], [139.72014, 36.83085], [139.72009, 36.83059], [139.71995, 36.82987], [139.71993, 36.82976], [139.71986, 36.82931], [139.71969, 36.82852], [139.71954, 36.82786], [139.71946, 36.8276], [139.71923, 36.82691], [139.7188, 36.82593], [139.71878, 36.82591], [139.71878, 36.82589], [139.71877, 36.82587], [139.71871, 36.82573], [139.71832, 36.82504], [139.71787, 36.82429], [139.7173, 36.82343], [139.71706, 36.82309]]}, "properties": {"id": "GEOM_TOKYO_3707", "route_id": "R_B0A7F334", "route_name": "鬼怒川線", "route_color": "#1F78FF", "route_text_color": "#ffffff", "line_name": "鬼怒川線", "operator_id": "tobu", "representation": "service_path", "min_zoom": 0, "max_zoom": 24, "offset_rank": 0}}, {"type": "Feature", "bbox": [139.7043, 36.7801, 139.71041, 36.80169], "geometry": {"type": "LineString", "coordinates": [[139.70637, 36.80169], [139.70631, 36.80146], [139.7063, 36.80138], [139.70605, 36.80043], [139.70595, 36.80004], [139.70578, 36.79938], [139.70564, 36.79895], [139.70541, 36.79842], [139.70534, 36.79828], [139.7052, 36.79799], [139.70512, 36.79783], [139.70507, 36.79769], [139.70494, 36.79744], [139.7046, 36.79666], [139.70435, 36.7961], [139.70431, 36.79592], [139.7043, 36.79554], [139.70435, 36.79533], [139.70437, 36.79522], [139.70445, 36.79484], [139.70455, 36.79448], [139.70458, 36.79437], [139.7046, 36.79429], [139.70465, 36.79398], [139.70464, 36.79377], [139.70459, 36.79324], [139.70456, 36.79263], [139.70457, 36.79219], [139.70463, 36.79163], [139.70467, 36.79138], [139.70468, 36.79123], [139.70478, 36.79051], [139.70505, 36.78833], [139.70512, 36.78774], [139.70523, 36.78694], [139.70533, 36.78635], [139.70533, 36.78631], [139.70533, 36.78629], [139.70533, 36.78626], [139.70537, 36.78579], [139.70541, 36.78568], [139.70548, 36.78551], [139.70555, 36.78535], [139.70582, 36.78493], [139.70603, 36.78465], [139.70609, 36.78458], [139.70613, 36.78452], [139.70623, 36.7844], [139.70672, 36.78387], [139.70674, 36.78386], [139.70675, 36.78384], [139.7068, 36.7838], [139.70685, 36.78375], [139.70688, 36.78371], [139.70694, 36.78366], [139.70744, 36.78314], [139.70747, 36.7831], [139.70761, 36.78297], [139.70762, 36.78295], [139.70767, 36.78291], [139.70806, 36.7825], [139.70839, 36.78216], [139.70881, 36.78174], [139.7095, 36.78105], [139.70952, 36.78103], [139.70962, 36.78092], [139.70991, 36.78059], [139.71016, 36.78034], [139.71017, 36.78031], [139.71028, 36.78023], [139.71041, 36.7801]]}, "properties": {"id": "GEOM_TOKYO_3708", "route_id": "R_B0A7F334", "route_name": "鬼怒川線", "route_color": "#1F78FF", "route_text_color": "#ffffff", "line_name": "鬼怒川線", "operator_id": "tobu", "representation": "service_path", "min_zoom": 0, "max_zoom": 24, "offset_rank": 0}}, {"type": "Feature", "bbox": [139.6915, 36.73199, 139.69238, 36.73256], "geometry": {"type": "LineString", "coordinates": [[139.69238, 36.73256], [139.6915, 36.73199]]}, "properties": {"id": "GEOM_TOKYO_3709", "route_id": "R_B0A7F334", "route_name": "鬼怒川線", "route_color": "#1F78FF", "route_text_color": "#ffffff", "line_name": "鬼怒川線", "operator_id": "tobu", "representation": "service_path", "min_zoom": 0, "max_zoom": 24, "offset_rank": 0}}, {"type": "Feature", "bbox": [139.70637, 36.80169, 139.70663, 36.80279], "geometry": {"type": "LineString", "coordinates": [[139.70637, 36.80169], [139.70663, 36.80279]]}, "properties": {"id": "GEOM_TOKYO_3710", "route_id": "R_B0A7F334", "route_name": "鬼怒川線", "route_color": "#1F78FF", "route_text_color": "#ffffff", "line_name": "鬼怒川線", "operator_id": "tobu", "representation": "service_path", "min_zoom": 0, "max_zoom": 24, "offset_rank": 0}}, {"type": "Feature", "bbox": [139.73286, 36.85203, 139.73316, 36.85288], "geometry": {"type": "LineString", "coordinates": [[139.73286, 36.85288], [139.73316, 36.85203]]}, "properties": {"id": "GEOM_TOKYO_3711", "route_id": "R_B0A7F334", "route_name": "鬼怒川線", "route_color": "#1F78FF", "route_text_color": "#ffffff", "line_name": "鬼怒川線", "operator_id": "tobu", "representation": "service_path", "min_zoom": 0, "max_zoom": 24, "offset_rank": 0}}, {"type": "Feature", "bbox": [139.69181, 36.7253, 139.69373, 36.7259], "geometry": {"type": "LineString", "coordinates": [[139.69181, 36.7259], [139.69373, 36.7253]]}, "properties": {"id": "GEOM_TOKYO_3712", "route_id": "R_B0A7F334", "route_name": "鬼怒川線", "route_color": "#1F78FF", "route_text_color": "#ffffff", "line_name": "鬼怒川線", "operator_id": "tobu", "representation": "service_path", "min_zoom": 0, "max_zoom": 24, "offset_rank": 0}}, {"type": "Feature", "bbox": [139.62036, 36.74825, 139.62129, 36.74826], "geometry": {"type": "LineString", "coordinates": [[139.62036, 36.74826], [139.62073, 36.74826], [139.62107, 36.74825], [139.62129, 36.74825]]}, "properties": {"id": "GEOM_TOKYO_3866", "route_id": "R_FB68CB74", "route_name": "日光線", "route_color": "#1F78FF", "route_text_color": "#ffffff", "line_name": "日光線", "operator_id": "tobu", "representation": "service_path", "min_zoom": 0, "max_zoom": 24, "offset_rank": 0}}, {"type": "Feature", "bbox": [139.69181, 36.7253, 139.69373, 36.7259], "geometry": {"type": "LineString", "coordinates": [[139.69181, 36.7259], [139.69373, 36.7253]]}, "properties": {"id": "GEOM_TOKYO_3868", "route_id": "R_FB68CB74", "route_name": "日光線", "route_color": "#1F78FF", "route_text_color": "#ffffff", "line_name": "日光線", "operator_id": "tobu", "representation": "service_path", "min_zoom": 0, "max_zoom": 24, "offset_rank": 0}}, {"type": "Feature", "bbox": [139.61908, 36.74822, 139.62036, 36.74826], "geometry": {"type": "LineString", "coordinates": [[139.61908, 36.74822], [139.62036, 36.74826]]}, "properties": {"id": "GEOM_TOKYO_3871", "route_id": "R_FB68CB74", "route_name": "日光線", "route_color": "#1F78FF", "route_text_color": "#ffffff", "line_name": "日光線", "operator_id": "tobu", "representation": "service_path", "min_zoom": 0, "max_zoom": 24, "offset_rank": 0}}, {"type": "Feature", "bbox": [139.68029, 36.72787, 139.68143, 36.72815], "geometry": {"type": "LineString", "coordinates": [[139.68143, 36.72787], [139.68029, 36.72815]]}, "properties": {"id": "GEOM_TOKYO_3874", "route_id": "R_FB68CB74", "route_name": "日光線", "route_color": "#1F78FF", "route_text_color": "#ffffff", "line_name": "日光線", "operator_id": "tobu", "representation": "service_path", "min_zoom": 0, "max_zoom": 24, "offset_rank": 0}}, {"type": "Feature", "bbox": [139.69373, 36.6771, 139.71215, 36.7253], "geometry": {"type": "LineString", "coordinates": [[139.71215, 36.6771], [139.7121, 36.67761], [139.71203, 36.67814], [139.71197, 36.67884], [139.71195, 36.67886], [139.7119, 36.67934], [139.71188, 36.67954], [139.71179, 36.68032], [139.71167, 36.68138], [139.71162, 36.6817], [139.71155, 36.68234], [139.71144, 36.6832], [139.71131, 36.68434], [139.71123, 36.68501], [139.7112, 36.6853], [139.71119, 36.68535], [139.71104, 36.68659], [139.71092, 36.6877], [139.71088, 36.68793], [139.71078, 36.68887], [139.71069, 36.68971], [139.71065, 36.68992], [139.71059, 36.69046], [139.71048, 36.69131], [139.71045, 36.69163], [139.71042, 36.69193], [139.7104, 36.69208], [139.7104, 36.69215], [139.71036, 36.69239], [139.7103, 36.69291], [139.71008, 36.69481], [139.71001, 36.69544], [139.70984, 36.69679], [139.70973, 36.69766], [139.70969, 36.69798], [139.70965, 36.6984], [139.70964, 36.69855], [139.70956, 36.69917], [139.70937, 36.70057], [139.70932, 36.70112], [139.70925, 36.70167], [139.70916, 36.70246], [139.70912, 36.7028], [139.70911, 36.70289], [139.70909, 36.70307], [139.70904, 36.70356], [139.70901, 36.70379], [139.70896, 36.70416], [139.70895, 36.70423], [139.70891, 36.70456], [139.70888, 36.70476], [139.70884, 36.70514], [139.70876, 36.70586], [139.70874, 36.70599], [139.70871, 36.70628], [139.70867, 36.70665], [139.70862, 36.70718], [139.70855, 36.70764], [139.70848, 36.70817], [139.70843, 36.70867], [139.70837, 36.70909], [139.70831, 36.70968], [139.70822, 36.71028], [139.70817, 36.71075], [139.70813, 36.71099], [139.70811, 36.71124], [139.70808, 36.71142], [139.70798, 36.71196], [139.70796, 36.71204], [139.70785, 36.71236], [139.70771, 36.71268], [139.70753, 36.71302], [139.70748, 36.7131], [139.70743, 36.71321], [139.70736, 36.71333], [139.70728, 36.71346], [139.70719, 36.71364], [139.70716, 36.7137], [139.707, 36.71396], [139.70649, 36.71459], [139.70608, 36.71507], [139.7058, 36.71542], [139.70564, 36.71562], [139.70525, 36.71609], [139.70515, 36.71622], [139.70508, 36.71629], [139.70504, 36.71634], [139.705, 36.71639], [139.70494, 36.71647], [139.70487, 36.71656], [139.7044, 36.71713], [139.70436, 36.71719], [139.70417, 36.71741], [139.70361, 36.71807], [139.70314, 36.71866], [139.70306, 36.71875], [139.70255, 36.71937], [139.70231, 36.71965], [139.7022, 36.71979], [139.7021, 36.7199], [139.70189, 36.72016], [139.70178, 36.72029], [139.7015, 36.72064], [139.70136, 36.7208], [139.70088, 36.72138], [139.70085, 36.72142], [139.70059, 36.72172], [139.70059, 36.72175], [139.70057, 36.72175], [139.69996, 36.7225], [139.69994, 36.72254], [139.69975, 36.72271], [139.69918, 36.72318], [139.69878, 36.72347], [139.69867, 36.72354], [139.69847, 36.72367], [139.69843, 36.72369], [139.69815, 36.72384], [139.69795, 36.72391], [139.69783, 36.72397], [139.69736, 36.72414], [139.69725, 36.72418], [139.69662, 36.72438], [139.69624, 36.72451], [139.69515, 36.72487], [139.69497, 36.72491], [139.69492, 36.72492], [139.69416, 36.72518], [139.69398, 36.72523], [139.69373, 36.7253]]}, "properties": {"id": "GEOM_TOKYO_3875", "route_id": "R_FB68CB74", "route_name": "日光線", "route_color": "#1F78FF", "route_text_color": "#ffffff", "line_name": "日光線", "operator_id": "tobu", "representation": "service_path", "min_zoom": 0, "max_zoom": 24, "offset_rank": 0}}, {"type": "Feature", "bbox": [139.62054, 36.74806, 139.62129, 36.74825], "geometry": {"type": "LineString", "coordinates": [[139.62054, 36.74806], [139.62066, 36.74809], [139.62099, 36.74817], [139.62113, 36.7482], [139.62129, 36.74825]]}, "properties": {"id": "GEOM_TOKYO_3879", "route_id": "R_FB68CB74", "route_name": "日光線", "route_color": "#1F78FF", "route_text_color": "#ffffff", "line_name": "日光線", "operator_id": "tobu", "representation": "service_path", "min_zoom": 0, "max_zoom": 24, "offset_rank": 0}}, {"type": "Feature", "bbox": [139.61974, 36.74781, 139.62054, 36.74806], "geometry": {"type": "LineString", "coordinates": [[139.61974, 36.74781], [139.62054, 36.74806]]}, "properties": {"id": "GEOM_TOKYO_3883", "route_id": "R_FB68CB74", "route_name": "日光線", "route_color": "#1F78FF", "route_text_color": "#ffffff", "line_name": "日光線", "operator_id": "tobu", "representation": "service_path", "min_zoom": 0, "max_zoom": 24, "offset_rank": 0}}, {"type": "Feature", "bbox": [139.62129, 36.72815, 139.68029, 36.74825], "geometry": {"type": "LineString", "coordinates": [[139.68029, 36.72815], [139.67823, 36.72864], [139.67748, 36.72882], [139.67479, 36.72947], [139.67262, 36.72999], [139.67104, 36.73037], [139.66842, 36.731], [139.66686, 36.73139], [139.66652, 36.73147], [139.66578, 36.73168], [139.66539, 36.73178], [139.66461, 36.73202], [139.6636, 36.73239], [139.66261, 36.73274], [139.66216, 36.73292], [139.66182, 36.73307], [139.66141, 36.73328], [139.66137, 36.73329], [139.66106, 36.73344], [139.66075, 36.73354], [139.66039, 36.73361], [139.6591, 36.73393], [139.65689, 36.73449], [139.65569, 36.73479], [139.65404, 36.7352], [139.6526, 36.73548], [139.65123, 36.7357], [139.65109, 36.73572], [139.64839, 36.73617], [139.64733, 36.73634], [139.64621, 36.73653], [139.6451, 36.73672], [139.64423, 36.73692], [139.64338, 36.73718], [139.6421, 36.73763], [139.64104, 36.73805], [139.64064, 36.73821], [139.63977, 36.73855], [139.63868, 36.73904], [139.63771, 36.73948], [139.63717, 36.73972], [139.63626, 36.74016], [139.6352, 36.74069], [139.63387, 36.74139], [139.63319, 36.74172], [139.63221, 36.74225], [139.6313, 36.74275], [139.63114, 36.74283], [139.63098, 36.74293], [139.63079, 36.74304], [139.63076, 36.74305], [139.63053, 36.74318], [139.6293, 36.7438], [139.62814, 36.74442], [139.62723, 36.74487], [139.62661, 36.74519], [139.62583, 36.74556], [139.62537, 36.74582], [139.62509, 36.746], [139.62482, 36.74623], [139.62459, 36.74648], [139.6242, 36.74685], [139.62381, 36.74716], [139.62344, 36.7474], [139.62301, 36.74763], [139.62258, 36.74783], [139.622, 36.7481], [139.62174, 36.74819], [139.62148, 36.74824], [139.6213, 36.74825], [139.62129, 36.74825]]}, "properties": {"id": "GEOM_TOKYO_3894", "route_id": "R_FB68CB74", "route_name": "日光線", "route_color": "#1F78FF", "route_text_color": "#ffffff", "line_name": "日光線", "operator_id": "tobu", "representation": "service_path", "min_zoom": 0, "max_zoom": 24, "offset_rank": 0}}, {"type": "Feature", "bbox": [139.69115, 36.7259, 139.69181, 36.72615], "geometry": {"type": "LineString", "coordinates": [[139.69115, 36.72615], [139.69181, 36.7259]]}, "properties": {"id": "GEOM_TOKYO_3895", "route_id": "R_FB68CB74", "route_name": "日光線", "route_color": "#1F78FF", "route_text_color": "#ffffff", "line_name": "日光線", "operator_id": "tobu", "representation": "service_path", "min_zoom": 0, "max_zoom": 24, "offset_rank": 0}}, {"type": "Feature", "bbox": [139.68143, 36.72615, 139.69115, 36.72787], "geometry": {"type": "LineString", "coordinates": [[139.68143, 36.72787], [139.68168, 36.72782], [139.68186, 36.72779], [139.68252, 36.72769], [139.68282, 36.72766], [139.68299, 36.72764], [139.68304, 36.72763], [139.68312, 36.72762], [139.68322, 36.72761], [139.68333, 36.72758], [139.68388, 36.72752], [139.68396, 36.7275], [139.68411, 36.72749], [139.68436, 36.72745], [139.68484, 36.7274], [139.68508, 36.72735], [139.68515, 36.72735], [139.68523, 36.72734], [139.68532, 36.72733], [139.68544, 36.72732], [139.68561, 36.72731], [139.68573, 36.72729], [139.68581, 36.72727], [139.68587, 36.72727], [139.68619, 36.72723], [139.68695, 36.72713], [139.68732, 36.72708], [139.68808, 36.72697], [139.68833, 36.72693], [139.68836, 36.72692], [139.68869, 36.72686], [139.68908, 36.72676], [139.68923, 36.72673], [139.68934, 36.7267], [139.68955, 36.72666], [139.6897, 36.72662], [139.69011, 36.72649], [139.69038, 36.7264], [139.69115, 36.72615]]}, "properties": {"id": "GEOM_TOKYO_3896", "route_id": "R_FB68CB74", "route_name": "日光線", "route_color": "#1F78FF", "route_text_color": "#ffffff", "line_name": "日光線", "operator_id": "tobu", "representation": "service_path", "min_zoom": 0, "max_zoom": 24, "offset_rank": 0}}, {"type": "Feature", "bbox": [139.70879541, 36.80775517, 139.7091599, 36.80884424], "geometry": {"type": "LineString", "coordinates": [[139.7091599, 36.80884424], [139.70915, 36.80877], [139.70912, 36.8087], [139.70908, 36.80851], [139.70903, 36.80833], [139.70895, 36.8081], [139.70888, 36.80793], [139.70879541, 36.80775517]]}, "properties": {"id": "GEOM_TOKYO_4171", "route_id": "R_B0A7F334", "route_name": "鬼怒川線", "route_color": "#1F78FF", "route_text_color": "#ffffff", "line_name": "鬼怒川線", "operator_id": "tobu", "representation": "service_path", "min_zoom": 0, "max_zoom": 24, "offset_rank": 0}}, {"type": "Feature", "bbox": [139.70663, 36.80279, 139.70879541, 36.80775517], "geometry": {"type": "LineString", "coordinates": [[139.70879541, 36.80775517], [139.70873, 36.80762], [139.70852, 36.80726], [139.70815, 36.80665], [139.70808, 36.80655], [139.70761, 36.8057], [139.70757, 36.80561], [139.70756, 36.80559], [139.70754, 36.80556], [139.70751, 36.80552], [139.70733, 36.80513], [139.70718, 36.80478], [139.70714, 36.80467], [139.70714, 36.80466], [139.70704, 36.80439], [139.70696, 36.80411], [139.70693, 36.80402], [139.70688, 36.80382], [139.70686, 36.80376], [139.70681, 36.80353], [139.70677, 36.80336], [139.70674, 36.80327], [139.70674, 36.80322], [139.70667, 36.80299], [139.70663, 36.80279]]}, "properties": {"id": "GEOM_TOKYO_4172", "route_id": "R_B0A7F334", "route_name": "鬼怒川線", "route_color": "#1F78FF", "route_text_color": "#ffffff", "line_name": "鬼怒川線", "operator_id": "tobu", "representation": "service_path", "min_zoom": 0, "max_zoom": 24, "offset_rank": 0}}]}