{"type": "FeatureCollection", "features": [{"type": "Feature", "bbox": [136.01835, 35.05779, 136.28889, 35.31326], "geometry": {"type": "LineString", "coordinates": [[136.28889, 35.31326], [136.28853, 35.31237], [136.28763, 35.31016], [136.28672, 35.30787], [136.28624, 35.30672], [136.28537, 35.30446], [136.28517, 35.30395], [136.28457, 35.3024], [136.2836, 35.29988], [136.28342, 35.29939], [136.28306, 35.29823], [136.28295, 35.29778], [136.2828, 35.29714], [136.28279, 35.29706], [136.28262, 35.29591], [136.28236, 35.29399], [136.28211, 35.29198], [136.28179, 35.28932], [136.28175, 35.28903], [136.28136, 35.2859], [136.28133, 35.28561], [136.28125, 35.28496], [136.28101, 35.28302], [136.28087, 35.28188], [136.28082, 35.28153], [136.28079, 35.28122], [136.28076, 35.28094], [136.28046, 35.27857], [136.28026, 35.27692], [136.27999, 35.27468], [136.27914, 35.26795], [136.27869, 35.2647], [136.27864, 35.26438], [136.27846, 35.26342], [136.27828, 35.26258], [136.2782, 35.26219], [136.27808, 35.2618], [136.27747, 35.25998], [136.27715, 35.25922], [136.27681, 35.25848], [136.27649, 35.2578], [136.27594, 35.25672], [136.27531, 35.25551], [136.27407, 35.25321], [136.27374, 35.25253], [136.27368, 35.25241], [136.27357, 35.25222], [136.27355, 35.25216], [136.27351, 35.25209], [136.27338, 35.25185], [136.27293, 35.25102], [136.27289, 35.25094], [136.27274, 35.25067], [136.27221, 35.24966], [136.27201, 35.24928], [136.27199, 35.24926], [136.27197, 35.24923], [136.27176, 35.24882], [136.27174, 35.24878], [136.27166, 35.24863], [136.2715, 35.24833], [136.27145, 35.24826], [136.27128, 35.24793], [136.27122, 35.24781], [136.27109, 35.24757], [136.27091, 35.24723], [136.27053, 35.24652], [136.27047, 35.24641], [136.27042, 35.24629], [136.27013, 35.24575], [136.26976, 35.24508], [136.26972, 35.245], [136.26938, 35.24435], [136.26923, 35.24406], [136.26911, 35.24383], [136.26894, 35.2435], [136.26881, 35.24326], [136.26868, 35.243], [136.26856, 35.24277], [136.26832, 35.24233], [136.2683, 35.24227], [136.26828, 35.24226], [136.26802, 35.24175], [136.26799, 35.2417], [136.26786, 35.24145], [136.26715, 35.24011], [136.26631, 35.23851], [136.26581, 35.23757], [136.2655, 35.23698], [136.26494, 35.23592], [136.26478, 35.23562], [136.26443, 35.23495], [136.26428, 35.23465], [136.26424, 35.23458], [136.26414, 35.23439], [136.26384, 35.23381], [136.26379, 35.23375], [136.26377, 35.2337], [136.26298, 35.23233], [136.26295, 35.23228], [136.2628, 35.23204], [136.26268, 35.23186], [136.26258, 35.2317], [136.26247, 35.23155], [136.26233, 35.23135], [136.26217, 35.23111], [136.26213, 35.23105], [136.26207, 35.23097], [136.26191, 35.23075], [136.26164, 35.2304], [136.26137, 35.23006], [136.26098, 35.22958], [136.26089, 35.22949], [136.2605, 35.22905], [136.26048, 35.22902], [136.26021, 35.22873], [136.26004, 35.22854], [136.25889, 35.22728], [136.25877, 35.22715], [136.25873, 35.2271], [136.25871, 35.22709], [136.2582, 35.22653], [136.25796, 35.22627], [136.25787, 35.22618], [136.2577, 35.22598], [136.25768, 35.22596], [136.2575, 35.22578], [136.257, 35.22525], [136.25537, 35.22351], [136.25529, 35.22343], [136.25477, 35.22287], [136.25448, 35.22256], [136.2537, 35.22173], [136.25315, 35.22114], [136.25306, 35.22103], [136.25304, 35.22102], [136.25272, 35.22068], [136.2527, 35.22066], [136.25262, 35.22057], [136.25253, 35.22048], [136.25232, 35.22026], [136.25228, 35.22021], [136.25134, 35.21921], [136.2512, 35.21905], [136.25096, 35.2188], [136.2509, 35.21873], [136.25047, 35.21828], [136.25018, 35.21796], [136.24983, 35.21759], [136.24967, 35.21743], [136.24963, 35.21738], [136.2492, 35.21693], [136.24918, 35.2169], [136.24911, 35.21683], [136.24835, 35.21601], [136.24813, 35.21578], [136.24801, 35.21565], [136.24725, 35.21484], [136.24711, 35.21468], [136.24694, 35.21452], [136.24589, 35.21337], [136.24533, 35.21277], [136.24381, 35.21115], [136.24353, 35.21085], [136.24291, 35.21019], [136.24213, 35.20936], [136.24204, 35.20927], [136.24163, 35.20881], [136.24097, 35.20813], [136.24004, 35.20713], [136.23972, 35.20677], [136.23965, 35.20671], [136.23854, 35.20555], [136.2363, 35.20316], [136.23531, 35.20211], [136.23361, 35.2003], [136.23239, 35.19902], [136.23187, 35.19846], [136.23086, 35.1974], [136.23017, 35.19667], [136.2301, 35.1966], [136.22965, 35.19611], [136.22847, 35.19485], [136.22738, 35.19367], [136.22671, 35.19295], [136.22563, 35.19179], [136.22511, 35.19119], [136.22477, 35.19077], [136.22345, 35.18904], [136.22302, 35.18845], [136.22256, 35.18784], [136.22224, 35.18742], [136.22182, 35.18685], [136.2208, 35.18551], [136.21999, 35.18441], [136.21976, 35.18411], [136.21863, 35.1826], [136.21794, 35.18169], [136.21705, 35.18049], [136.21608, 35.1792], [136.21538, 35.17829], [136.21483, 35.17754], [136.21354, 35.17582], [136.21305, 35.17517], [136.21187, 35.1736], [136.21056, 35.17183], [136.20987, 35.17087], [136.20917, 35.16988], [136.20859, 35.16914], [136.20833, 35.1688], [136.20812, 35.1685], [136.20598, 35.16563], [136.20561, 35.16516], [136.20523, 35.16467], [136.20472, 35.16397], [136.20384, 35.1628], [136.20217, 35.16057], [136.20205, 35.16041], [136.20104, 35.15906], [136.20021, 35.15795], [136.19962, 35.15715], [136.19944, 35.1569], [136.19929, 35.15671], [136.19911, 35.15646], [136.19899, 35.15631], [136.19884, 35.15612], [136.19863, 35.15582], [136.19814, 35.15517], [136.19805, 35.15504], [136.19792, 35.1549], [136.19779, 35.15473], [136.19749, 35.15435], [136.19626, 35.15282], [136.19557, 35.15202], [136.19471, 35.15108], [136.19469, 35.15107], [136.19454, 35.15091], [136.19325, 35.14974], [136.19264, 35.14921], [136.1915, 35.14832], [136.19127, 35.14817], [136.19109, 35.14803], [136.19064, 35.14772], [136.19001, 35.1473], [136.18921, 35.14676], [136.18818, 35.14613], [136.18798, 35.14601], [136.18779, 35.1459], [136.18719, 35.14555], [136.18606, 35.14492], [136.18521, 35.14449], [136.18492, 35.14433], [136.18441, 35.14405], [136.18362, 35.1436], [136.18285, 35.14317], [136.18238, 35.14291], [136.18222, 35.14282], [136.18168, 35.14252], [136.1815, 35.14241], [136.18125, 35.14228], [136.18109, 35.14219], [136.17845, 35.14073], [136.17719, 35.14003], [136.17677, 35.13979], [136.17592, 35.13932], [136.17562, 35.13915], [136.17506, 35.13885], [136.174, 35.13826], [136.17321, 35.13783], [136.1728, 35.1376], [136.1726, 35.13749], [136.1713, 35.1368], [136.17067, 35.13646], [136.16978, 35.13599], [136.16941, 35.13578], [136.16935, 35.13576], [136.16869, 35.1354], [136.16847, 35.13529], [136.1684, 35.13526], [136.16751, 35.13478], [136.167, 35.1345], [136.16659, 35.13429], [136.16614, 35.13404], [136.16585, 35.13388], [136.16552, 35.13371], [136.16524, 35.13357], [136.16511, 35.1335], [136.16499, 35.13343], [136.16443, 35.13315], [136.16362, 35.13275], [136.16327, 35.13259], [136.16321, 35.13256], [136.16316, 35.13254], [136.16313, 35.13253], [136.1631, 35.13251], [136.16277, 35.13236], [136.16166, 35.13189], [136.16161, 35.13188], [136.16042, 35.13139], [136.16033, 35.13135], [136.16023, 35.1313], [136.16012, 35.13127], [136.15983, 35.13114], [136.15934, 35.13094], [136.15932, 35.13092], [136.15918, 35.13087], [136.15913, 35.13086], [136.15769, 35.13027], [136.1574, 35.13015], [136.15707, 35.13001], [136.15649, 35.12977], [136.15614, 35.12963], [136.15583, 35.12951], [136.15532, 35.1293], [136.15508, 35.12921], [136.15483, 35.12911], [136.15458, 35.129], [136.15448, 35.12896], [136.15361, 35.1286], [136.15344, 35.12854], [136.15329, 35.12847], [136.15277, 35.12825], [136.15131, 35.12766], [136.15099, 35.12754], [136.15051, 35.12734], [136.15018, 35.12721], [136.14991, 35.1271], [136.14805, 35.12634], [136.14757, 35.12614], [136.14746, 35.1261], [136.14718, 35.12598], [136.14602, 35.1255], [136.146, 35.12549], [136.14584, 35.12543], [136.14571, 35.12537], [136.14395, 35.12466], [136.14386, 35.12462], [136.14259, 35.1241], [136.1409, 35.12341], [136.14067, 35.12331], [136.13962, 35.12288], [136.13868, 35.12249], [136.13848, 35.12241], [136.13837, 35.12237], [136.13766, 35.12207], [136.13764, 35.12206], [136.13669, 35.12167], [136.13589, 35.12134], [136.13501, 35.12098], [136.13492, 35.12095], [136.1346, 35.12082], [136.13445, 35.12075], [136.13412, 35.1206], [136.13357, 35.12037], [136.13332, 35.12027], [136.13322, 35.12022], [136.13245, 35.1199], [136.1317, 35.11956], [136.13166, 35.11955], [136.13141, 35.11944], [136.13137, 35.11942], [136.13108, 35.11928], [136.13078, 35.11915], [136.13073, 35.11912], [136.13063, 35.11908], [136.12997, 35.11877], [136.12984, 35.11872], [136.12961, 35.11861], [136.12904, 35.11834], [136.12841, 35.11805], [136.12745, 35.11758], [136.12677, 35.11725], [136.12655, 35.11715], [136.12636, 35.11706], [136.12604, 35.1169], [136.12574, 35.11676], [136.12507, 35.11644], [136.12364, 35.11575], [136.12335, 35.11562], [136.12312, 35.11551], [136.1226, 35.11527], [136.12231, 35.11512], [136.12213, 35.11505], [136.1191, 35.11358], [136.11623, 35.11222], [136.11588, 35.11205], [136.11424, 35.11129], [136.11331, 35.11085], [136.11141, 35.10999], [136.10889, 35.10895], [136.10782, 35.1085], [136.10503, 35.1074], [136.1035, 35.10679], [136.10307, 35.10662], [136.10244, 35.10636], [136.10025, 35.10546], [136.09773, 35.10446], [136.09539, 35.10353], [136.09347, 35.10276], [136.09287, 35.10251], [136.09108, 35.1018], [136.08844, 35.10074], [136.08565, 35.09962], [136.08447, 35.09914], [136.08382, 35.09888], [136.08306, 35.09858], [136.08095, 35.09773], [136.07783, 35.09648], [136.07553, 35.09554], [136.07391, 35.09484], [136.07359, 35.09471], [136.07152, 35.09376], [136.06959, 35.09289], [136.06789, 35.09208], [136.06625, 35.09127], [136.06432, 35.0902], [136.06221, 35.08902], [136.06083, 35.08822], [136.05899, 35.08708], [136.05868, 35.08689], [136.05811, 35.08655], [136.05699, 35.08583], [136.05548, 35.08488], [136.05394, 35.08388], [136.05226, 35.08281], [136.05171, 35.08245], [136.04988, 35.08128], [136.04956, 35.08107], [136.04887, 35.08062], [136.04846, 35.08036], [136.04841, 35.08033], [136.04803, 35.08009], [136.04743, 35.07972], [136.04709, 35.07949], [136.04635, 35.07902], [136.04566, 35.07857], [136.04559, 35.07854], [136.04555, 35.0785], [136.04481, 35.07803], [136.04408, 35.07757], [136.04396, 35.07749], [136.04381, 35.07739], [136.04299, 35.07687], [136.04211, 35.0763], [136.04208, 35.07629], [136.04138, 35.07584], [136.04101, 35.07558], [136.04053, 35.07528], [136.04003, 35.07495], [136.03966, 35.07471], [136.03947, 35.07458], [136.03918, 35.07442], [136.03751, 35.07333], [136.03745, 35.07328], [136.03645, 35.07264], [136.03638, 35.07259], [136.03565, 35.07212], [136.03538, 35.07194], [136.0352, 35.07183], [136.03451, 35.07138], [136.03441, 35.07132], [136.0341, 35.07112], [136.03355, 35.07077], [136.03346, 35.07071], [136.03305, 35.07045], [136.0327, 35.07021], [136.03268, 35.0702], [136.03262, 35.07017], [136.0323, 35.06996], [136.03099, 35.06911], [136.03082, 35.06898], [136.03067, 35.06889], [136.03038, 35.06869], [136.02988, 35.06834], [136.02936, 35.06799], [136.02905, 35.06775], [136.02842, 35.06728], [136.02792, 35.06689], [136.0278, 35.06679], [136.02679, 35.06598], [136.02587, 35.06521], [136.02545, 35.06484], [136.02516, 35.06459], [136.02511, 35.06454], [136.0249, 35.06434], [136.02453, 35.06401], [136.02339, 35.06288], [136.02316, 35.06266], [136.02272, 35.06218], [136.02251, 35.06196], [136.02231, 35.06176], [136.02184, 35.06126], [136.02029, 35.0597], [136.0198, 35.05923], [136.01935, 35.05877], [136.01908, 35.05851], [136.0188, 35.05823], [136.01847, 35.0579], [136.01835, 35.05779]]}, "properties": {"id": "GEOM_TOKYO_0981", "route_id": "R_3B2E9FFD", "route_name": null, "route_color": null, "route_text_color": null, "representation": "service_path", "min_zoom": 0, "max_zoom": 24, "offset_rank": 0}}, {"type": "Feature", "bbox": [135.76127, 34.96932, 136.01835, 35.05779], "geometry": {"type": "LineString", "coordinates": [[136.01835, 35.05779], [136.01827, 35.0577], [136.01715, 35.0566], [136.01686, 35.05631], [136.01675, 35.0562], [136.0167, 35.05616], [136.01661, 35.05606], [136.01578, 35.05523], [136.01543, 35.05489], [136.0148, 35.05426], [136.01463, 35.05408], [136.01441, 35.05387], [136.01384, 35.05331], [136.01299, 35.05247], [136.01272, 35.05221], [136.01201, 35.05151], [136.01138, 35.05091], [136.01087, 35.05041], [136.01065, 35.05019], [136.00928, 35.04886], [136.00923, 35.04881], [136.00908, 35.04866], [136.00856, 35.04815], [136.0082, 35.04781], [136.00754, 35.04715], [136.00642, 35.04605], [136.00621, 35.04585], [136.00618, 35.0458], [136.0056, 35.04524], [136.00525, 35.04489], [136.00495, 35.04459], [136.00493, 35.04456], [136.00426, 35.04391], [136.00353, 35.04317], [136.00336, 35.043], [136.00295, 35.04258], [136.00286, 35.0425], [136.00278, 35.04241], [136.00236, 35.04199], [136.00233, 35.04195], [136.00231, 35.04193], [136.00184, 35.04146], [136.0018, 35.04143], [136.00163, 35.04126], [136.00139, 35.04101], [136.0013, 35.04092], [136.00119, 35.0408], [136.00113, 35.04073], [136.00105, 35.04067], [136.00085, 35.04047], [136.00075, 35.04036], [136.00039, 35.04001], [136.0003, 35.0399], [135.99977, 35.03939], [135.99961, 35.03923], [135.99951, 35.03913], [135.99916, 35.03878], [135.99744, 35.03708], [135.99734, 35.03698], [135.99726, 35.03689], [135.99714, 35.03675], [135.99626, 35.0359], [135.9953, 35.03498], [135.99481, 35.03448], [135.99349, 35.03318], [135.99271, 35.03239], [135.99244, 35.03212], [135.99162, 35.03127], [135.99122, 35.03089], [135.99095, 35.03062], [135.98967, 35.02936], [135.98942, 35.02911], [135.98895, 35.02864], [135.98859, 35.02828], [135.98774, 35.02742], [135.98696, 35.02664], [135.98675, 35.02642], [135.98623, 35.0259], [135.98486, 35.02454], [135.98404, 35.02372], [135.98371, 35.02339], [135.98223, 35.02184], [135.98196, 35.02154], [135.98176, 35.02133], [135.98005, 35.0194], [135.97969, 35.019], [135.9792, 35.01842], [135.97909, 35.01828], [135.97863, 35.01774], [135.97832, 35.01737], [135.97773, 35.01669], [135.97745, 35.01637], [135.97709, 35.01596], [135.97561, 35.01421], [135.97469, 35.01315], [135.9745, 35.01292], [135.97349, 35.0117], [135.9721, 35.01012], [135.97121, 35.00908], [135.97065, 35.00843], [135.97024, 35.00797], [135.96942, 35.00701], [135.96834, 35.00574], [135.96712, 35.00433], [135.9664, 35.00348], [135.96618, 35.00323], [135.96601, 35.00303], [135.96482, 35.00172], [135.9638, 35.0006], [135.96316, 34.99997], [135.96249, 34.99932], [135.96214, 34.99902], [135.9613, 34.9983], [135.96045, 34.99763], [135.96018, 34.99741], [135.95923, 34.99663], [135.95863, 34.99614], [135.95703, 34.99482], [135.95565, 34.99369], [135.95466, 34.99288], [135.95443, 34.99269], [135.95368, 34.99208], [135.9533, 34.99177], [135.95273, 34.99128], [135.95237, 34.99099], [135.95227, 34.99091], [135.95202, 34.9907], [135.95131, 34.99013], [135.95074, 34.98968], [135.94943, 34.98858], [135.94812, 34.98751], [135.94739, 34.98691], [135.94642, 34.98611], [135.94557, 34.98542], [135.94477, 34.98477], [135.94454, 34.98458], [135.94399, 34.98413], [135.94387, 34.98403], [135.94288, 34.98321], [135.94227, 34.98272], [135.94205, 34.98253], [135.94161, 34.98218], [135.9402, 34.98102], [135.93911, 34.98013], [135.93819, 34.97939], [135.93738, 34.97873], [135.9365, 34.97798], [135.93526, 34.97698], [135.93414, 34.97607], [135.93331, 34.97539], [135.93223, 34.97461], [135.93176, 34.97427], [135.93137, 34.97398], [135.92999, 34.97315], [135.92941, 34.97284], [135.9288, 34.97252], [135.92621, 34.97141], [135.9243, 34.97076], [135.92255, 34.97026], [135.92115, 34.96992], [135.91915, 34.96958], [135.91895, 34.96953], [135.91764, 34.96941], [135.91709, 34.96936], [135.91603, 34.96932], [135.91451, 34.96934], [135.91234, 34.96948], [135.91068, 34.9696], [135.90689, 34.96985], [135.90273, 34.97017], [135.90154, 34.97029], [135.90121, 34.97033], [135.89992, 34.97054], [135.89966, 34.9706], [135.8988, 34.97077], [135.89815, 34.9709], [135.89793, 34.97094], [135.89777, 34.97097], [135.89637, 34.97123], [135.89494, 34.97151], [135.8945, 34.9716], [135.89425, 34.97164], [135.89389, 34.97172], [135.89372, 34.97175], [135.89311, 34.97187], [135.89235, 34.97202], [135.89208, 34.97208], [135.89169, 34.97215], [135.89098, 34.97228], [135.8897, 34.97245], [135.88939, 34.97251], [135.8879, 34.97273], [135.88756, 34.97277], [135.88583, 34.973], [135.88492, 34.97313], [135.88445, 34.9732], [135.88308, 34.9734], [135.88277, 34.97344], [135.88048, 34.97378], [135.88019, 34.97383], [135.87942, 34.97394], [135.87558, 34.97447], [135.87215, 34.97492], [135.86863, 34.97531], [135.86488, 34.97573], [135.86209, 34.97604], [135.85505, 34.97685], [135.8539, 34.97699], [135.85208, 34.97719], [135.8509, 34.97733], [135.8463, 34.97782], [135.8411, 34.97841], [135.84006, 34.97852], [135.83384, 34.9792], [135.83011, 34.97961], [135.8291, 34.97974], [135.82858, 34.97981], [135.82694, 34.98001], [135.82677, 34.98003], [135.82277, 34.98052], [135.82096, 34.98071], [135.82083, 34.98072], [135.81964, 34.98085], [135.81833, 34.98095], [135.81633, 34.98108], [135.81552, 34.98111], [135.81448, 34.98113], [135.8099, 34.98119], [135.8087, 34.98121], [135.8041, 34.98126], [135.80079, 34.98131], [135.79974, 34.98132], [135.79882, 34.98138], [135.79814, 34.98144], [135.79674, 34.98159], [135.7957, 34.98173], [135.79343, 34.98207], [135.79145, 34.98235], [135.78912, 34.98273], [135.78597, 34.98323], [135.78385, 34.98353], [135.78183, 34.98383], [135.77092, 34.98542], [135.76962, 34.98535], [135.76935, 34.98534], [135.76922, 34.98533], [135.76878, 34.98531], [135.76861, 34.9853], [135.76795, 34.98527], [135.76655, 34.98521], [135.7656, 34.98514], [135.76294, 34.98487], [135.76127, 34.98466]]}, "properties": {"id": "GEOM_TOKYO_0982", "route_id": "R_3B2E9FFD", "route_name": null, "route_color": null, "route_text_color": null, "representation": "service_path", "min_zoom": 0, "max_zoom": 24, "offset_rank": 0}}]}