{"type": "FeatureCollection", "features": [{"type": "Feature", "bbox": [139.7273, 37.01438, 139.7273, 37.01438], "geometry": {"type": "Point", "coordinates": [139.7273, 37.01438]}, "properties": {"id": "PS_83B481CFA499", "station_group_id": "SG_D629A742A110", "name_en": "上三依塩原温泉口", "name_ja": "上三依塩原温泉口", "label_rank": 72, "tags": ["tokyo", "v3"]}}, {"type": "Feature", "bbox": [139.699325, 36.9852, 139.699325, 36.9852], "geometry": {"type": "Point", "coordinates": [139.699325, 36.9852]}, "properties": {"id": "PS_CC46D4CD8DEE", "station_group_id": "SG_32452D74500E", "name_en": "中三依温泉", "name_ja": "中三依温泉", "label_rank": 72, "tags": ["tokyo", "v3"]}}, {"type": "Feature", "bbox": [139.77431, 37.203265, 139.77431, 37.203265], "geometry": {"type": "Point", "coordinates": [139.77431, 37.203265]}, "properties": {"id": "PS_233BA1E5A3C6", "station_group_id": "SG_777891F094FF", "name_en": "会津田島", "name_ja": "会津田島", "label_rank": 72, "tags": ["tokyo", "v3"]}}, {"type": "Feature", "bbox": [139.70512333333332, 37.09002666666667, 139.70512333333332, 37.09002666666667], "geometry": {"type": "Point", "coordinates": [139.70512333333332, 37.09002666666667]}, "properties": {"id": "PS_EF9797A60666", "station_group_id": "SG_153D562DD6CD", "name_en": "会津高原尾瀬口", "name_ja": "会津高原尾瀬口", "label_rank": 72, "tags": ["tokyo", "v3"]}}, {"type": "Feature", "bbox": [139.70512333333332, 37.09002666666667, 139.70512333333332, 37.09002666666667], "geometry": {"type": "Point", "coordinates": [139.70512333333332, 37.09002666666667]}, "properties": {"id": "PS_3ABD52D58529", "station_group_id": "SG_153D562DD6CD", "name_en": "会津高原尾瀬口", "name_ja": "会津高原尾瀬口", "label_rank": 72, "tags": ["tokyo", "v3"]}}]}