{"type": "FeatureCollection", "features": [{"type": "Feature", "bbox": [139.68086, 36.72801, 139.68086, 36.72801], "geometry": {"type": "Point", "coordinates": [139.68086, 36.72801]}, "properties": {"id": "PS_C9D6BEF5BCD7", "station_group_id": "SG_62ECE2C5ABEA", "name_en": "上今市", "name_ja": "上今市", "label_rank": 72, "tags": ["tokyo", "v3"]}}, {"type": "Feature", "bbox": [139.69277, 36.7256, 139.69277, 36.7256], "geometry": {"type": "Point", "coordinates": [139.69277, 36.7256]}, "properties": {"id": "PS_5D7DF056C166", "station_group_id": "SG_25AA8D611688", "name_en": "下今市", "name_ja": "下今市", "label_rank": 72, "tags": ["tokyo", "v3"]}}, {"type": "Feature", "bbox": [139.69277, 36.7256, 139.69277, 36.7256], "geometry": {"type": "Point", "coordinates": [139.69277, 36.7256]}, "properties": {"id": "PS_525340D89748", "station_group_id": "SG_25AA8D611688", "name_en": "下今市", "name_ja": "下今市", "label_rank": 72, "tags": ["tokyo", "v3"]}}, {"type": "Feature", "bbox": [139.713575, 36.760795, 139.713575, 36.760795], "geometry": {"type": "Point", "coordinates": [139.713575, 36.760795]}, "properties": {"id": "PS_C9F58FC7E256", "station_group_id": "SG_CD23587964AD", "name_en": "大桑", "name_ja": "大桑", "label_rank": 72, "tags": ["tokyo", "v3"]}}, {"type": "Feature", "bbox": [139.69194, 36.732275, 139.69194, 36.732275], "geometry": {"type": "Point", "coordinates": [139.69194, 36.732275]}, "properties": {"id": "PS_F373785FD434", "station_group_id": "SG_501FF6694869", "name_en": "大谷向", "name_ja": "大谷向", "label_rank": 72, "tags": ["tokyo", "v3"]}}, {"type": "Feature", "bbox": [139.7065, 36.80224, 139.7065, 36.80224], "geometry": {"type": "Point", "coordinates": [139.7065, 36.80224]}, "properties": {"id": "PS_3C420FA36279", "station_group_id": "SG_0187CD4C0DF4", "name_en": "小佐越", "name_ja": "小佐越", "label_rank": 72, "tags": ["tokyo", "v3"]}}, {"type": "Feature", "bbox": [139.70373999999998, 36.884145000000004, 139.70373999999998, 36.884145000000004], "geometry": {"type": "Point", "coordinates": [139.70373999999998, 36.884145000000004]}, "properties": {"id": "PS_72AABC96320E", "station_group_id": "SG_598A86BCBB9F", "name_en": "川治温泉", "name_ja": "川治温泉", "label_rank": 72, "tags": ["tokyo", "v3"]}}, {"type": "Feature", "bbox": [139.7027675, 36.895205000000004, 139.7027675, 36.895205000000004], "geometry": {"type": "Point", "coordinates": [139.7027675, 36.895205000000004]}, "properties": {"id": "PS_B7EED8CB2941", "station_group_id": "SG_B9A9493034CB", "name_en": "川治湯元", "name_ja": "川治湯元", "label_rank": 72, "tags": ["tokyo", "v3"]}}, {"type": "Feature", "bbox": [139.73300999999998, 36.852455, 139.73300999999998, 36.852455], "geometry": {"type": "Point", "coordinates": [139.73300999999998, 36.852455]}, "properties": {"id": "PS_007CF9B61B69", "station_group_id": "SG_3A2B83E5E28E", "name_en": "新藤原", "name_ja": "新藤原", "label_rank": 72, "tags": ["tokyo", "v3"]}}, {"type": "Feature", "bbox": [139.71071, 36.77977, 139.71071, 36.77977], "geometry": {"type": "Point", "coordinates": [139.71071, 36.77977]}, "properties": {"id": "PS_58F142CF6411", "station_group_id": "SG_987B46147FE2", "name_en": "新高徳", "name_ja": "新高徳", "label_rank": 72, "tags": ["tokyo", "v3"]}}, {"type": "Feature", "bbox": [139.70897765222182, 36.80829970578461, 139.70897765222182, 36.80829970578461], "geometry": {"type": "Point", "coordinates": [139.70897765222182, 36.80829970578461]}, "properties": {"id": "PS_458F7C299C4A", "station_group_id": "SG_39245AF68FD5", "name_en": "東武ワールドスクウェア", "name_ja": "東武ワールドスクウェア", "label_rank": 72, "tags": ["tokyo", "v3"]}}, {"type": "Feature", "bbox": [139.61972, 36.74824, 139.61972, 36.74824], "geometry": {"type": "Point", "coordinates": [139.61972, 36.74824]}, "properties": {"id": "PS_3F8FBB9829CE", "station_group_id": "SG_D95B6D4A55A2", "name_en": "東武日光", "name_ja": "東武日光", "label_rank": 72, "tags": ["tokyo", "v3"]}}, {"type": "Feature", "bbox": [139.62014, 36.747935, 139.62014, 36.747935], "geometry": {"type": "Point", "coordinates": [139.62014, 36.747935]}, "properties": {"id": "PS_3EF02A9DE2DA", "station_group_id": "SG_D95B6D4A55A2", "name_en": "東武日光", "name_ja": "東武日光", "label_rank": 72, "tags": ["tokyo", "v3"]}}, {"type": "Feature", "bbox": [139.68860999999998, 36.929545000000005, 139.68860999999998, 36.929545000000005], "geometry": {"type": "Point", "coordinates": [139.68860999999998, 36.929545000000005]}, "properties": {"id": "PS_6BE3618A9F1F", "station_group_id": "SG_060165B0E069", "name_en": "湯西川温泉", "name_ja": "湯西川温泉", "label_rank": 72, "tags": ["tokyo", "v3"]}}, {"type": "Feature", "bbox": [139.722825, 36.841575, 139.722825, 36.841575], "geometry": {"type": "Point", "coordinates": [139.722825, 36.841575]}, "properties": {"id": "PS_6E7904B75B50", "station_group_id": "SG_18FF0320993E", "name_en": "鬼怒川公園", "name_ja": "鬼怒川公園", "label_rank": 72, "tags": ["tokyo", "v3"]}}, {"type": "Feature", "bbox": [139.71668, 36.822525, 139.71668, 36.822525], "geometry": {"type": "Point", "coordinates": [139.71668, 36.822525]}, "properties": {"id": "PS_8C2F96E96827", "station_group_id": "SG_0D8C24DFC00E", "name_en": "鬼怒川温泉", "name_ja": "鬼怒川温泉", "label_rank": 72, "tags": ["tokyo", "v3"]}}, {"type": "Feature", "bbox": [139.71857333333332, 36.86094666666667, 139.71857333333332, 36.86094666666667], "geometry": {"type": "Point", "coordinates": [139.71857333333332, 36.86094666666667]}, "properties": {"id": "PS_C46946651617", "station_group_id": "SG_A581F6D04FFE", "name_en": "龍王峡", "name_ja": "龍王峡", "label_rank": 72, "tags": ["tokyo", "v3"]}}]}