{"type": "FeatureCollection", "features": [{"type": "Feature", "bbox": [139.82953500000002, 36.466745, 139.82953500000002, 36.466745], "geometry": {"type": "Point", "coordinates": [139.82953500000002, 36.466745]}, "properties": {"id": "PS_6CC48F9ECC5B", "station_group_id": "SG_FC0B0C633416", "operator_id": "tobu", "operator_ids": "tobu", "name_en": "おもちゃのまち", "name_ja": "おもちゃのまち", "label_rank": 72, "tags": ["tokyo", "v3"]}}, {"type": "Feature", "bbox": [139.713905, 36.651375, 139.713905, 36.651375], "geometry": {"type": "Point", "coordinates": [139.713905, 36.651375]}, "properties": {"id": "PS_C28AB1D8A1F1", "station_group_id": "SG_8E4E209FF0E7", "operator_id": "tobu", "operator_ids": "tobu", "name_en": "下小代", "name_ja": "下小代", "label_rank": 72, "tags": ["tokyo", "v3"]}}, {"type": "Feature", "bbox": [139.737665, 36.58078, 139.737665, 36.58078], "geometry": {"type": "Point", "coordinates": [139.737665, 36.58078]}, "properties": {"id": "PS_3F0A4DA4E6B0", "station_group_id": "SG_AF979F2911F3", "operator_id": "tobu", "operator_ids": "tobu", "name_en": "北鹿沼", "name_ja": "北鹿沼", "label_rank": 72, "tags": ["tokyo", "v3"]}}, {"type": "Feature", "bbox": [139.82385, 36.451454999999996, 139.82385, 36.451454999999996], "geometry": {"type": "Point", "coordinates": [139.82385, 36.451454999999996]}, "properties": {"id": "PS_9B38CE7778B6", "station_group_id": "SG_60F0E053D9AF", "operator_id": "tobu", "operator_ids": "tobu", "name_en": "国谷", "name_ja": "国谷", "label_rank": 72, "tags": ["tokyo", "v3"]}}, {"type": "Feature", "bbox": [139.83562, 36.485645000000005, 139.83562, 36.485645000000005], "geometry": {"type": "Point", "coordinates": [139.83562, 36.485645000000005]}, "properties": {"id": "PS_53E66D83D153", "station_group_id": "SG_3F90A086BDEC", "operator_id": "tobu", "operator_ids": "tobu", "name_en": "安塚", "name_ja": "安塚", "label_rank": 72, "tags": ["tokyo", "v3"]}}, {"type": "Feature", "bbox": [139.74475999999999, 36.556985, 139.74475999999999, 36.556985], "geometry": {"type": "Point", "coordinates": [139.74475999999999, 36.556985]}, "properties": {"id": "PS_B1B30291F353", "station_group_id": "SG_9FC4CEBFB2C8", "operator_id": "tobu", "operator_ids": "tobu", "name_en": "新鹿沼", "name_ja": "新鹿沼", "label_rank": 72, "tags": ["tokyo", "v3"]}}, {"type": "Feature", "bbox": [139.71220499999998, 36.676555, 139.71220499999998, 36.676555], "geometry": {"type": "Point", "coordinates": [139.71220499999998, 36.676555]}, "properties": {"id": "PS_90B3BA441541", "station_group_id": "SG_1DC6A0C27A2D", "operator_id": "tobu", "operator_ids": "tobu", "name_en": "明神", "name_ja": "明神", "label_rank": 72, "tags": ["tokyo", "v3"]}}, {"type": "Feature", "bbox": [139.749485, 36.466300000000004, 139.749485, 36.466300000000004], "geometry": {"type": "Point", "coordinates": [139.749485, 36.466300000000004]}, "properties": {"id": "PS_7E59606A88FA", "station_group_id": "SG_45047BC04F44", "operator_id": "tobu", "operator_ids": "tobu", "name_en": "東武金崎", "name_ja": "東武金崎", "label_rank": 72, "tags": ["tokyo", "v3"]}}, {"type": "Feature", "bbox": [139.70778, 36.6194, 139.70778, 36.6194], "geometry": {"type": "Point", "coordinates": [139.70778, 36.6194]}, "properties": {"id": "PS_B9EC2C39316E", "station_group_id": "SG_A75FE6BC3BB5", "operator_id": "tobu", "operator_ids": "tobu", "name_en": "板荷", "name_ja": "板荷", "label_rank": 72, "tags": ["tokyo", "v3"]}}, {"type": "Feature", "bbox": [139.74524000000002, 36.50706, 139.74524000000002, 36.50706], "geometry": {"type": "Point", "coordinates": [139.74524000000002, 36.50706]}, "properties": {"id": "PS_89D4FFAD1699", "station_group_id": "SG_BD8B089E2E62", "operator_id": "tobu", "operator_ids": "tobu", "name_en": "楡木", "name_ja": "楡木", "label_rank": 72, "tags": ["tokyo", "v3"]}}, {"type": "Feature", "bbox": [139.74174499999998, 36.53324, 139.74174499999998, 36.53324], "geometry": {"type": "Point", "coordinates": [139.74174499999998, 36.53324]}, "properties": {"id": "PS_EE0975CDC8A0", "station_group_id": "SG_482FBE2D4C7D", "operator_id": "tobu", "operator_ids": "tobu", "name_en": "樅山", "name_ja": "樅山", "label_rank": 72, "tags": ["tokyo", "v3"]}}, {"type": "Feature", "bbox": [139.850305, 36.514250000000004, 139.850305, 36.514250000000004], "geometry": {"type": "Point", "coordinates": [139.850305, 36.514250000000004]}, "properties": {"id": "PS_423AFA23F577", "station_group_id": "SG_4D0AFDA05DEF", "operator_id": "tobu", "operator_ids": "tobu", "name_en": "西川田", "name_ja": "西川田", "label_rank": 72, "tags": ["tokyo", "v3"]}}]}