{"type": "FeatureCollection", "features": [{"type": "Feature", "bbox": [139.579135, 36.316845, 139.579135, 36.316845], "geometry": {"type": "Point", "coordinates": [139.579135, 36.316845]}, "properties": {"id": "PS_2C08B82A95C9", "station_group_id": "SG_84B64714C355", "name_en": "佐野", "name_ja": "佐野", "label_rank": 72, "tags": ["tokyo", "v3"]}}, {"type": "Feature", "bbox": [139.5759, 36.30624, 139.5759, 36.30624], "geometry": {"type": "Point", "coordinates": [139.5759, 36.30624]}, "properties": {"id": "PS_63D8CDCEB5C3", "station_group_id": "SG_030D4CB89709", "name_en": "佐野市", "name_ja": "佐野市", "label_rank": 72, "tags": ["tokyo", "v3"]}}, {"type": "Feature", "bbox": [139.70971500000002, 36.194415, 139.70971500000002, 36.194415], "geometry": {"type": "Point", "coordinates": [139.70971500000002, 36.194415]}, "properties": {"id": "PS_92C0540053B8", "station_group_id": "SG_266FB858F670", "name_en": "古河", "name_ja": "古河", "label_rank": 72, "tags": ["tokyo", "v3"]}}, {"type": "Feature", "bbox": [139.74102, 36.407585, 139.74102, 36.407585], "geometry": {"type": "Point", "coordinates": [139.74102, 36.407585]}, "properties": {"id": "PS_098F7A9D2214", "station_group_id": "SG_8A0A887540B5", "name_en": "合戦場", "name_ja": "合戦場", "label_rank": 72, "tags": ["tokyo", "v3"]}}, {"type": "Feature", "bbox": [139.57934999999998, 36.345625, 139.57934999999998, 36.345625], "geometry": {"type": "Point", "coordinates": [139.57934999999998, 36.345625]}, "properties": {"id": "PS_32763CD990D4", "station_group_id": "SG_9C4395CE5E19", "name_en": "吉水", "name_ja": "吉水", "label_rank": 72, "tags": ["tokyo", "v3"]}}, {"type": "Feature", "bbox": [139.58033, 36.32844, 139.58033, 36.32844], "geometry": {"type": "Point", "coordinates": [139.58033, 36.32844]}, "properties": {"id": "PS_2AA64B9E449D", "station_group_id": "SG_CB12D68C06BF", "name_en": "堀米", "name_ja": "堀米", "label_rank": 72, "tags": ["tokyo", "v3"]}}, {"type": "Feature", "bbox": [139.80500999999998, 36.422435, 139.80500999999998, 36.422435], "geometry": {"type": "Point", "coordinates": [139.80500999999998, 36.422435]}, "properties": {"id": "PS_35457AA9B072", "station_group_id": "SG_8038022E4B81", "name_en": "壬生", "name_ja": "壬生", "label_rank": 72, "tags": ["tokyo", "v3"]}}, {"type": "Feature", "bbox": [139.59296, 36.378074999999995, 139.59296, 36.378074999999995], "geometry": {"type": "Point", "coordinates": [139.59296, 36.378074999999995]}, "properties": {"id": "PS_AA9DABEA98EC", "station_group_id": "SG_210F64358BF4", "name_en": "多田", "name_ja": "多田", "label_rank": 72, "tags": ["tokyo", "v3"]}}, {"type": "Feature", "bbox": [139.74745000000001, 36.42979, 139.74745000000001, 36.42979], "geometry": {"type": "Point", "coordinates": [139.74745000000001, 36.42979]}, "properties": {"id": "PS_D28351282465", "station_group_id": "SG_7242DD67AD35", "name_en": "家中", "name_ja": "家中", "label_rank": 72, "tags": ["tokyo", "v3"]}}, {"type": "Feature", "bbox": [139.806355, 36.313545000000005, 139.806355, 36.313545000000005], "geometry": {"type": "Point", "coordinates": [139.806355, 36.313545000000005]}, "properties": {"id": "PS_55DC775ADDB8", "station_group_id": "SG_8719975862DB", "name_en": "小山", "name_ja": "小山", "label_rank": 72, "tags": ["tokyo", "v3"]}}, {"type": "Feature", "bbox": [139.80662999999998, 36.31344, 139.80662999999998, 36.31344], "geometry": {"type": "Point", "coordinates": [139.80662999999998, 36.31344]}, "properties": {"id": "PS_7C63721FCE2D", "station_group_id": "SG_8719975862DB", "name_en": "小山", "name_ja": "小山", "label_rank": 72, "tags": ["tokyo", "v3"]}}, {"type": "Feature", "bbox": [139.84228000000002, 36.374485, 139.84228000000002, 36.374485], "geometry": {"type": "Point", "coordinates": [139.84228000000002, 36.374485]}, "properties": {"id": "PS_21938516B643", "station_group_id": "SG_D8BB91CEF032", "name_en": "小金井", "name_ja": "小金井", "label_rank": 72, "tags": ["tokyo", "v3"]}}, {"type": "Feature", "bbox": [139.68701499999997, 36.1927, 139.68701499999997, 36.1927], "geometry": {"type": "Point", "coordinates": [139.68701499999997, 36.1927]}, "properties": {"id": "PS_2F27157BE09E", "station_group_id": "SG_DA72E50AB8C5", "name_en": "新古河", "name_ja": "新古河", "label_rank": 72, "tags": ["tokyo", "v3"]}}, {"type": "Feature", "bbox": [139.701865, 36.33897, 139.701865, 36.33897], "geometry": {"type": "Point", "coordinates": [139.701865, 36.33897]}, "properties": {"id": "PS_F68C89D4F008", "station_group_id": "SG_527967636727", "name_en": "新大平下", "name_ja": "新大平下", "label_rank": 72, "tags": ["tokyo", "v3"]}}, {"type": "Feature", "bbox": [139.74235, 36.390060000000005, 139.74235, 36.390060000000005], "geometry": {"type": "Point", "coordinates": [139.74235, 36.390060000000005]}, "properties": {"id": "PS_FED0BC9663F6", "station_group_id": "SG_7162360D271D", "name_en": "新栃木", "name_ja": "新栃木", "label_rank": 72, "tags": ["tokyo", "v3"]}}, {"type": "Feature", "bbox": [139.74235, 36.390060000000005, 139.74235, 36.390060000000005], "geometry": {"type": "Point", "coordinates": [139.74235, 36.390060000000005]}, "properties": {"id": "PS_F301BE8E80CC", "station_group_id": "SG_7162360D271D", "name_en": "新栃木", "name_ja": "新栃木", "label_rank": 72, "tags": ["tokyo", "v3"]}}, {"type": "Feature", "bbox": [139.64862499999998, 36.222205, 139.64862499999998, 36.222205], "geometry": {"type": "Point", "coordinates": [139.64862499999998, 36.222205]}, "properties": {"id": "PS_3A325924C6AF", "station_group_id": "SG_F0B0E92F38CF", "name_en": "板倉東洋大前", "name_ja": "板倉東洋大前", "label_rank": 72, "tags": ["tokyo", "v3"]}}, {"type": "Feature", "bbox": [139.659955, 36.20659, 139.659955, 36.20659], "geometry": {"type": "Point", "coordinates": [139.659955, 36.20659]}, "properties": {"id": "PS_5B79DE99010D", "station_group_id": "SG_6E1F3E727D32", "name_en": "柳生", "name_ja": "柳生", "label_rank": 72, "tags": ["tokyo", "v3"]}}, {"type": "Feature", "bbox": [139.73149, 36.371669999999995, 139.73149, 36.371669999999995], "geometry": {"type": "Point", "coordinates": [139.73149, 36.371669999999995]}, "properties": {"id": "PS_BDAD68DC7DAA", "station_group_id": "SG_3FFD70016DC5", "name_en": "栃木", "name_ja": "栃木", "label_rank": 72, "tags": ["tokyo", "v3"]}}, {"type": "Feature", "bbox": [139.564905, 36.290225, 139.564905, 36.290225], "geometry": {"type": "Point", "coordinates": [139.564905, 36.290225]}, "properties": {"id": "PS_CBCC907336CC", "station_group_id": "SG_08CB6AB7F33E", "name_en": "田島", "name_ja": "田島", "label_rank": 72, "tags": ["tokyo", "v3"]}}, {"type": "Feature", "bbox": [139.58191, 36.36707, 139.58191, 36.36707], "geometry": {"type": "Point", "coordinates": [139.58191, 36.36707]}, "properties": {"id": "PS_C808B2C1490A", "station_group_id": "SG_CEDCC149CB8F", "name_en": "田沼", "name_ja": "田沼", "label_rank": 72, "tags": ["tokyo", "v3"]}}, {"type": "Feature", "bbox": [139.609285, 36.397885, 139.609285, 36.397885], "geometry": {"type": "Point", "coordinates": [139.609285, 36.397885]}, "properties": {"id": "PS_5F0CCF1853CD", "station_group_id": "SG_1647D0473758", "name_en": "葛生", "name_ja": "葛生", "label_rank": 72, "tags": ["tokyo", "v3"]}}, {"type": "Feature", "bbox": [139.6456, 36.255585, 139.6456, 36.255585], "geometry": {"type": "Point", "coordinates": [139.6456, 36.255585]}, "properties": {"id": "PS_99F5E343B237", "station_group_id": "SG_97390CBD2D1E", "name_en": "藤岡", "name_ja": "藤岡", "label_rank": 72, "tags": ["tokyo", "v3"]}}, {"type": "Feature", "bbox": [139.77259500000002, 36.408775, 139.77259500000002, 36.408775], "geometry": {"type": "Point", "coordinates": [139.77259500000002, 36.408775]}, "properties": {"id": "PS_381B8C6D561D", "station_group_id": "SG_9F81ACC9055A", "name_en": "野州大塚", "name_ja": "野州大塚", "label_rank": 72, "tags": ["tokyo", "v3"]}}, {"type": "Feature", "bbox": [139.75378, 36.40156, 139.75378, 36.40156], "geometry": {"type": "Point", "coordinates": [139.75378, 36.40156]}, "properties": {"id": "PS_00D7DD9DCCBC", "station_group_id": "SG_F899F6D6F033", "name_en": "野州平川", "name_ja": "野州平川", "label_rank": 72, "tags": ["tokyo", "v3"]}}, {"type": "Feature", "bbox": [139.73479500000002, 36.229905, 139.73479500000002, 36.229905], "geometry": {"type": "Point", "coordinates": [139.73479500000002, 36.229905]}, "properties": {"id": "PS_E12120E8430A", "station_group_id": "SG_D75EFED2E92D", "name_en": "野木", "name_ja": "野木", "label_rank": 72, "tags": ["tokyo", "v3"]}}, {"type": "Feature", "bbox": [139.7611, 36.257895000000005, 139.7611, 36.257895000000005], "geometry": {"type": "Point", "coordinates": [139.7611, 36.257895000000005]}, "properties": {"id": "PS_2ED00F4846F2", "station_group_id": "SG_A78A47E890FD", "name_en": "間々田", "name_ja": "間々田", "label_rank": 72, "tags": ["tokyo", "v3"]}}, {"type": "Feature", "bbox": [139.68493, 36.31653, 139.68493, 36.31653], "geometry": {"type": "Point", "coordinates": [139.68493, 36.31653]}, "properties": {"id": "PS_D8143FA57CB7", "station_group_id": "SG_637DA4069FAF", "name_en": "静和", "name_ja": "静和", "label_rank": 72, "tags": ["tokyo", "v3"]}}]}