{"type": "FeatureCollection", "features": [{"type": "Feature", "bbox": [139.774595, 35.935955, 139.774595, 35.935955], "geometry": {"type": "Point", "coordinates": [139.774595, 35.935955]}, "properties": {"id": "PS_06676897C92B", "station_group_id": "SG_4A539391B5FB", "operator_id": "tobu", "operator_ids": "tobu", "name_en": "せんげん台", "name_ja": "せんげん台", "label_rank": 72, "tags": ["tokyo", "v3"]}}, {"type": "Feature", "bbox": [139.76603999999998, 35.964875, 139.76603999999998, 35.964875], "geometry": {"type": "Point", "coordinates": [139.76603999999998, 35.964875]}, "properties": {"id": "PS_E3D005BA690B", "station_group_id": "SG_C5C64668F66B", "operator_id": "tobu", "operator_ids": "tobu", "name_en": "一ノ割", "name_ja": "一ノ割", "label_rank": 72, "tags": ["tokyo", "v3"]}}, {"type": "Feature", "bbox": [139.66601, 35.936490000000006, 139.66601, 35.936490000000006], "geometry": {"type": "Point", "coordinates": [139.66601, 35.936490000000006]}, "properties": {"id": "PS_D09C4EBE2F6E", "station_group_id": "SG_C3C752B05162", "operator_id": "tobu", "operator_ids": "tobu", "name_en": "七里", "name_ja": "七里", "label_rank": 72, "tags": ["tokyo", "v3"]}}, {"type": "Feature", "bbox": [139.58881, 35.973020000000005, 139.58881, 35.973020000000005], "geometry": {"type": "Point", "coordinates": [139.58881, 35.973020000000005]}, "properties": {"id": "PS_F021EF4408D1", "station_group_id": "SG_80F1346C96BF", "operator_id": "jr_east", "operator_ids": "jr_east", "name_en": "上尾", "name_ja": "上尾", "label_rank": 72, "tags": ["tokyo", "v3"]}}, {"type": "Feature", "bbox": [139.677375, 36.06581, 139.677375, 36.06581], "geometry": {"type": "Point", "coordinates": [139.677375, 36.06581]}, "properties": {"id": "PS_1FF1830F62B0", "station_group_id": "SG_57437B5FF56F", "operator_id": "jr_east", "operator_ids": "jr_east", "name_en": "久喜", "name_ja": "久喜", "label_rank": 92, "tags": ["tokyo", "v3"]}}, {"type": "Feature", "bbox": [139.67761000000002, 36.06555, 139.67761000000002, 36.06555], "geometry": {"type": "Point", "coordinates": [139.67761000000002, 36.06555]}, "properties": {"id": "PS_9DA948887C6C", "station_group_id": "SG_57437B5FF56F", "operator_id": "tobu", "operator_ids": "tobu", "name_en": "久喜", "name_ja": "久喜", "label_rank": 92, "tags": ["tokyo", "v3"]}}, {"type": "Feature", "bbox": [139.7423, 35.978575, 139.7423, 35.978575], "geometry": {"type": "Point", "coordinates": [139.7423, 35.978575]}, "properties": {"id": "PS_8F7A634B03EA", "station_group_id": "SG_9132E48EB581", "operator_id": "tobu", "operator_ids": "tobu", "name_en": "八木崎", "name_ja": "八木崎", "label_rank": 72, "tags": ["tokyo", "v3"]}}, {"type": "Feature", "bbox": [139.59557, 36.122955000000005, 139.59557, 36.122955000000005], "geometry": {"type": "Point", "coordinates": [139.59557, 36.122955000000005]}, "properties": {"id": "PS_0B748F2A8AAD", "station_group_id": "SG_71E716658BF0", "operator_id": "tobu", "operator_ids": "tobu", "name_en": "加須", "name_ja": "加須", "label_rank": 72, "tags": ["tokyo", "v3"]}}, {"type": "Feature", "bbox": [139.577575, 35.985150000000004, 139.577575, 35.985150000000004], "geometry": {"type": "Point", "coordinates": [139.577575, 35.985150000000004]}, "properties": {"id": "PS_351DD79BC801", "station_group_id": "SG_82C6DEDF3998", "operator_id": "jr_east", "operator_ids": "jr_east", "name_en": "北上尾", "name_ja": "北上尾", "label_rank": 72, "tags": ["tokyo", "v3"]}}, {"type": "Feature", "bbox": [139.74432, 35.989940000000004, 139.74432, 35.989940000000004], "geometry": {"type": "Point", "coordinates": [139.74432, 35.989940000000004]}, "properties": {"id": "PS_FDB1CE829F3B", "station_group_id": "SG_8B60A5D2A3B3", "operator_id": "tobu", "operator_ids": "tobu", "name_en": "北春日部", "name_ja": "北春日部", "label_rank": 72, "tags": ["tokyo", "v3"]}}, {"type": "Feature", "bbox": [139.71283, 36.11314, 139.71283, 36.11314], "geometry": {"type": "Point", "coordinates": [139.71283, 36.11314]}, "properties": {"id": "PS_385645DB5504", "station_group_id": "SG_D0CB941719B3", "operator_id": "tobu", "operator_ids": "tobu", "name_en": "南栗橋", "name_ja": "南栗橋", "label_rank": 72, "tags": ["tokyo", "v3"]}}, {"type": "Feature", "bbox": [139.80839500000002, 35.980599999999995, 139.80839500000002, 35.980599999999995], "geometry": {"type": "Point", "coordinates": [139.80839500000002, 35.980599999999995]}, "properties": {"id": "PS_9F67ECCB198A", "station_group_id": "SG_5C71BD8601B1", "operator_id": "tobu", "operator_ids": "tobu", "name_en": "南桜井", "name_ja": "南桜井", "label_rank": 72, "tags": ["tokyo", "v3"]}}, {"type": "Feature", "bbox": [139.7011, 36.039645, 139.7011, 36.039645], "geometry": {"type": "Point", "coordinates": [139.7011, 36.039645]}, "properties": {"id": "PS_AE1F1733E7F5", "station_group_id": "SG_756FA60F8B7F", "operator_id": "tobu", "operator_ids": "tobu", "name_en": "和戸", "name_ja": "和戸", "label_rank": 72, "tags": ["tokyo", "v3"]}}, {"type": "Feature", "bbox": [139.632195, 35.931915000000004, 139.632195, 35.931915000000004], "geometry": {"type": "Point", "coordinates": [139.632195, 35.931915000000004]}, "properties": {"id": "PS_12D684BACB2A", "station_group_id": "SG_B789EE9394EA", "operator_id": "jr_east", "operator_ids": "jr_east", "name_en": "土呂", "name_ja": "土呂", "label_rank": 72, "tags": ["tokyo", "v3"]}}, {"type": "Feature", "bbox": [139.738685, 36.004419999999996, 139.738685, 36.004419999999996], "geometry": {"type": "Point", "coordinates": [139.738685, 36.004419999999996]}, "properties": {"id": "PS_636E4C72161C", "station_group_id": "SG_A26676858C6A", "operator_id": "tobu", "operator_ids": "tobu", "name_en": "姫宮", "name_ja": "姫宮", "label_rank": 72, "tags": ["tokyo", "v3"]}}, {"type": "Feature", "bbox": [139.60952, 35.940529999999995, 139.60952, 35.940529999999995], "geometry": {"type": "Point", "coordinates": [139.60952, 35.940529999999995]}, "properties": {"id": "PS_B03B671A49C0", "station_group_id": "SG_BF289DD5477F", "operator_id": "jr_east", "operator_ids": "jr_east", "name_en": "宮原", "name_ja": "宮原", "label_rank": 72, "tags": ["tokyo", "v3"]}}, {"type": "Feature", "bbox": [139.69313, 35.95025, 139.69313, 35.95025], "geometry": {"type": "Point", "coordinates": [139.69313, 35.95025]}, "properties": {"id": "PS_2337832490D8", "station_group_id": "SG_880AF027425C", "operator_id": "tobu", "operator_ids": "tobu", "name_en": "岩槻", "name_ja": "岩槻", "label_rank": 72, "tags": ["tokyo", "v3"]}}, {"type": "Feature", "bbox": [139.834545, 35.97919, 139.834545, 35.97919], "geometry": {"type": "Point", "coordinates": [139.834545, 35.97919]}, "properties": {"id": "PS_B0D2EBEA20CD", "station_group_id": "SG_32EF77043484", "operator_id": "tobu", "operator_ids": "tobu", "name_en": "川間", "name_ja": "川間", "label_rank": 72, "tags": ["tokyo", "v3"]}}, {"type": "Feature", "bbox": [139.71491, 36.07407, 139.71491, 36.07407], "geometry": {"type": "Point", "coordinates": [139.71491, 36.07407]}, "properties": {"id": "PS_43892A18FC6D", "station_group_id": "SG_986FC0385D68", "operator_id": "tobu", "operator_ids": "tobu", "name_en": "幸手", "name_ja": "幸手", "label_rank": 72, "tags": ["tokyo", "v3"]}}, {"type": "Feature", "bbox": [139.67189000000002, 36.038250000000005, 139.67189000000002, 36.038250000000005], "geometry": {"type": "Point", "coordinates": [139.67189000000002, 36.038250000000005]}, "properties": {"id": "PS_2091AB730BF2", "station_group_id": "SG_C5C43BF20545", "operator_id": "jr_east", "operator_ids": "jr_east", "name_en": "新白岡", "name_ja": "新白岡", "label_rank": 72, "tags": ["tokyo", "v3"]}}, {"type": "Feature", "bbox": [139.60606, 35.93153, 139.60606, 35.93153], "geometry": {"type": "Point", "coordinates": [139.60606, 35.93153]}, "properties": {"id": "PS_48DC34189A01", "station_group_id": "SG_FDB621C402E5", "operator_id": "jr_east", "operator_ids": "jr_east", "name_en": "日進", "name_ja": "日進", "label_rank": 72, "tags": ["tokyo", "v3"]}}, {"type": "Feature", "bbox": [139.75263, 35.980149999999995, 139.75263, 35.980149999999995], "geometry": {"type": "Point", "coordinates": [139.75263, 35.980149999999995]}, "properties": {"id": "PS_771BDD46D369", "station_group_id": "SG_081F18632417", "operator_id": "tobu", "operator_ids": "tobu", "name_en": "春日部", "name_ja": "春日部", "label_rank": 92, "tags": ["tokyo", "v3"]}}, {"type": "Feature", "bbox": [139.75238, 35.979995, 139.75238, 35.979995], "geometry": {"type": "Point", "coordinates": [139.75238, 35.979995]}, "properties": {"id": "PS_FA9548F7F67A", "station_group_id": "SG_081F18632417", "operator_id": "tobu", "operator_ids": "tobu", "name_en": "春日部", "name_ja": "春日部", "label_rank": 92, "tags": ["tokyo", "v3"]}}, {"type": "Feature", "bbox": [139.714545, 36.05135, 139.714545, 36.05135], "geometry": {"type": "Point", "coordinates": [139.714545, 36.05135]}, "properties": {"id": "PS_023E7B1CC1D8", "station_group_id": "SG_70AE21CE3EC9", "operator_id": "tobu", "operator_ids": "tobu", "name_en": "杉戸高野台", "name_ja": "杉戸高野台", "label_rank": 72, "tags": ["tokyo", "v3"]}}, {"type": "Feature", "bbox": [139.64026, 35.948359999999994, 139.64026, 35.948359999999994], "geometry": {"type": "Point", "coordinates": [139.64026, 35.948359999999994]}, "properties": {"id": "PS_4FC8B82E0E8A", "station_group_id": "SG_78FBA4BB4434", "operator_id": "jr_east", "operator_ids": "jr_east", "name_en": "東大宮", "name_ja": "東大宮", "label_rank": 72, "tags": ["tokyo", "v3"]}}, {"type": "Feature", "bbox": [139.71227, 35.96329, 139.71227, 35.96329], "geometry": {"type": "Point", "coordinates": [139.71227, 35.96329]}, "properties": {"id": "PS_D42B084C015B", "station_group_id": "SG_5110D5E8AA2A", "operator_id": "tobu", "operator_ids": "tobu", "name_en": "東岩槻", "name_ja": "東岩槻", "label_rank": 72, "tags": ["tokyo", "v3"]}}, {"type": "Feature", "bbox": [139.72689, 36.024699999999996, 139.72689, 36.024699999999996], "geometry": {"type": "Point", "coordinates": [139.72689, 36.024699999999996]}, "properties": {"id": "PS_82D76B2F57B9", "station_group_id": "SG_3E612AA4B115", "operator_id": "tobu", "operator_ids": "tobu", "name_en": "東武動物公園", "name_ja": "東武動物公園", "label_rank": 92, "tags": ["tokyo", "v3"]}}, {"type": "Feature", "bbox": [139.72689, 36.024699999999996, 139.72689, 36.024699999999996], "geometry": {"type": "Point", "coordinates": [139.72689, 36.024699999999996]}, "properties": {"id": "PS_E10556678096", "station_group_id": "SG_3E612AA4B115", "operator_id": "tobu", "operator_ids": "tobu", "name_en": "東武動物公園", "name_ja": "東武動物公園", "label_rank": 92, "tags": ["tokyo", "v3"]}}, {"type": "Feature", "bbox": [139.67969499999998, 36.089635, 139.67969499999998, 36.089635], "geometry": {"type": "Point", "coordinates": [139.67969499999998, 36.089635]}, "properties": {"id": "PS_7C6FC25A2F47", "station_group_id": "SG_C171392CC3F1", "operator_id": "jr_east", "operator_ids": "jr_east", "name_en": "東鷲宮", "name_ja": "東鷲宮", "label_rank": 72, "tags": ["tokyo", "v3"]}}, {"type": "Feature", "bbox": [139.69403499999999, 36.135715000000005, 139.69403499999999, 36.135715000000005], "geometry": {"type": "Point", "coordinates": [139.69403499999999, 36.135715000000005]}, "properties": {"id": "PS_59FA7C03ED53", "station_group_id": "SG_4A85CCBF0481", "operator_id": "jr_east", "operator_ids": "jr_east", "name_en": "栗橋", "name_ja": "栗橋", "label_rank": 72, "tags": ["tokyo", "v3"]}}, {"type": "Feature", "bbox": [139.694025, 36.137855, 139.694025, 36.137855], "geometry": {"type": "Point", "coordinates": [139.694025, 36.137855]}, "properties": {"id": "PS_BFB23DB18250", "station_group_id": "SG_4A85CCBF0481", "operator_id": "tobu", "operator_ids": "tobu", "name_en": "栗橋", "name_ja": "栗橋", "label_rank": 72, "tags": ["tokyo", "v3"]}}, {"type": "Feature", "bbox": [139.564215, 35.998435, 139.564215, 35.998435], "geometry": {"type": "Point", "coordinates": [139.564215, 35.998435]}, "properties": {"id": "PS_BB69CA2FDD95", "station_group_id": "SG_7C86F4D8BBB2", "operator_id": "jr_east", "operator_ids": "jr_east", "name_en": "桶川", "name_ja": "桶川", "label_rank": 72, "tags": ["tokyo", "v3"]}}, {"type": "Feature", "bbox": [139.77071, 35.94908, 139.77071, 35.94908], "geometry": {"type": "Point", "coordinates": [139.77071, 35.94908]}, "properties": {"id": "PS_3D4F3D2F6268", "station_group_id": "SG_7DC1398018F7", "operator_id": "tobu", "operator_ids": "tobu", "name_en": "武里", "name_ja": "武里", "label_rank": 72, "tags": ["tokyo", "v3"]}}, {"type": "Feature", "bbox": [139.66688, 36.01778, 139.66688, 36.01778], "geometry": {"type": "Point", "coordinates": [139.66688, 36.01778]}, "properties": {"id": "PS_3C7E89C82D8A", "station_group_id": "SG_1F1E85FEED22", "operator_id": "jr_east", "operator_ids": "jr_east", "name_en": "白岡", "name_ja": "白岡", "label_rank": 72, "tags": ["tokyo", "v3"]}}, {"type": "Feature", "bbox": [139.633595, 36.109944999999996, 139.633595, 36.109944999999996], "geometry": {"type": "Point", "coordinates": [139.633595, 36.109944999999996]}, "properties": {"id": "PS_AB38012F80B5", "station_group_id": "SG_0112AB7820E6", "operator_id": "tobu", "operator_ids": "tobu", "name_en": "花崎", "name_ja": "花崎", "label_rank": 72, "tags": ["tokyo", "v3"]}}, {"type": "Feature", "bbox": [139.652965, 35.981165000000004, 139.652965, 35.981165000000004], "geometry": {"type": "Point", "coordinates": [139.652965, 35.981165000000004]}, "properties": {"id": "PS_05687DF2A6F8", "station_group_id": "SG_D4C8E5C5E79B", "operator_id": "jr_east", "operator_ids": "jr_east", "name_en": "蓮田", "name_ja": "蓮田", "label_rank": 72, "tags": ["tokyo", "v3"]}}, {"type": "Feature", "bbox": [139.77807, 35.980335, 139.77807, 35.980335], "geometry": {"type": "Point", "coordinates": [139.77807, 35.980335]}, "properties": {"id": "PS_0A322D808C41", "station_group_id": "SG_71B38E8E1A26", "operator_id": "tobu", "operator_ids": "tobu", "name_en": "藤の牛島", "name_ja": "藤の牛島", "label_rank": 72, "tags": ["tokyo", "v3"]}}, {"type": "Feature", "bbox": [139.726185, 35.968035, 139.726185, 35.968035], "geometry": {"type": "Point", "coordinates": [139.726185, 35.968035]}, "properties": {"id": "PS_1EB2A8DCF036", "station_group_id": "SG_3A15C5A901F6", "operator_id": "tobu", "operator_ids": "tobu", "name_en": "豊春", "name_ja": "豊春", "label_rank": 72, "tags": ["tokyo", "v3"]}}, {"type": "Feature", "bbox": [139.65696, 36.096325, 139.65696, 36.096325], "geometry": {"type": "Point", "coordinates": [139.65696, 36.096325]}, "properties": {"id": "PS_E95842DE5CF7", "station_group_id": "SG_8B09539FB003", "operator_id": "tobu", "operator_ids": "tobu", "name_en": "鷲宮", "name_ja": "鷲宮", "label_rank": 72, "tags": ["tokyo", "v3"]}}]}