{"type": "FeatureCollection", "features": [{"type": "Feature", "bbox": [139.68525499999998, 35.21257, 139.68525499999998, 35.21257], "geometry": {"type": "Point", "coordinates": [139.68525499999998, 35.21257]}, "properties": {"id": "PS_YRP_35_2125700_139_6852550_0", "station_group_id": "SG_YRP", "operator_id": "keikyu", "operator_ids": "keikyu", "name_en": "YRP野比", "name_ja": "YRP野比", "label_rank": 72, "tags": ["tokyo", "v3"]}}, {"type": "Feature", "bbox": [139.633355, 35.178195, 139.633355, 35.178195], "geometry": {"type": "Point", "coordinates": [139.633355, 35.178195]}, "properties": {"id": "PS_6AB0D9AEE7D8", "station_group_id": "SG_BAE7CA1D59D0", "operator_id": "keikyu", "operator_ids": "keikyu", "name_en": "三崎口", "name_ja": "三崎口", "label_rank": 72, "tags": ["tokyo", "v3"]}}, {"type": "Feature", "bbox": [139.65337499999998, 35.188285, 139.65337499999998, 35.188285], "geometry": {"type": "Point", "coordinates": [139.65337499999998, 35.188285]}, "properties": {"id": "PS_1660D7AA3214", "station_group_id": "SG_6AE041A7CFB6", "operator_id": "keikyu", "operator_ids": "keikyu", "name_en": "三浦海岸", "name_ja": "三浦海岸", "label_rank": 72, "tags": ["tokyo", "v3"]}}, {"type": "Feature", "bbox": [139.59661, 35.409345, 139.59661, 35.409345], "geometry": {"type": "Point", "coordinates": [139.59661, 35.409345]}, "properties": {"id": "PS_CF65371EDC42", "station_group_id": "SG_7F40565CB2CE", "operator_id": "keikyu", "operator_ids": "keikyu", "name_en": "上大岡", "name_ja": "上大岡", "label_rank": 92, "tags": ["tokyo", "v3"]}}, {"type": "Feature", "bbox": [139.7009, 35.23318, 139.7009, 35.23318], "geometry": {"type": "Point", "coordinates": [139.7009, 35.23318]}, "properties": {"id": "PS_B080348B52C5", "station_group_id": "SG_DA4827EF0AF4", "operator_id": "jr_east", "operator_ids": "jr_east", "name_en": "久里浜", "name_ja": "久里浜", "label_rank": 72, "tags": ["tokyo", "v3"]}}, {"type": "Feature", "bbox": [139.702215, 35.23147, 139.702215, 35.23147], "geometry": {"type": "Point", "coordinates": [139.702215, 35.23147]}, "properties": {"id": "PS_B063A4C7FD29", "station_group_id": "SG_C3757BF5B033", "operator_id": "keikyu", "operator_ids": "keikyu", "name_en": "京急久里浜", "name_ja": "京急久里浜", "label_rank": 72, "tags": ["tokyo", "v3"]}}, {"type": "Feature", "bbox": [139.69537000000003, 35.261005, 139.69537000000003, 35.261005], "geometry": {"type": "Point", "coordinates": [139.69537000000003, 35.261005]}, "properties": {"id": "PS_D2284459DCB6", "station_group_id": "SG_2EAF5C8A7473", "operator_id": "keikyu", "operator_ids": "keikyu", "name_en": "京急大津", "name_ja": "京急大津", "label_rank": 72, "tags": ["tokyo", "v3"]}}, {"type": "Feature", "bbox": [139.62976, 35.36671, 139.62976, 35.36671], "geometry": {"type": "Point", "coordinates": [139.62976, 35.36671]}, "properties": {"id": "PS_159D00661C62", "station_group_id": "SG_92F93FEAD914", "operator_id": "keikyu", "operator_ids": "keikyu", "name_en": "京急富岡", "name_ja": "京急富岡", "label_rank": 72, "tags": ["tokyo", "v3"]}}, {"type": "Feature", "bbox": [139.62519500000002, 35.301024999999996, 139.62519500000002, 35.301024999999996], "geometry": {"type": "Point", "coordinates": [139.62519500000002, 35.301024999999996]}, "properties": {"id": "PS_FD703E207E37", "station_group_id": "SG_6D991CFEBDF9", "operator_id": "keikyu", "operator_ids": "keikyu", "name_en": "京急田浦", "name_ja": "京急田浦", "label_rank": 72, "tags": ["tokyo", "v3"]}}, {"type": "Feature", "bbox": [139.674125, 35.205445, 139.674125, 35.205445], "geometry": {"type": "Point", "coordinates": [139.674125, 35.205445]}, "properties": {"id": "PS_A2A9F2EA99CD", "station_group_id": "SG_611DE61ED6E0", "operator_id": "keikyu", "operator_ids": "keikyu", "name_en": "京急長沢", "name_ja": "京急長沢", "label_rank": 72, "tags": ["tokyo", "v3"]}}, {"type": "Feature", "bbox": [139.61149, 35.322725, 139.61149, 35.322725], "geometry": {"type": "Point", "coordinates": [139.61149, 35.322725]}, "properties": {"id": "PS_7B878179B26A", "station_group_id": "SG_06C3EC797215", "operator_id": "keikyu", "operator_ids": "keikyu", "name_en": "六浦", "name_ja": "六浦", "label_rank": 72, "tags": ["tokyo", "v3"]}}, {"type": "Feature", "bbox": [139.68643, 35.249089999999995, 139.68643, 35.249089999999995], "geometry": {"type": "Point", "coordinates": [139.68643, 35.249089999999995]}, "properties": {"id": "PS_67FFF68A3877", "station_group_id": "SG_D771FF6FE267", "operator_id": "keikyu", "operator_ids": "keikyu", "name_en": "北久里浜", "name_ja": "北久里浜", "label_rank": 72, "tags": ["tokyo", "v3"]}}, {"type": "Feature", "bbox": [139.687035, 35.263149999999996, 139.687035, 35.263149999999996], "geometry": {"type": "Point", "coordinates": [139.687035, 35.263149999999996]}, "properties": {"id": "PS_FEFFE206AB28", "station_group_id": "SG_B65DF18F645E", "operator_id": "keikyu", "operator_ids": "keikyu", "name_en": "堀ノ内", "name_ja": "堀ノ内", "label_rank": 92, "tags": ["tokyo", "v3"]}}, {"type": "Feature", "bbox": [139.687035, 35.263149999999996, 139.687035, 35.263149999999996], "geometry": {"type": "Point", "coordinates": [139.687035, 35.263149999999996]}, "properties": {"id": "PS_23A64CB2F721", "station_group_id": "SG_B65DF18F645E", "operator_id": "keikyu", "operator_ids": "keikyu", "name_en": "堀ノ内", "name_ja": "堀ノ内", "label_rank": 92, "tags": ["tokyo", "v3"]}}, {"type": "Feature", "bbox": [139.64288, 35.286665, 139.64288, 35.286665], "geometry": {"type": "Point", "coordinates": [139.64288, 35.286665]}, "properties": {"id": "PS_D8320E6C353C", "station_group_id": "SG_BD5746B8ADE4", "operator_id": "keikyu", "operator_ids": "keikyu", "name_en": "安針塚", "name_ja": "安針塚", "label_rank": 72, "tags": ["tokyo", "v3"]}}, {"type": "Feature", "bbox": [139.61043999999998, 35.394130000000004, 139.61043999999998, 35.394130000000004], "geometry": {"type": "Point", "coordinates": [139.61043999999998, 35.394130000000004]}, "properties": {"id": "PS_5B49BB3DE97F", "station_group_id": "SG_FB2103BDC404", "operator_id": "keikyu", "operator_ids": "keikyu", "name_en": "屏風浦", "name_ja": "屏風浦", "label_rank": 72, "tags": ["tokyo", "v3"]}}, {"type": "Feature", "bbox": [139.69017000000002, 35.25689, 139.69017000000002, 35.25689], "geometry": {"type": "Point", "coordinates": [139.69017000000002, 35.25689]}, "properties": {"id": "PS_A96E929E3C30", "station_group_id": "SG_B43D6F9D681F", "operator_id": "keikyu", "operator_ids": "keikyu", "name_en": "新大津", "name_ja": "新大津", "label_rank": 72, "tags": ["tokyo", "v3"]}}, {"type": "Feature", "bbox": [139.619435, 35.3868, 139.619435, 35.3868], "geometry": {"type": "Point", "coordinates": [139.619435, 35.3868]}, "properties": {"id": "PS_9CD3E210170A", "station_group_id": "SG_6E467719C50A", "operator_id": "jr_east", "operator_ids": "jr_east", "name_en": "新杉田", "name_ja": "新杉田", "label_rank": 72, "tags": ["tokyo", "v3"]}}, {"type": "Feature", "bbox": [139.61561, 35.383905, 139.61561, 35.383905], "geometry": {"type": "Point", "coordinates": [139.61561, 35.383905]}, "properties": {"id": "PS_FF39ACFFF8ED", "station_group_id": "SG_8F168A4339A2", "operator_id": "keikyu", "operator_ids": "keikyu", "name_en": "杉田", "name_ja": "杉田", "label_rank": 92, "tags": ["tokyo", "v3"]}}, {"type": "Feature", "bbox": [139.60182, 35.298765, 139.60182, 35.298765], "geometry": {"type": "Point", "coordinates": [139.60182, 35.298765]}, "properties": {"id": "PS_FD216A27D972", "station_group_id": "SG_6A6036EA2D4C", "operator_id": "jr_east", "operator_ids": "jr_east", "name_en": "東逗子", "name_ja": "東逗子", "label_rank": 72, "tags": ["tokyo", "v3"]}}, {"type": "Feature", "bbox": [139.65490499999999, 35.284225, 139.65490499999999, 35.284225], "geometry": {"type": "Point", "coordinates": [139.65490499999999, 35.284225]}, "properties": {"id": "PS_62BEB95CB863", "station_group_id": "SG_9A20020CBD82", "operator_id": "jr_east", "operator_ids": "jr_east", "name_en": "横須賀", "name_ja": "横須賀", "label_rank": 72, "tags": ["tokyo", "v3"]}}, {"type": "Feature", "bbox": [139.670045, 35.278695, 139.670045, 35.278695], "geometry": {"type": "Point", "coordinates": [139.670045, 35.278695]}, "properties": {"id": "PS_702836A532F7", "station_group_id": "SG_783994393C90", "operator_id": "keikyu", "operator_ids": "keikyu", "name_en": "横須賀中央", "name_ja": "横須賀中央", "label_rank": 72, "tags": ["tokyo", "v3"]}}, {"type": "Feature", "bbox": [139.66251499999998, 35.280315, 139.66251499999998, 35.280315], "geometry": {"type": "Point", "coordinates": [139.66251499999998, 35.280315]}, "properties": {"id": "PS_9A5689AA66B2", "station_group_id": "SG_F934B08E2998", "operator_id": "keikyu", "operator_ids": "keikyu", "name_en": "汐入", "name_ja": "汐入", "label_rank": 72, "tags": ["tokyo", "v3"]}}, {"type": "Feature", "bbox": [139.596835, 35.378780000000006, 139.596835, 35.378780000000006], "geometry": {"type": "Point", "coordinates": [139.596835, 35.378780000000006]}, "properties": {"id": "PS_9CB30AD46B29", "station_group_id": "SG_D7B44ED578FF", "operator_id": "jr_east", "operator_ids": "jr_east", "name_en": "洋光台", "name_ja": "洋光台", "label_rank": 72, "tags": ["tokyo", "v3"]}}, {"type": "Feature", "bbox": [139.66485, 35.19812, 139.66485, 35.19812], "geometry": {"type": "Point", "coordinates": [139.66485, 35.19812]}, "properties": {"id": "PS_40FFC6EE6B01", "station_group_id": "SG_735FD9EE5719", "operator_id": "keikyu", "operator_ids": "keikyu", "name_en": "津久井浜", "name_ja": "津久井浜", "label_rank": 72, "tags": ["tokyo", "v3"]}}, {"type": "Feature", "bbox": [139.82226, 35.168195, 139.82226, 35.168195], "geometry": {"type": "Point", "coordinates": [139.82226, 35.168195]}, "properties": {"id": "PS_60BDD6EB131D", "station_group_id": "SG_A7BA62D14A31", "operator_id": "jr_east", "operator_ids": "jr_east", "name_en": "浜金谷", "name_ja": "浜金谷", "label_rank": 72, "tags": ["tokyo", "v3"]}}, {"type": "Feature", "bbox": [139.71501, 35.251864999999995, 139.71501, 35.251864999999995], "geometry": {"type": "Point", "coordinates": [139.71501, 35.251864999999995]}, "properties": {"id": "PS_7D86872BF35B", "station_group_id": "SG_A6154D7ABB0D", "operator_id": "keikyu", "operator_ids": "keikyu", "name_en": "浦賀", "name_ja": "浦賀", "label_rank": 72, "tags": ["tokyo", "v3"]}}, {"type": "Feature", "bbox": [139.57623999999998, 35.375155, 139.57623999999998, 35.375155], "geometry": {"type": "Point", "coordinates": [139.57623999999998, 35.375155]}, "properties": {"id": "PS_5CDD6BFCA561", "station_group_id": "SG_8908ECFC8B35", "operator_id": "jr_east", "operator_ids": "jr_east", "name_en": "港南台", "name_ja": "港南台", "label_rank": 72, "tags": ["tokyo", "v3"]}}, {"type": "Feature", "bbox": [139.63752499999998, 35.29284, 139.63752499999998, 35.29284], "geometry": {"type": "Point", "coordinates": [139.63752499999998, 35.29284]}, "properties": {"id": "PS_7CCE72BEF415", "station_group_id": "SG_0CDF134884DE", "operator_id": "jr_east", "operator_ids": "jr_east", "name_en": "田浦", "name_ja": "田浦", "label_rank": 72, "tags": ["tokyo", "v3"]}}, {"type": "Feature", "bbox": [139.676795, 35.26994, 139.676795, 35.26994], "geometry": {"type": "Point", "coordinates": [139.676795, 35.26994]}, "properties": {"id": "PS_62CD544E569D", "station_group_id": "SG_A1EBF8592410", "operator_id": "keikyu", "operator_ids": "keikyu", "name_en": "県立大学", "name_ja": "県立大学", "label_rank": 72, "tags": ["tokyo", "v3"]}}, {"type": "Feature", "bbox": [139.61847, 35.400575, 139.61847, 35.400575], "geometry": {"type": "Point", "coordinates": [139.61847, 35.400575]}, "properties": {"id": "PS_1D7C8C46B79A", "station_group_id": "SG_F19EBAD1369E", "operator_id": "jr_east", "operator_ids": "jr_east", "name_en": "磯子", "name_ja": "磯子", "label_rank": 72, "tags": ["tokyo", "v3"]}}, {"type": "Feature", "bbox": [139.59289, 35.30628, 139.59289, 35.30628], "geometry": {"type": "Point", "coordinates": [139.59289, 35.30628]}, "properties": {"id": "PS_F1D42432FF0E", "station_group_id": "SG_F931293319C0", "operator_id": "keikyu", "operator_ids": "keikyu", "name_en": "神武寺", "name_ja": "神武寺", "label_rank": 72, "tags": ["tokyo", "v3"]}}, {"type": "Feature", "bbox": [139.83003, 35.19759, 139.83003, 35.19759], "geometry": {"type": "Point", "coordinates": [139.83003, 35.19759]}, "properties": {"id": "PS_9F5FFDBD3CAB", "station_group_id": "SG_AA6E0324E18E", "operator_id": "jr_east", "operator_ids": "jr_east", "name_en": "竹岡", "name_ja": "竹岡", "label_rank": 72, "tags": ["tokyo", "v3"]}}, {"type": "Feature", "bbox": [139.62919, 35.360535, 139.62919, 35.360535], "geometry": {"type": "Point", "coordinates": [139.62919, 35.360535]}, "properties": {"id": "PS_5D5D4CECDA77", "station_group_id": "SG_C894CD8EBF2C", "operator_id": "keikyu", "operator_ids": "keikyu", "name_en": "能見台", "name_ja": "能見台", "label_rank": 72, "tags": ["tokyo", "v3"]}}, {"type": "Feature", "bbox": [139.66099, 35.25711, 139.66099, 35.25711], "geometry": {"type": "Point", "coordinates": [139.66099, 35.25711]}, "properties": {"id": "PS_E51B0E36DAF0", "station_group_id": "SG_F6092F7BA534", "operator_id": "jr_east", "operator_ids": "jr_east", "name_en": "衣笠", "name_ja": "衣笠", "label_rank": 72, "tags": ["tokyo", "v3"]}}, {"type": "Feature", "bbox": [139.624845, 35.315625, 139.624845, 35.315625], "geometry": {"type": "Point", "coordinates": [139.624845, 35.315625]}, "properties": {"id": "PS_A20F01A43565", "station_group_id": "SG_259628BE80A3", "operator_id": "keikyu", "operator_ids": "keikyu", "name_en": "追浜", "name_ja": "追浜", "label_rank": 72, "tags": ["tokyo", "v3"]}}, {"type": "Feature", "bbox": [139.578365, 35.297439999999995, 139.578365, 35.297439999999995], "geometry": {"type": "Point", "coordinates": [139.578365, 35.297439999999995]}, "properties": {"id": "PS_5B07CDDF4EE1", "station_group_id": "SG_BA7F21E12BE5", "operator_id": "jr_east", "operator_ids": "jr_east", "name_en": "逗子", "name_ja": "逗子", "label_rank": 72, "tags": ["tokyo", "v3"]}}, {"type": "Feature", "bbox": [139.580565, 35.294275, 139.580565, 35.294275], "geometry": {"type": "Point", "coordinates": [139.580565, 35.294275]}, "properties": {"id": "PS_50BEB97F68B1", "station_group_id": "SG_92BEC87FAF56", "operator_id": "keikyu", "operator_ids": "keikyu", "name_en": "逗子・葉山", "name_ja": "逗子・葉山", "label_rank": 72, "tags": ["tokyo", "v3"]}}, {"type": "Feature", "bbox": [139.65253, 35.280665, 139.65253, 35.280665], "geometry": {"type": "Point", "coordinates": [139.65253, 35.280665]}, "properties": {"id": "PS_7C7DCC79F6EB", "station_group_id": "SG_030EA3EB7F52", "operator_id": "keikyu", "operator_ids": "keikyu", "name_en": "逸見", "name_ja": "逸見", "label_rank": 72, "tags": ["tokyo", "v3"]}}, {"type": "Feature", "bbox": [139.620125, 35.33113, 139.620125, 35.33113], "geometry": {"type": "Point", "coordinates": [139.620125, 35.33113]}, "properties": {"id": "PS_70E12AA8DAB3", "station_group_id": "SG_3CE85E4BBE53", "operator_id": "keikyu", "operator_ids": "keikyu", "name_en": "金沢八景", "name_ja": "金沢八景", "label_rank": 92, "tags": ["tokyo", "v3"]}}, {"type": "Feature", "bbox": [139.620125, 35.33113, 139.620125, 35.33113], "geometry": {"type": "Point", "coordinates": [139.620125, 35.33113]}, "properties": {"id": "PS_27F4167491C5", "station_group_id": "SG_3CE85E4BBE53", "operator_id": "keikyu", "operator_ids": "keikyu", "name_en": "金沢八景", "name_ja": "金沢八景", "label_rank": 92, "tags": ["tokyo", "v3"]}}, {"type": "Feature", "bbox": [139.62177, 35.343244999999996, 139.62177, 35.343244999999996], "geometry": {"type": "Point", "coordinates": [139.62177, 35.343244999999996]}, "properties": {"id": "PS_4ADC76E38C1D", "station_group_id": "SG_0B536A96023C", "operator_id": "keikyu", "operator_ids": "keikyu", "name_en": "金沢文庫", "name_ja": "金沢文庫", "label_rank": 92, "tags": ["tokyo", "v3"]}}, {"type": "Feature", "bbox": [139.707915, 35.25956, 139.707915, 35.25956], "geometry": {"type": "Point", "coordinates": [139.707915, 35.25956]}, "properties": {"id": "PS_0E91502503B9", "station_group_id": "SG_70908E74C411", "operator_id": "keikyu", "operator_ids": "keikyu", "name_en": "馬堀海岸", "name_ja": "馬堀海岸", "label_rank": 72, "tags": ["tokyo", "v3"]}}]}