{"type": "FeatureCollection", "features": [{"type": "Feature", "bbox": [139.83816000000002, 35.141465, 139.83816000000002, 35.141465], "geometry": {"type": "Point", "coordinates": [139.83816000000002, 35.141465]}, "properties": {"id": "PS_5AC9AD33B6E5", "station_group_id": "SG_3E17EC4F9B79", "operator_id": "jr_east", "operator_ids": "jr_east", "name_en": "保田", "name_ja": "保田", "label_rank": 72, "tags": ["tokyo", "v3"]}}, {"type": "Feature", "bbox": [139.83341000000001, 35.114065, 139.83341000000001, 35.114065], "geometry": {"type": "Point", "coordinates": [139.83341000000001, 35.114065]}, "properties": {"id": "PS_9A41FD03C1E8", "station_group_id": "SG_F7414EE1DD86", "operator_id": "jr_east", "operator_ids": "jr_east", "name_en": "安房勝山", "name_ja": "安房勝山", "label_rank": 72, "tags": ["tokyo", "v3"]}}, {"type": "Feature", "bbox": [139.83775500000002, 35.046229999999994, 139.83775500000002, 35.046229999999994], "geometry": {"type": "Point", "coordinates": [139.83775500000002, 35.046229999999994]}, "properties": {"id": "PS_F94B646D5F71", "station_group_id": "SG_A8AEC27B6AA6", "operator_id": "jr_east", "operator_ids": "jr_east", "name_en": "富浦", "name_ja": "富浦", "label_rank": 72, "tags": ["tokyo", "v3"]}}, {"type": "Feature", "bbox": [139.84987, 35.093050000000005, 139.84987, 35.093050000000005], "geometry": {"type": "Point", "coordinates": [139.84987, 35.093050000000005]}, "properties": {"id": "PS_34043E450B83", "station_group_id": "SG_98EC8DF02CA1", "operator_id": "jr_east", "operator_ids": "jr_east", "name_en": "岩井", "name_ja": "岩井", "label_rank": 72, "tags": ["tokyo", "v3"]}}, {"type": "Feature", "bbox": [139.8514, 35.02904, 139.8514, 35.02904], "geometry": {"type": "Point", "coordinates": [139.8514, 35.02904]}, "properties": {"id": "PS_8D3FA3BA7EC7", "station_group_id": "SG_B4FAFC3D98C8", "operator_id": "jr_east", "operator_ids": "jr_east", "name_en": "那古船形", "name_ja": "那古船形", "label_rank": 72, "tags": ["tokyo", "v3"]}}]}