{"type": "FeatureCollection", "features": [{"type": "Feature", "bbox": [141.155455, 40.51043, 141.446781, 40.719403], "geometry": {"type": "LineString", "coordinates": [[141.43206, 40.51043], [141.432718, 40.511139], [141.436337, 40.514894], [141.437838, 40.516438], [141.439308, 40.518082], [141.440109, 40.519104], [141.440877, 40.520112], [141.441894, 40.521584], [141.442784, 40.523036], [141.443811, 40.524944], [141.44456, 40.52666], [141.445415, 40.528897], [141.446029, 40.531106], [141.446402, 40.532964], [141.446608, 40.534465], [141.446724, 40.535802], [141.446781, 40.537031], [141.446778, 40.538597], [141.446602, 40.540963], [141.446216, 40.543114], [141.445932, 40.544401], [141.445586, 40.545638], [141.444892, 40.547625], [141.444235, 40.549233], [141.443588, 40.55057], [141.442768, 40.552092], [141.441988, 40.5534], [141.441006, 40.55478], [141.440182, 40.555923], [141.438314, 40.558325], [141.436301, 40.560841], [141.434443, 40.563157], [141.433645, 40.564094], [141.432961, 40.564837], [141.431677, 40.566159], [141.43019, 40.567546], [141.429121, 40.568461], [141.427394, 40.569791], [141.426044, 40.570777], [141.425245, 40.571327], [141.423361, 40.572478], [141.421575, 40.573515], [141.4136, 40.577918], [141.406159, 40.582028], [141.40308, 40.583822], [141.402048, 40.584415], [141.400483, 40.585416], [141.398271, 40.586788], [141.39596, 40.588254], [141.392367, 40.590498], [141.385716, 40.594658], [141.378127, 40.599419], [141.376183, 40.600648], [141.372066, 40.603221], [141.36757, 40.606052], [141.363059, 40.608868], [141.360276, 40.610655], [141.354058, 40.614558], [141.347828, 40.618468], [141.340665, 40.622921], [141.336633, 40.625423], [141.331107, 40.629297], [141.327394, 40.631913], [141.322647, 40.635258], [141.318208, 40.638368], [141.311958, 40.642735], [141.307226, 40.64603], [141.305227, 40.647446], [141.302696, 40.649182], [141.299622, 40.65137], [141.295537, 40.654165], [141.294052, 40.655244], [141.288299, 40.659218], [141.281346, 40.664043], [141.274508, 40.668803], [141.271659, 40.670755], [141.26981, 40.671948], [141.2683, 40.672892], [141.266385, 40.674007], [141.263681, 40.675494], [141.261634, 40.676566], [141.259065, 40.677817], [141.255835, 40.679268], [141.251095, 40.681326], [141.243865, 40.684443], [141.235979, 40.687845], [141.2295, 40.690633], [141.221136, 40.694207], [141.213778, 40.697337], [141.204139, 40.701476], [141.195035, 40.70535], [141.191791, 40.70673], [141.188927, 40.707866], [141.185461, 40.709117], [141.182267, 40.710211], [141.174367, 40.712912], [141.167615, 40.715221], [141.158683, 40.718302], [141.155455, 40.719403]]}, "properties": {"id": "TRACK_TOKYO_4478", "line_name": "東北新幹線", "station_group_ids": [], "mode": "shinkansen", "operator_id": "jr_east", "line_color": "#2D9C5B", "tags": ["tokyo", "track_centerline"]}}, {"type": "Feature", "bbox": [141.152362, 40.719403, 141.155455, 40.720459], "geometry": {"type": "LineString", "coordinates": [[141.155455, 40.719403], [141.152362, 40.720459]]}, "properties": {"id": "TRACK_TOKYO_4479", "line_name": "東北新幹線", "station_group_ids": [], "mode": "shinkansen", "operator_id": "jr_east", "line_color": "#2D9C5B", "tags": ["tokyo", "track_centerline"]}}, {"type": "Feature", "bbox": [140.691966, 40.720459, 141.152362, 40.826832], "geometry": {"type": "LineString", "coordinates": [[141.152362, 40.720459], [141.149172, 40.721547], [141.146333, 40.722533], [141.142134, 40.723999], [141.140229, 40.724728], [141.138163, 40.725607], [141.136838, 40.726164], [141.134695, 40.727208], [141.133389, 40.727844], [141.131697, 40.728723], [141.127273, 40.731368], [141.11997, 40.736114], [141.113091, 40.740624], [141.106065, 40.745192], [141.103178, 40.746993], [141.10147, 40.747965], [141.098443, 40.749595], [141.097319, 40.750159], [141.095928, 40.75091], [141.092479, 40.752511], [141.090206, 40.753483], [141.087158, 40.754684], [141.084388, 40.755692], [141.080345, 40.757007], [141.076866, 40.757993], [141.073013, 40.758987], [141.069427, 40.759745], [141.066932, 40.760216], [141.06399, 40.76071], [141.059936, 40.761281], [141.054279, 40.762103], [141.047737, 40.763061], [141.045658, 40.763361], [141.041671, 40.763962], [141.03845, 40.764434], [141.035438, 40.764848], [141.031941, 40.765384], [141.028269, 40.765899], [141.026295, 40.766206], [141.022928, 40.766699], [141.018124, 40.767421], [141.012769, 40.768222], [141.004534, 40.769444], [140.997172, 40.770545], [140.993743, 40.771067], [140.992345, 40.771302], [140.986413, 40.772167], [140.982357, 40.772753], [140.971884, 40.774269], [140.962124, 40.775705], [140.950748, 40.777364], [140.943634, 40.778422], [140.933457, 40.779923], [140.925865, 40.781073], [140.920954, 40.78181], [140.915531, 40.782574], [140.907821, 40.783747], [140.898887, 40.785055], [140.896209, 40.785462], [140.89145, 40.786163], [140.887107, 40.786742], [140.884267, 40.787006], [140.880816, 40.787278], [140.878089, 40.787421], [140.874259, 40.787506], [140.87188, 40.787513], [140.869129, 40.787421], [140.866797, 40.787328], [140.863712, 40.787135], [140.861008, 40.786892], [140.859344, 40.786713], [140.856206, 40.786298], [140.855215, 40.786163], [140.853823, 40.785962], [140.851035, 40.785476], [140.848994, 40.785098], [140.845577, 40.784347], [140.8425, 40.783589], [140.839511, 40.78276], [140.836933, 40.781981], [140.83495, 40.781331], [140.831266, 40.78008], [140.827824, 40.778893], [140.82534, 40.77805], [140.820831, 40.776506], [140.816736, 40.775119], [140.809776, 40.772725], [140.80126, 40.76983], [140.79215, 40.766721], [140.789147, 40.76577], [140.787295, 40.765291], [140.784775, 40.764719], [140.78251, 40.764326], [140.780874, 40.764076], [140.779434, 40.763897], [140.7784, 40.763797], [140.777347, 40.763712], [140.775853, 40.763612], [140.773759, 40.76354], [140.772095, 40.76354], [140.770406, 40.763554], [140.768382, 40.763654], [140.766595, 40.763805], [140.765081, 40.763969], [140.763652, 40.764148], [140.761483, 40.764491], [140.759716, 40.764841], [140.757227, 40.76542], [140.750921, 40.767143], [140.741911, 40.76963], [140.733311, 40.772017], [140.72575, 40.774083], [140.723152, 40.774898], [140.720323, 40.775898], [140.718121, 40.776835], [140.716062, 40.777807], [140.714062, 40.778872], [140.711698, 40.78028], [140.709564, 40.781724], [140.707486, 40.783289], [140.706243, 40.784318], [140.704631, 40.785827], [140.703945, 40.786498], [140.70292, 40.787578], [140.700912, 40.789865], [140.698197, 40.793067], [140.696454, 40.795397], [140.694955, 40.797885], [140.694331, 40.799236], [140.693901, 40.800158], [140.693168, 40.802216], [140.692613, 40.804118], [140.692441, 40.805097], [140.692281, 40.805997], [140.69213, 40.807184], [140.692039, 40.808185], [140.691966, 40.810429], [140.692177, 40.812759], [140.692647, 40.815482], [140.693265, 40.818799], [140.693529, 40.820228], [140.693629, 40.821315], [140.693622, 40.823245], [140.693519, 40.825997], [140.693511, 40.826832]]}, "properties": {"id": "TRACK_TOKYO_4480", "line_name": "東北新幹線", "station_group_ids": [], "mode": "shinkansen", "operator_id": "jr_east", "line_color": "#2D9C5B", "tags": ["tokyo", "track_centerline"]}}]}