{"type": "FeatureCollection", "features": [{"type": "Feature", "bbox": [140.96819, 38.57235, 141.07063, 38.74718], "geometry": {"type": "LineString", "coordinates": [[141.07063, 38.74718], [141.07022, 38.74646], [141.06963, 38.7454], [141.06934, 38.74488], [141.06904, 38.74435], [141.06874, 38.74383], [141.06868, 38.74372], [141.06814, 38.74277], [141.06784, 38.74222], [141.06755, 38.74169], [141.06724, 38.74116], [141.06681, 38.74038], [141.06637, 38.7396], [141.06607, 38.73905], [141.06579, 38.73853], [141.06546, 38.73795], [141.06488, 38.73691], [141.06429, 38.73584], [141.06411, 38.73551], [141.06397, 38.73527], [141.0637, 38.73477], [141.06341, 38.73426], [141.06334, 38.73414], [141.06318, 38.73386], [141.0631, 38.73373], [141.06304, 38.73362], [141.06261, 38.73284], [141.06251, 38.73267], [141.0623, 38.7323], [141.06211, 38.73195], [141.06203, 38.73182], [141.06192, 38.73162], [141.06184, 38.73147], [141.06163, 38.73109], [141.06144, 38.73075], [141.06136, 38.73062], [141.06132, 38.73055], [141.06103, 38.73004], [141.06073, 38.72949], [141.06043, 38.72897], [141.06013, 38.72842], [141.05985, 38.72791], [141.05954, 38.72737], [141.05923, 38.72684], [141.05893, 38.72629], [141.05864, 38.72578], [141.05806, 38.72473], [141.05747, 38.72367], [141.05676, 38.72242], [141.05624, 38.72152], [141.05549, 38.72025], [141.05515, 38.7196], [141.05466, 38.71877], [141.0542, 38.71795], [141.05372, 38.71713], [141.05326, 38.71633], [141.05322, 38.71627], [141.05277, 38.71549], [141.05231, 38.71466], [141.05184, 38.71383], [141.05138, 38.713], [141.05091, 38.71215], [141.05047, 38.71136], [141.05004, 38.71058], [141.04955, 38.70972], [141.04908, 38.70889], [141.04862, 38.70807], [141.04809, 38.70715], [141.048, 38.70698], [141.04793, 38.70686], [141.04741, 38.70591], [141.04679, 38.70486], [141.0462, 38.70381], [141.04601, 38.7035], [141.0456, 38.70276], [141.04544, 38.70249], [141.04498, 38.70169], [141.04459, 38.70103], [141.04393, 38.69985], [141.04369, 38.69941], [141.04319, 38.69852], [141.04258, 38.69745], [141.0423, 38.69695], [141.04219, 38.69676], [141.04159, 38.69568], [141.0411, 38.69484], [141.04064, 38.69401], [141.04017, 38.6932], [141.03969, 38.69234], [141.03908, 38.69125], [141.03848, 38.6902], [141.03826, 38.68982], [141.03818, 38.68967], [141.03806, 38.68945], [141.03761, 38.68867], [141.03713, 38.68782], [141.03666, 38.687], [141.03617, 38.68615], [141.03584, 38.68559], [141.03549, 38.68495], [141.03541, 38.68481], [141.03519, 38.68444], [141.03503, 38.68416], [141.03494, 38.684], [141.03488, 38.68389], [141.03487, 38.68386], [141.03472, 38.68362], [141.03458, 38.68338], [141.0345, 38.68323], [141.03429, 38.68283], [141.03426, 38.68279], [141.03418, 38.68264], [141.034, 38.68233], [141.0337, 38.68178], [141.03355, 38.68154], [141.03339, 38.68127], [141.03315, 38.68081], [141.0331, 38.68072], [141.03295, 38.68046], [141.0325, 38.67966], [141.03226, 38.67923], [141.03196, 38.67868], [141.03191, 38.6786], [141.03176, 38.67835], [141.0316, 38.67805], [141.03156, 38.67798], [141.03152, 38.67792], [141.03141, 38.6777], [141.0313, 38.67752], [141.03061, 38.67629], [141.03059, 38.67625], [141.03056, 38.6762], [141.03043, 38.67595], [141.03014, 38.67542], [141.02986, 38.6749], [141.02955, 38.67435], [141.02925, 38.67383], [141.02902, 38.67343], [141.02894, 38.67328], [141.02869, 38.67286], [141.02864, 38.67277], [141.02833, 38.67223], [141.02808, 38.67178], [141.02803, 38.6717], [141.02789, 38.67146], [141.02769, 38.6711], [141.0276, 38.67093], [141.0275, 38.67076], [141.02711, 38.67008], [141.02683, 38.6696], [141.02675, 38.66948], [141.02656, 38.6692], [141.02629, 38.66874], [141.02612, 38.66844], [141.026, 38.66825], [141.02591, 38.66808], [141.02555, 38.66746], [141.02537, 38.66714], [141.02525, 38.66694], [141.02496, 38.66644], [141.02495, 38.66643], [141.02453, 38.66572], [141.02436, 38.66542], [141.02413, 38.665], [141.0239, 38.66462], [141.0238, 38.66444], [141.02327, 38.6635], [141.02293, 38.6629], [141.02244, 38.66206], [141.02224, 38.66171], [141.02203, 38.66132], [141.02179, 38.66089], [141.02165, 38.66065], [141.02118, 38.6598], [141.02085, 38.65919], [141.0196, 38.65696], [141.01704, 38.65245], [141.01499, 38.64884], [141.01445, 38.64792], [141.01361, 38.64638], [141.0124, 38.64426], [141.0123, 38.64408], [141.01112, 38.64204], [141.00942, 38.63905], [141.00885, 38.63805], [141.00785, 38.63629], [141.00773, 38.63609], [141.00742, 38.63554], [141.00682, 38.63456], [141.00643, 38.63397], [141.00548, 38.63261], [141.0053, 38.63234], [141.00497, 38.63186], [141.00387, 38.63026], [141.00252, 38.62836], [141.00155, 38.62703], [141.0009, 38.62612], [141.00003, 38.6249], [140.99942, 38.62405], [140.99925, 38.62381], [140.99795, 38.62203], [140.99654, 38.62009], [140.99642, 38.61992], [140.99611, 38.61949], [140.99606, 38.6194], [140.99571, 38.61893], [140.99536, 38.61841], [140.99504, 38.61796], [140.99502, 38.61793], [140.99466, 38.6174], [140.99432, 38.61692], [140.99395, 38.6164], [140.99361, 38.61593], [140.99325, 38.61541], [140.99291, 38.61493], [140.99255, 38.61441], [140.99222, 38.61395], [140.99185, 38.61342], [140.99153, 38.61296], [140.99115, 38.61242], [140.99081, 38.61195], [140.99044, 38.61143], [140.9901, 38.61096], [140.98983, 38.61058], [140.98974, 38.61044], [140.9894, 38.60996], [140.98927, 38.60977], [140.98902, 38.60943], [140.98869, 38.60896], [140.98833, 38.60843], [140.98799, 38.60797], [140.98762, 38.60745], [140.98729, 38.60697], [140.98693, 38.60645], [140.9866, 38.60598], [140.98624, 38.60546], [140.98591, 38.60498], [140.98554, 38.60446], [140.9852, 38.60399], [140.98485, 38.60347], [140.9845, 38.60299], [140.98413, 38.60247], [140.9838, 38.60199], [140.98377, 38.60195], [140.98343, 38.60148], [140.98309, 38.601], [140.98273, 38.60048], [140.98239, 38.6], [140.98203, 38.59948], [140.9817, 38.59902], [140.98134, 38.59851], [140.981, 38.59802], [140.98064, 38.5975], [140.98029, 38.59702], [140.97991, 38.59649], [140.97958, 38.59602], [140.97921, 38.59549], [140.97888, 38.59501], [140.97851, 38.59449], [140.97825, 38.59413], [140.97817, 38.59401], [140.97781, 38.59349], [140.97747, 38.59301], [140.97709, 38.59249], [140.97676, 38.59203], [140.97638, 38.59151], [140.97605, 38.59102], [140.97569, 38.5905], [140.97536, 38.59002], [140.975, 38.58951], [140.97483, 38.58927], [140.97467, 38.58903], [140.97449, 38.58876], [140.9743, 38.5885], [140.97413, 38.58824], [140.97397, 38.58802], [140.97378, 38.58776], [140.97361, 38.58751], [140.97344, 38.58728], [140.97327, 38.58704], [140.97311, 38.58679], [140.97292, 38.58645], [140.97282, 38.58627], [140.97274, 38.5861], [140.97266, 38.58595], [140.97255, 38.5857], [140.97239, 38.58541], [140.97221, 38.58509], [140.97208, 38.58484], [140.97189, 38.58444], [140.97167, 38.58396], [140.97143, 38.5834], [140.97121, 38.58284], [140.97098, 38.58227], [140.97079, 38.58179], [140.97057, 38.58118], [140.97044, 38.58076], [140.97023, 38.58004], [140.9701, 38.57958], [140.96997, 38.57906], [140.96989, 38.5788], [140.96978, 38.5784], [140.96966, 38.57792], [140.9696, 38.57767], [140.96951, 38.57731], [140.96938, 38.5768], [140.96922, 38.5762], [140.96906, 38.57567], [140.96891, 38.57511], [140.96876, 38.57453], [140.96861, 38.57393], [140.96838, 38.57313], [140.96819, 38.57235]]}, "properties": {"id": "TRACK_TOKYO_2977", "line_name": "東北新幹線", "station_group_ids": [], "mode": "shinkansen", "operator_id": "jr_east", "tags": ["tokyo", "track_centerline"]}}, {"type": "Feature", "bbox": [141.07063, 38.74718, 141.07251, 38.75052], "geometry": {"type": "LineString", "coordinates": [[141.07251, 38.75052], [141.07157, 38.74885], [141.07122, 38.74824], [141.071, 38.74784], [141.07086, 38.74759], [141.07074, 38.74738], [141.07063, 38.74718]]}, "properties": {"id": "TRACK_TOKYO_2979", "line_name": "東北新幹線", "station_group_ids": [], "mode": "shinkansen", "operator_id": "jr_east", "tags": ["tokyo", "track_centerline"]}}, {"type": "Feature", "bbox": [141.07251, 38.75052, 141.13841, 38.92493], "geometry": {"type": "LineString", "coordinates": [[141.07251, 38.75052], [141.07295, 38.75124], [141.07355, 38.75231], [141.07392, 38.75292], [141.07406, 38.75314], [141.07428, 38.75348], [141.07471, 38.75415], [141.07527, 38.75502], [141.0757, 38.75573], [141.07607, 38.75636], [141.07647, 38.75711], [141.07707, 38.75817], [141.07751, 38.75897], [141.07787, 38.75962], [141.07832, 38.76042], [141.07871, 38.76112], [141.0788, 38.76129], [141.07908, 38.7618], [141.0794, 38.76237], [141.07965, 38.7628], [141.07997, 38.76336], [141.08023, 38.76383], [141.08054, 38.76443], [141.08099, 38.76523], [141.08146, 38.76608], [141.08201, 38.76703], [141.08249, 38.76791], [141.08287, 38.76856], [141.08328, 38.76927], [141.0834, 38.76949], [141.08379, 38.7702], [141.08428, 38.77108], [141.08469, 38.7718], [141.08508, 38.7725], [141.08552, 38.77333], [141.08601, 38.77418], [141.08657, 38.77516], [141.0871, 38.77611], [141.0876, 38.77703], [141.088, 38.77769], [141.08805, 38.77778], [141.0885, 38.77862], [141.0889, 38.77937], [141.0892, 38.77993], [141.08954, 38.78058], [141.08984, 38.78115], [141.09019, 38.78185], [141.09054, 38.78259], [141.09085, 38.78331], [141.09114, 38.784], [141.09149, 38.78483], [141.09182, 38.78573], [141.09196, 38.7861], [141.09211, 38.78653], [141.09234, 38.78733], [141.09257, 38.78808], [141.09284, 38.78893], [141.09314, 38.78993], [141.09365, 38.79155], [141.094, 38.79272], [141.09435, 38.7939], [141.09453, 38.79457], [141.09473, 38.79529], [141.09521, 38.79683], [141.09556, 38.79804], [141.09603, 38.79981], [141.09641, 38.80119], [141.09681, 38.80255], [141.09704, 38.80335], [141.09714, 38.80371], [141.09754, 38.80509], [141.09769, 38.80563], [141.09778, 38.80595], [141.09793, 38.80653], [141.09811, 38.80714], [141.09835, 38.80795], [141.09848, 38.80837], [141.09871, 38.80914], [141.09907, 38.81035], [141.09917, 38.8107], [141.09933, 38.81123], [141.09956, 38.81201], [141.09989, 38.81316], [141.10004, 38.81368], [141.10061, 38.81561], [141.10068, 38.81583], [141.1009, 38.81663], [141.1014, 38.81827], [141.10146, 38.81848], [141.10188, 38.81997], [141.10206, 38.82059], [141.10229, 38.82133], [141.10262, 38.82246], [141.10286, 38.82329], [141.103, 38.82375], [141.10321, 38.82452], [141.10345, 38.82529], [141.10371, 38.82621], [141.10397, 38.82699], [141.10433, 38.82819], [141.10437, 38.82835], [141.10453, 38.82886], [141.10475, 38.82965], [141.10506, 38.83063], [141.10542, 38.83179], [141.10552, 38.83233], [141.10585, 38.83334], [141.10621, 38.83452], [141.10652, 38.83562], [141.10671, 38.83625], [141.10722, 38.83777], [141.10735, 38.83814], [141.10839, 38.8412], [141.10868, 38.84205], [141.10871, 38.84214], [141.11015, 38.84644], [141.11108, 38.84925], [141.11124, 38.84969], [141.11224, 38.85266], [141.1137, 38.85705], [141.11414, 38.85839], [141.11495, 38.86084], [141.11598, 38.86396], [141.116, 38.86401], [141.11624, 38.86474], [141.11699, 38.86694], [141.11834, 38.87084], [141.11837, 38.87093], [141.1196, 38.87453], [141.1205, 38.87713], [141.12136, 38.87953], [141.12139, 38.87961], [141.12151, 38.87992], [141.1216, 38.88007], [141.1217, 38.88032], [141.12177, 38.8805], [141.12231, 38.88192], [141.12289, 38.88336], [141.12297, 38.88355], [141.12378, 38.88561], [141.12452, 38.88736], [141.12537, 38.88939], [141.12643, 38.8919], [141.12715, 38.89359], [141.12795, 38.89561], [141.12814, 38.89608], [141.12832, 38.89664], [141.12868, 38.89799], [141.12917, 38.89977], [141.12928, 38.90015], [141.1297, 38.90167], [141.13041, 38.90426], [141.13101, 38.90637], [141.13176, 38.90894], [141.1321, 38.91002], [141.13214, 38.91017], [141.1322, 38.91036], [141.13223, 38.91047], [141.13263, 38.91165], [141.13299, 38.91265], [141.13363, 38.9141], [141.13371, 38.91427], [141.13505, 38.9173], [141.13513, 38.91752], [141.13557, 38.9185], [141.13571, 38.91885], [141.13592, 38.91932], [141.13604, 38.91957], [141.13628, 38.92012], [141.13655, 38.92074], [141.13685, 38.92136], [141.13839, 38.92488], [141.13841, 38.92493]]}, "properties": {"id": "TRACK_TOKYO_2981", "line_name": "東北新幹線", "station_group_ids": [], "mode": "shinkansen", "operator_id": "jr_east", "tags": ["tokyo", "track_centerline"]}}, {"type": "Feature", "bbox": [141.06419, 38.54147, 141.06434, 38.54312], "geometry": {"type": "LineString", "coordinates": [[141.06419, 38.54312], [141.0642, 38.54304], [141.06421, 38.54286], [141.06434, 38.54147]]}, "properties": {"id": "TRACK_TOKYO_3045", "line_name": "東北線", "station_group_ids": [], "mode": "rail", "operator_id": "jr_east", "tags": ["tokyo", "track_centerline"]}}, {"type": "Feature", "bbox": [141.06389, 38.54312, 141.06419, 38.54641], "geometry": {"type": "LineString", "coordinates": [[141.06389, 38.54641], [141.06397, 38.54551], [141.06401, 38.54507], [141.06419, 38.54312]]}, "properties": {"id": "TRACK_TOKYO_3046", "line_name": "東北線", "station_group_ids": [], "mode": "rail", "operator_id": "jr_east", "tags": ["tokyo", "track_centerline"]}}, {"type": "Feature", "bbox": [141.06434, 38.53985, 141.06449, 38.54147], "geometry": {"type": "LineString", "coordinates": [[141.06434, 38.54147], [141.06449, 38.53985]]}, "properties": {"id": "TRACK_TOKYO_3047", "line_name": "東北線", "station_group_ids": [], "mode": "rail", "operator_id": "jr_east", "tags": ["tokyo", "track_centerline"]}}, {"type": "Feature", "bbox": [141.07552, 38.47541, 141.09912, 38.51191], "geometry": {"type": "LineString", "coordinates": [[141.07552, 38.51191], [141.07645, 38.51065], [141.07659, 38.51045], [141.07717, 38.50965], [141.07857, 38.50783], [141.08007, 38.50584], [141.08155, 38.50384], [141.08221, 38.50295], [141.0823, 38.50282], [141.08247, 38.5026], [141.08333, 38.50142], [141.08444, 38.49992], [141.08576, 38.49816], [141.08619, 38.49757], [141.08671, 38.49685], [141.08715, 38.49627], [141.08734, 38.49597], [141.08747, 38.49577], [141.08757, 38.49555], [141.08765, 38.49531], [141.08775, 38.4949], [141.08785, 38.49444], [141.08788, 38.49408], [141.08789, 38.49371], [141.0879, 38.49292], [141.08792, 38.49262], [141.08796, 38.4923], [141.08802, 38.49202], [141.08814, 38.49155], [141.08823, 38.49131], [141.08839, 38.49094], [141.08853, 38.49068], [141.08875, 38.49035], [141.08913, 38.48985], [141.08926, 38.48971], [141.08933, 38.48964], [141.08961, 38.48939], [141.08999, 38.4891], [141.09041, 38.48886], [141.09152, 38.48823], [141.09312, 38.48734], [141.09494, 38.48631], [141.09569, 38.48587], [141.09654, 38.48535], [141.09723, 38.48485], [141.09747, 38.48464], [141.09778, 38.48434], [141.09792, 38.48416], [141.09809, 38.48395], [141.09844, 38.48342], [141.09873, 38.48292], [141.09891, 38.48255], [141.09902, 38.4822], [141.09908, 38.48181], [141.09912, 38.48142], [141.09912, 38.48102], [141.09907, 38.48042], [141.09895, 38.47972], [141.09884, 38.4791], [141.09866, 38.4782], [141.09844, 38.47708], [141.09828, 38.47628], [141.09811, 38.47541]]}, "properties": {"id": "TRACK_TOKYO_3049", "line_name": "東北線", "station_group_ids": [], "mode": "rail", "operator_id": "jr_east", "tags": ["tokyo", "track_centerline"]}}, {"type": "Feature", "bbox": [141.08637, 38.68194, 141.11833, 38.7107], "geometry": {"type": "LineString", "coordinates": [[141.11833, 38.7107], [141.118, 38.71047], [141.11759, 38.71017], [141.11724, 38.70991], [141.11668, 38.70951], [141.11581, 38.70888], [141.11546, 38.70864], [141.11503, 38.70832], [141.11447, 38.70794], [141.11354, 38.70729], [141.11309, 38.70698], [141.11269, 38.7067], [141.11225, 38.70639], [141.11172, 38.70602], [141.11114, 38.70563], [141.11, 38.70487], [141.10886, 38.70411], [141.10832, 38.70376], [141.10772, 38.70337], [141.10711, 38.70298], [141.10656, 38.70263], [141.10531, 38.70192], [141.10478, 38.70162], [141.10438, 38.70141], [141.10423, 38.70133], [141.10394, 38.70117], [141.10354, 38.70095], [141.10293, 38.70062], [141.10232, 38.70029], [141.10169, 38.69994], [141.10141, 38.69978], [141.10106, 38.6996], [141.10067, 38.69939], [141.10041, 38.69924], [141.10022, 38.69914], [141.1, 38.69899], [141.09983, 38.69886], [141.09967, 38.69873], [141.0995, 38.69859], [141.09938, 38.69848], [141.09925, 38.69837], [141.09914, 38.69826], [141.099, 38.69812], [141.09889, 38.69799], [141.09877, 38.69785], [141.09865, 38.6977], [141.09852, 38.69754], [141.09844, 38.69743], [141.09836, 38.6973], [141.09828, 38.69717], [141.0982, 38.69702], [141.09811, 38.69684], [141.09803, 38.69666], [141.09796, 38.69648], [141.09789, 38.69632], [141.09783, 38.69607], [141.09779, 38.69592], [141.09774, 38.6957], [141.0977, 38.69552], [141.09768, 38.69533], [141.09767, 38.69521], [141.09768, 38.695], [141.09768, 38.69485], [141.09768, 38.69474], [141.09772, 38.69422], [141.09778, 38.69361], [141.09781, 38.69325], [141.09782, 38.69302], [141.09786, 38.6925], [141.09787, 38.69219], [141.09787, 38.69194], [141.09786, 38.69179], [141.09785, 38.69156], [141.09783, 38.69138], [141.09779, 38.69122], [141.09767, 38.69076], [141.0976, 38.6905], [141.09751, 38.69024], [141.09743, 38.69009], [141.0973, 38.68989], [141.09714, 38.68967], [141.09689, 38.68935], [141.09668, 38.68911], [141.09648, 38.68892], [141.09629, 38.68873], [141.09581, 38.68831], [141.09558, 38.6881], [141.09528, 38.68784], [141.09481, 38.68743], [141.0943, 38.68698], [141.09415, 38.68685], [141.09384, 38.68658], [141.09332, 38.68612], [141.09299, 38.68583], [141.09233, 38.68525], [141.09186, 38.68484], [141.09156, 38.68461], [141.09134, 38.68442], [141.09115, 38.68431], [141.09069, 38.68405], [141.08975, 38.68353], [141.08888, 38.6831], [141.08763, 38.68248], [141.08701, 38.68218], [141.08687, 38.68212], [141.08668, 38.68205], [141.08637, 38.68194]]}, "properties": {"id": "TRACK_TOKYO_3052", "line_name": "東北線", "station_group_ids": [], "mode": "rail", "operator_id": "jr_east", "tags": ["tokyo", "track_centerline"]}}, {"type": "Feature", "bbox": [141.05892, 38.59488, 141.05915, 38.59766], "geometry": {"type": "LineString", "coordinates": [[141.05892, 38.59766], [141.05915, 38.59488]]}, "properties": {"id": "TRACK_TOKYO_3061", "line_name": "東北線", "station_group_ids": [], "mode": "rail", "operator_id": "jr_east", "tags": ["tokyo", "track_centerline"]}}, {"type": "Feature", "bbox": [141.1206, 38.71233, 141.15865, 38.76803], "geometry": {"type": "LineString", "coordinates": [[141.15865, 38.76803], [141.15797, 38.76696], [141.1578, 38.7667], [141.15664, 38.76492], [141.15488, 38.76225], [141.1528, 38.75904], [141.1526, 38.75873], [141.15132, 38.75674], [141.14941, 38.75373], [141.1491, 38.75333], [141.14877, 38.75292], [141.14871, 38.75283], [141.14863, 38.75274], [141.14848, 38.75259], [141.14769, 38.75188], [141.14759, 38.75179], [141.14594, 38.75033], [141.14507, 38.74953], [141.14479, 38.74923], [141.14456, 38.74889], [141.14426, 38.74833], [141.14403, 38.74785], [141.14391, 38.74758], [141.14096, 38.74087], [141.14075, 38.74038], [141.14035, 38.73945], [141.13856, 38.73536], [141.13819, 38.73452], [141.13644, 38.73053], [141.13511, 38.72753], [141.13498, 38.72724], [141.13466, 38.72651], [141.13323, 38.72328], [141.13302, 38.72286], [141.13273, 38.72233], [141.13252, 38.72199], [141.13103, 38.71993], [141.1304, 38.71908], [141.13032, 38.71898], [141.13018, 38.71879], [141.12971, 38.71813], [141.12886, 38.71693], [141.12852, 38.71653], [141.12809, 38.71607], [141.12765, 38.71566], [141.12726, 38.71532], [141.12687, 38.71509], [141.12627, 38.71477], [141.12563, 38.71447], [141.12352, 38.71363], [141.12152, 38.71279], [141.12124, 38.71264], [141.12102, 38.71253], [141.12076, 38.71241], [141.1206, 38.71233]]}, "properties": {"id": "TRACK_TOKYO_3063", "line_name": "東北線", "station_group_ids": [], "mode": "rail", "operator_id": "jr_east", "tags": ["tokyo", "track_centerline"]}}, {"type": "Feature", "bbox": [141.05846, 38.59766, 141.07426, 38.65474], "geometry": {"type": "LineString", "coordinates": [[141.07404, 38.65474], [141.07413, 38.65426], [141.07418, 38.65376], [141.07423, 38.65306], [141.07426, 38.65247], [141.07426, 38.65212], [141.07424, 38.65189], [141.07418, 38.65161], [141.07406, 38.6512], [141.0739, 38.65082], [141.07367, 38.65036], [141.07301, 38.64892], [141.07235, 38.64746], [141.07206, 38.64685], [141.07154, 38.64572], [141.07061, 38.64373], [141.0691, 38.64043], [141.06821, 38.63852], [141.06804, 38.63814], [141.06784, 38.6377], [141.06709, 38.63607], [141.06637, 38.63452], [141.06482, 38.63111], [141.06446, 38.63036], [141.06435, 38.6301], [141.06367, 38.62861], [141.06355, 38.62836], [141.06355, 38.62834], [141.06283, 38.62682], [141.06176, 38.62454], [141.06086, 38.62261], [141.06064, 38.62211], [141.05993, 38.62058], [141.05981, 38.62031], [141.05955, 38.61964], [141.05939, 38.61925], [141.05929, 38.61894], [141.05918, 38.61831], [141.05914, 38.61778], [141.05907, 38.61677], [141.05903, 38.61566], [141.05899, 38.61479], [141.05891, 38.6131], [141.05879, 38.6107], [141.05869, 38.60835], [141.05861, 38.60665], [141.05859, 38.60627], [141.05848, 38.60367], [141.05846, 38.60281], [141.0585, 38.60197], [141.05853, 38.60118], [141.05862, 38.60011], [141.05875, 38.59918], [141.05892, 38.59766]]}, "properties": {"id": "TRACK_TOKYO_3065", "line_name": "東北線", "station_group_ids": [], "mode": "rail", "operator_id": "jr_east", "tags": ["tokyo", "track_centerline"]}}, {"type": "Feature", "bbox": [141.11833, 38.7107, 141.1206, 38.71233], "geometry": {"type": "LineString", "coordinates": [[141.1206, 38.71233], [141.12032, 38.71213], [141.11951, 38.71157], [141.11885, 38.71108], [141.11833, 38.7107]]}, "properties": {"id": "TRACK_TOKYO_3066", "line_name": "東北線", "station_group_ids": [], "mode": "rail", "operator_id": "jr_east", "tags": ["tokyo", "track_centerline"]}}, {"type": "Feature", "bbox": [141.06449, 38.5135, 141.07432, 38.53985], "geometry": {"type": "LineString", "coordinates": [[141.06449, 38.53985], [141.06469, 38.53716], [141.0647, 38.53702], [141.06486, 38.53587], [141.06494, 38.53529], [141.06499, 38.53492], [141.06504, 38.53453], [141.0651, 38.53404], [141.06513, 38.5336], [141.06518, 38.53269], [141.06529, 38.5308], [141.06528, 38.53034], [141.06525, 38.52938], [141.06521, 38.5281], [141.06519, 38.52747], [141.06519, 38.52739], [141.06523, 38.52662], [141.06531, 38.52611], [141.06545, 38.52553], [141.06563, 38.52508], [141.06582, 38.52476], [141.06618, 38.52424], [141.06731, 38.52286], [141.06805, 38.52188], [141.06842, 38.52139], [141.06856, 38.5212], [141.06941, 38.52005], [141.07116, 38.51772], [141.07312, 38.51514], [141.07432, 38.5135]]}, "properties": {"id": "TRACK_TOKYO_3067", "line_name": "東北線", "station_group_ids": [], "mode": "rail", "operator_id": "jr_east", "tags": ["tokyo", "track_centerline"]}}, {"type": "Feature", "bbox": [141.07126, 38.65648, 141.08422, 38.68137], "geometry": {"type": "LineString", "coordinates": [[141.08422, 38.68137], [141.08406, 38.68134], [141.08331, 38.68116], [141.08188, 38.68084], [141.08137, 38.68073], [141.08111, 38.68067], [141.08084, 38.68062], [141.08062, 38.68055], [141.08031, 38.68045], [141.08, 38.68033], [141.07978, 38.68024], [141.07954, 38.68013], [141.07923, 38.67997], [141.07888, 38.67979], [141.07795, 38.67931], [141.07735, 38.679], [141.07662, 38.67862], [141.07641, 38.67852], [141.07609, 38.67835], [141.0757, 38.67812], [141.07549, 38.67799], [141.07522, 38.67781], [141.07504, 38.67766], [141.07485, 38.6775], [141.07465, 38.67733], [141.07445, 38.67713], [141.07427, 38.67692], [141.0742, 38.67685], [141.07415, 38.67677], [141.07402, 38.67659], [141.07389, 38.6764], [141.07375, 38.67617], [141.07366, 38.67604], [141.07357, 38.67587], [141.07347, 38.67565], [141.07324, 38.6751], [141.07311, 38.67481], [141.07276, 38.67399], [141.07253, 38.67344], [141.07216, 38.6726], [141.07193, 38.67207], [141.07168, 38.67149], [141.07149, 38.67098], [141.07139, 38.67065], [141.07135, 38.67051], [141.07132, 38.67028], [141.07129, 38.67009], [141.07127, 38.6696], [141.07126, 38.66933], [141.07132, 38.66865], [141.07141, 38.66787], [141.07155, 38.66646], [141.0717, 38.66537], [141.07198, 38.664], [141.07255, 38.66143], [141.07265, 38.66099], [141.07303, 38.6593], [141.07337, 38.65782], [141.07367, 38.65648]]}, "properties": {"id": "TRACK_TOKYO_3071", "line_name": "東北線", "station_group_ids": [], "mode": "rail", "operator_id": "jr_east", "tags": ["tokyo", "track_centerline"]}}, {"type": "Feature", "bbox": [141.08422, 38.68137, 141.08637, 38.68194], "geometry": {"type": "LineString", "coordinates": [[141.08637, 38.68194], [141.08558, 38.68171], [141.08476, 38.6815], [141.08422, 38.68137]]}, "properties": {"id": "TRACK_TOKYO_3072", "line_name": "東北線", "station_group_ids": [], "mode": "rail", "operator_id": "jr_east", "tags": ["tokyo", "track_centerline"]}}, {"type": "Feature", "bbox": [141.07432, 38.51191, 141.07552, 38.5135], "geometry": {"type": "LineString", "coordinates": [[141.07432, 38.5135], [141.07552, 38.51191]]}, "properties": {"id": "TRACK_TOKYO_3073", "line_name": "東北線", "station_group_ids": [], "mode": "rail", "operator_id": "jr_east", "tags": ["tokyo", "track_centerline"]}}, {"type": "Feature", "bbox": [141.05915, 38.54641, 141.06389, 38.59488], "geometry": {"type": "LineString", "coordinates": [[141.05915, 38.59488], [141.05921, 38.59414], [141.0593, 38.59319], [141.05949, 38.59111], [141.05961, 38.58982], [141.05977, 38.58816], [141.05994, 38.58627], [141.05999, 38.58571], [141.06007, 38.58497], [141.06019, 38.5837], [141.0605, 38.58054], [141.06052, 38.58036], [141.0606, 38.57953], [141.06099, 38.57595], [141.06132, 38.57255], [141.06144, 38.57138], [141.06174, 38.56833], [141.06211, 38.5649], [141.06233, 38.56284], [141.06238, 38.56239], [141.06246, 38.56155], [141.06253, 38.5609], [141.06259, 38.56026], [141.06262, 38.55996], [141.06279, 38.55821], [141.06306, 38.5554], [141.06327, 38.55314], [141.06342, 38.55134], [141.06357, 38.54962], [141.06388, 38.54655], [141.06389, 38.54641]]}, "properties": {"id": "TRACK_TOKYO_3074", "line_name": "東北線", "station_group_ids": [], "mode": "rail", "operator_id": "jr_east", "tags": ["tokyo", "track_centerline"]}}, {"type": "Feature", "bbox": [141.07367, 38.65474, 141.07404, 38.65648], "geometry": {"type": "LineString", "coordinates": [[141.07367, 38.65648], [141.07404, 38.65474]]}, "properties": {"id": "TRACK_TOKYO_3076", "line_name": "東北線", "station_group_ids": [], "mode": "rail", "operator_id": "jr_east", "tags": ["tokyo", "track_centerline"]}}]}