{"type": "FeatureCollection", "features": [{"type": "Feature", "bbox": [131.160145, 34.053115, 131.160145, 34.053115], "geometry": {"type": "Point", "coordinates": [131.160145, 34.053115]}, "properties": {"id": "PS_3C607EEB91B5", "station_group_id": "SG_8DBCDB48907A", "operator_id": "jr_west", "operator_ids": "jr_west", "name_en": "厚狭", "name_ja": "厚狭", "label_rank": 72, "tags": ["tokyo", "v3"]}}, {"type": "Feature", "bbox": [130.949115, 34.00707, 130.949115, 34.00707], "geometry": {"type": "Point", "coordinates": [130.949115, 34.00707]}, "properties": {"id": "PS_0D0A56FE2362", "station_group_id": "SG_82DEA8921D0E", "operator_id": "jr_west", "operator_ids": "jr_west", "name_en": "新下関", "name_ja": "新下関", "label_rank": 72, "tags": ["tokyo", "v3"]}}]}