{"type": "FeatureCollection", "features": [{"type": "Feature", "bbox": [135.759055, 34.984624999999994, 135.759055, 34.984624999999994], "geometry": {"type": "Point", "coordinates": [135.759055, 34.984624999999994]}, "properties": {"id": "PS_0B50F37ADA13", "station_group_id": "SG_B8534C80AD1F", "operator_id": "jr_central", "operator_ids": "jr_central", "name_en": "京都", "name_ja": "京都", "label_rank": 72, "tags": ["tokyo", "v3"]}}, {"type": "Feature", "bbox": [135.500035, 34.73368000000001, 135.500035, 34.73368000000001], "geometry": {"type": "Point", "coordinates": [135.500035, 34.73368000000001]}, "properties": {"id": "PS_12E41191DEAB", "station_group_id": "SG_F229590C1982", "operator_id": "jr_west", "operator_ids": "jr_west", "name_en": "新大阪", "name_ja": "新大阪", "label_rank": 92, "tags": ["tokyo", "v3"]}}, {"type": "Feature", "bbox": [135.50014499999997, 34.7334, 135.50014499999997, 34.7334], "geometry": {"type": "Point", "coordinates": [135.50014499999997, 34.7334]}, "properties": {"id": "PS_24E09494CFA1", "station_group_id": "SG_F229590C1982", "operator_id": "jr_west", "operator_ids": "jr_west", "name_en": "新大阪", "name_ja": "新大阪", "label_rank": 92, "tags": ["tokyo", "v3"]}}, {"type": "Feature", "bbox": [135.50014499999997, 34.7334, 135.50014499999997, 34.7334], "geometry": {"type": "Point", "coordinates": [135.50014499999997, 34.7334]}, "properties": {"id": "PS_99F9EF82ACBF", "station_group_id": "SG_F229590C1982", "operator_id": "jr_central", "operator_ids": "jr_central", "name_en": "新大阪", "name_ja": "新大阪", "label_rank": 92, "tags": ["tokyo", "v3"]}}, {"type": "Feature", "bbox": [135.500035, 34.73368000000001, 135.500035, 34.73368000000001], "geometry": {"type": "Point", "coordinates": [135.500035, 34.73368000000001]}, "properties": {"id": "PS_F07596128AB7", "station_group_id": "SG_F229590C1982", "operator_id": "jr_central", "operator_ids": "jr_central", "name_en": "新大阪", "name_ja": "新大阪", "label_rank": 92, "tags": ["tokyo", "v3"]}}, {"type": "Feature", "bbox": [135.196835, 34.70724, 135.196835, 34.70724], "geometry": {"type": "Point", "coordinates": [135.196835, 34.70724]}, "properties": {"id": "PS_20F2578CD03B", "station_group_id": "SG_07DA2C4BC3BB", "operator_id": "jr_west", "operator_ids": "jr_west", "name_en": "新神戸", "name_ja": "新神戸", "label_rank": 72, "tags": ["tokyo", "v3"]}}, {"type": "Feature", "bbox": [134.960185, 34.66706, 134.960185, 34.66706], "geometry": {"type": "Point", "coordinates": [134.960185, 34.66706]}, "properties": {"id": "PS_0702734BE5E4", "station_group_id": "SG_A1E65CAEDD69", "operator_id": "jr_west", "operator_ids": "jr_west", "name_en": "西明石", "name_ja": "西明石", "label_rank": 72, "tags": ["tokyo", "v3"]}}]}