{"type": "FeatureCollection", "features": [{"type": "Feature", "bbox": [139.05937, 37.91144, 139.06412, 37.91257], "geometry": {"type": "LineString", "coordinates": [[139.06412, 37.91257], [139.05937, 37.91144]]}, "properties": {"id": "TRACK_TOKYO_2290", "line_name": "上越新幹線", "station_group_ids": [], "mode": "shinkansen", "operator_id": "jr_east", "tags": ["tokyo", "track_centerline"]}}, {"type": "Feature", "bbox": [138.93949, 37.64956, 139.05937, 37.91144], "geometry": {"type": "LineString", "coordinates": [[138.93949, 37.64956], [138.94073, 37.65196], [138.94122, 37.65296], [138.94286, 37.65626], [138.94504, 37.66058], [138.94541, 37.66131], [138.94686, 37.66425], [138.94962, 37.66965], [138.94978, 37.66999], [138.9501, 37.67062], [138.95113, 37.67256], [138.95236, 37.67494], [138.95309, 37.67635], [138.95365, 37.67742], [138.95393, 37.67796], [138.95433, 37.67874], [138.95477, 37.67956], [138.95497, 37.67995], [138.95526, 37.68052], [138.95552, 37.681], [138.95565, 37.68127], [138.9559, 37.68176], [138.95619, 37.68231], [138.95659, 37.68312], [138.95688, 37.68368], [138.95722, 37.68433], [138.9575, 37.68486], [138.95808, 37.68601], [138.95822, 37.68627], [138.95861, 37.68702], [138.95883, 37.68743], [138.96009, 37.6899], [138.96044, 37.69059], [138.9612, 37.69208], [138.96139, 37.69245], [138.96148, 37.69264], [138.96261, 37.69487], [138.96355, 37.69666], [138.96422, 37.698], [138.96464, 37.69882], [138.96506, 37.69965], [138.96574, 37.70097], [138.96576, 37.70101], [138.96588, 37.70125], [138.9663, 37.70208], [138.96716, 37.70371], [138.96761, 37.70462], [138.96875, 37.70694], [138.96886, 37.70719], [138.96943, 37.70835], [138.96988, 37.70938], [138.96993, 37.70949], [138.97004, 37.70976], [138.97092, 37.71196], [138.97106, 37.71231], [138.97205, 37.7148], [138.97301, 37.71718], [138.97328, 37.71796], [138.97342, 37.71838], [138.9736, 37.71894], [138.97383, 37.71969], [138.97421, 37.72095], [138.97451, 37.72209], [138.97501, 37.72437], [138.97505, 37.72463], [138.97546, 37.72679], [138.97549, 37.72695], [138.97555, 37.72723], [138.97597, 37.72971], [138.9764, 37.7322], [138.97682, 37.7346], [138.97692, 37.73516], [138.97726, 37.737], [138.9777, 37.73945], [138.97811, 37.74176], [138.97851, 37.74408], [138.97856, 37.74436], [138.97901, 37.74691], [138.97945, 37.74946], [138.97966, 37.75066], [138.97976, 37.75125], [138.9801, 37.75298], [138.98048, 37.75503], [138.98113, 37.75859], [138.98174, 37.76189], [138.98202, 37.76339], [138.98228, 37.76494], [138.98271, 37.76735], [138.98334, 37.77081], [138.98379, 37.77331], [138.98418, 37.77542], [138.9846, 37.77782], [138.98464, 37.77808], [138.98481, 37.77889], [138.98506, 37.78041], [138.98521, 37.78127], [138.98545, 37.78259], [138.98559, 37.78334], [138.98595, 37.78537], [138.98627, 37.78707], [138.98663, 37.7891], [138.98712, 37.79184], [138.98719, 37.79226], [138.98749, 37.79395], [138.98808, 37.79727], [138.98876, 37.80101], [138.98879, 37.80118], [138.98934, 37.80426], [138.98951, 37.80524], [138.98998, 37.80728], [138.99035, 37.80894], [138.99063, 37.80998], [138.99065, 37.81006], [138.99108, 37.8115], [138.99154, 37.81286], [138.99196, 37.81411], [138.99265, 37.81618], [138.99302, 37.81719], [138.99373, 37.81898], [138.9947, 37.82147], [138.99471, 37.8215], [138.99558, 37.82359], [138.99676, 37.82637], [138.99724, 37.82758], [138.99732, 37.82776], [138.99766, 37.82862], [138.99798, 37.82935], [138.99859, 37.83085], [138.99975, 37.83357], [139.00088, 37.8363], [139.00173, 37.83837], [139.00233, 37.83986], [139.00392, 37.84377], [139.00521, 37.84693], [139.00539, 37.84736], [139.00672, 37.85057], [139.00788, 37.85341], [139.00873, 37.85548], [139.00907, 37.8563], [139.01052, 37.85977], [139.01177, 37.86288], [139.01224, 37.86403], [139.01299, 37.86588], [139.01386, 37.86801], [139.01498, 37.87073], [139.01569, 37.87239], [139.01578, 37.87257], [139.01617, 37.87341], [139.01679, 37.8746], [139.01753, 37.87595], [139.01835, 37.87729], [139.01868, 37.87781], [139.0191, 37.87842], [139.02035, 37.88009], [139.02076, 37.88061], [139.02123, 37.8812], [139.02207, 37.88216], [139.02336, 37.88366], [139.02438, 37.88484], [139.02476, 37.88528], [139.02544, 37.88606], [139.02702, 37.88787], [139.02712, 37.88799], [139.02801, 37.88901], [139.03048, 37.89187], [139.03193, 37.89357], [139.03287, 37.89462], [139.03351, 37.89535], [139.03431, 37.89626], [139.03476, 37.89675], [139.03534, 37.89732], [139.03606, 37.89802], [139.03701, 37.89891], [139.03874, 37.90049], [139.04077, 37.90215], [139.04175, 37.90296], [139.04355, 37.90439], [139.04572, 37.90609], [139.0461, 37.90636], [139.04657, 37.90668], [139.04727, 37.9071], [139.04799, 37.90748], [139.04858, 37.90775], [139.04915, 37.90798], [139.04979, 37.90824], [139.05394, 37.90977], [139.05576, 37.91042], [139.05642, 37.91063], [139.05822, 37.91114], [139.05937, 37.91144]]}, "properties": {"id": "TRACK_TOKYO_2297", "line_name": "上越新幹線", "station_group_ids": [], "mode": "shinkansen", "operator_id": "jr_east", "tags": ["tokyo", "track_centerline"]}}]}