{"type": "FeatureCollection", "features": [{"type": "Feature", "bbox": [138.96842, 36.80593, 138.98873, 36.83027], "geometry": {"type": "LineString", "coordinates": [[138.96842, 36.83027], [138.96876, 36.82994], [138.96908, 36.82964], [138.96952, 36.82919], [138.96998, 36.82873], [138.97065, 36.82805], [138.97136, 36.82733], [138.9716, 36.82711], [138.97268, 36.82605], [138.97353, 36.82522], [138.97403, 36.8248], [138.9747, 36.8243], [138.97497, 36.82412], [138.97553, 36.82378], [138.97616, 36.82342], [138.97695, 36.823], [138.97796, 36.82256], [138.97885, 36.82218], [138.97943, 36.82192], [138.98012, 36.82162], [138.98019, 36.8216], [138.98049, 36.82149], [138.98114, 36.82121], [138.98168, 36.82097], [138.98203, 36.82082], [138.98325, 36.82032], [138.98409, 36.81996], [138.98506, 36.81955], [138.98532, 36.81943], [138.98552, 36.81935], [138.98619, 36.81906], [138.98628, 36.81903], [138.98634, 36.81901], [138.98639, 36.81899], [138.98668, 36.81885], [138.98716, 36.81866], [138.98736, 36.81855], [138.98759, 36.81838], [138.98792, 36.8181], [138.98818, 36.81776], [138.98838, 36.81741], [138.98848, 36.81716], [138.98853, 36.8169], [138.98858, 36.81649], [138.98855, 36.81614], [138.98851, 36.81559], [138.98844, 36.81506], [138.98839, 36.81461], [138.98827, 36.81348], [138.98821, 36.81291], [138.98819, 36.81252], [138.98808, 36.81149], [138.98806, 36.81128], [138.988, 36.81074], [138.98793, 36.81014], [138.98789, 36.80963], [138.9878, 36.80895], [138.98776, 36.80857], [138.98774, 36.80824], [138.98774, 36.80797], [138.98778, 36.80769], [138.98784, 36.80745], [138.98794, 36.80719], [138.98802, 36.80698], [138.98814, 36.80676], [138.98824, 36.8066], [138.98839, 36.8064], [138.98858, 36.80612], [138.98868, 36.806], [138.98873, 36.80593]]}, "properties": {"id": "TRACK_TOKYO_2459", "line_name": "上越線", "station_group_ids": [], "mode": "rail", "operator_id": "jr_east", "line_color": "#00A7E3", "tags": ["tokyo", "track_centerline"]}}, {"type": "Feature", "bbox": [138.97943, 36.68015, 138.99929, 36.73466], "geometry": {"type": "LineString", "coordinates": [[138.99929, 36.68015], [138.99845, 36.68079], [138.99799, 36.68114], [138.99785, 36.68125], [138.99772, 36.68136], [138.99759, 36.68147], [138.99748, 36.68158], [138.99742, 36.68164], [138.99739, 36.68168], [138.99733, 36.68175], [138.99727, 36.68184], [138.9968, 36.6824], [138.99666, 36.6826], [138.99656, 36.68283], [138.9964, 36.68334], [138.99619, 36.68401], [138.99599, 36.6847], [138.99598, 36.68476], [138.99583, 36.6852], [138.99566, 36.68571], [138.99524, 36.68679], [138.99505, 36.68725], [138.99489, 36.68772], [138.99465, 36.68832], [138.99448, 36.68879], [138.99428, 36.68925], [138.99411, 36.68971], [138.9938, 36.69029], [138.99352, 36.69073], [138.99304, 36.69151], [138.99276, 36.69198], [138.99255, 36.69241], [138.99235, 36.69288], [138.99227, 36.69317], [138.99221, 36.69341], [138.99197, 36.69405], [138.99174, 36.69452], [138.99149, 36.69491], [138.99117, 36.69529], [138.99087, 36.69559], [138.99045, 36.69594], [138.99013, 36.69616], [138.9898, 36.69637], [138.98948, 36.69653], [138.9892, 36.69665], [138.98902, 36.69672], [138.98849, 36.69688], [138.98799, 36.697], [138.98746, 36.69712], [138.98678, 36.69742], [138.98639, 36.69759], [138.98523, 36.69837], [138.98441, 36.69892], [138.98416, 36.69909], [138.98394, 36.69926], [138.9839, 36.69929], [138.98328, 36.69987], [138.9829, 36.70033], [138.98252, 36.70089], [138.982, 36.70186], [138.98192, 36.702], [138.98161, 36.70254], [138.981, 36.70362], [138.98072, 36.70415], [138.98061, 36.70434], [138.98055, 36.70446], [138.98023, 36.70499], [138.98021, 36.70503], [138.97988, 36.70561], [138.97949, 36.70667], [138.97943, 36.70741], [138.97943, 36.7079], [138.97949, 36.7084], [138.97955, 36.70887], [138.97972, 36.71], [138.97982, 36.71065], [138.97986, 36.71083], [138.97989, 36.71097], [138.97994, 36.71114], [138.98013, 36.71164], [138.98021, 36.7119], [138.98025, 36.71206], [138.98031, 36.71234], [138.98036, 36.713], [138.9804, 36.71357], [138.98042, 36.71387], [138.98046, 36.71447], [138.98046, 36.71462], [138.98055, 36.71569], [138.9807, 36.71649], [138.98085, 36.71694], [138.98091, 36.71714], [138.98101, 36.71732], [138.98115, 36.71759], [138.98135, 36.71788], [138.98158, 36.71817], [138.98194, 36.71859], [138.98209, 36.71879], [138.98223, 36.71903], [138.98242, 36.71939], [138.983, 36.72066], [138.98305, 36.72078], [138.98329, 36.72128], [138.98343, 36.72162], [138.98354, 36.72196], [138.98359, 36.72209], [138.98363, 36.72225], [138.98366, 36.7225], [138.98365, 36.72284], [138.98363, 36.72303], [138.98357, 36.72321], [138.98351, 36.72336], [138.98339, 36.72361], [138.98332, 36.72376], [138.98317, 36.72402], [138.98294, 36.72439], [138.98266, 36.72492], [138.9825, 36.72524], [138.98238, 36.72557], [138.98227, 36.72595], [138.98214, 36.72642], [138.98211, 36.72678], [138.98213, 36.72719], [138.98221, 36.72763], [138.98231, 36.72795], [138.98238, 36.72812], [138.98245, 36.72828], [138.98256, 36.72846], [138.98263, 36.72856], [138.98285, 36.72887], [138.98298, 36.72906], [138.98316, 36.72935], [138.98327, 36.72954], [138.98338, 36.72976], [138.98345, 36.72992], [138.98353, 36.73012], [138.98361, 36.73036], [138.9837, 36.73071], [138.98374, 36.73091], [138.98394, 36.73205], [138.98439, 36.73466]]}, "properties": {"id": "TRACK_TOKYO_2462", "line_name": "上越線", "station_group_ids": [], "mode": "rail", "operator_id": "jr_east", "line_color": "#00A7E3", "tags": ["tokyo", "track_centerline"]}}, {"type": "Feature", "bbox": [138.98521501000008, 36.80197250000009, 138.9856987400001, 36.80419640000009], "geometry": {"type": "LineString", "coordinates": [[138.9856987400001, 36.80197250000009], [138.98558915000012, 36.8030791], [138.98546227000008, 36.803577440000026], [138.98521501000008, 36.80419640000009]]}, "properties": {"id": "TRACK_TOKYO_2463", "line_name": "上越線", "station_group_ids": [], "mode": "rail", "operator_id": "jr_east", "line_color": "#00A7E3", "tags": ["tokyo", "track_centerline"]}}, {"type": "Feature", "bbox": [138.98572, 36.8009, 138.98594, 36.80201], "geometry": {"type": "LineString", "coordinates": [[138.98594, 36.80201], [138.98588, 36.80186], [138.98583, 36.8017], [138.98579, 36.80143], [138.98576, 36.80112], [138.98572, 36.8009]]}, "properties": {"id": "TRACK_TOKYO_2465", "line_name": "上越線", "station_group_ids": [], "mode": "rail", "operator_id": "jr_east", "line_color": "#00A7E3", "tags": ["tokyo", "track_centerline"]}}, {"type": "Feature", "bbox": [138.9786, 36.78514, 138.98848, 36.8009], "geometry": {"type": "LineString", "coordinates": [[138.9786, 36.78514], [138.9787, 36.7853], [138.97907, 36.78578], [138.97939, 36.78622], [138.97988, 36.78689], [138.98019, 36.78729], [138.98065, 36.78791], [138.98095, 36.7883], [138.98133, 36.78882], [138.98158, 36.78917], [138.98181, 36.78945], [138.98213, 36.78981], [138.98228, 36.78995], [138.98256, 36.79019], [138.98297, 36.79048], [138.98302, 36.79052], [138.98341, 36.7908], [138.98371, 36.79096], [138.98438, 36.79128], [138.98491, 36.7915], [138.98524, 36.79166], [138.98562, 36.79183], [138.98595, 36.79197], [138.98631, 36.79213], [138.98649, 36.79222], [138.98686, 36.79246], [138.98705, 36.79259], [138.98742, 36.79289], [138.98769, 36.79315], [138.98796, 36.79351], [138.98812, 36.79373], [138.98826, 36.79397], [138.98837, 36.7943], [138.98843, 36.7946], [138.98846, 36.79486], [138.98848, 36.79534], [138.98842, 36.79572], [138.98827, 36.79622], [138.98805, 36.79667], [138.98789, 36.79694], [138.9877, 36.79722], [138.98768, 36.79725], [138.98751, 36.79747], [138.98724, 36.79775], [138.98703, 36.79798], [138.98679, 36.79825], [138.98657, 36.79853], [138.98638, 36.7988], [138.98625, 36.79901], [138.98611, 36.79924], [138.986, 36.79951], [138.9859, 36.79981], [138.98585, 36.80004], [138.9858, 36.80033], [138.98574, 36.80064], [138.98572, 36.8009]]}, "properties": {"id": "TRACK_TOKYO_2469", "line_name": "上越線", "station_group_ids": [], "mode": "rail", "operator_id": "jr_east", "line_color": "#00A7E3", "tags": ["tokyo", "track_centerline"]}}, {"type": "Feature", "bbox": [138.98567, 36.8009, 138.98572000000024, 36.80197250000009], "geometry": {"type": "LineString", "coordinates": [[138.98569874000012, 36.80197250000009], [138.98567134000018, 36.80164139000004], [138.98567, 36.80131], [138.98572000000024, 36.8009]]}, "properties": {"id": "TRACK_TOKYO_2472", "line_name": "上越線", "station_group_ids": [], "mode": "rail", "operator_id": "jr_east", "line_color": "#00A7E3", "tags": ["tokyo", "track_centerline"]}}, {"type": "Feature", "bbox": [138.98594, 36.80201, 138.98653, 36.8034], "geometry": {"type": "LineString", "coordinates": [[138.98653, 36.8034], [138.98644, 36.80315], [138.98629, 36.80283], [138.98614, 36.80248], [138.98594, 36.80201]]}, "properties": {"id": "TRACK_TOKYO_2486", "line_name": "上越線", "station_group_ids": [], "mode": "rail", "operator_id": "jr_east", "line_color": "#00A7E3", "tags": ["tokyo", "track_centerline"]}}, {"type": "Feature", "bbox": [138.97706, 36.7366, 138.98645, 36.75755], "geometry": {"type": "LineString", "coordinates": [[138.98474, 36.7366], [138.98477, 36.73679], [138.98492, 36.73751], [138.98499, 36.73792], [138.98506, 36.73831], [138.98507, 36.73835], [138.98511, 36.73858], [138.98517, 36.73892], [138.9853, 36.73937], [138.98541, 36.73966], [138.98551, 36.73986], [138.9857, 36.74023], [138.98589, 36.74057], [138.98611, 36.74098], [138.98616, 36.74111], [138.98627, 36.74141], [138.9863, 36.74152], [138.98636, 36.74175], [138.9864, 36.74196], [138.98643, 36.74221], [138.98645, 36.74255], [138.98644, 36.74297], [138.98641, 36.74338], [138.98637, 36.74365], [138.98635, 36.74372], [138.98632, 36.74383], [138.98628, 36.74394], [138.98618, 36.74419], [138.98609, 36.7444], [138.98587, 36.74476], [138.9857, 36.74497], [138.9855, 36.74517], [138.98518, 36.74546], [138.9851, 36.74554], [138.98508, 36.74556], [138.98498, 36.74564], [138.9849, 36.7457], [138.98469, 36.74587], [138.98427, 36.74618], [138.98396, 36.74638], [138.98369, 36.74654], [138.98353, 36.74662], [138.9834, 36.74669], [138.98321, 36.74679], [138.98299, 36.7469], [138.98263, 36.74709], [138.98196, 36.74745], [138.98133, 36.7479], [138.98102, 36.74815], [138.98078, 36.74838], [138.98059, 36.74857], [138.98039, 36.74879], [138.9802, 36.749], [138.97992, 36.74939], [138.97922, 36.75036], [138.97871, 36.7511], [138.97839, 36.75157], [138.97816, 36.75187], [138.97806, 36.75202], [138.97793, 36.75233], [138.97789, 36.75241], [138.97787, 36.75246], [138.9778, 36.75271], [138.97776, 36.75287], [138.97771, 36.75309], [138.97765, 36.75343], [138.97762, 36.75361], [138.9776, 36.75382], [138.97759, 36.75394], [138.97758, 36.75414], [138.9776, 36.7544], [138.97763, 36.75456], [138.97764, 36.75473], [138.97766, 36.7549], [138.97769, 36.75509], [138.97767, 36.75539], [138.97763, 36.75572], [138.97756, 36.75603], [138.97741, 36.7565], [138.97729, 36.75692], [138.9771, 36.75742], [138.97706, 36.75755]]}, "properties": {"id": "TRACK_TOKYO_2487", "line_name": "上越線", "station_group_ids": [], "mode": "rail", "operator_id": "jr_east", "line_color": "#00A7E3", "tags": ["tokyo", "track_centerline"]}}, {"type": "Feature", "bbox": [138.96262000000013, 36.80419640000009, 138.98521501000008, 36.82953], "geometry": {"type": "LineString", "coordinates": [[138.98521501000008, 36.80419640000009], [138.98509754000008, 36.804503860000125], [138.98491753999997, 36.80501011000007], [138.98471504000008, 36.80555011000001], [138.98449004000008, 36.80616634], [138.98423629, 36.8068438200001], [138.98403378, 36.80740755], [138.98386502000005, 36.80789627000013], [138.98371249000002, 36.808291279999935], [138.98355000000015, 36.80861], [138.98266, 36.80949], [138.9812, 36.81095], [138.98088, 36.81125], [138.98009, 36.81206], [138.97940000000028, 36.81275000000011], [138.97904000000017, 36.81312000000014], [138.97827, 36.8139], [138.9771300000001, 36.81505], [138.97662000000014, 36.81556], [138.97611, 36.81607], [138.97540000000026, 36.81676], [138.97448, 36.81769], [138.97401, 36.81817], [138.97327, 36.81891000000013], [138.97252, 36.81967], [138.9719, 36.82028], [138.97065, 36.82153], [138.97004000000015, 36.82214], [138.96962, 36.82255], [138.96926, 36.82291], [138.96779000000015, 36.82437], [138.96703, 36.82513], [138.96592, 36.82624], [138.96539, 36.82677], [138.9648000000002, 36.82735], [138.96412, 36.828030000000126], [138.96338000000014, 36.82875], [138.96262000000013, 36.82953]]}, "properties": {"id": "TRACK_TOKYO_2493", "line_name": "上越線", "station_group_ids": [], "mode": "rail", "operator_id": "jr_east", "line_color": "#00A7E3", "tags": ["tokyo", "track_centerline"]}}, {"type": "Feature", "bbox": [138.98439, 36.73466, 138.98474, 36.7366], "geometry": {"type": "LineString", "coordinates": [[138.98439, 36.73466], [138.98474, 36.7366]]}, "properties": {"id": "TRACK_TOKYO_2499", "line_name": "上越線", "station_group_ids": [], "mode": "rail", "operator_id": "jr_east", "line_color": "#00A7E3", "tags": ["tokyo", "track_centerline"]}}, {"type": "Feature", "bbox": [138.98653, 36.80196, 138.99943, 36.81077], "geometry": {"type": "LineString", "coordinates": [[138.98653, 36.8034], [138.98673, 36.80381], [138.98692, 36.80417], [138.98698, 36.80425], [138.98737, 36.80472], [138.98751, 36.80487], [138.98788, 36.80523], [138.98817, 36.80547], [138.98844, 36.80568], [138.98858, 36.80579], [138.98873, 36.80593], [138.98879, 36.80599], [138.98928, 36.80639], [138.99013, 36.80712], [138.99126, 36.8081], [138.99242, 36.80909], [138.99312, 36.80969], [138.99356, 36.81003], [138.99407, 36.81033], [138.99447, 36.8105], [138.9949, 36.81064], [138.99536, 36.81073], [138.99579, 36.81077], [138.99613, 36.81077], [138.99639, 36.81075], [138.99664, 36.8107], [138.9968, 36.81066], [138.99691, 36.81066], [138.99704, 36.81064], [138.99719, 36.81061], [138.99734, 36.81058], [138.99743, 36.81056], [138.99753, 36.81053], [138.99766, 36.81048], [138.99774, 36.81044], [138.99785, 36.81039], [138.99798, 36.81032], [138.99813, 36.81022], [138.99824, 36.81013], [138.99836, 36.81003], [138.99848, 36.8099], [138.99854, 36.8098], [138.99865, 36.80968], [138.99872, 36.80957], [138.99878, 36.80948], [138.99889, 36.80929], [138.99897, 36.80915], [138.99908, 36.80894], [138.99914, 36.80881], [138.9992, 36.80864], [138.99928, 36.80842], [138.99934, 36.80824], [138.99937, 36.80802], [138.9994, 36.8078], [138.99943, 36.80751], [138.99943, 36.80706], [138.9994, 36.80668], [138.99932, 36.80621], [138.99916, 36.80558], [138.99892, 36.80488], [138.99872, 36.80442], [138.99863, 36.80427], [138.99852, 36.80414], [138.99836, 36.80394], [138.99818, 36.80373], [138.998, 36.80355], [138.99781, 36.80339], [138.9976, 36.80322], [138.99745, 36.8031], [138.99721, 36.80291], [138.9968, 36.80265], [138.99673, 36.80258], [138.99628, 36.80239], [138.99599, 36.80227], [138.99523, 36.80208], [138.99491, 36.80203], [138.99427, 36.80196], [138.99361, 36.802], [138.99345, 36.80201], [138.99318, 36.80207], [138.99262, 36.80224], [138.99215, 36.80242], [138.99168, 36.80266], [138.99121, 36.80294], [138.99081, 36.80324], [138.9903, 36.80374], [138.98996, 36.80418], [138.98962, 36.80464], [138.98931, 36.80509], [138.98893, 36.80564], [138.98873, 36.80593]]}, "properties": {"id": "TRACK_TOKYO_2529", "line_name": "上越線", "station_group_ids": [], "mode": "rail", "operator_id": "jr_east", "line_color": "#00A7E3", "tags": ["tokyo", "track_centerline"]}}]}