{"type": "FeatureCollection", "features": [{"type": "Feature", "bbox": [138.46464500000002, 36.27815, 138.46464500000002, 36.27815], "geometry": {"type": "Point", "coordinates": [138.46464500000002, 36.27815]}, "properties": {"id": "PS_B4ED90EAB0A8", "station_group_id": "SG_6D0D7527994D", "operator_id": "jr_east", "operator_ids": "jr_east", "name_en": "佐久平", "name_ja": "佐久平", "label_rank": 72, "tags": ["tokyo", "v3"]}}, {"type": "Feature", "bbox": [138.63498, 36.342595, 138.63498, 36.342595], "geometry": {"type": "Point", "coordinates": [138.63498, 36.342595]}, "properties": {"id": "PS_914498FA672C", "station_group_id": "SG_B05B94082AEE", "operator_id": "jr_east", "operator_ids": "jr_east", "name_en": "軽井沢", "name_ja": "軽井沢", "label_rank": 72, "tags": ["tokyo", "v3"]}}]}