{"type": "FeatureCollection", "features": [{"type": "Feature", "bbox": [138.487825, 35.687725, 138.487825, 35.687725], "geometry": {"type": "Point", "coordinates": [138.487825, 35.687725]}, "properties": {"id": "PS_42B4EBFED210", "station_group_id": "SG_F951F40EB019", "operator_id": "jr_east", "operator_ids": "jr_east", "name_en": "塩崎", "name_ja": "塩崎", "label_rank": 72, "tags": ["tokyo", "v3"]}}, {"type": "Feature", "bbox": [138.682975, 35.685050000000004, 138.682975, 35.685050000000004], "geometry": {"type": "Point", "coordinates": [138.682975, 35.685050000000004]}, "properties": {"id": "PS_B34AFD692583", "station_group_id": "SG_E31C20822F50", "operator_id": "jr_east", "operator_ids": "jr_east", "name_en": "山梨市", "name_ja": "山梨市", "label_rank": 72, "tags": ["tokyo", "v3"]}}, {"type": "Feature", "bbox": [138.433145, 35.736869999999996, 138.433145, 35.736869999999996], "geometry": {"type": "Point", "coordinates": [138.433145, 35.736869999999996]}, "properties": {"id": "PS_3C2C2EBF5B12", "station_group_id": "SG_47B195357ABE", "operator_id": "jr_east", "operator_ids": "jr_east", "name_en": "新府", "name_ja": "新府", "label_rank": 72, "tags": ["tokyo", "v3"]}}, {"type": "Feature", "bbox": [138.65897999999999, 35.673465, 138.65897999999999, 35.673465], "geometry": {"type": "Point", "coordinates": [138.65897999999999, 35.673465]}, "properties": {"id": "PS_A6A47EEEFCEB", "station_group_id": "SG_B76417BCDC0F", "operator_id": "jr_east", "operator_ids": "jr_east", "name_en": "春日居町", "name_ja": "春日居町", "label_rank": 72, "tags": ["tokyo", "v3"]}}, {"type": "Feature", "bbox": [138.41389, 35.75105, 138.41389, 35.75105], "geometry": {"type": "Point", "coordinates": [138.41389, 35.75105]}, "properties": {"id": "PS_6737DBF83164", "station_group_id": "SG_09CF7029873E", "operator_id": "jr_east", "operator_ids": "jr_east", "name_en": "穴山", "name_ja": "穴山", "label_rank": 72, "tags": ["tokyo", "v3"]}}, {"type": "Feature", "bbox": [138.45139999999998, 35.709565, 138.45139999999998, 35.709565], "geometry": {"type": "Point", "coordinates": [138.45139999999998, 35.709565]}, "properties": {"id": "PS_41BCDE35049A", "station_group_id": "SG_2C0B1F4F148B", "operator_id": "jr_east", "operator_ids": "jr_east", "name_en": "韮崎", "name_ja": "韮崎", "label_rank": 72, "tags": ["tokyo", "v3"]}}]}