{"type": "FeatureCollection", "features": [{"type": "Feature", "bbox": [138.56876, 35.667125, 138.56876, 35.667125], "geometry": {"type": "Point", "coordinates": [138.56876, 35.667125]}, "properties": {"id": "PS_4EF2A08ACD09", "station_group_id": "SG_92874CA7310D", "name_en": "甲府", "name_ja": "甲府", "label_rank": 72, "tags": ["tokyo", "v3"]}}, {"type": "Feature", "bbox": [138.63448499999998, 35.657525, 138.63448499999998, 35.657525], "geometry": {"type": "Point", "coordinates": [138.63448499999998, 35.657525]}, "properties": {"id": "PS_2ED507DED972", "station_group_id": "SG_F7DD78D9E788", "name_en": "石和温泉", "name_ja": "石和温泉", "label_rank": 72, "tags": ["tokyo", "v3"]}}, {"type": "Feature", "bbox": [138.51935, 35.668675, 138.51935, 35.668675], "geometry": {"type": "Point", "coordinates": [138.51935, 35.668675]}, "properties": {"id": "PS_36922ED4A367", "station_group_id": "SG_C049353351CA", "name_en": "竜王", "name_ja": "竜王", "label_rank": 72, "tags": ["tokyo", "v3"]}}, {"type": "Feature", "bbox": [138.59930500000002, 35.659499999999994, 138.59930500000002, 35.659499999999994], "geometry": {"type": "Point", "coordinates": [138.59930500000002, 35.659499999999994]}, "properties": {"id": "PS_3B67337A2692", "station_group_id": "SG_D801F4B0908A", "name_en": "酒折", "name_ja": "酒折", "label_rank": 72, "tags": ["tokyo", "v3"]}}]}