{"type": "FeatureCollection", "features": [{"type": "Feature", "bbox": [138.65209, 35.15125, 138.65209, 35.15125], "geometry": {"type": "Point", "coordinates": [138.65209, 35.15125]}, "properties": {"id": "PS_81701255D41D", "station_group_id": "SG_E77272022522", "name_en": "富士", "name_ja": "富士", "label_rank": 72, "tags": ["tokyo", "v3"]}}, {"type": "Feature", "bbox": [138.61871, 35.14113, 138.61871, 35.14113], "geometry": {"type": "Point", "coordinates": [138.61871, 35.14113]}, "properties": {"id": "PS_4576A890DFF6", "station_group_id": "SG_ED920A25A164", "name_en": "富士川", "name_ja": "富士川", "label_rank": 72, "tags": ["tokyo", "v3"]}}, {"type": "Feature", "bbox": [138.663415, 35.142125, 138.663415, 35.142125], "geometry": {"type": "Point", "coordinates": [138.663415, 35.142125]}, "properties": {"id": "PS_D00AFA993D2A", "station_group_id": "SG_3FEB087D8DE7", "name_en": "新富士", "name_ja": "新富士", "label_rank": 72, "tags": ["tokyo", "v3"]}}, {"type": "Feature", "bbox": [138.608045, 35.11939, 138.608045, 35.11939], "geometry": {"type": "Point", "coordinates": [138.608045, 35.11939]}, "properties": {"id": "PS_DE503EFAD019", "station_group_id": "SG_87065A409925", "name_en": "新蒲原", "name_ja": "新蒲原", "label_rank": 72, "tags": ["tokyo", "v3"]}}, {"type": "Feature", "bbox": [138.412645, 34.983895000000004, 138.412645, 34.983895000000004], "geometry": {"type": "Point", "coordinates": [138.412645, 34.983895000000004]}, "properties": {"id": "PS_8BD3A66C4F45", "station_group_id": "SG_FA208856196A", "name_en": "東静岡", "name_ja": "東静岡", "label_rank": 72, "tags": ["tokyo", "v3"]}}, {"type": "Feature", "bbox": [138.4891, 35.023399999999995, 138.4891, 35.023399999999995], "geometry": {"type": "Point", "coordinates": [138.4891, 35.023399999999995]}, "properties": {"id": "PS_F1FA5DF5C082", "station_group_id": "SG_87B2840742C6", "name_en": "清水", "name_ja": "清水", "label_rank": 72, "tags": ["tokyo", "v3"]}}, {"type": "Feature", "bbox": [138.55282, 35.097125, 138.55282, 35.097125], "geometry": {"type": "Point", "coordinates": [138.55282, 35.097125]}, "properties": {"id": "PS_BC17709C18C4", "station_group_id": "SG_06748F858CE7", "name_en": "由比", "name_ja": "由比", "label_rank": 72, "tags": ["tokyo", "v3"]}}, {"type": "Feature", "bbox": [138.521905, 35.052515, 138.521905, 35.052515], "geometry": {"type": "Point", "coordinates": [138.521905, 35.052515]}, "properties": {"id": "PS_069318617F63", "station_group_id": "SG_0DCB6E49C3EB", "name_en": "興津", "name_ja": "興津", "label_rank": 72, "tags": ["tokyo", "v3"]}}, {"type": "Feature", "bbox": [138.44089000000002, 35.002205000000004, 138.44089000000002, 35.002205000000004], "geometry": {"type": "Point", "coordinates": [138.44089000000002, 35.002205000000004]}, "properties": {"id": "PS_4A2F297C86E6", "station_group_id": "SG_47071763969D", "name_en": "草薙", "name_ja": "草薙", "label_rank": 72, "tags": ["tokyo", "v3"]}}, {"type": "Feature", "bbox": [138.582885, 35.11404, 138.582885, 35.11404], "geometry": {"type": "Point", "coordinates": [138.582885, 35.11404]}, "properties": {"id": "PS_84C54C60EBFE", "station_group_id": "SG_A18A4207F74F", "name_en": "蒲原", "name_ja": "蒲原", "label_rank": 72, "tags": ["tokyo", "v3"]}}]}