{"type": "FeatureCollection", "features": [{"type": "Feature", "bbox": [140.12949500000002, 39.717299999999994, 140.12949500000002, 39.717299999999994], "geometry": {"type": "Point", "coordinates": [140.12949500000002, 39.717299999999994]}, "properties": {"id": "PS_B804268591DB", "station_group_id": "SG_49DAAD54C1E9", "operator_id": "jr_east", "operator_ids": "jr_east", "name_en": "秋田", "name_ja": "秋田", "label_rank": 72, "tags": ["tokyo", "v3"]}}, {"type": "Feature", "bbox": [140.12949500000002, 39.717299999999994, 140.12949500000002, 39.717299999999994], "geometry": {"type": "Point", "coordinates": [140.12949500000002, 39.717299999999994]}, "properties": {"id": "PS_894C8B641FA1", "station_group_id": "SG_49DAAD54C1E9", "operator_id": "jr_east", "operator_ids": "jr_east", "name_en": "秋田", "name_ja": "秋田", "label_rank": 72, "tags": ["tokyo", "v3"]}}, {"type": "Feature", "bbox": [140.12975, 39.71755, 140.12975, 39.71755], "geometry": {"type": "Point", "coordinates": [140.12975, 39.71755]}, "properties": {"id": "PS_6EE8D7A6071A", "station_group_id": "SG_49DAAD54C1E9", "operator_id": "jr_east", "operator_ids": "jr_east", "name_en": "秋田", "name_ja": "秋田", "label_rank": 72, "tags": ["tokyo", "v3"]}}]}