{"type": "FeatureCollection", "features": [{"type": "Feature", "bbox": [139.82953500000002, 36.466745, 139.82953500000002, 36.466745], "geometry": {"type": "Point", "coordinates": [139.82953500000002, 36.466745]}, "properties": {"id": "PS_6CC48F9ECC5B", "station_group_id": "SG_FC0B0C633416", "name_en": "おもちゃのまち", "name_ja": "おもちゃのまち", "label_rank": 72, "tags": ["tokyo", "v3"]}}, {"type": "Feature", "bbox": [139.713905, 36.651375, 139.713905, 36.651375], "geometry": {"type": "Point", "coordinates": [139.713905, 36.651375]}, "properties": {"id": "PS_C28AB1D8A1F1", "station_group_id": "SG_8E4E209FF0E7", "name_en": "下小代", "name_ja": "下小代", "label_rank": 72, "tags": ["tokyo", "v3"]}}, {"type": "Feature", "bbox": [139.579135, 36.316845, 139.579135, 36.316845], "geometry": {"type": "Point", "coordinates": [139.579135, 36.316845]}, "properties": {"id": "PS_2C08B82A95C9", "station_group_id": "SG_84B64714C355", "name_en": "佐野", "name_ja": "佐野", "label_rank": 72, "tags": ["tokyo", "v3"]}}, {"type": "Feature", "bbox": [139.5759, 36.30624, 139.5759, 36.30624], "geometry": {"type": "Point", "coordinates": [139.5759, 36.30624]}, "properties": {"id": "PS_63D8CDCEB5C3", "station_group_id": "SG_030D4CB89709", "name_en": "佐野市", "name_ja": "佐野市", "label_rank": 72, "tags": ["tokyo", "v3"]}}, {"type": "Feature", "bbox": [139.737665, 36.58078, 139.737665, 36.58078], "geometry": {"type": "Point", "coordinates": [139.737665, 36.58078]}, "properties": {"id": "PS_3F0A4DA4E6B0", "station_group_id": "SG_AF979F2911F3", "name_en": "北鹿沼", "name_ja": "北鹿沼", "label_rank": 72, "tags": ["tokyo", "v3"]}}, {"type": "Feature", "bbox": [139.87206500000002, 36.54378, 139.87206500000002, 36.54378], "geometry": {"type": "Point", "coordinates": [139.87206500000002, 36.54378]}, "properties": {"id": "PS_F881F5823AE5", "station_group_id": "SG_432A1A80AE6F", "name_en": "南宇都宮", "name_ja": "南宇都宮", "label_rank": 72, "tags": ["tokyo", "v3"]}}, {"type": "Feature", "bbox": [139.70971500000002, 36.194415, 139.70971500000002, 36.194415], "geometry": {"type": "Point", "coordinates": [139.70971500000002, 36.194415]}, "properties": {"id": "PS_92C0540053B8", "station_group_id": "SG_266FB858F670", "name_en": "古河", "name_ja": "古河", "label_rank": 72, "tags": ["tokyo", "v3"]}}, {"type": "Feature", "bbox": [139.74102, 36.407585, 139.74102, 36.407585], "geometry": {"type": "Point", "coordinates": [139.74102, 36.407585]}, "properties": {"id": "PS_098F7A9D2214", "station_group_id": "SG_8A0A887540B5", "name_en": "合戦場", "name_ja": "合戦場", "label_rank": 72, "tags": ["tokyo", "v3"]}}, {"type": "Feature", "bbox": [139.57934999999998, 36.345625, 139.57934999999998, 36.345625], "geometry": {"type": "Point", "coordinates": [139.57934999999998, 36.345625]}, "properties": {"id": "PS_32763CD990D4", "station_group_id": "SG_9C4395CE5E19", "name_en": "吉水", "name_ja": "吉水", "label_rank": 72, "tags": ["tokyo", "v3"]}}, {"type": "Feature", "bbox": [139.82385, 36.451454999999996, 139.82385, 36.451454999999996], "geometry": {"type": "Point", "coordinates": [139.82385, 36.451454999999996]}, "properties": {"id": "PS_9B38CE7778B6", "station_group_id": "SG_60F0E053D9AF", "name_en": "国谷", "name_ja": "国谷", "label_rank": 72, "tags": ["tokyo", "v3"]}}, {"type": "Feature", "bbox": [139.58033, 36.32844, 139.58033, 36.32844], "geometry": {"type": "Point", "coordinates": [139.58033, 36.32844]}, "properties": {"id": "PS_2AA64B9E449D", "station_group_id": "SG_CB12D68C06BF", "name_en": "堀米", "name_ja": "堀米", "label_rank": 72, "tags": ["tokyo", "v3"]}}, {"type": "Feature", "bbox": [139.80500999999998, 36.422435, 139.80500999999998, 36.422435], "geometry": {"type": "Point", "coordinates": [139.80500999999998, 36.422435]}, "properties": {"id": "PS_35457AA9B072", "station_group_id": "SG_8038022E4B81", "name_en": "壬生", "name_ja": "壬生", "label_rank": 72, "tags": ["tokyo", "v3"]}}, {"type": "Feature", "bbox": [139.59296, 36.378074999999995, 139.59296, 36.378074999999995], "geometry": {"type": "Point", "coordinates": [139.59296, 36.378074999999995]}, "properties": {"id": "PS_AA9DABEA98EC", "station_group_id": "SG_210F64358BF4", "name_en": "多田", "name_ja": "多田", "label_rank": 72, "tags": ["tokyo", "v3"]}}, {"type": "Feature", "bbox": [139.89809, 36.558769999999996, 139.89809, 36.558769999999996], "geometry": {"type": "Point", "coordinates": [139.89809, 36.558769999999996]}, "properties": {"id": "PS_0393B1C5325D", "station_group_id": "SG_EA3A8AE9032A", "name_en": "宇都宮", "name_ja": "宇都宮", "label_rank": 72, "tags": ["tokyo", "v3"]}}, {"type": "Feature", "bbox": [139.898725, 36.55975, 139.898725, 36.55975], "geometry": {"type": "Point", "coordinates": [139.898725, 36.55975]}, "properties": {"id": "PS_ED8B396839B9", "station_group_id": "SG_EA3A8AE9032A", "name_en": "宇都宮", "name_ja": "宇都宮", "label_rank": 72, "tags": ["tokyo", "v3"]}}, {"type": "Feature", "bbox": [139.83562, 36.485645000000005, 139.83562, 36.485645000000005], "geometry": {"type": "Point", "coordinates": [139.83562, 36.485645000000005]}, "properties": {"id": "PS_53E66D83D153", "station_group_id": "SG_3F90A086BDEC", "name_en": "安塚", "name_ja": "安塚", "label_rank": 72, "tags": ["tokyo", "v3"]}}, {"type": "Feature", "bbox": [139.97952, 36.631625, 139.97952, 36.631625], "geometry": {"type": "Point", "coordinates": [139.97952, 36.631625]}, "properties": {"id": "PS_8D495829E3A1", "station_group_id": "SG_F414A0DC79DC", "name_en": "宝積寺", "name_ja": "宝積寺", "label_rank": 72, "tags": ["tokyo", "v3"]}}, {"type": "Feature", "bbox": [139.74745000000001, 36.42979, 139.74745000000001, 36.42979], "geometry": {"type": "Point", "coordinates": [139.74745000000001, 36.42979]}, "properties": {"id": "PS_D28351282465", "station_group_id": "SG_7242DD67AD35", "name_en": "家中", "name_ja": "家中", "label_rank": 72, "tags": ["tokyo", "v3"]}}, {"type": "Feature", "bbox": [139.806355, 36.313545000000005, 139.806355, 36.313545000000005], "geometry": {"type": "Point", "coordinates": [139.806355, 36.313545000000005]}, "properties": {"id": "PS_55DC775ADDB8", "station_group_id": "SG_8719975862DB", "name_en": "小山", "name_ja": "小山", "label_rank": 72, "tags": ["tokyo", "v3"]}}, {"type": "Feature", "bbox": [139.80662999999998, 36.31344, 139.80662999999998, 36.31344], "geometry": {"type": "Point", "coordinates": [139.80662999999998, 36.31344]}, "properties": {"id": "PS_7C63721FCE2D", "station_group_id": "SG_8719975862DB", "name_en": "小山", "name_ja": "小山", "label_rank": 72, "tags": ["tokyo", "v3"]}}, {"type": "Feature", "bbox": [139.84228000000002, 36.374485, 139.84228000000002, 36.374485], "geometry": {"type": "Point", "coordinates": [139.84228000000002, 36.374485]}, "properties": {"id": "PS_21938516B643", "station_group_id": "SG_D8BB91CEF032", "name_en": "小金井", "name_ja": "小金井", "label_rank": 72, "tags": ["tokyo", "v3"]}}, {"type": "Feature", "bbox": [139.94425, 36.598265, 139.94425, 36.598265], "geometry": {"type": "Point", "coordinates": [139.94425, 36.598265]}, "properties": {"id": "PS_994B65B16754", "station_group_id": "SG_80913656979B", "name_en": "岡本", "name_ja": "岡本", "label_rank": 72, "tags": ["tokyo", "v3"]}}, {"type": "Feature", "bbox": [139.68701499999997, 36.1927, 139.68701499999997, 36.1927], "geometry": {"type": "Point", "coordinates": [139.68701499999997, 36.1927]}, "properties": {"id": "PS_2F27157BE09E", "station_group_id": "SG_DA72E50AB8C5", "name_en": "新古河", "name_ja": "新古河", "label_rank": 72, "tags": ["tokyo", "v3"]}}, {"type": "Feature", "bbox": [139.701865, 36.33897, 139.701865, 36.33897], "geometry": {"type": "Point", "coordinates": [139.701865, 36.33897]}, "properties": {"id": "PS_F68C89D4F008", "station_group_id": "SG_527967636727", "name_en": "新大平下", "name_ja": "新大平下", "label_rank": 72, "tags": ["tokyo", "v3"]}}, {"type": "Feature", "bbox": [139.74235, 36.390060000000005, 139.74235, 36.390060000000005], "geometry": {"type": "Point", "coordinates": [139.74235, 36.390060000000005]}, "properties": {"id": "PS_FED0BC9663F6", "station_group_id": "SG_7162360D271D", "name_en": "新栃木", "name_ja": "新栃木", "label_rank": 72, "tags": ["tokyo", "v3"]}}, {"type": "Feature", "bbox": [139.74235, 36.390060000000005, 139.74235, 36.390060000000005], "geometry": {"type": "Point", "coordinates": [139.74235, 36.390060000000005]}, "properties": {"id": "PS_F301BE8E80CC", "station_group_id": "SG_7162360D271D", "name_en": "新栃木", "name_ja": "新栃木", "label_rank": 72, "tags": ["tokyo", "v3"]}}, {"type": "Feature", "bbox": [139.74475999999999, 36.556985, 139.74475999999999, 36.556985], "geometry": {"type": "Point", "coordinates": [139.74475999999999, 36.556985]}, "properties": {"id": "PS_B1B30291F353", "station_group_id": "SG_9FC4CEBFB2C8", "name_en": "新鹿沼", "name_ja": "新鹿沼", "label_rank": 72, "tags": ["tokyo", "v3"]}}, {"type": "Feature", "bbox": [139.71220499999998, 36.676555, 139.71220499999998, 36.676555], "geometry": {"type": "Point", "coordinates": [139.71220499999998, 36.676555]}, "properties": {"id": "PS_90B3BA441541", "station_group_id": "SG_1DC6A0C27A2D", "name_en": "明神", "name_ja": "明神", "label_rank": 72, "tags": ["tokyo", "v3"]}}, {"type": "Feature", "bbox": [139.88060000000002, 36.55866, 139.88060000000002, 36.55866], "geometry": {"type": "Point", "coordinates": [139.88060000000002, 36.55866]}, "properties": {"id": "PS_EC295A1AAF08", "station_group_id": "SG_C312C9E498B8", "name_en": "東武宇都宮", "name_ja": "東武宇都宮", "label_rank": 72, "tags": ["tokyo", "v3"]}}, {"type": "Feature", "bbox": [139.749485, 36.466300000000004, 139.749485, 36.466300000000004], "geometry": {"type": "Point", "coordinates": [139.749485, 36.466300000000004]}, "properties": {"id": "PS_7E59606A88FA", "station_group_id": "SG_45047BC04F44", "name_en": "東武金崎", "name_ja": "東武金崎", "label_rank": 72, "tags": ["tokyo", "v3"]}}, {"type": "Feature", "bbox": [139.64862499999998, 36.222205, 139.64862499999998, 36.222205], "geometry": {"type": "Point", "coordinates": [139.64862499999998, 36.222205]}, "properties": {"id": "PS_3A325924C6AF", "station_group_id": "SG_F0B0E92F38CF", "name_en": "板倉東洋大前", "name_ja": "板倉東洋大前", "label_rank": 72, "tags": ["tokyo", "v3"]}}, {"type": "Feature", "bbox": [139.70778, 36.6194, 139.70778, 36.6194], "geometry": {"type": "Point", "coordinates": [139.70778, 36.6194]}, "properties": {"id": "PS_B9EC2C39316E", "station_group_id": "SG_A75FE6BC3BB5", "name_en": "板荷", "name_ja": "板荷", "label_rank": 72, "tags": ["tokyo", "v3"]}}, {"type": "Feature", "bbox": [139.659955, 36.20659, 139.659955, 36.20659], "geometry": {"type": "Point", "coordinates": [139.659955, 36.20659]}, "properties": {"id": "PS_5B79DE99010D", "station_group_id": "SG_6E1F3E727D32", "name_en": "柳生", "name_ja": "柳生", "label_rank": 72, "tags": ["tokyo", "v3"]}}, {"type": "Feature", "bbox": [139.73149, 36.371669999999995, 139.73149, 36.371669999999995], "geometry": {"type": "Point", "coordinates": [139.73149, 36.371669999999995]}, "properties": {"id": "PS_BDAD68DC7DAA", "station_group_id": "SG_3FFD70016DC5", "name_en": "栃木", "name_ja": "栃木", "label_rank": 72, "tags": ["tokyo", "v3"]}}, {"type": "Feature", "bbox": [139.74524000000002, 36.50706, 139.74524000000002, 36.50706], "geometry": {"type": "Point", "coordinates": [139.74524000000002, 36.50706]}, "properties": {"id": "PS_89D4FFAD1699", "station_group_id": "SG_BD8B089E2E62", "name_en": "楡木", "name_ja": "楡木", "label_rank": 72, "tags": ["tokyo", "v3"]}}, {"type": "Feature", "bbox": [139.74174499999998, 36.53324, 139.74174499999998, 36.53324], "geometry": {"type": "Point", "coordinates": [139.74174499999998, 36.53324]}, "properties": {"id": "PS_EE0975CDC8A0", "station_group_id": "SG_482FBE2D4C7D", "name_en": "樅山", "name_ja": "樅山", "label_rank": 72, "tags": ["tokyo", "v3"]}}, {"type": "Feature", "bbox": [139.96210000000002, 36.68169, 139.96210000000002, 36.68169], "geometry": {"type": "Point", "coordinates": [139.96210000000002, 36.68169]}, "properties": {"id": "PS_1B5A98F2745B", "station_group_id": "SG_30BEDCB60979", "name_en": "氏家", "name_ja": "氏家", "label_rank": 72, "tags": ["tokyo", "v3"]}}, {"type": "Feature", "bbox": [139.860815, 36.530955000000006, 139.860815, 36.530955000000006], "geometry": {"type": "Point", "coordinates": [139.860815, 36.530955000000006]}, "properties": {"id": "PS_F04BF6BB61B4", "station_group_id": "SG_1BF1C88FE582", "name_en": "江曾島", "name_ja": "江曾島", "label_rank": 72, "tags": ["tokyo", "v3"]}}, {"type": "Feature", "bbox": [139.564905, 36.290225, 139.564905, 36.290225], "geometry": {"type": "Point", "coordinates": [139.564905, 36.290225]}, "properties": {"id": "PS_CBCC907336CC", "station_group_id": "SG_08CB6AB7F33E", "name_en": "田島", "name_ja": "田島", "label_rank": 72, "tags": ["tokyo", "v3"]}}, {"type": "Feature", "bbox": [139.58191, 36.36707, 139.58191, 36.36707], "geometry": {"type": "Point", "coordinates": [139.58191, 36.36707]}, "properties": {"id": "PS_C808B2C1490A", "station_group_id": "SG_CEDCC149CB8F", "name_en": "田沼", "name_ja": "田沼", "label_rank": 72, "tags": ["tokyo", "v3"]}}, {"type": "Feature", "bbox": [139.86651, 36.43624, 139.86651, 36.43624], "geometry": {"type": "Point", "coordinates": [139.86651, 36.43624]}, "properties": {"id": "PS_7EAEE359C6C6", "station_group_id": "SG_222BCFA07604", "name_en": "石橋", "name_ja": "石橋", "label_rank": 72, "tags": ["tokyo", "v3"]}}, {"type": "Feature", "bbox": [139.854515, 36.39538, 139.854515, 36.39538], "geometry": {"type": "Point", "coordinates": [139.854515, 36.39538]}, "properties": {"id": "PS_26A761CDC756", "station_group_id": "SG_1E48EB7B5D87", "name_en": "自治医大", "name_ja": "自治医大", "label_rank": 72, "tags": ["tokyo", "v3"]}}, {"type": "Feature", "bbox": [139.609285, 36.397885, 139.609285, 36.397885], "geometry": {"type": "Point", "coordinates": [139.609285, 36.397885]}, "properties": {"id": "PS_5F0CCF1853CD", "station_group_id": "SG_1647D0473758", "name_en": "葛生", "name_ja": "葛生", "label_rank": 72, "tags": ["tokyo", "v3"]}}, {"type": "Feature", "bbox": [139.6456, 36.255585, 139.6456, 36.255585], "geometry": {"type": "Point", "coordinates": [139.6456, 36.255585]}, "properties": {"id": "PS_99F5E343B237", "station_group_id": "SG_97390CBD2D1E", "name_en": "藤岡", "name_ja": "藤岡", "label_rank": 72, "tags": ["tokyo", "v3"]}}, {"type": "Feature", "bbox": [139.850305, 36.514250000000004, 139.850305, 36.514250000000004], "geometry": {"type": "Point", "coordinates": [139.850305, 36.514250000000004]}, "properties": {"id": "PS_423AFA23F577", "station_group_id": "SG_4D0AFDA05DEF", "name_en": "西川田", "name_ja": "西川田", "label_rank": 72, "tags": ["tokyo", "v3"]}}, {"type": "Feature", "bbox": [139.77259500000002, 36.408775, 139.77259500000002, 36.408775], "geometry": {"type": "Point", "coordinates": [139.77259500000002, 36.408775]}, "properties": {"id": "PS_381B8C6D561D", "station_group_id": "SG_9F81ACC9055A", "name_en": "野州大塚", "name_ja": "野州大塚", "label_rank": 72, "tags": ["tokyo", "v3"]}}, {"type": "Feature", "bbox": [139.75378, 36.40156, 139.75378, 36.40156], "geometry": {"type": "Point", "coordinates": [139.75378, 36.40156]}, "properties": {"id": "PS_00D7DD9DCCBC", "station_group_id": "SG_F899F6D6F033", "name_en": "野州平川", "name_ja": "野州平川", "label_rank": 72, "tags": ["tokyo", "v3"]}}, {"type": "Feature", "bbox": [139.73479500000002, 36.229905, 139.73479500000002, 36.229905], "geometry": {"type": "Point", "coordinates": [139.73479500000002, 36.229905]}, "properties": {"id": "PS_E12120E8430A", "station_group_id": "SG_D75EFED2E92D", "name_en": "野木", "name_ja": "野木", "label_rank": 72, "tags": ["tokyo", "v3"]}}, {"type": "Feature", "bbox": [139.7611, 36.257895000000005, 139.7611, 36.257895000000005], "geometry": {"type": "Point", "coordinates": [139.7611, 36.257895000000005]}, "properties": {"id": "PS_2ED00F4846F2", "station_group_id": "SG_A78A47E890FD", "name_en": "間々田", "name_ja": "間々田", "label_rank": 72, "tags": ["tokyo", "v3"]}}, {"type": "Feature", "bbox": [139.87708, 36.493905, 139.87708, 36.493905], "geometry": {"type": "Point", "coordinates": [139.87708, 36.493905]}, "properties": {"id": "PS_D85EBE7DFAF9", "station_group_id": "SG_06513827496B", "name_en": "雀宮", "name_ja": "雀宮", "label_rank": 72, "tags": ["tokyo", "v3"]}}, {"type": "Feature", "bbox": [139.68493, 36.31653, 139.68493, 36.31653], "geometry": {"type": "Point", "coordinates": [139.68493, 36.31653]}, "properties": {"id": "PS_D8143FA57CB7", "station_group_id": "SG_637DA4069FAF", "name_en": "静和", "name_ja": "静和", "label_rank": 72, "tags": ["tokyo", "v3"]}}]}