{"type": "FeatureCollection", "features": [{"type": "Feature", "bbox": [140.10370999999998, 35.10762, 140.10370999999998, 35.10762], "geometry": {"type": "Point", "coordinates": [140.10370999999998, 35.10762]}, "properties": {"id": "PS_E1867B18FA4E", "station_group_id": "SG_7B9486944487", "name_en": "安房鴨川", "name_ja": "安房鴨川", "label_rank": 72, "tags": ["tokyo", "v3"]}}, {"type": "Feature", "bbox": [140.10370999999998, 35.10762, 140.10370999999998, 35.10762], "geometry": {"type": "Point", "coordinates": [140.10370999999998, 35.10762]}, "properties": {"id": "PS_D8B983043EFF", "station_group_id": "SG_7B9486944487", "name_en": "安房鴨川", "name_ja": "安房鴨川", "label_rank": 72, "tags": ["tokyo", "v3"]}}]}