{"type": "FeatureCollection", "features": [{"type": "Feature", "bbox": [141.28627, 40.26107, 141.42981, 40.50822], "geometry": {"type": "LineString", "coordinates": [[141.28627, 40.26107], [141.28767, 40.2638], [141.28833, 40.26509], [141.28889, 40.26625], [141.28987, 40.26868], [141.29019, 40.26959], [141.29037, 40.27017], [141.29069, 40.27136], [141.29101, 40.27271], [141.29135, 40.27505], [141.29152, 40.27739], [141.29143, 40.27997], [141.29075, 40.28548], [141.29012, 40.2897], [141.28946, 40.29433], [141.28929, 40.29591], [141.28922, 40.29778], [141.2894, 40.30074], [141.28967, 40.30285], [141.2902, 40.30542], [141.29112, 40.30828], [141.29189, 40.31012], [141.29273, 40.31172], [141.294, 40.3139], [141.29623, 40.31702], [141.29773, 40.31897], [141.30181, 40.32438], [141.30268, 40.3255], [141.30474, 40.32828], [141.30668, 40.3309], [141.3092, 40.3342], [141.31154, 40.33729], [141.31285, 40.33904], [141.31657, 40.344], [141.3198, 40.34822], [141.32241, 40.35165], [141.32614, 40.35661], [141.33012, 40.36185], [141.33695, 40.37092], [141.34136, 40.37676], [141.34585, 40.38272], [141.34929, 40.38729], [141.35604, 40.39632], [141.35681, 40.39741], [141.36123, 40.40338], [141.36427, 40.4074], [141.36767, 40.41188], [141.36977, 40.41469], [141.37326, 40.41924], [141.37521, 40.42173], [141.3765, 40.42349], [141.37909, 40.42692], [141.38241, 40.43132], [141.38498, 40.43473], [141.38988, 40.44123], [141.39447, 40.44735], [141.39639, 40.45017], [141.39823, 40.45326], [141.39938, 40.45542], [141.40089, 40.45865], [141.40169, 40.4605], [141.40251, 40.46251], [141.40424, 40.46732], [141.40728, 40.47557], [141.40964, 40.48189], [141.41133, 40.48559], [141.41247, 40.48772], [141.4147, 40.49136], [141.4176, 40.49536], [141.41959, 40.49777], [141.42402, 40.50248], [141.42981, 40.50822]]}, "properties": {"id": "GEOM_TOKYO_2963", "route_id": "R_86450D72", "route_name": null, "route_color": "#2D9C5B", "route_text_color": null, "line_name": "東北新幹線", "operator_id": "jr_east", "representation": "service_path", "min_zoom": 0, "max_zoom": 24, "offset_rank": 0}}, {"type": "Feature", "bbox": [141.42981, 40.50822, 141.43206, 40.51043], "geometry": {"type": "LineString", "coordinates": [[141.42981, 40.50822], [141.43206, 40.51043]]}, "properties": {"id": "GEOM_TOKYO_2964", "route_id": "R_86450D72", "route_name": null, "route_color": "#2D9C5B", "route_text_color": null, "line_name": "東北新幹線", "operator_id": "jr_east", "representation": "service_path", "min_zoom": 0, "max_zoom": 24, "offset_rank": 0}}, {"type": "Feature", "bbox": [141.155455, 40.51043, 141.446781, 40.719403], "geometry": {"type": "LineString", "coordinates": [[141.43206, 40.51043], [141.432718, 40.511139], [141.436337, 40.514894], [141.437838, 40.516438], [141.439308, 40.518082], [141.440109, 40.519104], [141.440877, 40.520112], [141.441894, 40.521584], [141.442784, 40.523036], [141.443811, 40.524944], [141.44456, 40.52666], [141.445415, 40.528897], [141.446029, 40.531106], [141.446402, 40.532964], [141.446608, 40.534465], [141.446724, 40.535802], [141.446781, 40.537031], [141.446778, 40.538597], [141.446602, 40.540963], [141.446216, 40.543114], [141.445932, 40.544401], [141.445586, 40.545638], [141.444892, 40.547625], [141.444235, 40.549233], [141.443588, 40.55057], [141.442768, 40.552092], [141.441988, 40.5534], [141.441006, 40.55478], [141.440182, 40.555923], [141.438314, 40.558325], [141.436301, 40.560841], [141.434443, 40.563157], [141.433645, 40.564094], [141.432961, 40.564837], [141.431677, 40.566159], [141.43019, 40.567546], [141.429121, 40.568461], [141.427394, 40.569791], [141.426044, 40.570777], [141.425245, 40.571327], [141.423361, 40.572478], [141.421575, 40.573515], [141.4136, 40.577918], [141.406159, 40.582028], [141.40308, 40.583822], [141.402048, 40.584415], [141.400483, 40.585416], [141.398271, 40.586788], [141.39596, 40.588254], [141.392367, 40.590498], [141.385716, 40.594658], [141.378127, 40.599419], [141.376183, 40.600648], [141.372066, 40.603221], [141.36757, 40.606052], [141.363059, 40.608868], [141.360276, 40.610655], [141.354058, 40.614558], [141.347828, 40.618468], [141.340665, 40.622921], [141.336633, 40.625423], [141.331107, 40.629297], [141.327394, 40.631913], [141.322647, 40.635258], [141.318208, 40.638368], [141.311958, 40.642735], [141.307226, 40.64603], [141.305227, 40.647446], [141.302696, 40.649182], [141.299622, 40.65137], [141.295537, 40.654165], [141.294052, 40.655244], [141.288299, 40.659218], [141.281346, 40.664043], [141.274508, 40.668803], [141.271659, 40.670755], [141.26981, 40.671948], [141.2683, 40.672892], [141.266385, 40.674007], [141.263681, 40.675494], [141.261634, 40.676566], [141.259065, 40.677817], [141.255835, 40.679268], [141.251095, 40.681326], [141.243865, 40.684443], [141.235979, 40.687845], [141.2295, 40.690633], [141.221136, 40.694207], [141.213778, 40.697337], [141.204139, 40.701476], [141.195035, 40.70535], [141.191791, 40.70673], [141.188927, 40.707866], [141.185461, 40.709117], [141.182267, 40.710211], [141.174367, 40.712912], [141.167615, 40.715221], [141.158683, 40.718302], [141.155455, 40.719403]]}, "properties": {"id": "GEOM_TOKYO_4015", "route_id": "R_86450D72", "route_name": null, "route_color": "#2D9C5B", "route_text_color": null, "line_name": "東北新幹線", "operator_id": "jr_east", "representation": "service_path", "min_zoom": 0, "max_zoom": 24, "offset_rank": 0}}]}