{"type": "FeatureCollection", "features": [{"type": "Feature", "bbox": [135.49446, 34.73191, 135.49791, 34.73268], "geometry": {"type": "LineString", "coordinates": [[135.49446, 34.73191], [135.49454, 34.73191], [135.49466, 34.73192], [135.49719, 34.73251], [135.49791, 34.73268]]}, "properties": {"id": "TRACK_TOKYO_0662", "line_name": "山陽新幹線", "station_group_ids": [], "mode": "shinkansen", "operator_id": "jr_west", "line_color": "#1263D6", "tags": ["tokyo", "track_centerline"]}}, {"type": "Feature", "bbox": [135.49446, 34.73191, 135.49782, 34.73293], "geometry": {"type": "LineString", "coordinates": [[135.49446, 34.73191], [135.49452, 34.73194], [135.49461, 34.73197], [135.49719, 34.73277], [135.49782, 34.73293]]}, "properties": {"id": "TRACK_TOKYO_0663", "line_name": "山陽新幹線", "station_group_ids": [], "mode": "shinkansen", "operator_id": "jr_west", "line_color": "#1263D6", "tags": ["tokyo", "track_centerline"]}}, {"type": "Feature", "bbox": [135.49791, 34.73268, 135.50238, 34.73412], "geometry": {"type": "LineString", "coordinates": [[135.49791, 34.73268], [135.50238, 34.73412]]}, "properties": {"id": "TRACK_TOKYO_0664", "line_name": "山陽新幹線", "station_group_ids": [], "mode": "shinkansen", "operator_id": "jr_west", "line_color": "#1263D6", "tags": ["tokyo", "track_centerline"]}}, {"type": "Feature", "bbox": [135.49782, 34.73293, 135.50225, 34.73443], "geometry": {"type": "LineString", "coordinates": [[135.49782, 34.73293], [135.50225, 34.73443]]}, "properties": {"id": "TRACK_TOKYO_0665", "line_name": "山陽新幹線", "station_group_ids": [], "mode": "shinkansen", "operator_id": "jr_west", "line_color": "#1263D6", "tags": ["tokyo", "track_centerline"]}}, {"type": "Feature", "bbox": [135.19866, 34.7083, 135.49446, 34.7687], "geometry": {"type": "LineString", "coordinates": [[135.19866, 34.7083], [135.19902, 34.70854], [135.20038, 34.70955], [135.2023, 34.71114], [135.20407, 34.71269], [135.2052, 34.71375], [135.20634, 34.71482], [135.20663, 34.71508], [135.20729, 34.71569], [135.20785, 34.71627], [135.20867, 34.71706], [135.20886, 34.71725], [135.2104, 34.71871], [135.21209, 34.7203], [135.21441, 34.72247], [135.21585, 34.72383], [135.21591, 34.72389], [135.21798, 34.72584], [135.2191, 34.7269], [135.22161, 34.72908], [135.2228, 34.73011], [135.22339, 34.73054], [135.2237, 34.73077], [135.22529, 34.73187], [135.22707, 34.73318], [135.22792, 34.73378], [135.2287, 34.7343], [135.23028, 34.73536], [135.23181, 34.73625], [135.2319, 34.7363], [135.23296, 34.73689], [135.23409, 34.73749], [135.2354, 34.73811], [135.23682, 34.7388], [135.23842, 34.73952], [135.24005, 34.74017], [135.24156, 34.74068], [135.24203, 34.74084], [135.24426, 34.74155], [135.24721, 34.74251], [135.25557, 34.7451], [135.26592, 34.74831], [135.27628, 34.75152], [135.28083, 34.75293], [135.28147, 34.75313], [135.28183, 34.75324], [135.28512, 34.75429], [135.28521, 34.75432], [135.2885, 34.75537], [135.29179, 34.75645], [135.29508, 34.75753], [135.29541, 34.75764], [135.29837, 34.75861], [135.3018, 34.75972], [135.30524, 34.76083], [135.3057, 34.76098], [135.30869, 34.76194], [135.31039, 34.76249], [135.31146, 34.76283], [135.31214, 34.76305], [135.31261, 34.76319], [135.3138, 34.76359], [135.31617, 34.76427], [135.31704, 34.76449], [135.319, 34.76491], [135.3207, 34.76526], [135.32203, 34.7655], [135.32231, 34.76555], [135.32323, 34.7657], [135.3237, 34.76578], [135.32407, 34.76581], [135.32439, 34.76586], [135.32575, 34.76599], [135.32689, 34.76611], [135.32794, 34.76623], [135.32842, 34.76628], [135.32926, 34.76631], [135.32961, 34.76633], [135.33007, 34.76636], [135.33044, 34.76635], [135.33085, 34.76635], [135.33276, 34.76627], [135.33303, 34.76625], [135.33451, 34.76617], [135.33624, 34.76611], [135.33664, 34.76612], [135.33806, 34.76607], [135.33972, 34.76599], [135.34083, 34.76593], [135.34208, 34.76581], [135.34321, 34.76568], [135.34407, 34.76558], [135.34672, 34.76526], [135.34902, 34.76502], [135.35021, 34.76491], [135.35336, 34.76467], [135.35441, 34.7646], [135.35508, 34.76454], [135.35636, 34.76454], [135.35704, 34.76456], [135.35772, 34.76458], [135.35837, 34.76459], [135.35907, 34.76462], [135.36059, 34.76474], [135.36119, 34.76478], [135.36238, 34.76487], [135.36412, 34.76502], [135.36497, 34.76511], [135.36767, 34.76538], [135.3722, 34.7658], [135.37334, 34.76594], [135.37368, 34.76596], [135.37422, 34.76601], [135.37428, 34.76602], [135.37452, 34.76605], [135.37585, 34.76616], [135.37607, 34.76619], [135.37621, 34.7662], [135.37683, 34.76627], [135.37783, 34.76636], [135.37787, 34.76637], [135.37882, 34.76646], [135.37919, 34.76649], [135.37957, 34.76653], [135.3796, 34.76654], [135.38011, 34.76658], [135.38014, 34.76659], [135.38031, 34.76661], [135.38097, 34.76666], [135.38114, 34.76669], [135.38138, 34.76671], [135.38155, 34.76672], [135.38247, 34.76682], [135.38259, 34.76682], [135.38262, 34.76683], [135.38278, 34.76684], [135.38283, 34.76686], [135.38306, 34.76687], [135.38349, 34.76691], [135.38382, 34.76695], [135.38403, 34.76696], [135.38436, 34.767], [135.3845, 34.76702], [135.38491, 34.76706], [135.3851, 34.76708], [135.38545, 34.76711], [135.38554, 34.76713], [135.38603, 34.76717], [135.3864, 34.76721], [135.38716, 34.76728], [135.3875, 34.76731], [135.38825, 34.76738], [135.38862, 34.76741], [135.38879, 34.76744], [135.38894, 34.76745], [135.38913, 34.76747], [135.38989, 34.76754], [135.39, 34.76755], [135.39013, 34.76756], [135.39059, 34.76761], [135.39074, 34.76763], [135.39088, 34.76764], [135.39114, 34.76766], [135.39125, 34.76768], [135.39187, 34.76775], [135.39264, 34.76781], [135.39276, 34.76784], [135.39289, 34.76784], [135.39329, 34.76788], [135.39336, 34.76789], [135.39366, 34.76791], [135.39411, 34.76796], [135.39449, 34.76799], [135.39454, 34.76801], [135.39536, 34.76808], [135.39578, 34.76812], [135.39584, 34.76814], [135.39625, 34.76817], [135.39658, 34.76821], [135.39705, 34.76825], [135.39767, 34.76831], [135.39773, 34.76831], [135.39812, 34.76835], [135.39847, 34.76838], [135.39851, 34.76839], [135.3991, 34.76844], [135.39981, 34.7685], [135.4003, 34.76855], [135.40164, 34.76862], [135.40178, 34.76863], [135.40253, 34.76866], [135.4036, 34.76869], [135.40439, 34.76869], [135.40582, 34.7687], [135.40705, 34.76867], [135.40713, 34.76866], [135.40748, 34.76865], [135.40782, 34.76864], [135.40841, 34.76862], [135.40875, 34.76859], [135.40903, 34.76857], [135.41014, 34.76848], [135.41038, 34.76847], [135.41051, 34.76845], [135.41082, 34.76842], [135.4111, 34.76839], [135.41135, 34.76836], [135.41159, 34.76833], [135.41195, 34.76829], [135.41216, 34.76825], [135.41238, 34.76823], [135.41245, 34.76821], [135.41256, 34.7682], [135.41264, 34.76818], [135.4132, 34.76809], [135.41331, 34.76807], [135.41392, 34.76796], [135.41463, 34.76783], [135.41536, 34.76767], [135.41591, 34.76757], [135.41594, 34.76756], [135.41615, 34.76752], [135.41624, 34.76749], [135.41728, 34.76723], [135.41762, 34.76714], [135.41767, 34.76713], [135.41788, 34.76708], [135.41825, 34.76698], [135.4188, 34.76681], [135.41887, 34.7668], [135.41932, 34.76666], [135.41985, 34.7665], [135.42015, 34.7664], [135.4202, 34.76639], [135.42055, 34.76627], [135.42063, 34.76625], [135.42066, 34.76624], [135.42127, 34.76605], [135.42143, 34.76599], [135.4216, 34.76593], [135.42175, 34.76588], [135.42186, 34.76584], [135.42195, 34.76581], [135.42225, 34.7657], [135.42255, 34.7656], [135.42276, 34.76552], [135.42327, 34.76532], [135.42341, 34.76527], [135.42345, 34.76526], [135.4235, 34.76524], [135.42397, 34.76506], [135.42517, 34.76457], [135.4252, 34.76455], [135.4253, 34.76451], [135.42594, 34.76424], [135.42599, 34.7642], [135.42621, 34.76411], [135.42644, 34.764], [135.42673, 34.76388], [135.4273, 34.76359], [135.42738, 34.76356], [135.42791, 34.76329], [135.42825, 34.7631], [135.42873, 34.76284], [135.42914, 34.76261], [135.4295, 34.76243], [135.42963, 34.76234], [135.43044, 34.76187], [135.43055, 34.7618], [135.43144, 34.76123], [135.43212, 34.76078], [135.43256, 34.76047], [135.43262, 34.76043], [135.43288, 34.76025], [135.4333, 34.75996], [135.43413, 34.75936], [135.43428, 34.75925], [135.43568, 34.75817], [135.43616, 34.75777], [135.43664, 34.75737], [135.4368, 34.75721], [135.43685, 34.75717], [135.43688, 34.75713], [135.43729, 34.75676], [135.43758, 34.75648], [135.4381, 34.75599], [135.43823, 34.75586], [135.43834, 34.75577], [135.43866, 34.75544], [135.43908, 34.75499], [135.4395, 34.75454], [135.43955, 34.7545], [135.4401, 34.7539], [135.44018, 34.7538], [135.44033, 34.75363], [135.44064, 34.75325], [135.44096, 34.75293], [135.44123, 34.75261], [135.44152, 34.75222], [135.44219, 34.75129], [135.4426, 34.75069], [135.44278, 34.75044], [135.44314, 34.74987], [135.44359, 34.74911], [135.44479, 34.74695], [135.446, 34.74478], [135.44728, 34.74252], [135.44845, 34.74046], [135.44965, 34.7383], [135.45087, 34.73615], [135.45189, 34.73432], [135.45208, 34.73399], [135.45328, 34.73185], [135.45446, 34.72973], [135.4549, 34.72896], [135.45521, 34.72848], [135.45548, 34.72812], [135.45586, 34.7276], [135.45631, 34.72704], [135.45697, 34.72634], [135.45732, 34.72599], [135.45737, 34.72595], [135.45773, 34.72561], [135.45823, 34.72522], [135.45899, 34.72473], [135.45908, 34.72468], [135.45975, 34.72432], [135.46057, 34.72393], [135.46138, 34.7236], [135.46206, 34.72337], [135.46275, 34.72321], [135.46348, 34.7231], [135.46399, 34.72304], [135.46443, 34.723], [135.46502, 34.723], [135.46601, 34.72306], [135.46677, 34.72313], [135.46732, 34.7232], [135.46771, 34.72329], [135.46812, 34.7234], [135.46953, 34.72385], [135.46955, 34.72385], [135.47387, 34.72528], [135.47876, 34.7269], [135.47982, 34.72724], [135.48473, 34.72884], [135.49011, 34.73058], [135.49017, 34.7306], [135.49446, 34.73191]]}, "properties": {"id": "TRACK_TOKYO_0669", "line_name": "山陽新幹線", "station_group_ids": [], "mode": "shinkansen", "operator_id": "jr_west", "line_color": "#1263D6", "tags": ["tokyo", "track_centerline"]}}, {"type": "Feature", "bbox": [135.49791, 34.73268, 135.50238, 34.73412], "geometry": {"type": "LineString", "coordinates": [[135.49791, 34.73268], [135.50238, 34.73412]]}, "properties": {"id": "TRACK_TOKYO_0999", "line_name": "東海道新幹線", "station_group_ids": [], "mode": "shinkansen", "operator_id": "jr_central", "line_color": "#1F78FF", "tags": ["tokyo", "track_centerline"]}}, {"type": "Feature", "bbox": [135.50238, 34.73412, 135.50412, 34.73509], "geometry": {"type": "LineString", "coordinates": [[135.50238, 34.73412], [135.5025, 34.73419], [135.50354, 34.73476], [135.50412, 34.73509]]}, "properties": {"id": "TRACK_TOKYO_1000", "line_name": "東海道新幹線", "station_group_ids": [], "mode": "shinkansen", "operator_id": "jr_central", "line_color": "#1F78FF", "tags": ["tokyo", "track_centerline"]}}, {"type": "Feature", "bbox": [135.50412, 34.73509, 135.75684, 34.98481], "geometry": {"type": "LineString", "coordinates": [[135.50412, 34.73509], [135.5058, 34.73587], [135.50593, 34.73593], [135.50612, 34.73602], [135.50654, 34.73621], [135.50688, 34.73637], [135.50772, 34.73676], [135.50798, 34.73688], [135.50832, 34.73708], [135.5084, 34.73713], [135.50963, 34.73828], [135.51054, 34.73914], [135.51066, 34.73925], [135.51119, 34.73974], [135.51173, 34.74027], [135.51175, 34.74029], [135.51179, 34.74032], [135.51218, 34.74068], [135.5124, 34.74089], [135.51265, 34.74113], [135.5129, 34.74137], [135.51315, 34.74159], [135.5137, 34.74209], [135.51385, 34.74222], [135.51391, 34.74227], [135.51394, 34.74229], [135.51421, 34.74255], [135.51472, 34.74295], [135.51552, 34.74351], [135.51555, 34.74353], [135.51617, 34.74386], [135.51677, 34.74413], [135.51714, 34.74428], [135.51751, 34.74443], [135.51805, 34.74458], [135.51884, 34.74477], [135.51941, 34.74489], [135.52011, 34.745], [135.52098, 34.74514], [135.52169, 34.74524], [135.52219, 34.74531], [135.52652, 34.74589], [135.52962, 34.7463], [135.53081, 34.74648], [135.53194, 34.74668], [135.53259, 34.74683], [135.53318, 34.74696], [135.53416, 34.74725], [135.53518, 34.74757], [135.53608, 34.74786], [135.53718, 34.74831], [135.53838, 34.74883], [135.53937, 34.74933], [135.54089, 34.75018], [135.54186, 34.75076], [135.5423, 34.75105], [135.54251, 34.75119], [135.54309, 34.75165], [135.54377, 34.75215], [135.54427, 34.75259], [135.54458, 34.75287], [135.54497, 34.75325], [135.54575, 34.75399], [135.5478, 34.75586], [135.54894, 34.75693], [135.54949, 34.75744], [135.54958, 34.75754], [135.55047, 34.75836], [135.55113, 34.75897], [135.5515, 34.75932], [135.55204, 34.75984], [135.55251, 34.76024], [135.55256, 34.7603], [135.55324, 34.76091], [135.55396, 34.76153], [135.55571, 34.76297], [135.55573, 34.76298], [135.55613, 34.76331], [135.5581, 34.76489], [135.55843, 34.76515], [135.55914, 34.76572], [135.56095, 34.76715], [135.56173, 34.76779], [135.56175, 34.76779], [135.56237, 34.76831], [135.56434, 34.76987], [135.56479, 34.77025], [135.56537, 34.7707], [135.56598, 34.77121], [135.56605, 34.77127], [135.56703, 34.77207], [135.56724, 34.77224], [135.56745, 34.77241], [135.56772, 34.77264], [135.56805, 34.7729], [135.5687, 34.77343], [135.57135, 34.77558], [135.57159, 34.77579], [135.57169, 34.77586], [135.5732, 34.77708], [135.57339, 34.77725], [135.57467, 34.77828], [135.57551, 34.77894], [135.57632, 34.7796], [135.57639, 34.77964], [135.57656, 34.77978], [135.57664, 34.77985], [135.57809, 34.78103], [135.57898, 34.78176], [135.57957, 34.78224], [135.58038, 34.78289], [135.58081, 34.78325], [135.58127, 34.78362], [135.58253, 34.78462], [135.58295, 34.78496], [135.583, 34.78499], [135.58389, 34.78574], [135.58519, 34.78682], [135.58761, 34.78891], [135.58772, 34.78901], [135.58773, 34.78903], [135.58776, 34.78904], [135.58898, 34.79009], [135.58999, 34.79097], [135.59053, 34.79144], [135.59104, 34.79184], [135.59126, 34.79202], [135.59309, 34.79348], [135.59351, 34.79381], [135.59404, 34.79423], [135.59462, 34.79469], [135.59682, 34.79646], [135.59737, 34.7969], [135.59839, 34.7977], [135.59857, 34.79785], [135.59876, 34.798], [135.60137, 34.80007], [135.60207, 34.80069], [135.60247, 34.80104], [135.60315, 34.80168], [135.60409, 34.80258], [135.60463, 34.80312], [135.60511, 34.80363], [135.6053, 34.80381], [135.60597, 34.80454], [135.6062, 34.8048], [135.60685, 34.80559], [135.60778, 34.80673], [135.60864, 34.80779], [135.60871, 34.80789], [135.60883, 34.80804], [135.60919, 34.80847], [135.61049, 34.8101], [135.61133, 34.81114], [135.61172, 34.81163], [135.6118, 34.81173], [135.61207, 34.81207], [135.61219, 34.81223], [135.6124, 34.81248], [135.61269, 34.81284], [135.61293, 34.81313], [135.6131, 34.81335], [135.61317, 34.81343], [135.61353, 34.81388], [135.61357, 34.81391], [135.61369, 34.81408], [135.61372, 34.8141], [135.61405, 34.81452], [135.61412, 34.81461], [135.61497, 34.81567], [135.61528, 34.81606], [135.61532, 34.81609], [135.61598, 34.81692], [135.61675, 34.8179], [135.61683, 34.81799], [135.61747, 34.81878], [135.61814, 34.81961], [135.61876, 34.82039], [135.62004, 34.82195], [135.62117, 34.82334], [135.62131, 34.82352], [135.6216, 34.82386], [135.62218, 34.82459], [135.62413, 34.82705], [135.62522, 34.82843], [135.62568, 34.82903], [135.62574, 34.82909], [135.62728, 34.83103], [135.62742, 34.83119], [135.6278, 34.83167], [135.62789, 34.83177], [135.62923, 34.83345], [135.62928, 34.83351], [135.63111, 34.83579], [135.63174, 34.83657], [135.63265, 34.83777], [135.6334, 34.83875], [135.63412, 34.8397], [135.63564, 34.84164], [135.63588, 34.84196], [135.63709, 34.84354], [135.63859, 34.84551], [135.6401, 34.84746], [135.6416, 34.84941], [135.64176, 34.8496], [135.64311, 34.85136], [135.64462, 34.85331], [135.6461, 34.85526], [135.64757, 34.8572], [135.64761, 34.85726], [135.64901, 34.8591], [135.64934, 34.85954], [135.64974, 34.86005], [135.6501, 34.86051], [135.65051, 34.861], [135.65088, 34.86144], [135.65129, 34.86192], [135.65169, 34.86234], [135.6521, 34.86279], [135.65405, 34.86457], [135.65424, 34.86474], [135.65444, 34.86493], [135.65459, 34.86506], [135.65636, 34.86669], [135.65842, 34.86863], [135.6605, 34.87058], [135.66071, 34.87079], [135.66088, 34.87094], [135.66095, 34.87101], [135.66257, 34.87255], [135.66278, 34.87275], [135.66307, 34.87303], [135.66465, 34.87451], [135.66515, 34.875], [135.66666, 34.87647], [135.66741, 34.87717], [135.66786, 34.8776], [135.66871, 34.87843], [135.67023, 34.87989], [135.67074, 34.88038], [135.67277, 34.88231], [135.67482, 34.88426], [135.67528, 34.8847], [135.67545, 34.88486], [135.67689, 34.88623], [135.67725, 34.88657], [135.67768, 34.88699], [135.67799, 34.88729], [135.67817, 34.88746], [135.67886, 34.88816], [135.67993, 34.8893], [135.67997, 34.88935], [135.6807, 34.89012], [135.68115, 34.89064], [135.68162, 34.89114], [135.68204, 34.89161], [135.68211, 34.89167], [135.68228, 34.89183], [135.68252, 34.89207], [135.68299, 34.89248], [135.68394, 34.89334], [135.68448, 34.89385], [135.68461, 34.89398], [135.68485, 34.8942], [135.68533, 34.89467], [135.68576, 34.89512], [135.68656, 34.89594], [135.68711, 34.89653], [135.68753, 34.89698], [135.68836, 34.89789], [135.68921, 34.89881], [135.68966, 34.8993], [135.6902, 34.89983], [135.69055, 34.90016], [135.69103, 34.90057], [135.69141, 34.90088], [135.69204, 34.90139], [135.6926, 34.90179], [135.69371, 34.90256], [135.69426, 34.90289], [135.69484, 34.90324], [135.6954, 34.90357], [135.69575, 34.90376], [135.69918, 34.9055], [135.6996, 34.9057], [135.7004, 34.90611], [135.70138, 34.90661], [135.70204, 34.90698], [135.70257, 34.90728], [135.7032, 34.90766], [135.70414, 34.90828], [135.70476, 34.90873], [135.70481, 34.90876], [135.70547, 34.90925], [135.70636, 34.90995], [135.70683, 34.91034], [135.7073, 34.91078], [135.70777, 34.9112], [135.70823, 34.91169], [135.7084, 34.91186], [135.70865, 34.91211], [135.70909, 34.91261], [135.70954, 34.91315], [135.70987, 34.91359], [135.71024, 34.91408], [135.7106, 34.9146], [135.71092, 34.9151], [135.71153, 34.91616], [135.71201, 34.91704], [135.71213, 34.91727], [135.71292, 34.919], [135.71316, 34.91956], [135.71325, 34.9199], [135.71341, 34.92032], [135.71364, 34.9212], [135.71375, 34.92175], [135.71386, 34.92234], [135.71395, 34.92291], [135.71404, 34.92352], [135.7141, 34.92406], [135.71415, 34.92496], [135.71417, 34.92583], [135.71415, 34.9264], [135.71415, 34.9267], [135.71416, 34.92885], [135.71416, 34.92907], [135.71416, 34.92928], [135.71419, 34.93073], [135.71423, 34.93251], [135.71425, 34.93334], [135.71425, 34.93418], [135.71426, 34.93449], [135.71433, 34.93597], [135.71435, 34.9362], [135.71438, 34.93711], [135.71445, 34.93973], [135.71451, 34.94237], [135.71458, 34.94498], [135.71458, 34.94502], [135.71466, 34.94768], [135.71472, 34.95033], [135.71477, 34.95174], [135.71482, 34.95297], [135.71487, 34.95561], [135.71495, 34.95815], [135.71497, 34.95852], [135.71499, 34.95891], [135.71503, 34.95924], [135.71508, 34.95966], [135.71522, 34.96053], [135.71525, 34.96074], [135.71525, 34.9608], [135.71542, 34.96195], [135.71559, 34.96309], [135.71565, 34.96342], [135.71581, 34.96418], [135.71601, 34.96506], [135.71612, 34.96561], [135.71623, 34.96607], [135.71643, 34.96697], [135.71659, 34.96755], [135.71671, 34.96796], [135.71687, 34.96838], [135.71698, 34.96863], [135.71701, 34.96868], [135.71737, 34.96939], [135.71776, 34.97011], [135.718, 34.97056], [135.71827, 34.97099], [135.7185, 34.97133], [135.71877, 34.97173], [135.71913, 34.97226], [135.71945, 34.97269], [135.72005, 34.97342], [135.72053, 34.97397], [135.7209, 34.97437], [135.72106, 34.97452], [135.72126, 34.97473], [135.72179, 34.97516], [135.72248, 34.97564], [135.72306, 34.97602], [135.7239, 34.97653], [135.72505, 34.97715], [135.72621, 34.97778], [135.7279, 34.9787], [135.72999, 34.97982], [135.73136, 34.98055], [135.73221, 34.981], [135.73313, 34.98144], [135.73396, 34.98178], [135.73406, 34.98182], [135.73471, 34.98208], [135.73562, 34.98245], [135.73626, 34.98266], [135.73748, 34.983], [135.74034, 34.98379], [135.74268, 34.9844], [135.74345, 34.98457], [135.74426, 34.98472], [135.74451, 34.98474], [135.74461, 34.98475], [135.74516, 34.9848], [135.74542, 34.9848], [135.74579, 34.98481], [135.74717, 34.98479], [135.7474, 34.98481], [135.74896, 34.9846], [135.74952, 34.98454], [135.75531, 34.98458], [135.75684, 34.98459]]}, "properties": {"id": "TRACK_TOKYO_1001", "line_name": "東海道新幹線", "station_group_ids": [], "mode": "shinkansen", "operator_id": "jr_central", "line_color": "#1F78FF", "tags": ["tokyo", "track_centerline"]}}, {"type": "Feature", "bbox": [135.49782, 34.73293, 135.50225, 34.73443], "geometry": {"type": "LineString", "coordinates": [[135.49782, 34.73293], [135.50225, 34.73443]]}, "properties": {"id": "TRACK_TOKYO_1002", "line_name": "東海道新幹線", "station_group_ids": [], "mode": "shinkansen", "operator_id": "jr_central", "line_color": "#1F78FF", "tags": ["tokyo", "track_centerline"]}}, {"type": "Feature", "bbox": [135.50225, 34.73443, 135.50412, 34.73509], "geometry": {"type": "LineString", "coordinates": [[135.50225, 34.73443], [135.50249, 34.73452], [135.50289, 34.73466], [135.50304, 34.73472], [135.50342, 34.73485], [135.50412, 34.73509]]}, "properties": {"id": "TRACK_TOKYO_1003", "line_name": "東海道新幹線", "station_group_ids": [], "mode": "shinkansen", "operator_id": "jr_central", "line_color": "#1F78FF", "tags": ["tokyo", "track_centerline"]}}]}