{"type": "FeatureCollection", "features": [{"type": "Feature", "bbox": [136.35081329240074, 36.320291138516325, 136.35081329240074, 36.320291138516325], "geometry": {"type": "Point", "coordinates": [136.35081329240074, 36.320291138516325]}, "properties": {"id": "PS_A70517D4BB81", "station_group_id": "SG_DA9DED004A3B", "operator_id": "jr_west", "operator_ids": "jr_west", "name_en": "加賀温泉", "name_ja": "加賀温泉", "label_rank": 72, "tags": ["tokyo", "v3"]}}, {"type": "Feature", "bbox": [136.23536318581455, 36.215428335608834, 136.23536318581455, 36.215428335608834], "geometry": {"type": "Point", "coordinates": [136.23536318581455, 36.215428335608834]}, "properties": {"id": "PS_50A14DD6C996", "station_group_id": "SG_2C06CC9D7963", "operator_id": "jr_west", "operator_ids": "jr_west", "name_en": "芦原温泉", "name_ja": "芦原温泉", "label_rank": 72, "tags": ["tokyo", "v3"]}}]}