{"type": "FeatureCollection", "features": [{"type": "Feature", "bbox": [136.28947, 35.314989999999995, 136.28947, 35.314989999999995], "geometry": {"type": "Point", "coordinates": [136.28947, 35.314989999999995]}, "properties": {"id": "PS_F288D050E915", "station_group_id": "SG_DB75301C6C2A", "operator_id": "jr_central", "operator_ids": "jr_central", "name_en": "米原", "name_ja": "米原", "label_rank": 72, "tags": ["tokyo", "v3"]}}, {"type": "Feature", "bbox": [136.2902235, 35.3148405, 136.2902235, 35.3148405], "geometry": {"type": "Point", "coordinates": [136.2902235, 35.3148405]}, "properties": {"id": "PS_59231218530F", "station_group_id": "SG_DB75301C6C2A", "operator_id": "jr_central", "operator_ids": "jr_central", "name_en": "米原", "name_ja": "米原", "label_rank": 72, "tags": ["tokyo", "v3"]}}, {"type": "Feature", "bbox": [136.28950500000002, 35.313869999999994, 136.28950500000002, 35.313869999999994], "geometry": {"type": "Point", "coordinates": [136.28950500000002, 35.313869999999994]}, "properties": {"id": "PS_7B677BDBC827", "station_group_id": "SG_DB75301C6C2A", "operator_id": "jr_central", "operator_ids": "jr_central", "name_en": "米原", "name_ja": "米原", "label_rank": 72, "tags": ["tokyo", "v3"]}}, {"type": "Feature", "bbox": [136.373985, 35.359030000000004, 136.373985, 35.359030000000004], "geometry": {"type": "Point", "coordinates": [136.373985, 35.359030000000004]}, "properties": {"id": "PS_58D5391A3EF2", "station_group_id": "SG_EB47685AFF93", "operator_id": "jr_central", "operator_ids": "jr_central", "name_en": "近江長岡", "name_ja": "近江長岡", "label_rank": 72, "tags": ["tokyo", "v3"]}}, {"type": "Feature", "bbox": [136.34519, 35.327705, 136.34519, 35.327705], "geometry": {"type": "Point", "coordinates": [136.34519, 35.327705]}, "properties": {"id": "PS_9F4EE572E326", "station_group_id": "SG_03D25D8817A5", "operator_id": "jr_central", "operator_ids": "jr_central", "name_en": "醒ヶ井", "name_ja": "醒ヶ井", "label_rank": 72, "tags": ["tokyo", "v3"]}}]}