{"type": "FeatureCollection", "features": [{"type": "Feature", "bbox": [138.24847131500002, 37.081367150000005, 138.24847131500002, 37.081367150000005], "geometry": {"type": "Point", "coordinates": [138.24847131500002, 37.081367150000005]}, "properties": {"id": "PS_86F854C07A8D", "station_group_id": "SG_526C00D69A9C", "name_en": "上越妙高", "name_ja": "上越妙高", "label_rank": 72, "tags": ["tokyo", "v3"]}}, {"type": "Feature", "bbox": [138.24847131500002, 37.081367150000005, 138.24847131500002, 37.081367150000005], "geometry": {"type": "Point", "coordinates": [138.24847131500002, 37.081367150000005]}, "properties": {"id": "PS_6031CBEDF4AD", "station_group_id": "SG_526C00D69A9C", "name_en": "上越妙高", "name_ja": "上越妙高", "label_rank": 72, "tags": ["tokyo", "v3"]}}, {"type": "Feature", "bbox": [137.86129316, 37.043114454999994, 137.86129316, 37.043114454999994], "geometry": {"type": "Point", "coordinates": [137.86129316, 37.043114454999994]}, "properties": {"id": "PS_CA76BA61548D", "station_group_id": "SG_892CFBA59350", "name_en": "糸魚川", "name_ja": "糸魚川", "label_rank": 72, "tags": ["tokyo", "v3"]}}, {"type": "Feature", "bbox": [138.35901085, 36.845143199999995, 138.35901085, 36.845143199999995], "geometry": {"type": "Point", "coordinates": [138.35901085, 36.845143199999995]}, "properties": {"id": "PS_0BC6D589CB4B", "station_group_id": "SG_899A50574418", "name_en": "飯山", "name_ja": "飯山", "label_rank": 72, "tags": ["tokyo", "v3"]}}]}