{"type": "FeatureCollection", "features": [{"type": "Feature", "bbox": [138.25023, 36.39614, 138.25023, 36.39614], "geometry": {"type": "Point", "coordinates": [138.25023, 36.39614]}, "properties": {"id": "PS_7E37FA28FB0F", "station_group_id": "SG_C68E064E61BF", "name_en": "上田", "name_ja": "上田", "label_rank": 72, "tags": ["tokyo", "v3"]}}, {"type": "Feature", "bbox": [138.28026499999999, 36.659285, 138.28026499999999, 36.659285], "geometry": {"type": "Point", "coordinates": [138.28026499999999, 36.659285]}, "properties": {"id": "PS_6649C593AED6", "station_group_id": "SG_884227D5452F", "name_en": "村山", "name_ja": "村山", "label_rank": 72, "tags": ["tokyo", "v3"]}}, {"type": "Feature", "bbox": [138.18887, 36.642815, 138.18887, 36.642815], "geometry": {"type": "Point", "coordinates": [138.18887, 36.642815]}, "properties": {"id": "PS_7557D77C4A74", "station_group_id": "SG_7F8996CBE2C7", "name_en": "長野", "name_ja": "長野", "label_rank": 72, "tags": ["tokyo", "v3"]}}]}