{"type": "FeatureCollection", "features": [{"type": "Feature", "bbox": [138.21179999999998, 35.9304, 138.21179999999998, 35.9304], "geometry": {"type": "Point", "coordinates": [138.21179999999998, 35.9304]}, "properties": {"id": "PS_809841F730C1", "station_group_id": "SG_8B6E45BE5EAA", "name_en": "すずらんの里", "name_ja": "すずらんの里", "label_rank": 72, "tags": ["tokyo", "v3"]}}, {"type": "Feature", "bbox": [137.98197, 36.09426, 137.98197, 36.09426], "geometry": {"type": "Point", "coordinates": [137.98197, 36.09426]}, "properties": {"id": "PS_01E3D12D495C", "station_group_id": "SG_5FA8F683102D", "name_en": "みどり湖", "name_ja": "みどり湖", "label_rank": 72, "tags": ["tokyo", "v3"]}}, {"type": "Feature", "bbox": [138.116265, 36.046760000000006, 138.116265, 36.046760000000006], "geometry": {"type": "Point", "coordinates": [138.116265, 36.046760000000006]}, "properties": {"id": "PS_93853BFEC2A2", "station_group_id": "SG_0F2D61D1B4C4", "name_en": "上諏訪", "name_ja": "上諏訪", "label_rank": 72, "tags": ["tokyo", "v3"]}}, {"type": "Feature", "bbox": [138.084995, 36.071965000000006, 138.084995, 36.071965000000006], "geometry": {"type": "Point", "coordinates": [138.084995, 36.071965000000006]}, "properties": {"id": "PS_1030E3F1C7BA", "station_group_id": "SG_BAAE227CD91B", "name_en": "下諏訪", "name_ja": "下諏訪", "label_rank": 72, "tags": ["tokyo", "v3"]}}, {"type": "Feature", "bbox": [138.275465, 35.88496, 138.275465, 35.88496], "geometry": {"type": "Point", "coordinates": [138.275465, 35.88496]}, "properties": {"id": "PS_8EF4A96E0E92", "station_group_id": "SG_0C9898F04525", "name_en": "信濃境", "name_ja": "信濃境", "label_rank": 72, "tags": ["tokyo", "v3"]}}, {"type": "Feature", "bbox": [137.971905, 36.013645, 137.971905, 36.013645], "geometry": {"type": "Point", "coordinates": [137.971905, 36.013645]}, "properties": {"id": "PS_C6167C32A229", "station_group_id": "SG_6FAF01E191A5", "name_en": "信濃川島", "name_ja": "信濃川島", "label_rank": 72, "tags": ["tokyo", "v3"]}}, {"type": "Feature", "bbox": [137.947875, 36.114805000000004, 137.947875, 36.114805000000004], "geometry": {"type": "Point", "coordinates": [137.947875, 36.114805000000004]}, "properties": {"id": "PS_27B4BBE0E2BD", "station_group_id": "SG_6AE58CDF78F3", "name_en": "塩尻", "name_ja": "塩尻", "label_rank": 72, "tags": ["tokyo", "v3"]}}, {"type": "Feature", "bbox": [138.237865, 35.912265, 138.237865, 35.912265], "geometry": {"type": "Point", "coordinates": [138.237865, 35.912265]}, "properties": {"id": "PS_FDD42784BCF9", "station_group_id": "SG_2A6485FE1908", "name_en": "富士見", "name_ja": "富士見", "label_rank": 72, "tags": ["tokyo", "v3"]}}, {"type": "Feature", "bbox": [138.316425, 35.86381, 138.316425, 35.86381], "geometry": {"type": "Point", "coordinates": [138.316425, 35.86381]}, "properties": {"id": "PS_28141F7C4061", "station_group_id": "SG_6EC56F0107CE", "name_en": "小淵沢", "name_ja": "小淵沢", "label_rank": 72, "tags": ["tokyo", "v3"]}}, {"type": "Feature", "bbox": [137.970795, 36.046875, 137.970795, 36.046875], "geometry": {"type": "Point", "coordinates": [137.970795, 36.046875]}, "properties": {"id": "PS_54908184938B", "station_group_id": "SG_932BAE28CD3F", "name_en": "小野", "name_ja": "小野", "label_rank": 72, "tags": ["tokyo", "v3"]}}, {"type": "Feature", "bbox": [138.045115, 36.05676, 138.045115, 36.05676], "geometry": {"type": "Point", "coordinates": [138.045115, 36.05676]}, "properties": {"id": "PS_94DFF41291CD", "station_group_id": "SG_609954BE132E", "name_en": "岡谷", "name_ja": "岡谷", "label_rank": 72, "tags": ["tokyo", "v3"]}}, {"type": "Feature", "bbox": [138.02199000000002, 36.03304, 138.02199000000002, 36.03304], "geometry": {"type": "Point", "coordinates": [138.02199000000002, 36.03304]}, "properties": {"id": "PS_766E1A5B1DE6", "station_group_id": "SG_2274B9AFC27D", "name_en": "川岸", "name_ja": "川岸", "label_rank": 72, "tags": ["tokyo", "v3"]}}, {"type": "Feature", "bbox": [138.39429, 35.7907, 138.39429, 35.7907], "geometry": {"type": "Point", "coordinates": [138.39429, 35.7907]}, "properties": {"id": "PS_E2AB7FCA27D0", "station_group_id": "SG_9CD8D7ADAFBA", "name_en": "日野春", "name_ja": "日野春", "label_rank": 72, "tags": ["tokyo", "v3"]}}, {"type": "Feature", "bbox": [138.15176, 35.995000000000005, 138.15176, 35.995000000000005], "geometry": {"type": "Point", "coordinates": [138.15176, 35.995000000000005]}, "properties": {"id": "PS_0BAFE29C177E", "station_group_id": "SG_98EDBD4AFBA7", "name_en": "茅野", "name_ja": "茅野", "label_rank": 72, "tags": ["tokyo", "v3"]}}, {"type": "Feature", "bbox": [137.99731500000001, 35.984584999999996, 137.99731500000001, 35.984584999999996], "geometry": {"type": "Point", "coordinates": [137.99731500000001, 35.984584999999996]}, "properties": {"id": "PS_EA7329B20CAF", "station_group_id": "SG_F000601D58A7", "name_en": "辰野", "name_ja": "辰野", "label_rank": 72, "tags": ["tokyo", "v3"]}}, {"type": "Feature", "bbox": [138.36649999999997, 35.82714, 138.36649999999997, 35.82714], "geometry": {"type": "Point", "coordinates": [138.36649999999997, 35.82714]}, "properties": {"id": "PS_6D8C83D0F8DB", "station_group_id": "SG_8C62A3BB80A7", "name_en": "長坂", "name_ja": "長坂", "label_rank": 72, "tags": ["tokyo", "v3"]}}, {"type": "Feature", "bbox": [138.197465, 35.94278, 138.197465, 35.94278], "geometry": {"type": "Point", "coordinates": [138.197465, 35.94278]}, "properties": {"id": "PS_C11FEC4A0735", "station_group_id": "SG_3027776D5635", "name_en": "青柳", "name_ja": "青柳", "label_rank": 72, "tags": ["tokyo", "v3"]}}]}