{"type": "FeatureCollection", "features": [{"type": "Feature", "bbox": [138.20358, 34.836405, 138.20358, 34.836405], "geometry": {"type": "Point", "coordinates": [138.20358, 34.836405]}, "properties": {"id": "PS_712E2F8B367A", "station_group_id": "SG_628F18925EB7", "operator_id": "jr_central", "operator_ids": "jr_central", "name_en": "六合", "name_ja": "六合", "label_rank": 72, "tags": ["tokyo", "v3"]}}, {"type": "Feature", "bbox": [138.36408999999998, 34.940960000000004, 138.36408999999998, 34.940960000000004], "geometry": {"type": "Point", "coordinates": [138.36408999999998, 34.940960000000004]}, "properties": {"id": "PS_B7672BA71E01", "station_group_id": "SG_D0D845443635", "operator_id": "jr_central", "operator_ids": "jr_central", "name_en": "安倍川", "name_ja": "安倍川", "label_rank": 72, "tags": ["tokyo", "v3"]}}, {"type": "Feature", "bbox": [138.173425, 34.83015, 138.173425, 34.83015], "geometry": {"type": "Point", "coordinates": [138.173425, 34.83015]}, "properties": {"id": "PS_E6D96BE0D0D4", "station_group_id": "SG_504B323C6A03", "operator_id": "jr_central", "operator_ids": "jr_central", "name_en": "島田", "name_ja": "島田", "label_rank": 72, "tags": ["tokyo", "v3"]}}, {"type": "Feature", "bbox": [137.8856316207142, 34.71865916919583, 137.8856316207142, 34.71865916919583], "geometry": {"type": "Point", "coordinates": [137.8856316207142, 34.71865916919583]}, "properties": {"id": "PS_BBAA05231ADB", "station_group_id": "SG_285CF451F3C3", "operator_id": "jr_central", "operator_ids": "jr_central", "name_en": "御厨", "name_ja": "御厨", "label_rank": 72, "tags": ["tokyo", "v3"]}}, {"type": "Feature", "bbox": [137.96184499999998, 34.752455, 137.96184499999998, 34.752455], "geometry": {"type": "Point", "coordinates": [137.96184499999998, 34.752455]}, "properties": {"id": "PS_7666C2E33039", "station_group_id": "SG_7DEBB5FF5634", "operator_id": "jr_central", "operator_ids": "jr_central", "name_en": "愛野", "name_ja": "愛野", "label_rank": 72, "tags": ["tokyo", "v3"]}}, {"type": "Feature", "bbox": [138.01514, 34.769149999999996, 138.01514, 34.769149999999996], "geometry": {"type": "Point", "coordinates": [138.01514, 34.769149999999996]}, "properties": {"id": "PS_EE83212E0D35", "station_group_id": "SG_730E2B5D2F29", "operator_id": "jr_central", "operator_ids": "jr_central", "name_en": "掛川", "name_ja": "掛川", "label_rank": 72, "tags": ["tokyo", "v3"]}}, {"type": "Feature", "bbox": [138.014565, 34.769405, 138.014565, 34.769405], "geometry": {"type": "Point", "coordinates": [138.014565, 34.769405]}, "properties": {"id": "PS_A4B8A5855619", "station_group_id": "SG_730E2B5D2F29", "operator_id": "jr_central", "operator_ids": "jr_central", "name_en": "掛川", "name_ja": "掛川", "label_rank": 72, "tags": ["tokyo", "v3"]}}, {"type": "Feature", "bbox": [138.31848, 34.872285000000005, 138.31848, 34.872285000000005], "geometry": {"type": "Point", "coordinates": [138.31848, 34.872285000000005]}, "properties": {"id": "PS_FEE69B133B03", "station_group_id": "SG_4E007D7FCA86", "operator_id": "jr_central", "operator_ids": "jr_central", "name_en": "焼津", "name_ja": "焼津", "label_rank": 72, "tags": ["tokyo", "v3"]}}, {"type": "Feature", "bbox": [138.35932000000003, 34.921875, 138.35932000000003, 34.921875], "geometry": {"type": "Point", "coordinates": [138.35932000000003, 34.921875]}, "properties": {"id": "PS_25583A7135C1", "station_group_id": "SG_F7AD21392902", "operator_id": "jr_central", "operator_ids": "jr_central", "name_en": "用宗", "name_ja": "用宗", "label_rank": 72, "tags": ["tokyo", "v3"]}}, {"type": "Feature", "bbox": [137.85227, 34.710215, 137.85227, 34.710215], "geometry": {"type": "Point", "coordinates": [137.85227, 34.710215]}, "properties": {"id": "PS_4A0658221B9E", "station_group_id": "SG_FD02BFDC35B4", "operator_id": "jr_central", "operator_ids": "jr_central", "name_en": "磐田", "name_ja": "磐田", "label_rank": 72, "tags": ["tokyo", "v3"]}}, {"type": "Feature", "bbox": [138.08567, 34.761775, 138.08567, 34.761775], "geometry": {"type": "Point", "coordinates": [138.08567, 34.761775]}, "properties": {"id": "PS_72BCFF94F12E", "station_group_id": "SG_1D678B18EEC3", "operator_id": "jr_central", "operator_ids": "jr_central", "name_en": "菊川", "name_ja": "菊川", "label_rank": 72, "tags": ["tokyo", "v3"]}}, {"type": "Feature", "bbox": [138.25286999999997, 34.84957, 138.25286999999997, 34.84957], "geometry": {"type": "Point", "coordinates": [138.25286999999997, 34.84957]}, "properties": {"id": "PS_BFACFEBD692D", "station_group_id": "SG_043A178C4574", "operator_id": "jr_central", "operator_ids": "jr_central", "name_en": "藤枝", "name_ja": "藤枝", "label_rank": 72, "tags": ["tokyo", "v3"]}}, {"type": "Feature", "bbox": [137.925995, 34.741434999999996, 137.925995, 34.741434999999996], "geometry": {"type": "Point", "coordinates": [137.925995, 34.741434999999996]}, "properties": {"id": "PS_1EF742EE6D76", "station_group_id": "SG_D8F170F955F1", "operator_id": "jr_central", "operator_ids": "jr_central", "name_en": "袋井", "name_ja": "袋井", "label_rank": 72, "tags": ["tokyo", "v3"]}}, {"type": "Feature", "bbox": [138.285595, 34.859804999999994, 138.285595, 34.859804999999994], "geometry": {"type": "Point", "coordinates": [138.285595, 34.859804999999994]}, "properties": {"id": "PS_D4B05503B50B", "station_group_id": "SG_983D068529E7", "operator_id": "jr_central", "operator_ids": "jr_central", "name_en": "西焼津", "name_ja": "西焼津", "label_rank": 72, "tags": ["tokyo", "v3"]}}, {"type": "Feature", "bbox": [138.12582500000002, 34.819235000000006, 138.12582500000002, 34.819235000000006], "geometry": {"type": "Point", "coordinates": [138.12582500000002, 34.819235000000006]}, "properties": {"id": "PS_BE6ED289E230", "station_group_id": "SG_256A76D85E7D", "operator_id": "jr_central", "operator_ids": "jr_central", "name_en": "金谷", "name_ja": "金谷", "label_rank": 72, "tags": ["tokyo", "v3"]}}, {"type": "Feature", "bbox": [138.38960500000002, 34.971695, 138.38960500000002, 34.971695], "geometry": {"type": "Point", "coordinates": [138.38960500000002, 34.971695]}, "properties": {"id": "PS_7D5F1E37BC45", "station_group_id": "SG_C5D344AD7025", "operator_id": "jr_central", "operator_ids": "jr_central", "name_en": "静岡", "name_ja": "静岡", "label_rank": 72, "tags": ["tokyo", "v3"]}}, {"type": "Feature", "bbox": [138.388915, 34.971795, 138.388915, 34.971795], "geometry": {"type": "Point", "coordinates": [138.388915, 34.971795]}, "properties": {"id": "PS_E3ED8B8327A0", "station_group_id": "SG_C5D344AD7025", "operator_id": "jr_central", "operator_ids": "jr_central", "name_en": "静岡", "name_ja": "静岡", "label_rank": 72, "tags": ["tokyo", "v3"]}}]}