{"type": "FeatureCollection", "features": [{"type": "Feature", "bbox": [130.0222417991415, 33.19574694693313, 130.02391693968968, 33.196679695647276], "geometry": {"type": "LineString", "coordinates": [[130.0222417991415, 33.19574694693313], [130.02391693968968, 33.196679695647276]]}, "properties": {"id": "GEOM_TOKYO_4205", "route_id": "R_04ADEAE1", "route_name": null, "route_color": "#7C4DFF", "route_text_color": null, "line_name": "西九州新幹線", "operator_id": "九州旅客鉄道", "representation": "service_path", "min_zoom": 0, "max_zoom": 24, "offset_rank": 0}}]}