{"type": "FeatureCollection", "features": [{"type": "Feature", "bbox": [137.86292785, 37.04357131, 138.24733988, 37.111691], "geometry": {"type": "LineString", "coordinates": [[138.24733988, 37.08247122], [138.24303008, 37.08659244], [138.24125025, 37.08824855], [138.23807129, 37.09084692], [138.23510172, 37.09303602], [138.22969559, 37.0968622], [138.22421331, 37.10076451], [138.22111049, 37.10270615], [138.21798864, 37.10447647], [138.21458125, 37.10607547], [138.21090736, 37.10756025], [138.2068718, 37.10889275], [138.20300755, 37.10990164], [138.19821056, 37.11087246], [138.19501256, 37.11127221], [138.18861657, 37.111691], [138.18494268, 37.11159582], [138.18227769, 37.11146257], [138.17843248, 37.11108185], [138.17202459, 37.11006107], [138.16374406, 37.10861435], [138.15491151, 37.10707246], [138.13695609, 37.10396917], [138.11475572, 37.10022152], [138.10212078, 37.09882953], [138.08398929, 37.09565295], [138.0667144, 37.09269052], [138.06007571, 37.09151269], [138.05707759, 37.091013], [138.03387784, 37.08865734], [138.00157666, 37.08540937], [137.9925466, 37.08451708], [137.98426608, 37.08358909], [137.97259482, 37.08144757], [137.96270816, 37.07969867], [137.95956727, 37.07902052], [137.9550344, 37.07787838], [137.95067999, 37.07612948], [137.94639696, 37.07398796], [137.94000811, 37.06981201], [137.93051406, 37.06328039], [137.92715902, 37.0610318], [137.92341136, 37.05871182], [137.91905695, 37.05649892], [137.9162016, 37.05532109], [137.91281087, 37.05421464], [137.90727862, 37.05282266], [137.90210329, 37.05214451], [137.89318031, 37.05100237], [137.88796929, 37.05032422], [137.88437155, 37.04958183], [137.88171607, 37.0489251], [137.86952371, 37.04545584], [137.86292785, 37.04357131]]}, "properties": {"id": "GEOM_TOKYO_4147", "route_id": "R_CC6EF6BA", "route_name": null, "route_color": "#2C62C9", "route_text_color": null, "line_name": "北陸新幹線", "operator_id": "西日本旅客鉄道", "representation": "service_path", "min_zoom": 0, "max_zoom": 24, "offset_rank": 0}}, {"type": "Feature", "bbox": [137.85965847, 37.0426576, 137.86292785, 37.04357131], "geometry": {"type": "LineString", "coordinates": [[137.86292785, 37.04357131], [137.85965847, 37.0426576]]}, "properties": {"id": "GEOM_TOKYO_4148", "route_id": "R_CC6EF6BA", "route_name": null, "route_color": "#2C62C9", "route_text_color": null, "line_name": "北陸新幹線", "operator_id": "西日本旅客鉄道", "representation": "service_path", "min_zoom": 0, "max_zoom": 24, "offset_rank": 0}}, {"type": "Feature", "bbox": [137.48227208, 36.8751489, 137.85965847, 37.0426576], "geometry": {"type": "LineString", "coordinates": [[137.85965847, 37.0426576], [137.85689591, 37.04187], [137.85249391, 37.04060888], [137.84991219, 37.03979987], [137.84704494, 37.03878859], [137.8398905, 37.03602455], [137.82791229, 37.03121328], [137.82243001, 37.02902894], [137.82008862, 37.02798673], [137.81149401, 37.02373226], [137.80806759, 37.02209043], [137.80665419, 37.02149081], [137.80498381, 37.02086263], [137.8025282, 37.0200203], [137.7991339, 37.01908041], [137.79523158, 37.01829995], [137.77880379, 37.01510195], [137.77421619, 37.01420727], [137.77128469, 37.01344585], [137.76791537, 37.01236081], [137.76258538, 37.01022882], [137.74332126, 37.00291911], [137.73789609, 37.00084422], [137.73587831, 37.00017797], [137.72902546, 36.99802694], [137.72483761, 36.99678962], [137.71461545, 36.99366777], [137.70713442, 36.99134541], [137.69849222, 36.98854717], [137.69044012, 36.98618674], [137.68309235, 36.98401667], [137.67372679, 36.98127553], [137.66491326, 36.9785915], [137.65948809, 36.97695443], [137.65431039, 36.9753364], [137.65006543, 36.97381354], [137.64580143, 36.97206226], [137.6300732, 36.96425049], [137.60849149, 36.95347153], [137.59057414, 36.94445338], [137.57168122, 36.9350783], [137.55133683, 36.924918], [137.52927923, 36.91382971], [137.51764366, 36.90804762], [137.51565681, 36.90695307], [137.51346771, 36.90557298], [137.51131787, 36.90407868], [137.50866239, 36.90196572], [137.50662081, 36.90002408], [137.50397961, 36.89714017], [137.49708393, 36.88934506], [137.49512117, 36.88719849], [137.49297966, 36.88502842], [137.48488473, 36.87750456], [137.48227208, 36.8751489]]}, "properties": {"id": "GEOM_TOKYO_4149", "route_id": "R_CC6EF6BA", "route_name": null, "route_color": "#2C62C9", "route_text_color": null, "line_name": "北陸新幹線", "operator_id": "西日本旅客鉄道", "representation": "service_path", "min_zoom": 0, "max_zoom": 24, "offset_rank": 0}}]}