{"type": "FeatureCollection", "features": [{"type": "Feature", "bbox": [138.01727, 34.76941, 138.36282, 34.93126], "geometry": {"type": "LineString", "coordinates": [[138.01727, 34.76941], [138.01731, 34.76941], [138.01816, 34.76957], [138.01868, 34.76967], [138.01889, 34.76971], [138.01901, 34.76973], [138.0193, 34.76979], [138.01969, 34.76987], [138.02041, 34.7701], [138.02164, 34.77046], [138.02211, 34.77061], [138.02248, 34.77072], [138.02292, 34.77085], [138.02385, 34.77113], [138.02559, 34.77167], [138.02576, 34.77172], [138.02581, 34.77174], [138.02594, 34.77177], [138.02713, 34.77214], [138.02779, 34.77234], [138.0279, 34.77238], [138.02817, 34.77246], [138.02875, 34.77264], [138.03089, 34.7733], [138.03161, 34.77349], [138.03234, 34.77364], [138.03343, 34.77382], [138.03396, 34.7739], [138.03414, 34.77392], [138.03467, 34.77398], [138.03541, 34.77403], [138.03635, 34.77411], [138.03717, 34.77412], [138.03725, 34.77412], [138.03797, 34.77415], [138.03944, 34.7742], [138.04034, 34.77422], [138.04065, 34.7742], [138.04124, 34.77414], [138.04134, 34.77413], [138.04147, 34.77412], [138.04161, 34.7741], [138.04291, 34.77395], [138.04406, 34.77375], [138.04422, 34.77372], [138.04437, 34.77369], [138.04466, 34.77364], [138.04536, 34.77349], [138.04695, 34.7731], [138.04827, 34.77277], [138.05001, 34.77235], [138.05105, 34.77213], [138.05141, 34.77205], [138.05221, 34.77189], [138.05344, 34.77162], [138.05415, 34.77149], [138.05457, 34.77144], [138.05518, 34.77138], [138.05585, 34.77134], [138.05635, 34.77132], [138.05708, 34.77131], [138.05914, 34.77128], [138.0607, 34.77126], [138.06127, 34.77126], [138.0617, 34.77127], [138.06228, 34.77128], [138.0623, 34.77128], [138.06278, 34.77129], [138.06314, 34.7713], [138.06409, 34.77132], [138.0643, 34.77132], [138.06445, 34.77132], [138.06448, 34.77132], [138.06457, 34.77133], [138.06508, 34.77134], [138.06529, 34.77134], [138.06692, 34.77138], [138.06718, 34.77138], [138.06755, 34.77139], [138.06785, 34.7714], [138.06827, 34.77141], [138.06833, 34.77142], [138.06853, 34.77142], [138.06907, 34.77143], [138.06919, 34.77144], [138.06956, 34.77144], [138.07038, 34.77146], [138.07154, 34.77148], [138.07356, 34.77154], [138.07457, 34.77156], [138.07479, 34.77157], [138.07664, 34.77167], [138.0776, 34.77172], [138.0783, 34.77176], [138.07841, 34.77177], [138.0791, 34.77183], [138.07982, 34.77191], [138.0806, 34.77199], [138.08075, 34.772], [138.0809, 34.77202], [138.08104, 34.77203], [138.08272, 34.77221], [138.08446, 34.77239], [138.08479, 34.77242], [138.08559, 34.7725], [138.08666, 34.7726], [138.0869, 34.77263], [138.08741, 34.77268], [138.08902, 34.77285], [138.09105, 34.77306], [138.09147, 34.7731], [138.09178, 34.77313], [138.09211, 34.77317], [138.09307, 34.77325], [138.09316, 34.77326], [138.09446, 34.7734], [138.09459, 34.7734], [138.09696, 34.77364], [138.09758, 34.77369], [138.09779, 34.77371], [138.09816, 34.77377], [138.09981, 34.77397], [138.10008, 34.77401], [138.10015, 34.77401], [138.10097, 34.77411], [138.10113, 34.77413], [138.10153, 34.77418], [138.10167, 34.77419], [138.10191, 34.77422], [138.10205, 34.77424], [138.10275, 34.77433], [138.10303, 34.77437], [138.10333, 34.77442], [138.10349, 34.77445], [138.1037, 34.77449], [138.10375, 34.7745], [138.10483, 34.77472], [138.10746, 34.77532], [138.10795, 34.77542], [138.10822, 34.77552], [138.11001, 34.77602], [138.11008, 34.77605], [138.11095, 34.77629], [138.11464, 34.77735], [138.11511, 34.77748], [138.11553, 34.7776], [138.1191, 34.77859], [138.11932, 34.77866], [138.12125, 34.77922], [138.12194, 34.77941], [138.12393, 34.77999], [138.12534, 34.78039], [138.12649, 34.78073], [138.12751, 34.78101], [138.12896, 34.78144], [138.13052, 34.78189], [138.13063, 34.78192], [138.13266, 34.78249], [138.13435, 34.78297], [138.13564, 34.78333], [138.13792, 34.78401], [138.13862, 34.78422], [138.13939, 34.78442], [138.14109, 34.7849], [138.14148, 34.78501], [138.14426, 34.78581], [138.14832, 34.78697], [138.14967, 34.78735], [138.14986, 34.78741], [138.15016, 34.78749], [138.15042, 34.78757], [138.15065, 34.78763], [138.15236, 34.78812], [138.1538, 34.78852], [138.15416, 34.78862], [138.15434, 34.78867], [138.15451, 34.78872], [138.1556, 34.78904], [138.15617, 34.7892], [138.15737, 34.78956], [138.15877, 34.78996], [138.16029, 34.7904], [138.16153, 34.79076], [138.16364, 34.79137], [138.16525, 34.79184], [138.16584, 34.79201], [138.16748, 34.79248], [138.17019, 34.79325], [138.17188, 34.79373], [138.17227, 34.79385], [138.1725, 34.79391], [138.17427, 34.79442], [138.17586, 34.79488], [138.17587, 34.79488], [138.17728, 34.79529], [138.17894, 34.79576], [138.18139, 34.79647], [138.18418, 34.79726], [138.18563, 34.79768], [138.18632, 34.79788], [138.18843, 34.7985], [138.19063, 34.79913], [138.19233, 34.79961], [138.1936, 34.79997], [138.19382, 34.80003], [138.19406, 34.8001], [138.19489, 34.80034], [138.19565, 34.80056], [138.19639, 34.80077], [138.19657, 34.80082], [138.19911, 34.80156], [138.20006, 34.80183], [138.20028, 34.80189], [138.20077, 34.80203], [138.20125, 34.80218], [138.20146, 34.80225], [138.20212, 34.80246], [138.20241, 34.80255], [138.20262, 34.80262], [138.20292, 34.80273], [138.20363, 34.80297], [138.20378, 34.80302], [138.20382, 34.80304], [138.20462, 34.80336], [138.20472, 34.80341], [138.2049, 34.80348], [138.20579, 34.80388], [138.20585, 34.8039], [138.20605, 34.80399], [138.20653, 34.80421], [138.20693, 34.8044], [138.20712, 34.80448], [138.20762, 34.80473], [138.20779, 34.80481], [138.20808, 34.80497], [138.20894, 34.80545], [138.20955, 34.80581], [138.20982, 34.80598], [138.20996, 34.80608], [138.21042, 34.80639], [138.21113, 34.80689], [138.21275, 34.80801], [138.21359, 34.80859], [138.21465, 34.80932], [138.21616, 34.81036], [138.21705, 34.81099], [138.21721, 34.81111], [138.21734, 34.8112], [138.21765, 34.81141], [138.21791, 34.81159], [138.21848, 34.81198], [138.22043, 34.81334], [138.22236, 34.81467], [138.22257, 34.81482], [138.22346, 34.81544], [138.22437, 34.81606], [138.22458, 34.81621], [138.22479, 34.81635], [138.22551, 34.81685], [138.22582, 34.81705], [138.22786, 34.81845], [138.22959, 34.81966], [138.22988, 34.81985], [138.2309, 34.82056], [138.23258, 34.82173], [138.23411, 34.82278], [138.23507, 34.82344], [138.23668, 34.82456], [138.23698, 34.82476], [138.23841, 34.82574], [138.23976, 34.82667], [138.23987, 34.82675], [138.23999, 34.82683], [138.24128, 34.82772], [138.24242, 34.82849], [138.24248, 34.82853], [138.2427, 34.82868], [138.24341, 34.82918], [138.24356, 34.82928], [138.24367, 34.82936], [138.24401, 34.8296], [138.24494, 34.83024], [138.24599, 34.83096], [138.24693, 34.83166], [138.24772, 34.83218], [138.24889, 34.83293], [138.24993, 34.83362], [138.25094, 34.83428], [138.25107, 34.83436], [138.25153, 34.83467], [138.252, 34.83498], [138.25203, 34.835], [138.25257, 34.83535], [138.2531, 34.8357], [138.25448, 34.83664], [138.25511, 34.83707], [138.25649, 34.83798], [138.2566, 34.83804], [138.2569, 34.83825], [138.25855, 34.83933], [138.25929, 34.83983], [138.25955, 34.84001], [138.25971, 34.84011], [138.26103, 34.84098], [138.2623, 34.84183], [138.26248, 34.84195], [138.263, 34.8423], [138.26423, 34.84312], [138.26427, 34.84315], [138.26491, 34.84357], [138.26549, 34.84395], [138.26658, 34.84468], [138.26711, 34.84503], [138.26779, 34.84548], [138.26789, 34.84555], [138.26905, 34.84633], [138.26947, 34.84661], [138.26981, 34.84684], [138.27014, 34.84706], [138.27112, 34.84772], [138.27143, 34.84792], [138.27169, 34.8481], [138.27224, 34.84847], [138.27336, 34.84923], [138.27453, 34.85003], [138.27525, 34.8505], [138.27549, 34.85066], [138.27571, 34.8508], [138.27694, 34.85163], [138.27815, 34.85243], [138.27931, 34.85321], [138.27959, 34.8534], [138.27982, 34.85355], [138.28023, 34.85382], [138.28055, 34.85403], [138.28164, 34.85477], [138.28178, 34.85487], [138.282, 34.85501], [138.28256, 34.8554], [138.28354, 34.85605], [138.28466, 34.8568], [138.2858, 34.85756], [138.28711, 34.85842], [138.28717, 34.85846], [138.28758, 34.85873], [138.28807, 34.85906], [138.28835, 34.85925], [138.28839, 34.85928], [138.28891, 34.85963], [138.28919, 34.85982], [138.28925, 34.85986], [138.2904, 34.86062], [138.29135, 34.86125], [138.29138, 34.86127], [138.29193, 34.86164], [138.2922, 34.86182], [138.29247, 34.862], [138.29261, 34.8621], [138.29266, 34.86213], [138.29301, 34.86237], [138.29365, 34.8628], [138.29418, 34.86315], [138.29434, 34.86326], [138.29533, 34.86391], [138.2956, 34.8641], [138.29631, 34.86457], [138.29732, 34.86524], [138.29824, 34.86585], [138.29831, 34.8659], [138.29878, 34.86621], [138.29948, 34.86667], [138.29988, 34.86693], [138.30042, 34.8673], [138.30067, 34.86746], [138.3013, 34.86788], [138.30145, 34.86798], [138.30182, 34.86822], [138.30223, 34.8685], [138.30294, 34.86899], [138.30353, 34.86938], [138.30396, 34.86966], [138.30419, 34.86982], [138.30433, 34.86992], [138.30511, 34.87045], [138.30535, 34.87061], [138.3054, 34.87065], [138.30635, 34.87133], [138.30647, 34.87142], [138.30674, 34.87162], [138.30732, 34.87204], [138.30751, 34.87219], [138.30753, 34.8722], [138.30849, 34.87292], [138.30975, 34.87388], [138.3103, 34.8743], [138.31118, 34.87498], [138.31154, 34.87526], [138.31203, 34.87563], [138.31252, 34.87601], [138.31269, 34.87614], [138.31304, 34.8764], [138.31339, 34.87668], [138.31481, 34.87775], [138.31559, 34.87835], [138.31646, 34.87902], [138.31655, 34.87909], [138.31787, 34.88011], [138.3184, 34.88052], [138.31862, 34.88069], [138.32018, 34.8819], [138.32049, 34.88215], [138.32093, 34.8825], [138.32128, 34.88277], [138.3218, 34.88317], [138.3225, 34.88376], [138.32329, 34.88448], [138.32432, 34.88545], [138.32479, 34.88592], [138.32502, 34.88615], [138.32558, 34.8867], [138.3271, 34.88825], [138.32713, 34.88828], [138.32727, 34.88842], [138.32794, 34.88909], [138.32888, 34.89003], [138.32982, 34.89096], [138.32999, 34.89112], [138.33003, 34.89117], [138.33097, 34.89209], [138.33216, 34.89328], [138.33242, 34.89354], [138.33251, 34.89362], [138.33261, 34.89372], [138.33322, 34.89433], [138.33386, 34.89496], [138.334, 34.89511], [138.33403, 34.89513], [138.33534, 34.89647], [138.33647, 34.89765], [138.33746, 34.89864], [138.33816, 34.89934], [138.33884, 34.90002], [138.33957, 34.90076], [138.33989, 34.90108], [138.34028, 34.90147], [138.34098, 34.90215], [138.3415, 34.90267], [138.34167, 34.90283], [138.34303, 34.90419], [138.34444, 34.9056], [138.34485, 34.90601], [138.34552, 34.90669], [138.34616, 34.90731], [138.3469, 34.90807], [138.34757, 34.90873], [138.34831, 34.90949], [138.34849, 34.90966], [138.34898, 34.91015], [138.34965, 34.91082], [138.35037, 34.91156], [138.35111, 34.91231], [138.35165, 34.91285], [138.35229, 34.91353], [138.35242, 34.91368], [138.3532, 34.91453], [138.35375, 34.91522], [138.35429, 34.91593], [138.35489, 34.9167], [138.35547, 34.91747], [138.35595, 34.91809], [138.35624, 34.91847], [138.35638, 34.91866], [138.35658, 34.91891], [138.35676, 34.91914], [138.35705, 34.91951], [138.35737, 34.91997], [138.35759, 34.92023], [138.35779, 34.92048], [138.35814, 34.92103], [138.35896, 34.92214], [138.35947, 34.92287], [138.35987, 34.92346], [138.36001, 34.92363], [138.36031, 34.92409], [138.36058, 34.92453], [138.36091, 34.92527], [138.36098, 34.92541], [138.36104, 34.92554], [138.36126, 34.92605], [138.36165, 34.92696], [138.362, 34.92775], [138.36201, 34.92778], [138.36208, 34.92799], [138.36224, 34.92851], [138.36253, 34.92977], [138.36273, 34.93071], [138.36277, 34.93098], [138.3628, 34.93112], [138.36282, 34.93126]]}, "properties": {"id": "GEOM_TOKYO_0959", "route_id": "R_3B2E9FFD", "route_name": null, "route_color": null, "route_text_color": null, "representation": "service_path", "min_zoom": 0, "max_zoom": 24, "offset_rank": 0}}]}