{"type": "FeatureCollection", "features": [{"type": "Feature", "bbox": [138.01727, 34.76941, 138.36282, 34.93126], "geometry": {"type": "LineString", "coordinates": [[138.01727, 34.76941], [138.01731, 34.76941], [138.01816, 34.76957], [138.01868, 34.76967], [138.01889, 34.76971], [138.01901, 34.76973], [138.0193, 34.76979], [138.01969, 34.76987], [138.02041, 34.7701], [138.02164, 34.77046], [138.02211, 34.77061], [138.02248, 34.77072], [138.02292, 34.77085], [138.02385, 34.77113], [138.02559, 34.77167], [138.02576, 34.77172], [138.02581, 34.77174], [138.02594, 34.77177], [138.02713, 34.77214], [138.02779, 34.77234], [138.0279, 34.77238], [138.02817, 34.77246], [138.02875, 34.77264], [138.03089, 34.7733], [138.03161, 34.77349], [138.03234, 34.77364], [138.03343, 34.77382], [138.03396, 34.7739], [138.03414, 34.77392], [138.03467, 34.77398], [138.03541, 34.77403], [138.03635, 34.77411], [138.03717, 34.77412], [138.03725, 34.77412], [138.03797, 34.77415], [138.03944, 34.7742], [138.04034, 34.77422], [138.04065, 34.7742], [138.04124, 34.77414], [138.04134, 34.77413], [138.04147, 34.77412], [138.04161, 34.7741], [138.04291, 34.77395], [138.04406, 34.77375], [138.04422, 34.77372], [138.04437, 34.77369], [138.04466, 34.77364], [138.04536, 34.77349], [138.04695, 34.7731], [138.04827, 34.77277], [138.05001, 34.77235], [138.05105, 34.77213], [138.05141, 34.77205], [138.05221, 34.77189], [138.05344, 34.77162], [138.05415, 34.77149], [138.05457, 34.77144], [138.05518, 34.77138], [138.05585, 34.77134], [138.05635, 34.77132], [138.05708, 34.77131], [138.05914, 34.77128], [138.0607, 34.77126], [138.06127, 34.77126], [138.0617, 34.77127], [138.06228, 34.77128], [138.0623, 34.77128], [138.06278, 34.77129], [138.06314, 34.7713], [138.06409, 34.77132], [138.0643, 34.77132], [138.06445, 34.77132], [138.06448, 34.77132], [138.06457, 34.77133], [138.06508, 34.77134], [138.06529, 34.77134], [138.06692, 34.77138], [138.06718, 34.77138], [138.06755, 34.77139], [138.06785, 34.7714], [138.06827, 34.77141], [138.06833, 34.77142], [138.06853, 34.77142], [138.06907, 34.77143], [138.06919, 34.77144], [138.06956, 34.77144], [138.07038, 34.77146], [138.07154, 34.77148], [138.07356, 34.77154], [138.07457, 34.77156], [138.07479, 34.77157], [138.07664, 34.77167], [138.0776, 34.77172], [138.0783, 34.77176], [138.07841, 34.77177], [138.0791, 34.77183], [138.07982, 34.77191], [138.0806, 34.77199], [138.08075, 34.772], [138.0809, 34.77202], [138.08104, 34.77203], [138.08272, 34.77221], [138.08446, 34.77239], [138.08479, 34.77242], [138.08559, 34.7725], [138.08666, 34.7726], [138.0869, 34.77263], [138.08741, 34.77268], [138.08902, 34.77285], [138.09105, 34.77306], [138.09147, 34.7731], [138.09178, 34.77313], [138.09211, 34.77317], [138.09307, 34.77325], [138.09316, 34.77326], [138.09446, 34.7734], [138.09459, 34.7734], [138.09696, 34.77364], [138.09758, 34.77369], [138.09779, 34.77371], [138.09816, 34.77377], [138.09981, 34.77397], [138.10008, 34.77401], [138.10015, 34.77401], [138.10097, 34.77411], [138.10113, 34.77413], [138.10153, 34.77418], [138.10167, 34.77419], [138.10191, 34.77422], [138.10205, 34.77424], [138.10275, 34.77433], [138.10303, 34.77437], [138.10333, 34.77442], [138.10349, 34.77445], [138.1037, 34.77449], [138.10375, 34.7745], [138.10483, 34.77472], [138.10746, 34.77532], [138.10795, 34.77542], [138.10822, 34.77552], [138.11001, 34.77602], [138.11008, 34.77605], [138.11095, 34.77629], [138.11464, 34.77735], [138.11511, 34.77748], [138.11553, 34.7776], [138.1191, 34.77859], [138.11932, 34.77866], [138.12125, 34.77922], [138.12194, 34.77941], [138.12393, 34.77999], [138.12534, 34.78039], [138.12649, 34.78073], [138.12751, 34.78101], [138.12896, 34.78144], [138.13052, 34.78189], [138.13063, 34.78192], [138.13266, 34.78249], [138.13435, 34.78297], [138.13564, 34.78333], [138.13792, 34.78401], [138.13862, 34.78422], [138.13939, 34.78442], [138.14109, 34.7849], [138.14148, 34.78501], [138.14426, 34.78581], [138.14832, 34.78697], [138.14967, 34.78735], [138.14986, 34.78741], [138.15016, 34.78749], [138.15042, 34.78757], [138.15065, 34.78763], [138.15236, 34.78812], [138.1538, 34.78852], [138.15416, 34.78862], [138.15434, 34.78867], [138.15451, 34.78872], [138.1556, 34.78904], [138.15617, 34.7892], [138.15737, 34.78956], [138.15877, 34.78996], [138.16029, 34.7904], [138.16153, 34.79076], [138.16364, 34.79137], [138.16525, 34.79184], [138.16584, 34.79201], [138.16748, 34.79248], [138.17019, 34.79325], [138.17188, 34.79373], [138.17227, 34.79385], [138.1725, 34.79391], [138.17427, 34.79442], [138.17586, 34.79488], [138.17587, 34.79488], [138.17728, 34.79529], [138.17894, 34.79576], [138.18139, 34.79647], [138.18418, 34.79726], [138.18563, 34.79768], [138.18632, 34.79788], [138.18843, 34.7985], [138.19063, 34.79913], [138.19233, 34.79961], [138.1936, 34.79997], [138.19382, 34.80003], [138.19406, 34.8001], [138.19489, 34.80034], [138.19565, 34.80056], [138.19639, 34.80077], [138.19657, 34.80082], [138.19911, 34.80156], [138.20006, 34.80183], [138.20028, 34.80189], [138.20077, 34.80203], [138.20125, 34.80218], [138.20146, 34.80225], [138.20212, 34.80246], [138.20241, 34.80255], [138.20262, 34.80262], [138.20292, 34.80273], [138.20363, 34.80297], [138.20378, 34.80302], [138.20382, 34.80304], [138.20462, 34.80336], [138.20472, 34.80341], [138.2049, 34.80348], [138.20579, 34.80388], [138.20585, 34.8039], [138.20605, 34.80399], [138.20653, 34.80421], [138.20693, 34.8044], [138.20712, 34.80448], [138.20762, 34.80473], [138.20779, 34.80481], [138.20808, 34.80497], [138.20894, 34.80545], [138.20955, 34.80581], [138.20982, 34.80598], [138.20996, 34.80608], [138.21042, 34.80639], [138.21113, 34.80689], [138.21275, 34.80801], [138.21359, 34.80859], [138.21465, 34.80932], [138.21616, 34.81036], [138.21705, 34.81099], [138.21721, 34.81111], [138.21734, 34.8112], [138.21765, 34.81141], [138.21791, 34.81159], [138.21848, 34.81198], [138.22043, 34.81334], [138.22236, 34.81467], [138.22257, 34.81482], [138.22346, 34.81544], [138.22437, 34.81606], [138.22458, 34.81621], [138.22479, 34.81635], [138.22551, 34.81685], [138.22582, 34.81705], [138.22786, 34.81845], [138.22959, 34.81966], [138.22988, 34.81985], [138.2309, 34.82056], [138.23258, 34.82173], [138.23411, 34.82278], [138.23507, 34.82344], [138.23668, 34.82456], [138.23698, 34.82476], [138.23841, 34.82574], [138.23976, 34.82667], [138.23987, 34.82675], [138.23999, 34.82683], [138.24128, 34.82772], [138.24242, 34.82849], [138.24248, 34.82853], [138.2427, 34.82868], [138.24341, 34.82918], [138.24356, 34.82928], [138.24367, 34.82936], [138.24401, 34.8296], [138.24494, 34.83024], [138.24599, 34.83096], [138.24693, 34.83166], [138.24772, 34.83218], [138.24889, 34.83293], [138.24993, 34.83362], [138.25094, 34.83428], [138.25107, 34.83436], [138.25153, 34.83467], [138.252, 34.83498], [138.25203, 34.835], [138.25257, 34.83535], [138.2531, 34.8357], [138.25448, 34.83664], [138.25511, 34.83707], [138.25649, 34.83798], [138.2566, 34.83804], [138.2569, 34.83825], [138.25855, 34.83933], [138.25929, 34.83983], [138.25955, 34.84001], [138.25971, 34.84011], [138.26103, 34.84098], [138.2623, 34.84183], [138.26248, 34.84195], [138.263, 34.8423], [138.26423, 34.84312], [138.26427, 34.84315], [138.26491, 34.84357], [138.26549, 34.84395], [138.26658, 34.84468], [138.26711, 34.84503], [138.26779, 34.84548], [138.26789, 34.84555], [138.26905, 34.84633], [138.26947, 34.84661], [138.26981, 34.84684], [138.27014, 34.84706], [138.27112, 34.84772], [138.27143, 34.84792], [138.27169, 34.8481], [138.27224, 34.84847], [138.27336, 34.84923], [138.27453, 34.85003], [138.27525, 34.8505], [138.27549, 34.85066], [138.27571, 34.8508], [138.27694, 34.85163], [138.27815, 34.85243], [138.27931, 34.85321], [138.27959, 34.8534], [138.27982, 34.85355], [138.28023, 34.85382], [138.28055, 34.85403], [138.28164, 34.85477], [138.28178, 34.85487], [138.282, 34.85501], [138.28256, 34.8554], [138.28354, 34.85605], [138.28466, 34.8568], [138.2858, 34.85756], [138.28711, 34.85842], [138.28717, 34.85846], [138.28758, 34.85873], [138.28807, 34.85906], [138.28835, 34.85925], [138.28839, 34.85928], [138.28891, 34.85963], [138.28919, 34.85982], [138.28925, 34.85986], [138.2904, 34.86062], [138.29135, 34.86125], [138.29138, 34.86127], [138.29193, 34.86164], [138.2922, 34.86182], [138.29247, 34.862], [138.29261, 34.8621], [138.29266, 34.86213], [138.29301, 34.86237], [138.29365, 34.8628], [138.29418, 34.86315], [138.29434, 34.86326], [138.29533, 34.86391], [138.2956, 34.8641], [138.29631, 34.86457], [138.29732, 34.86524], [138.29824, 34.86585], [138.29831, 34.8659], [138.29878, 34.86621], [138.29948, 34.86667], [138.29988, 34.86693], [138.30042, 34.8673], [138.30067, 34.86746], [138.3013, 34.86788], [138.30145, 34.86798], [138.30182, 34.86822], [138.30223, 34.8685], [138.30294, 34.86899], [138.30353, 34.86938], [138.30396, 34.86966], [138.30419, 34.86982], [138.30433, 34.86992], [138.30511, 34.87045], [138.30535, 34.87061], [138.3054, 34.87065], [138.30635, 34.87133], [138.30647, 34.87142], [138.30674, 34.87162], [138.30732, 34.87204], [138.30751, 34.87219], [138.30753, 34.8722], [138.30849, 34.87292], [138.30975, 34.87388], [138.3103, 34.8743], [138.31118, 34.87498], [138.31154, 34.87526], [138.31203, 34.87563], [138.31252, 34.87601], [138.31269, 34.87614], [138.31304, 34.8764], [138.31339, 34.87668], [138.31481, 34.87775], [138.31559, 34.87835], [138.31646, 34.87902], [138.31655, 34.87909], [138.31787, 34.88011], [138.3184, 34.88052], [138.31862, 34.88069], [138.32018, 34.8819], [138.32049, 34.88215], [138.32093, 34.8825], [138.32128, 34.88277], [138.3218, 34.88317], [138.3225, 34.88376], [138.32329, 34.88448], [138.32432, 34.88545], [138.32479, 34.88592], [138.32502, 34.88615], [138.32558, 34.8867], [138.3271, 34.88825], [138.32713, 34.88828], [138.32727, 34.88842], [138.32794, 34.88909], [138.32888, 34.89003], [138.32982, 34.89096], [138.32999, 34.89112], [138.33003, 34.89117], [138.33097, 34.89209], [138.33216, 34.89328], [138.33242, 34.89354], [138.33251, 34.89362], [138.33261, 34.89372], [138.33322, 34.89433], [138.33386, 34.89496], [138.334, 34.89511], [138.33403, 34.89513], [138.33534, 34.89647], [138.33647, 34.89765], [138.33746, 34.89864], [138.33816, 34.89934], [138.33884, 34.90002], [138.33957, 34.90076], [138.33989, 34.90108], [138.34028, 34.90147], [138.34098, 34.90215], [138.3415, 34.90267], [138.34167, 34.90283], [138.34303, 34.90419], [138.34444, 34.9056], [138.34485, 34.90601], [138.34552, 34.90669], [138.34616, 34.90731], [138.3469, 34.90807], [138.34757, 34.90873], [138.34831, 34.90949], [138.34849, 34.90966], [138.34898, 34.91015], [138.34965, 34.91082], [138.35037, 34.91156], [138.35111, 34.91231], [138.35165, 34.91285], [138.35229, 34.91353], [138.35242, 34.91368], [138.3532, 34.91453], [138.35375, 34.91522], [138.35429, 34.91593], [138.35489, 34.9167], [138.35547, 34.91747], [138.35595, 34.91809], [138.35624, 34.91847], [138.35638, 34.91866], [138.35658, 34.91891], [138.35676, 34.91914], [138.35705, 34.91951], [138.35737, 34.91997], [138.35759, 34.92023], [138.35779, 34.92048], [138.35814, 34.92103], [138.35896, 34.92214], [138.35947, 34.92287], [138.35987, 34.92346], [138.36001, 34.92363], [138.36031, 34.92409], [138.36058, 34.92453], [138.36091, 34.92527], [138.36098, 34.92541], [138.36104, 34.92554], [138.36126, 34.92605], [138.36165, 34.92696], [138.362, 34.92775], [138.36201, 34.92778], [138.36208, 34.92799], [138.36224, 34.92851], [138.36253, 34.92977], [138.36273, 34.93071], [138.36277, 34.93098], [138.3628, 34.93112], [138.36282, 34.93126]]}, "properties": {"id": "GEOM_TOKYO_0974", "route_id": "R_388BB890", "route_name": null, "route_color": "#1F78FF", "route_text_color": null, "line_name": "東海道新幹線", "operator_id": "jr_central", "representation": "service_path", "min_zoom": 0, "max_zoom": 24, "offset_rank": 0}}, {"type": "Feature", "bbox": [138.01301, 34.76889, 138.01727, 34.76941], "geometry": {"type": "LineString", "coordinates": [[138.01727, 34.76941], [138.0169, 34.76936], [138.01648, 34.76931], [138.01637, 34.76929], [138.01596, 34.76924], [138.01301, 34.76889]]}, "properties": {"id": "GEOM_TOKYO_0986", "route_id": "R_388BB890", "route_name": null, "route_color": "#1F78FF", "route_text_color": null, "line_name": "東海道新幹線", "operator_id": "jr_central", "representation": "service_path", "min_zoom": 0, "max_zoom": 24, "offset_rank": 0}}, {"type": "Feature", "bbox": [137.7375, 34.70268, 138.01301, 34.76889], "geometry": {"type": "LineString", "coordinates": [[138.01301, 34.76889], [138.01296, 34.76889], [138.01183, 34.76876], [138.01103, 34.76867], [138.01051, 34.76862], [138.00954, 34.76851], [138.0082, 34.76836], [138.00803, 34.76834], [138.00782, 34.76832], [138.00707, 34.76822], [138.00696, 34.76821], [138.00636, 34.76812], [138.00607, 34.76808], [138.00586, 34.76805], [138.00534, 34.76794], [138.00446, 34.7677], [138.0036, 34.76744], [138.00349, 34.7674], [138.00336, 34.76737], [138.00257, 34.76713], [138.00232, 34.76705], [138.00218, 34.76701], [138.0011, 34.76668], [137.9989, 34.76605], [137.9985, 34.76594], [137.99823, 34.76587], [137.99733, 34.76562], [137.99695, 34.7655], [137.9963, 34.76531], [137.99491, 34.76486], [137.99462, 34.76477], [137.99453, 34.76474], [137.99231, 34.76404], [137.99136, 34.76371], [137.99023, 34.7633], [137.98854, 34.76274], [137.98795, 34.76253], [137.98437, 34.76114], [137.98418, 34.76107], [137.98285, 34.76055], [137.98267, 34.76048], [137.98074, 34.75973], [137.97688, 34.75822], [137.97357, 34.7569], [137.97331, 34.7568], [137.97326, 34.75678], [137.97275, 34.75658], [137.97255, 34.75651], [137.97209, 34.75633], [137.97021, 34.75559], [137.96619, 34.75403], [137.96598, 34.75395], [137.96557, 34.7538], [137.96529, 34.75368], [137.96505, 34.75358], [137.96453, 34.75331], [137.96342, 34.75287], [137.96194, 34.7523], [137.96134, 34.75206], [137.96102, 34.75194], [137.96056, 34.75176], [137.9599, 34.75149], [137.95914, 34.75124], [137.95784, 34.75081], [137.95662, 34.75046], [137.95428, 34.74976], [137.95409, 34.74971], [137.95377, 34.74962], [137.95097, 34.74878], [137.94982, 34.74844], [137.94726, 34.74766], [137.94533, 34.74708], [137.94429, 34.74676], [137.94253, 34.74625], [137.94232, 34.74615], [137.94192, 34.74599], [137.94152, 34.74581], [137.94071, 34.74541], [137.94055, 34.74533], [137.94051, 34.74532], [137.93986, 34.74497], [137.93976, 34.74491], [137.93922, 34.74462], [137.93775, 34.74382], [137.9375, 34.74369], [137.9373, 34.74358], [137.93694, 34.74339], [137.93585, 34.74281], [137.93482, 34.74225], [137.93437, 34.74201], [137.93412, 34.74187], [137.93359, 34.74157], [137.93309, 34.74127], [137.93177, 34.7405], [137.93122, 34.74017], [137.93114, 34.74013], [137.93112, 34.74012], [137.93056, 34.73983], [137.9304, 34.73976], [137.92972, 34.73942], [137.92878, 34.73895], [137.92851, 34.73882], [137.92794, 34.73857], [137.92623, 34.73775], [137.92576, 34.73755], [137.92496, 34.73719], [137.92373, 34.73672], [137.92361, 34.73668], [137.92214, 34.73611], [137.9211, 34.73572], [137.92098, 34.73567], [137.92082, 34.73561], [137.91976, 34.73522], [137.91968, 34.73518], [137.9196, 34.73516], [137.91943, 34.73509], [137.91816, 34.73462], [137.91796, 34.73455], [137.91772, 34.73446], [137.91659, 34.73403], [137.91654, 34.73401], [137.91601, 34.73382], [137.91515, 34.73351], [137.915, 34.73345], [137.91409, 34.7331], [137.9138, 34.733], [137.91295, 34.73268], [137.91281, 34.73263], [137.91251, 34.73252], [137.91116, 34.73204], [137.91091, 34.73194], [137.90981, 34.73152], [137.90931, 34.73133], [137.90917, 34.73128], [137.90833, 34.73097], [137.90706, 34.73048], [137.90682, 34.73039], [137.90667, 34.73033], [137.9064, 34.73022], [137.90572, 34.72995], [137.90565, 34.72992], [137.90467, 34.72953], [137.904, 34.72925], [137.90317, 34.7289], [137.90306, 34.72886], [137.90301, 34.72883], [137.90293, 34.7288], [137.90121, 34.72799], [137.90021, 34.7275], [137.89891, 34.7268], [137.89744, 34.72602], [137.89694, 34.72576], [137.89678, 34.72568], [137.89663, 34.72559], [137.89625, 34.7254], [137.89543, 34.72492], [137.89526, 34.72482], [137.8951, 34.72473], [137.89489, 34.72461], [137.89388, 34.724], [137.89368, 34.72387], [137.89289, 34.72339], [137.89159, 34.72252], [137.89143, 34.72241], [137.89046, 34.72175], [137.88958, 34.72113], [137.88916, 34.72082], [137.88851, 34.72034], [137.8881, 34.72006], [137.88648, 34.71879], [137.88514, 34.71772], [137.88428, 34.71696], [137.88347, 34.71628], [137.88337, 34.71619], [137.88264, 34.71557], [137.88248, 34.71544], [137.88109, 34.71429], [137.88055, 34.71386], [137.88018, 34.71357], [137.87963, 34.71317], [137.87954, 34.7131], [137.87947, 34.71306], [137.87882, 34.71263], [137.87845, 34.7124], [137.87816, 34.71221], [137.8779, 34.71206], [137.87692, 34.71147], [137.87623, 34.71111], [137.876, 34.71099], [137.87553, 34.71075], [137.87415, 34.71015], [137.87387, 34.71004], [137.87364, 34.70996], [137.87277, 34.70965], [137.87197, 34.7094], [137.87166, 34.70932], [137.87151, 34.70928], [137.87132, 34.70923], [137.87111, 34.70917], [137.87055, 34.70903], [137.87032, 34.70897], [137.86972, 34.70882], [137.8691, 34.70869], [137.86856, 34.70858], [137.86757, 34.7084], [137.86741, 34.70837], [137.86722, 34.70833], [137.86622, 34.70814], [137.86531, 34.708], [137.86516, 34.70798], [137.86504, 34.70796], [137.86446, 34.70787], [137.86405, 34.7078], [137.86329, 34.70768], [137.8626, 34.70758], [137.86136, 34.70738], [137.86097, 34.70732], [137.86016, 34.7072], [137.85787, 34.70684], [137.85509, 34.7064], [137.85424, 34.70627], [137.85344, 34.70615], [137.85227, 34.70598], [137.85194, 34.70593], [137.85088, 34.70577], [137.8505, 34.7057], [137.84934, 34.70551], [137.84808, 34.70531], [137.84662, 34.70509], [137.84611, 34.70501], [137.84401, 34.70469], [137.84254, 34.70445], [137.84233, 34.70442], [137.8421, 34.70439], [137.84107, 34.70424], [137.84087, 34.70421], [137.84006, 34.70405], [137.8388, 34.70388], [137.83856, 34.70385], [137.83827, 34.7038], [137.83687, 34.70361], [137.836, 34.70347], [137.83578, 34.70345], [137.83541, 34.70341], [137.83503, 34.70337], [137.83423, 34.70329], [137.83416, 34.70329], [137.8334, 34.70323], [137.83104, 34.70306], [137.82981, 34.70301], [137.82958, 34.703], [137.82925, 34.70299], [137.82702, 34.70291], [137.82641, 34.70289], [137.82625, 34.70289], [137.82537, 34.70286], [137.82293, 34.70278], [137.82289, 34.70278], [137.82286, 34.70278], [137.8225, 34.70277], [137.82137, 34.70273], [137.81966, 34.7027], [137.81823, 34.70268], [137.81782, 34.70268], [137.81621, 34.70272], [137.81583, 34.70274], [137.81483, 34.7028], [137.81377, 34.70289], [137.81306, 34.70299], [137.8122, 34.70312], [137.81167, 34.70321], [137.81142, 34.70325], [137.81119, 34.70329], [137.80963, 34.70359], [137.80958, 34.7036], [137.80919, 34.70368], [137.80768, 34.704], [137.80668, 34.70422], [137.80633, 34.7043], [137.80606, 34.70436], [137.80567, 34.70445], [137.8055, 34.70449], [137.80532, 34.70454], [137.80512, 34.70458], [137.80482, 34.70465], [137.80208, 34.70531], [137.80096, 34.70557], [137.80034, 34.70571], [137.79911, 34.70602], [137.79756, 34.70638], [137.79617, 34.70671], [137.79562, 34.70684], [137.79517, 34.70695], [137.79488, 34.70702], [137.79438, 34.70714], [137.79228, 34.7076], [137.79164, 34.70773], [137.79032, 34.70797], [137.79003, 34.70803], [137.78986, 34.70806], [137.78913, 34.70818], [137.78888, 34.70822], [137.78884, 34.70822], [137.78785, 34.70836], [137.78774, 34.70837], [137.78739, 34.70839], [137.78736, 34.7084], [137.7855, 34.70857], [137.78548, 34.70857], [137.78513, 34.70858], [137.78427, 34.70862], [137.7842, 34.70862], [137.7838, 34.70863], [137.78312, 34.70865], [137.78275, 34.70866], [137.78214, 34.70867], [137.78204, 34.70867], [137.78191, 34.70868], [137.78093, 34.70869], [137.78076, 34.70869], [137.7806, 34.70869], [137.78017, 34.7087], [137.77917, 34.70869], [137.77865, 34.70868], [137.77845, 34.70868], [137.77708, 34.70869], [137.77672, 34.7087], [137.7759, 34.7087], [137.77554, 34.70871], [137.77518, 34.70871], [137.77479, 34.70871], [137.77466, 34.70871], [137.77446, 34.70871], [137.77259, 34.70872], [137.77245, 34.70872], [137.77226, 34.70872], [137.7718, 34.70872], [137.76846, 34.70875], [137.7651, 34.70874], [137.76169, 34.70868], [137.76118, 34.70867], [137.76013, 34.70864], [137.75864, 34.70851], [137.75833, 34.70848], [137.75819, 34.70847], [137.75716, 34.70835], [137.75526, 34.70813], [137.75478, 34.70806], [137.75426, 34.70802], [137.75155, 34.70769], [137.75077, 34.7076], [137.75038, 34.70755], [137.74839, 34.70731], [137.74769, 34.70723], [137.74698, 34.70711], [137.74618, 34.70697], [137.74578, 34.7069], [137.74508, 34.70676], [137.74455, 34.70665], [137.74389, 34.70649], [137.74293, 34.70625], [137.74217, 34.70605], [137.74105, 34.70579], [137.74031, 34.7056], [137.73946, 34.70535], [137.73879, 34.70515], [137.73813, 34.70494], [137.73782, 34.70483], [137.7375, 34.70472]]}, "properties": {"id": "GEOM_TOKYO_0987", "route_id": "R_388BB890", "route_name": null, "route_color": "#1F78FF", "route_text_color": null, "line_name": "東海道新幹線", "operator_id": "jr_central", "representation": "service_path", "min_zoom": 0, "max_zoom": 24, "offset_rank": 0}}, {"type": "Feature", "bbox": [138.08721, 34.76233, 138.12886, 34.80437], "geometry": {"type": "LineString", "coordinates": [[138.08721, 34.76233], [138.08762, 34.76249], [138.08842, 34.76278], [138.08922, 34.76307], [138.09001, 34.76337], [138.09082, 34.76367], [138.0916, 34.76397], [138.0924, 34.76427], [138.0932, 34.76457], [138.09406, 34.76489], [138.09479, 34.76516], [138.09556, 34.76546], [138.09581, 34.76556], [138.09653, 34.76584], [138.09666, 34.76589], [138.09722, 34.76609], [138.09755, 34.76621], [138.0976, 34.76623], [138.09786, 34.76633], [138.09938, 34.76691], [138.10076, 34.76743], [138.10102, 34.76753], [138.10282, 34.76821], [138.1037, 34.76855], [138.10431, 34.76878], [138.10439, 34.76881], [138.10469, 34.76894], [138.10481, 34.769], [138.10532, 34.76922], [138.10562, 34.76938], [138.10575, 34.76945], [138.10591, 34.76956], [138.10609, 34.7697], [138.10623, 34.76982], [138.10645, 34.77004], [138.10671, 34.7703], [138.10691, 34.77051], [138.10708, 34.77069], [138.10714, 34.77076], [138.10787, 34.77148], [138.1083, 34.77183], [138.10873, 34.77217], [138.10905, 34.7724], [138.10917, 34.77248], [138.10931, 34.77256], [138.10956, 34.77267], [138.11011, 34.77293], [138.11014, 34.77294], [138.11049, 34.7731], [138.11051, 34.77311], [138.11106, 34.77336], [138.11162, 34.77362], [138.11188, 34.77373], [138.11266, 34.77403], [138.11346, 34.77433], [138.11425, 34.77465], [138.11501, 34.77492], [138.11544, 34.77508], [138.116, 34.7753], [138.11624, 34.77539], [138.11634, 34.77545], [138.11645, 34.77552], [138.1166, 34.77561], [138.11696, 34.77588], [138.1172, 34.77608], [138.11737, 34.77624], [138.11745, 34.77633], [138.1176, 34.77655], [138.11835, 34.77782], [138.11867, 34.77836], [138.11883, 34.77863], [138.11899, 34.7789], [138.11904, 34.77898], [138.11908, 34.77905], [138.11912, 34.77911], [138.11939, 34.77955], [138.11956, 34.77983], [138.11972, 34.78005], [138.11992, 34.78031], [138.12003, 34.78045], [138.12014, 34.78056], [138.12027, 34.7807], [138.12041, 34.78082], [138.12055, 34.78095], [138.1207, 34.78105], [138.12086, 34.78115], [138.12097, 34.78121], [138.12111, 34.78129], [138.12125, 34.78135], [138.12143, 34.78142], [138.12162, 34.78149], [138.12194, 34.7816], [138.12224, 34.7817], [138.12254, 34.7818], [138.12297, 34.78193], [138.12341, 34.78205], [138.12496, 34.78247], [138.1262, 34.78278], [138.12682, 34.78306], [138.12743, 34.78342], [138.12779, 34.78373], [138.12812, 34.78406], [138.12848, 34.78467], [138.1287, 34.78526], [138.12882, 34.78568], [138.12886, 34.78606], [138.12883, 34.78644], [138.12878, 34.78666], [138.12875, 34.78679], [138.12866, 34.78711], [138.12827, 34.78786], [138.12768, 34.78893], [138.12741, 34.78956], [138.12717, 34.79027], [138.127, 34.79088], [138.12687, 34.79145], [138.12682, 34.79195], [138.12668, 34.79259], [138.12657, 34.79289], [138.12632, 34.79326], [138.12604, 34.79363], [138.12565, 34.79403], [138.12545, 34.7942], [138.12471, 34.79459], [138.12453, 34.79469], [138.12395, 34.795], [138.12349, 34.79532], [138.12309, 34.79573], [138.12272, 34.79626], [138.12233, 34.79698], [138.12211, 34.79748], [138.12197, 34.79773], [138.12194, 34.79781], [138.12182, 34.79805], [138.12173, 34.79824], [138.12166, 34.79841], [138.1213, 34.79922], [138.12102, 34.79985], [138.12089, 34.80016], [138.12062, 34.80076], [138.12032, 34.80143], [138.12012, 34.80188], [138.11972, 34.80279], [138.11961, 34.80304], [138.11956, 34.80315], [138.11951, 34.80327], [138.11938, 34.80356], [138.11919, 34.80399], [138.11903, 34.80437]]}, "properties": {"id": "GEOM_TOKYO_1044", "route_id": "R_B3FC6367", "route_name": null, "route_color": "#F28E1C", "route_text_color": null, "line_name": "東海道線", "operator_id": "jr_central", "representation": "service_path", "min_zoom": 0, "max_zoom": 24, "offset_rank": 0}}, {"type": "Feature", "bbox": [138.11597, 34.80437, 138.12522, 34.81871], "geometry": {"type": "LineString", "coordinates": [[138.12522, 34.81871], [138.12478, 34.81842], [138.12454, 34.81823], [138.12405, 34.81773], [138.12305, 34.81687], [138.12194, 34.81594], [138.12158, 34.81562], [138.12126, 34.81533], [138.12097, 34.81509], [138.12062, 34.81478], [138.12046, 34.81464], [138.11971, 34.81398], [138.11941, 34.81372], [138.11907, 34.81342], [138.11855, 34.81297], [138.11821, 34.81267], [138.11784, 34.81235], [138.11761, 34.81215], [138.11732, 34.81189], [138.11705, 34.81159], [138.11675, 34.81124], [138.11669, 34.81116], [138.11656, 34.81097], [138.11638, 34.81069], [138.11625, 34.81043], [138.11612, 34.81013], [138.11603, 34.80978], [138.11598, 34.80953], [138.11597, 34.80935], [138.11597, 34.80915], [138.11602, 34.80885], [138.11612, 34.80847], [138.1162, 34.80824], [138.11627, 34.80807], [138.1163, 34.808], [138.11644, 34.80775], [138.11646, 34.8077], [138.11668, 34.80738], [138.11695, 34.80702], [138.11721, 34.80675], [138.11744, 34.80651], [138.11769, 34.80627], [138.11794, 34.80598], [138.11814, 34.80577], [138.11827, 34.80561], [138.11849, 34.80527], [138.11861, 34.80506], [138.11874, 34.80485], [138.11889, 34.80459], [138.11903, 34.80437]]}, "properties": {"id": "GEOM_TOKYO_1054", "route_id": "R_B3FC6367", "route_name": null, "route_color": "#F28E1C", "route_text_color": null, "line_name": "東海道線", "operator_id": "jr_central", "representation": "service_path", "min_zoom": 0, "max_zoom": 24, "offset_rank": 0}}, {"type": "Feature", "bbox": [138.08413, 34.76122, 138.08721, 34.76233], "geometry": {"type": "LineString", "coordinates": [[138.08721, 34.76233], [138.08586, 34.76183], [138.08514, 34.76157], [138.0846, 34.76138], [138.08413, 34.76122]]}, "properties": {"id": "GEOM_TOKYO_1056", "route_id": "R_B3FC6367", "route_name": null, "route_color": "#F28E1C", "route_text_color": null, "line_name": "東海道線", "operator_id": "jr_central", "representation": "service_path", "min_zoom": 0, "max_zoom": 24, "offset_rank": 0}}, {"type": "Feature", "bbox": [138.01245, 34.76916, 138.01668, 34.76965], "geometry": {"type": "LineString", "coordinates": [[138.01668, 34.76965], [138.0145, 34.7694], [138.01245, 34.76916]]}, "properties": {"id": "GEOM_TOKYO_1125", "route_id": "R_B3FC6367", "route_name": null, "route_color": "#F28E1C", "route_text_color": null, "line_name": "東海道線", "operator_id": "jr_central", "representation": "service_path", "min_zoom": 0, "max_zoom": 24, "offset_rank": 0}}, {"type": "Feature", "bbox": [138.00729, 34.76848, 138.01245, 34.76916], "geometry": {"type": "LineString", "coordinates": [[138.01245, 34.76916], [138.01233, 34.76914], [138.01205, 34.76912], [138.01096, 34.76897], [138.01018, 34.76886], [138.00894, 34.7687], [138.00817, 34.7686], [138.00782, 34.76855], [138.00766, 34.76853], [138.00729, 34.76848]]}, "properties": {"id": "GEOM_TOKYO_1126", "route_id": "R_B3FC6367", "route_name": null, "route_color": "#F28E1C", "route_text_color": null, "line_name": "東海道線", "operator_id": "jr_central", "representation": "service_path", "min_zoom": 0, "max_zoom": 24, "offset_rank": 0}}, {"type": "Feature", "bbox": [138.01668, 34.76013, 138.08413, 34.77593], "geometry": {"type": "LineString", "coordinates": [[138.08413, 34.76122], [138.08273, 34.76067], [138.08255, 34.76059], [138.08176, 34.7603], [138.08159, 34.76025], [138.0813, 34.76021], [138.08087, 34.76015], [138.08051, 34.76013], [138.08025, 34.76014], [138.0795, 34.76019], [138.0789, 34.7603], [138.0781, 34.76043], [138.07774, 34.76049], [138.07749, 34.76053], [138.07652, 34.76069], [138.07569, 34.76083], [138.07496, 34.76096], [138.07384, 34.76115], [138.07338, 34.76122], [138.07259, 34.76136], [138.07179, 34.76148], [138.07099, 34.76163], [138.0702, 34.76176], [138.06941, 34.7619], [138.06864, 34.76203], [138.06786, 34.76214], [138.06732, 34.76223], [138.0672, 34.76225], [138.06708, 34.76227], [138.0668, 34.76231], [138.0662, 34.76243], [138.06585, 34.76252], [138.06549, 34.76265], [138.06519, 34.76276], [138.06479, 34.76293], [138.06433, 34.76315], [138.06395, 34.76333], [138.06393, 34.76334], [138.06314, 34.76375], [138.06207, 34.76431], [138.06185, 34.76442], [138.0616, 34.76455], [138.06083, 34.76495], [138.05996, 34.76541], [138.05986, 34.76546], [138.05972, 34.76554], [138.05956, 34.76565], [138.05949, 34.7657], [138.05929, 34.76586], [138.0592, 34.76593], [138.05902, 34.76608], [138.05859, 34.76651], [138.05841, 34.76669], [138.05799, 34.76711], [138.0573, 34.76777], [138.05708, 34.76799], [138.05706, 34.76802], [138.05689, 34.76816], [138.05655, 34.76839], [138.05636, 34.76854], [138.05614, 34.7687], [138.05574, 34.769], [138.05544, 34.76924], [138.05506, 34.76962], [138.05494, 34.76975], [138.05443, 34.77029], [138.05395, 34.7708], [138.05391, 34.77083], [138.05367, 34.77109], [138.05334, 34.77137], [138.05265, 34.77191], [138.05254, 34.77197], [138.05238, 34.77203], [138.05095, 34.77239], [138.05022, 34.77256], [138.04955, 34.77272], [138.04783, 34.77315], [138.04707, 34.77334], [138.04667, 34.77346], [138.04626, 34.77357], [138.04592, 34.77369], [138.04447, 34.77425], [138.04427, 34.77432], [138.04418, 34.77436], [138.04304, 34.7748], [138.04192, 34.77522], [138.04184, 34.77525], [138.04177, 34.77528], [138.04162, 34.77534], [138.04134, 34.77544], [138.04099, 34.77557], [138.04058, 34.77571], [138.04028, 34.77579], [138.04001, 34.77584], [138.03975, 34.77588], [138.0396, 34.7759], [138.03944, 34.77592], [138.03914, 34.77593], [138.03852, 34.7759], [138.03822, 34.77587], [138.0381, 34.77584], [138.03794, 34.77581], [138.0371, 34.77553], [138.03627, 34.77527], [138.03463, 34.77475], [138.03399, 34.77457], [138.03273, 34.77417], [138.03233, 34.77404], [138.03147, 34.77376], [138.03091, 34.77358], [138.03006, 34.77332], [138.02908, 34.77301], [138.028, 34.77267], [138.02673, 34.77227], [138.02594, 34.77202], [138.02519, 34.77179], [138.0224, 34.77091], [138.02204, 34.7708], [138.02199, 34.77078], [138.02158, 34.77066], [138.0212, 34.77054], [138.02041, 34.7703], [138.01999, 34.77021], [138.01952, 34.77011], [138.01897, 34.77], [138.01883, 34.76997], [138.01862, 34.76994], [138.01812, 34.76986], [138.0173, 34.76973], [138.01712, 34.7697], [138.01668, 34.76965]]}, "properties": {"id": "GEOM_TOKYO_1129", "route_id": "R_B3FC6367", "route_name": null, "route_color": "#F28E1C", "route_text_color": null, "line_name": "東海道線", "operator_id": "jr_central", "representation": "service_path", "min_zoom": 0, "max_zoom": 24, "offset_rank": 0}}, {"type": "Feature", "bbox": [137.92719, 34.74181, 137.96078, 34.75204], "geometry": {"type": "LineString", "coordinates": [[137.96078, 34.75204], [137.95992, 34.75168], [137.95927, 34.75146], [137.95879, 34.75131], [137.9582, 34.7511], [137.95763, 34.75095], [137.95664, 34.75064], [137.9542, 34.74992], [137.95402, 34.74986], [137.95204, 34.74927], [137.95094, 34.74894], [137.95003, 34.74866], [137.94753, 34.7479], [137.94531, 34.74723], [137.9402, 34.7457], [137.93964, 34.74553], [137.93941, 34.74547], [137.93432, 34.74394], [137.93379, 34.74378], [137.93182, 34.74319], [137.93085, 34.7429], [137.92949, 34.74249], [137.9286, 34.74222], [137.92814, 34.7421], [137.92719, 34.74181]]}, "properties": {"id": "GEOM_TOKYO_1134", "route_id": "R_B3FC6367", "route_name": null, "route_color": "#F28E1C", "route_text_color": null, "line_name": "東海道線", "operator_id": "jr_central", "representation": "service_path", "min_zoom": 0, "max_zoom": 24, "offset_rank": 0}}, {"type": "Feature", "bbox": [137.96078, 34.75204, 137.96291, 34.75287], "geometry": {"type": "LineString", "coordinates": [[137.96078, 34.75204], [137.96291, 34.75287]]}, "properties": {"id": "GEOM_TOKYO_1138", "route_id": "R_B3FC6367", "route_name": null, "route_color": "#F28E1C", "route_text_color": null, "line_name": "東海道線", "operator_id": "jr_central", "representation": "service_path", "min_zoom": 0, "max_zoom": 24, "offset_rank": 0}}, {"type": "Feature", "bbox": [137.9248, 34.74106, 137.92719, 34.74181], "geometry": {"type": "LineString", "coordinates": [[137.92719, 34.74181], [137.9248, 34.74106]]}, "properties": {"id": "GEOM_TOKYO_1141", "route_id": "R_B3FC6367", "route_name": null, "route_color": "#F28E1C", "route_text_color": null, "line_name": "東海道線", "operator_id": "jr_central", "representation": "service_path", "min_zoom": 0, "max_zoom": 24, "offset_rank": 0}}, {"type": "Feature", "bbox": [137.82083, 34.71008, 137.85085, 34.71192], "geometry": {"type": "LineString", "coordinates": [[137.85085, 34.71017], [137.85041, 34.71015], [137.84939, 34.71013], [137.84872, 34.71012], [137.84733, 34.71008], [137.84571, 34.71009], [137.84526, 34.7101], [137.84476, 34.71008], [137.84366, 34.71012], [137.84212, 34.7102], [137.84029, 34.71037], [137.84009, 34.71039], [137.8395, 34.71044], [137.83863, 34.71051], [137.83705, 34.71063], [137.83693, 34.71064], [137.83676, 34.71066], [137.83559, 34.71076], [137.83529, 34.71078], [137.8344, 34.71085], [137.83429, 34.71086], [137.83417, 34.71087], [137.83395, 34.71089], [137.83359, 34.71091], [137.83196, 34.71107], [137.83068, 34.71117], [137.83031, 34.7112], [137.82867, 34.71134], [137.82525, 34.71152], [137.82402, 34.71159], [137.82357, 34.71163], [137.8232, 34.71166], [137.82279, 34.7117], [137.82241, 34.71175], [137.82156, 34.71184], [137.82122, 34.71188], [137.82083, 34.71192]]}, "properties": {"id": "GEOM_TOKYO_1143", "route_id": "R_B3FC6367", "route_name": null, "route_color": "#F28E1C", "route_text_color": null, "line_name": "東海道線", "operator_id": "jr_central", "representation": "service_path", "min_zoom": 0, "max_zoom": 24, "offset_rank": 0}}, {"type": "Feature", "bbox": [137.88653, 34.71924, 137.92480000000012, 34.74106000000016], "geometry": {"type": "LineString", "coordinates": [[137.92480000000012, 34.74106000000016], [137.92403, 34.74083000000013], [137.92394, 34.740800000000114], [137.92340000000013, 34.740630000000145], [137.9232400000001, 34.74058], [137.9228000000001, 34.740450000000116], [137.92228000000011, 34.74029], [137.9219200000003, 34.74018000000012], [137.92166000000014, 34.74011], [137.9194700000001, 34.73935], [137.9194, 34.73933000000014], [137.91922, 34.73926], [137.9183200000001, 34.73894], [137.91728, 34.73862000000014], [137.9172, 34.73859], [137.91623, 34.738310000000105], [137.91572, 34.73817000000013], [137.9151900000003, 34.73801000000014], [137.9149800000002, 34.73796], [137.91492000000017, 34.73794000000011], [137.91480000000013, 34.73789], [137.9144, 34.73776], [137.91405, 34.737620000000106], [137.9137500000002, 34.73748], [137.91327, 34.73726000000015], [137.9127600000002, 34.73701], [137.9122400000002, 34.73673000000013], [137.91153, 34.73629000000013], [137.91136, 34.7361700000001], [137.91117000000025, 34.73604], [137.90590000000017, 34.73245], [137.90584, 34.73241], [137.90567000000013, 34.73229000000016], [137.90041000000016, 34.72867], [137.90033000000028, 34.72862], [137.8988900000001, 34.72766], [137.89662, 34.72612], [137.89647, 34.72602], [137.89634000000018, 34.72593], [137.89521, 34.72517000000011], [137.89510000000024, 34.72510000000011], [137.8949400000003, 34.7249800000001], [137.89471000000012, 34.72483], [137.89376000000016, 34.72419000000011], [137.8935100000001, 34.72403], [137.89155, 34.72271], [137.89147, 34.72265], [137.89135000000022, 34.72257], [137.88987, 34.72155], [137.88907, 34.721], [137.88799, 34.72024], [137.88738000000018, 34.71981000000013], [137.88709000000014, 34.71962], [137.88672, 34.71937], [137.88653, 34.71924]]}, "properties": {"id": "GEOM_TOKYO_1145", "route_id": "R_B3FC6367", "route_name": null, "route_color": "#F28E1C", "route_text_color": null, "line_name": "東海道線", "operator_id": "jr_central", "representation": "service_path", "min_zoom": 0, "max_zoom": 24, "offset_rank": 0}}, {"type": "Feature", "bbox": [137.85085, 34.71017, 137.85369, 34.71026], "geometry": {"type": "LineString", "coordinates": [[137.85369, 34.71026], [137.85085, 34.71017]]}, "properties": {"id": "GEOM_TOKYO_1146", "route_id": "R_B3FC6367", "route_name": null, "route_color": "#F28E1C", "route_text_color": null, "line_name": "東海道線", "operator_id": "jr_central", "representation": "service_path", "min_zoom": 0, "max_zoom": 24, "offset_rank": 0}}, {"type": "Feature", "bbox": [137.96291, 34.75287, 138.00729, 34.76848], "geometry": {"type": "LineString", "coordinates": [[138.00729, 34.76848], [138.00705, 34.76845], [138.00613, 34.76833], [138.00446, 34.76811], [138.00369, 34.76801], [138.00299, 34.76791], [138.0017, 34.76767], [138.00126, 34.76757], [138.00092, 34.76749], [138.00068, 34.76743], [138.00043, 34.76735], [138.00009, 34.76722], [137.99993, 34.76714], [137.99976, 34.76706], [137.99894, 34.76658], [137.9986, 34.76639], [137.99837, 34.76627], [137.99747, 34.76596], [137.9972, 34.76586], [137.99695, 34.76576], [137.99674, 34.76568], [137.99654, 34.76562], [137.99599, 34.76546], [137.99517, 34.76522], [137.9935, 34.76486], [137.99306, 34.76475], [137.9924, 34.76454], [137.99189, 34.76437], [137.99144, 34.76419], [137.99138, 34.76418], [137.99116, 34.76406], [137.99098, 34.76398], [137.99062, 34.76384], [137.98873, 34.76308], [137.98793, 34.76277], [137.9859, 34.76192], [137.98421, 34.76127], [137.98403, 34.7612], [137.9833, 34.76092], [137.98277, 34.76071], [137.98258, 34.76063], [137.98117, 34.76007], [137.97668, 34.75834], [137.97403, 34.75728], [137.97348, 34.75706], [137.97316, 34.75694], [137.97296, 34.75686], [137.97244, 34.75666], [137.97197, 34.75647], [137.97167, 34.75635], [137.9661, 34.75419], [137.96599, 34.75415], [137.9659, 34.75411], [137.96518, 34.75383], [137.96468, 34.75363], [137.96406, 34.75331], [137.96328, 34.753], [137.96291, 34.75287]]}, "properties": {"id": "GEOM_TOKYO_1150", "route_id": "R_B3FC6367", "route_name": null, "route_color": "#F28E1C", "route_text_color": null, "line_name": "東海道線", "operator_id": "jr_central", "representation": "service_path", "min_zoom": 0, "max_zoom": 24, "offset_rank": 0}}, {"type": "Feature", "bbox": [137.85369000000017, 34.710260000000105, 137.8847354506066, 34.71807983949972], "geometry": {"type": "LineString", "coordinates": [[137.8847354506066, 34.71807983949972], [137.88398, 34.71762], [137.8838300000002, 34.71753000000014], [137.88355, 34.71739000000013], [137.8833, 34.71728], [137.88294, 34.71714], [137.88255, 34.717], [137.88246000000018, 34.71697000000012], [137.88194, 34.71680000000014], [137.87796, 34.71571], [137.87732, 34.71552], [137.87514, 34.714930000000166], [137.8741200000003, 34.71466], [137.87197, 34.71407], [137.87151000000023, 34.71396], [137.87133, 34.71392], [137.86867, 34.71318000000012], [137.86586000000025, 34.71231], [137.86393, 34.71171], [137.86302000000012, 34.71141], [137.86176000000015, 34.71105], [137.86092000000016, 34.710840000000125], [137.86053000000024, 34.71075], [137.86029, 34.7107], [137.85987, 34.71062], [137.85924, 34.71052], [137.85855, 34.71043], [137.85788, 34.71036], [137.85758000000013, 34.71035], [137.85602000000026, 34.7103], [137.85597, 34.7103], [137.85421, 34.71027], [137.85369000000017, 34.710260000000105]]}, "properties": {"id": "GEOM_TOKYO_4571", "route_id": "R_B3FC6367", "route_name": null, "route_color": "#F28E1C", "route_text_color": null, "line_name": "東海道線", "operator_id": "jr_central", "representation": "service_path", "min_zoom": 0, "max_zoom": 24, "offset_rank": 0}}, {"type": "Feature", "bbox": [137.8847354506065, 34.718079839499694, 137.8865277908219, 34.71923849889202], "geometry": {"type": "LineString", "coordinates": [[137.8847354506065, 34.718079839499694], [137.8865277908219, 34.71923849889202]]}, "properties": {"id": "GEOM_TOKYO_4572", "route_id": "R_B3FC6367", "route_name": null, "route_color": "#F28E1C", "route_text_color": null, "line_name": "東海道線", "operator_id": "jr_central", "representation": "service_path", "min_zoom": 0, "max_zoom": 24, "offset_rank": 0}}]}