{"type": "FeatureCollection", "features": [{"type": "Feature", "bbox": [140.691966, 40.720459, 141.152362, 40.826832], "geometry": {"type": "LineString", "coordinates": [[141.152362, 40.720459], [141.149172, 40.721547], [141.146333, 40.722533], [141.142134, 40.723999], [141.140229, 40.724728], [141.138163, 40.725607], [141.136838, 40.726164], [141.134695, 40.727208], [141.133389, 40.727844], [141.131697, 40.728723], [141.127273, 40.731368], [141.11997, 40.736114], [141.113091, 40.740624], [141.106065, 40.745192], [141.103178, 40.746993], [141.10147, 40.747965], [141.098443, 40.749595], [141.097319, 40.750159], [141.095928, 40.75091], [141.092479, 40.752511], [141.090206, 40.753483], [141.087158, 40.754684], [141.084388, 40.755692], [141.080345, 40.757007], [141.076866, 40.757993], [141.073013, 40.758987], [141.069427, 40.759745], [141.066932, 40.760216], [141.06399, 40.76071], [141.059936, 40.761281], [141.054279, 40.762103], [141.047737, 40.763061], [141.045658, 40.763361], [141.041671, 40.763962], [141.03845, 40.764434], [141.035438, 40.764848], [141.031941, 40.765384], [141.028269, 40.765899], [141.026295, 40.766206], [141.022928, 40.766699], [141.018124, 40.767421], [141.012769, 40.768222], [141.004534, 40.769444], [140.997172, 40.770545], [140.993743, 40.771067], [140.992345, 40.771302], [140.986413, 40.772167], [140.982357, 40.772753], [140.971884, 40.774269], [140.962124, 40.775705], [140.950748, 40.777364], [140.943634, 40.778422], [140.933457, 40.779923], [140.925865, 40.781073], [140.920954, 40.78181], [140.915531, 40.782574], [140.907821, 40.783747], [140.898887, 40.785055], [140.896209, 40.785462], [140.89145, 40.786163], [140.887107, 40.786742], [140.884267, 40.787006], [140.880816, 40.787278], [140.878089, 40.787421], [140.874259, 40.787506], [140.87188, 40.787513], [140.869129, 40.787421], [140.866797, 40.787328], [140.863712, 40.787135], [140.861008, 40.786892], [140.859344, 40.786713], [140.856206, 40.786298], [140.855215, 40.786163], [140.853823, 40.785962], [140.851035, 40.785476], [140.848994, 40.785098], [140.845577, 40.784347], [140.8425, 40.783589], [140.839511, 40.78276], [140.836933, 40.781981], [140.83495, 40.781331], [140.831266, 40.78008], [140.827824, 40.778893], [140.82534, 40.77805], [140.820831, 40.776506], [140.816736, 40.775119], [140.809776, 40.772725], [140.80126, 40.76983], [140.79215, 40.766721], [140.789147, 40.76577], [140.787295, 40.765291], [140.784775, 40.764719], [140.78251, 40.764326], [140.780874, 40.764076], [140.779434, 40.763897], [140.7784, 40.763797], [140.777347, 40.763712], [140.775853, 40.763612], [140.773759, 40.76354], [140.772095, 40.76354], [140.770406, 40.763554], [140.768382, 40.763654], [140.766595, 40.763805], [140.765081, 40.763969], [140.763652, 40.764148], [140.761483, 40.764491], [140.759716, 40.764841], [140.757227, 40.76542], [140.750921, 40.767143], [140.741911, 40.76963], [140.733311, 40.772017], [140.72575, 40.774083], [140.723152, 40.774898], [140.720323, 40.775898], [140.718121, 40.776835], [140.716062, 40.777807], [140.714062, 40.778872], [140.711698, 40.78028], [140.709564, 40.781724], [140.707486, 40.783289], [140.706243, 40.784318], [140.704631, 40.785827], [140.703945, 40.786498], [140.70292, 40.787578], [140.700912, 40.789865], [140.698197, 40.793067], [140.696454, 40.795397], [140.694955, 40.797885], [140.694331, 40.799236], [140.693901, 40.800158], [140.693168, 40.802216], [140.692613, 40.804118], [140.692441, 40.805097], [140.692281, 40.805997], [140.69213, 40.807184], [140.692039, 40.808185], [140.691966, 40.810429], [140.692177, 40.812759], [140.692647, 40.815482], [140.693265, 40.818799], [140.693529, 40.820228], [140.693629, 40.821315], [140.693622, 40.823245], [140.693519, 40.825997], [140.693511, 40.826832]]}, "properties": {"id": "TRACK_TOKYO_4480", "line_name": "東北新幹線", "station_group_ids": [], "mode": "shinkansen", "operator_id": "jr_east", "line_color": "#2D9C5B", "tags": ["tokyo", "track_centerline"]}}, {"type": "Feature", "bbox": [140.693428, 40.826832, 140.693511, 40.829376], "geometry": {"type": "LineString", "coordinates": [[140.693511, 40.826832], [140.69351, 40.826883], [140.69347, 40.828104], [140.693428, 40.829376]]}, "properties": {"id": "TRACK_TOKYO_4481", "line_name": "東北新幹線", "station_group_ids": [], "mode": "shinkansen", "operator_id": "jr_east", "line_color": "#2D9C5B", "tags": ["tokyo", "track_centerline"]}}, {"type": "Feature", "bbox": [140.23155, 41.14581862, 140.51482012, 41.66529], "geometry": {"type": "LineString", "coordinates": [[140.51482012, 41.14581862], [140.51465, 41.14601], [140.51358, 41.1472], [140.51302, 41.14782], [140.51284, 41.14801], [140.51281, 41.14805], [140.51201, 41.14894], [140.51096, 41.15011], [140.51041, 41.15071], [140.50945, 41.1518], [140.50876, 41.15256], [140.50781, 41.15365], [140.50732, 41.15418], [140.50649, 41.15498], [140.50546, 41.1559], [140.50442, 41.15683], [140.50434, 41.1569], [140.50316, 41.15793], [140.50117, 41.15957], [140.50066, 41.16], [140.49994, 41.16056], [140.49907, 41.16123], [140.49773, 41.16222], [140.49691, 41.16284], [140.49648, 41.16311], [140.49557, 41.16377], [140.49458, 41.16436], [140.49418, 41.16462], [140.49367, 41.16494], [140.49308, 41.16526], [140.49211, 41.16582], [140.49134, 41.16625], [140.48973, 41.16712], [140.48902, 41.16746], [140.487, 41.16843], [140.48523, 41.16929], [140.48464, 41.16957], [140.48372, 41.17], [140.48293, 41.17036], [140.48183, 41.17077], [140.48153, 41.17088], [140.48052, 41.17127], [140.47944, 41.17167], [140.47772, 41.17228], [140.47685, 41.17257], [140.47572, 41.17296], [140.47401, 41.17349], [140.47295, 41.17381], [140.47069, 41.17441], [140.47012, 41.17454], [140.46872, 41.1749], [140.46542, 41.17575], [140.46501, 41.17586], [140.46299, 41.1764], [140.46168, 41.17672], [140.45998, 41.17717], [140.45919, 41.17739], [140.45819, 41.17765], [140.45563, 41.1783], [140.45285, 41.17901], [140.45088, 41.17951], [140.44808, 41.18023], [140.44764, 41.18034], [140.44542, 41.18092], [140.44437, 41.18119], [140.44102, 41.18213], [140.43855, 41.18286], [140.43765, 41.18315], [140.43557, 41.18391], [140.43506, 41.1841], [140.43391, 41.18451], [140.43195, 41.18526], [140.43054, 41.1858], [140.4291, 41.18642], [140.42823, 41.18682], [140.42745, 41.18721], [140.42599, 41.18795], [140.42529, 41.18832], [140.42396, 41.18903], [140.42173, 41.19024], [140.42021, 41.19114], [140.41758, 41.19269], [140.41621, 41.1935], [140.41591, 41.19368], [140.41312, 41.1953], [140.41066, 41.19676], [140.40853, 41.19799], [140.40722, 41.19877], [140.40652, 41.19919], [140.405, 41.20008], [140.40359, 41.20092], [140.40184, 41.20195], [140.39984, 41.20314], [140.39825, 41.20406], [140.39773, 41.20436], [140.39582, 41.20549], [140.39459, 41.20622], [140.39371, 41.20672], [140.3915, 41.20803], [140.38962, 41.20915], [140.38927, 41.20935], [140.38743, 41.21044], [140.38514, 41.21177], [140.38381, 41.21257], [140.38176, 41.21376], [140.38029, 41.21463], [140.37945, 41.21513], [140.3777, 41.21614], [140.37633, 41.21697], [140.37533, 41.21759], [140.37429, 41.21824], [140.37308, 41.21903], [140.37193, 41.21982], [140.37149, 41.22011], [140.37037, 41.22099], [140.36971, 41.2215], [140.36885, 41.22217], [140.36707, 41.22367], [140.36598, 41.22464], [140.36495, 41.22559], [140.36434, 41.22617], [140.3639, 41.22657], [140.36293, 41.22756], [140.36231, 41.2282], [140.36198, 41.22854], [140.36172, 41.22884], [140.36129, 41.22929], [140.36038, 41.23031], [140.35986, 41.23094], [140.35899, 41.23199], [140.35881, 41.23221], [140.35835, 41.23277], [140.35747, 41.23395], [140.35694, 41.23467], [140.35663, 41.2351], [140.35629, 41.23555], [140.35584, 41.23625], [140.35553, 41.23673], [140.35513, 41.23736], [140.35404, 41.23919], [140.35351, 41.24012], [140.3534, 41.24032], [140.35278, 41.24152], [140.35219, 41.24277], [140.35175, 41.24374], [140.35145, 41.2445], [140.35108, 41.24535], [140.35058, 41.24667], [140.35022, 41.24769], [140.34991, 41.24863], [140.34972, 41.2492], [140.34941, 41.25023], [140.34915, 41.25115], [140.34881, 41.25261], [140.34849, 41.25406], [140.34816, 41.25579], [140.34787, 41.25808], [140.34776, 41.25936], [140.34771, 41.26029], [140.34768, 41.26162], [140.3477, 41.26271], [140.3477, 41.26348], [140.34773, 41.26411], [140.34808, 41.27312], [140.34842, 41.28194], [140.34841, 41.28213], [140.34823, 41.28645], [140.34762, 41.29083], [140.34754, 41.29111], [140.34652, 41.2952], [140.345, 41.29962], [140.34489, 41.29986], [140.34307, 41.30383], [140.34067, 41.30796], [140.34054, 41.30814], [140.33788, 41.31192], [140.33465, 41.31577], [140.32976, 41.3213], [140.32329, 41.32862], [140.31682, 41.33595], [140.31204, 41.34135], [140.30555, 41.34866], [140.3041, 41.35034], [140.30224, 41.35269], [140.25553, 41.41926], [140.2553, 41.41956], [140.25487, 41.42016], [140.2539, 41.42153], [140.25303, 41.42278], [140.25233, 41.42378], [140.252, 41.42427], [140.25163, 41.42478], [140.25094, 41.42577], [140.25037, 41.42658], [140.24949, 41.42782], [140.24824, 41.4296], [140.24716, 41.43115], [140.24649, 41.43209], [140.24624, 41.4324], [140.24577, 41.433], [140.24542, 41.4335], [140.24492, 41.43425], [140.24473, 41.43448], [140.24445, 41.43488], [140.2433, 41.43653], [140.24249, 41.43771], [140.24073, 41.44022], [140.23935, 41.4423], [140.23891, 41.44297], [140.23855, 41.44359], [140.23829, 41.44406], [140.238, 41.44451], [140.23755, 41.44531], [140.23653, 41.44726], [140.23569, 41.44907], [140.23505, 41.4506], [140.23505, 41.45061], [140.2345, 41.45202], [140.23429, 41.4526], [140.23399, 41.45349], [140.23364, 41.45457], [140.23318, 41.45619], [140.23269, 41.45832], [140.23248, 41.45935], [140.2323, 41.46027], [140.2321, 41.46139], [140.23198, 41.46216], [140.23182, 41.46335], [140.23174, 41.46429], [140.23168, 41.465], [140.23164, 41.46587], [140.23159, 41.46682], [140.23155, 41.46774], [140.23156, 41.46833], [140.23156, 41.46853], [140.23159, 41.4694], [140.23165, 41.47067], [140.2317, 41.4715], [140.23181, 41.47246], [140.23192, 41.47327], [140.23201, 41.4738], [140.23213, 41.47458], [140.23225, 41.47528], [140.23236, 41.47581], [140.23253, 41.4766], [140.2327, 41.47728], [140.23277, 41.47756], [140.23309, 41.47892], [140.23324, 41.47952], [140.23332, 41.47982], [140.23385, 41.48153], [140.23466, 41.48388], [140.23538, 41.48562], [140.23554, 41.48598], [140.23616, 41.48738], [140.23689, 41.48884], [140.23755, 41.4901], [140.23878, 41.49224], [140.23994, 41.49396], [140.2401, 41.49419], [140.24121, 41.49577], [140.24272, 41.49768], [140.2451, 41.50074], [140.24595, 41.50184], [140.24648, 41.50255], [140.2465, 41.50257], [140.24651, 41.50258], [140.24747, 41.50376], [140.24769, 41.50404], [140.24996, 41.50687], [140.25354, 41.51136], [140.25373, 41.5116], [140.25616, 41.51463], [140.2576, 41.51645], [140.25978, 41.51916], [140.26048, 41.52004], [140.26265, 41.52279], [140.26514, 41.52587], [140.26581, 41.52672], [140.26853, 41.53014], [140.27072, 41.53285], [140.27184, 41.53428], [140.27248, 41.53509], [140.27515, 41.53843], [140.27716, 41.54097], [140.27787, 41.54185], [140.27895, 41.5432], [140.28107, 41.54586], [140.28265, 41.54783], [140.28391, 41.54941], [140.28434, 41.54995], [140.28602, 41.55209], [140.28705, 41.55337], [140.28862, 41.55533], [140.28972, 41.55673], [140.28993, 41.55698], [140.29081, 41.55809], [140.29212, 41.55977], [140.29381, 41.56183], [140.29577, 41.56433], [140.29595, 41.56455], [140.2973, 41.56623], [140.29864, 41.56792], [140.29985, 41.56944], [140.30115, 41.57107], [140.30198, 41.57211], [140.30267, 41.57298], [140.30394, 41.57459], [140.30503, 41.57595], [140.30617, 41.57737], [140.30732, 41.57883], [140.30802, 41.57967], [140.30835, 41.58006], [140.3089, 41.58067], [140.30972, 41.58157], [140.31057, 41.58241], [140.31142, 41.58324], [140.3128, 41.58451], [140.31317, 41.58482], [140.31393, 41.58552], [140.31442, 41.58591], [140.3145, 41.58597], [140.31953, 41.59037], [140.32185, 41.59226], [140.32314, 41.59322], [140.32523, 41.59477], [140.3266, 41.59565], [140.32798, 41.59655], [140.32951, 41.59752], [140.33034, 41.59805], [140.33148, 41.59877], [140.33202, 41.59911], [140.33341, 41.59999], [140.33462, 41.60076], [140.33518, 41.60113], [140.33687, 41.60219], [140.33835, 41.60315], [140.34021, 41.60433], [140.34102, 41.60484], [140.34212, 41.60555], [140.34433, 41.60695], [140.34687, 41.60857], [140.34738, 41.60887], [140.34905, 41.60993], [140.35052, 41.61086], [140.35335, 41.61268], [140.35463, 41.61348], [140.35611, 41.61443], [140.35726, 41.61516], [140.35915, 41.61636], [140.36188, 41.61811], [140.36235, 41.61846], [140.36423, 41.61964], [140.36842, 41.62229], [140.37147, 41.62423], [140.37162, 41.62433], [140.37211, 41.62464], [140.37306, 41.62524], [140.37437, 41.6261], [140.37532, 41.62672], [140.37638, 41.62741], [140.37801, 41.62855], [140.37958, 41.62975], [140.38051, 41.63051], [140.38064, 41.63061], [140.38184, 41.63163], [140.3826, 41.63228], [140.3827, 41.63236], [140.38552, 41.63488], [140.38593, 41.63525], [140.38697, 41.6362], [140.3884, 41.63749], [140.38932, 41.63831], [140.39081, 41.63965], [140.39183, 41.64057], [140.39337, 41.64193], [140.39345, 41.64201], [140.39423, 41.6427], [140.395, 41.64338], [140.39571, 41.64402], [140.39673, 41.64493], [140.39762, 41.64572], [140.39842, 41.64646], [140.39982, 41.6477], [140.40108, 41.64882], [140.40186, 41.64954], [140.40266, 41.65025], [140.40357, 41.65104], [140.40426, 41.65165], [140.40459, 41.65196], [140.40556, 41.65283], [140.40688, 41.65402], [140.40763, 41.65469], [140.4077, 41.65475], [140.40819, 41.6552], [140.40904, 41.65596], [140.40953, 41.6564], [140.41006, 41.65687], [140.41017, 41.65697], [140.41114, 41.65783], [140.41201, 41.65862], [140.41256, 41.65911], [140.41318, 41.65966], [140.41369, 41.66014], [140.41422, 41.6606], [140.41495, 41.66124], [140.41537, 41.66162], [140.41587, 41.66207], [140.41655, 41.6627], [140.41705, 41.66314], [140.4176, 41.66365], [140.41844, 41.6644], [140.41945, 41.66529]]}, "properties": {"id": "TRACK_TOKYO_4543", "line_name": "北海道新幹線", "station_group_ids": [], "mode": "shinkansen", "operator_id": "jr_hokkaido", "line_color": "#3F8BD8", "tags": ["tokyo", "track_centerline"]}}, {"type": "Feature", "bbox": [140.51657472, 41.07027, 140.56059, 41.14387186], "geometry": {"type": "LineString", "coordinates": [[140.51657472, 41.14387186], [140.51679, 41.14363], [140.51771, 41.14262], [140.51885, 41.14137], [140.5202, 41.1399], [140.52201, 41.13784], [140.5222, 41.13763], [140.52261, 41.13715], [140.52363, 41.13587], [140.52434, 41.13498], [140.52502, 41.13404], [140.5256, 41.13318], [140.5264, 41.13185], [140.52714, 41.13059], [140.52758, 41.1298], [140.52789, 41.12924], [140.52854, 41.12807], [140.52925, 41.12683], [140.53038, 41.12483], [140.53112, 41.12353], [140.53223, 41.12156], [140.53252, 41.12105], [140.53321, 41.11986], [140.53372, 41.11893], [140.53458, 41.11742], [140.53536, 41.11602], [140.53629, 41.1144], [140.53692, 41.11327], [140.53715, 41.11286], [140.5374, 41.11243], [140.53835, 41.11075], [140.53887, 41.10984], [140.53976, 41.10826], [140.54049, 41.10695], [140.54122, 41.10566], [140.54178, 41.10467], [140.54187, 41.10451], [140.54208, 41.10413], [140.54332, 41.10195], [140.54402, 41.10072], [140.54588, 41.09743], [140.54672, 41.09594], [140.54728, 41.09496], [140.54889, 41.09204], [140.55106, 41.08811], [140.55112, 41.08801], [140.55131, 41.08771], [140.55187, 41.08667], [140.55229, 41.08597], [140.55293, 41.08479], [140.55321, 41.08425], [140.55325, 41.08416], [140.55353, 41.08364], [140.55369, 41.08332], [140.55459, 41.08161], [140.55563, 41.07964], [140.55673, 41.07758], [140.55781, 41.07553], [140.55807, 41.07503], [140.55876, 41.07368], [140.55986, 41.07166], [140.56056, 41.07032], [140.56059, 41.07027]]}, "properties": {"id": "TRACK_TOKYO_4547", "line_name": "北海道新幹線", "station_group_ids": [], "mode": "shinkansen", "operator_id": "jr_hokkaido", "line_color": "#3F8BD8", "tags": ["tokyo", "track_centerline"]}}, {"type": "Feature", "bbox": [140.56059, 40.829376, 140.693428, 41.07027], "geometry": {"type": "LineString", "coordinates": [[140.56059, 41.07027], [140.56139551, 41.06873425], [140.56257113, 41.06651675], [140.56355526, 41.06465592], [140.56455388, 41.06276059], [140.56530958, 41.06134023], [140.56730942, 41.05755295], [140.56861946, 41.05510644], [140.56928036, 41.05393551], [140.56994439, 41.05280979], [140.57056481, 41.05182421], [140.57097651, 41.05118019], [140.57164545, 41.0501806], [140.57239048, 41.04911094], [140.57361419, 41.04739545], [140.57656679, 41.04325809], [140.57885011, 41.04006126], [140.58109751, 41.03690934], [140.58351142, 41.03352173], [140.58585795, 41.03023954], [140.58781783, 41.02749183], [140.58970691, 41.02484655], [140.59147644, 41.02236114], [140.59387936, 41.0189942], [140.59469082, 41.01785981], [140.59581326, 41.01627994], [140.59796738, 41.01325709], [140.60027339, 41.01002633], [140.60170187, 41.0080301], [140.60366514, 41.00527086], [140.60582928, 41.00223207], [140.60775972, 40.99952864], [140.6089963, 40.99779169], [140.61011911, 40.99622552], [140.61155256, 40.99420768], [140.61381988, 40.99101596], [140.61534478, 40.98887951], [140.61845238, 40.98452419], [140.62085973, 40.98113479], [140.62190623, 40.97960597], [140.62269761, 40.97839002], [140.62354129, 40.97700265], [140.62406284, 40.97609862], [140.62460196, 40.97510945], [140.62527978, 40.97381146], [140.6258181, 40.97268093], [140.62644836, 40.97127528], [140.62674574, 40.97057037], [140.62722899, 40.96934419], [140.62775975, 40.96788492], [140.62803092, 40.96706701], [140.62828478, 40.96624066], [140.62854426, 40.96535733], [140.62886526, 40.96416958], [140.62915044, 40.96299385], [140.62933782, 40.96211543], [140.62953122, 40.96114529], [140.63010224, 40.95817301], [140.63061357, 40.95547977], [140.63122576, 40.95223595], [140.63170179, 40.94971098], [140.63201935, 40.94807646], [140.63240292, 40.94606398], [140.63277086, 40.94417711], [140.63307733, 40.94276676], [140.63346348, 40.94124211], [140.63383364, 40.93992506], [140.6341937, 40.93875546], [140.63457866, 40.93763026], [140.63517683, 40.93605098], [140.6357584, 40.93463227], [140.63616094, 40.93374307], [140.63655982, 40.93286925], [140.63719945, 40.93157805], [140.63813526, 40.92982083], [140.63909001, 40.9280647], [140.64031545, 40.92581183], [140.64178184, 40.92312661], [140.64254765, 40.92170707], [140.64348936, 40.91998567], [140.64455034, 40.91803288], [140.64621035, 40.91498603], [140.64798938, 40.91171602], [140.64976653, 40.90843989], [140.65151157, 40.90524564], [140.65327499, 40.90200616], [140.65423958, 40.90022728], [140.65580131, 40.89735736], [140.65721202, 40.89475985], [140.6585401, 40.89232609], [140.6600707, 40.88950158], [140.66160948, 40.88667535], [140.66309063, 40.88394643], [140.6643212, 40.88168998], [140.66599408, 40.87860816], [140.66754131, 40.87575711], [140.66767113, 40.87552968], [140.66920103, 40.87271218], [140.67083314, 40.86970734], [140.67252228, 40.86659003], [140.67418946, 40.86352101], [140.67509265, 40.86186702], [140.67568569, 40.86076863], [140.67635852, 40.85953621], [140.67681961, 40.85868834], [140.67708081, 40.85821878], [140.67739358, 40.85771553], [140.67763956, 40.8573077], [140.67797303, 40.85681147], [140.67834273, 40.85628819], [140.67866184, 40.85587015], [140.67911095, 40.85529448], [140.67974702, 40.85455222], [140.6803246, 40.85393601], [140.6810055, 40.85325232], [140.68269607, 40.85161976], [140.68535066, 40.84904691], [140.68609502, 40.84833488], [140.68670178, 40.84773316], [140.68705309, 40.84739248], [140.68761071, 40.84681509], [140.68829586, 40.8460686], [140.68872037, 40.84556611], [140.68910196, 40.84509528], [140.68957723, 40.8444636], [140.68996631, 40.84391849], [140.69039001, 40.84326586], [140.69065062, 40.84284282], [140.6909413, 40.84234671], [140.69134932, 40.84157822], [140.69170269, 40.84082625], [140.69197259, 40.84019316], [140.69220026, 40.839605], [140.69239458, 40.83908054], [140.69258392, 40.83844613], [140.69277374, 40.83775171], [140.6929622, 40.8369034], [140.69307816, 40.83619687], [140.69315631, 40.83563487], [140.6932229, 40.8349772], [140.6932588, 40.83435886], [140.69328601, 40.83369839], [140.69330718, 40.83296942], [140.69334199, 40.83200655], [140.69336497, 40.83119418], [140.69339162, 40.83029697], [140.693428, 40.829376]]}, "properties": {"id": "TRACK_TOKYO_4548", "line_name": "北海道新幹線", "station_group_ids": [], "mode": "shinkansen", "operator_id": "jr_hokkaido", "line_color": "#3F8BD8", "tags": ["tokyo", "track_centerline"]}}, {"type": "Feature", "bbox": [140.51482012, 41.14387186, 140.51657472, 41.14581862], "geometry": {"type": "LineString", "coordinates": [[140.51482012, 41.14581862], [140.51513, 41.14547], [140.515555, 41.145005], [140.51598, 41.14454], [140.51657472, 41.14387186]]}, "properties": {"id": "TRACK_TOKYO_4549", "line_name": "北海道新幹線", "station_group_ids": [], "mode": "shinkansen", "operator_id": "jr_hokkaido", "line_color": "#3F8BD8", "tags": ["tokyo", "track_centerline"]}}, {"type": "Feature", "bbox": [140.693428, 40.826832, 140.693511, 40.829376], "geometry": {"type": "LineString", "coordinates": [[140.693428, 40.829376], [140.69347, 40.828104], [140.69351, 40.826883], [140.693511, 40.826832]]}, "properties": {"id": "TRACK_TOKYO_4550", "line_name": "北海道新幹線", "station_group_ids": [], "mode": "shinkansen", "operator_id": "jr_hokkaido", "line_color": "#3F8BD8", "tags": ["tokyo", "track_centerline"]}}]}