{"type": "FeatureCollection", "features": [{"type": "Feature", "bbox": [130.624908, 32.518486, 130.688014, 32.789574], "geometry": {"type": "LineString", "coordinates": [[130.688014, 32.789574], [130.687412, 32.788651], [130.68655, 32.786962], [130.685578, 32.784979], [130.68544, 32.784542], [130.685373, 32.784113], [130.685364, 32.783533], [130.685519, 32.782846], [130.686053, 32.781006], [130.686171, 32.780011], [130.686171, 32.778966], [130.685947, 32.777556], [130.685493, 32.775251], [130.685078, 32.773368], [130.684689, 32.771765], [130.684189, 32.769159], [130.683987, 32.768107], [130.683682, 32.766525], [130.682868, 32.762395], [130.681959, 32.757477], [130.681134, 32.753197], [130.680248, 32.748501], [130.679912, 32.746768], [130.679641, 32.744922], [130.679372, 32.742609], [130.678834, 32.737527], [130.67856, 32.735229], [130.678094, 32.733017], [130.677786, 32.7319], [130.677016, 32.729295], [130.675957, 32.725816], [130.674896, 32.721915], [130.674046, 32.71782], [130.673181, 32.713547], [130.672112, 32.708429], [130.670953, 32.702609], [130.670336, 32.699674], [130.669613, 32.696216], [130.668575, 32.69112], [130.667606, 32.686488], [130.667204, 32.684598], [130.66684, 32.68326], [130.666468, 32.682042], [130.665715, 32.679881], [130.663201, 32.674033], [130.662468, 32.672178], [130.662053, 32.670926], [130.661555, 32.669193], [130.661166, 32.667468], [130.660902, 32.665693], [130.660724, 32.664061], [130.660657, 32.662371], [130.660665, 32.660281], [130.660869, 32.658048], [130.661233, 32.6557], [130.661769, 32.653502], [130.662378, 32.651519], [130.663526, 32.64872], [130.664753, 32.646079], [130.666439, 32.642449], [130.667013, 32.641075], [130.667792, 32.63887], [130.668205, 32.637366], [130.668459, 32.636293], [130.66879, 32.63451], [130.669086, 32.632141], [130.669168, 32.63], [130.669097, 32.627874], [130.66893, 32.626178], [130.668663, 32.624295], [130.668321, 32.622763], [130.66775, 32.620608], [130.667347, 32.619363], [130.666662, 32.617659], [130.665858, 32.615891], [130.664983, 32.614252], [130.664298, 32.613063], [130.663175, 32.611352], [130.661708, 32.609241], [130.659182, 32.605647], [130.656799, 32.602276], [130.653932, 32.598188], [130.650681, 32.593564], [130.647178, 32.588589], [130.643421, 32.583241], [130.639823, 32.578108], [130.63605, 32.572732], [130.632124, 32.567141], [130.630692, 32.56505], [130.629974, 32.563955], [130.629265, 32.562795], [130.628639, 32.561657], [130.627862, 32.560083], [130.627549, 32.559373], [130.627025, 32.558114], [130.626345, 32.556138], [130.625821, 32.55427], [130.625424, 32.552415], [130.625146, 32.550483], [130.624917, 32.548049], [130.624908, 32.546037], [130.62503, 32.544434], [130.625109, 32.543481], [130.625354, 32.541771], [130.625719, 32.539952], [130.626136, 32.538398], [130.626423, 32.537439], [130.627077, 32.535599], [130.627517, 32.53449], [130.62846, 32.532464], [130.630549, 32.528069], [130.631721, 32.52567], [130.632693, 32.523537], [130.633602, 32.521279], [130.634363, 32.519207], [130.634683, 32.518486]]}, "properties": {"id": "GEOM_TOKYO_4099", "route_id": "R_059A5F85", "route_name": null, "route_color": "#DE4B39", "route_text_color": null, "line_name": "九州新幹線", "operator_id": "九州旅客鉄道", "representation": "service_path", "min_zoom": 0, "max_zoom": 24, "offset_rank": 0}}, {"type": "Feature", "bbox": [130.688014, 32.789574, 130.689184, 32.791229], "geometry": {"type": "LineString", "coordinates": [[130.689184, 32.791229], [130.68886, 32.790813], [130.688014, 32.789574]]}, "properties": {"id": "GEOM_TOKYO_4100", "route_id": "R_059A5F85", "route_name": null, "route_color": "#DE4B39", "route_text_color": null, "line_name": "九州新幹線", "operator_id": "九州旅客鉄道", "representation": "service_path", "min_zoom": 0, "max_zoom": 24, "offset_rank": 0}}, {"type": "Feature", "bbox": [130.574395, 32.791229, 130.699565, 32.941927], "geometry": {"type": "LineString", "coordinates": [[130.574395, 32.941927], [130.576895, 32.939991], [130.58079, 32.937545], [130.603235, 32.924981], [130.605845, 32.923232], [130.60858, 32.921031], [130.613581, 32.916871], [130.627245, 32.905391], [130.64112, 32.893787], [130.654846, 32.882271], [130.670345, 32.869252], [130.673103, 32.866524], [130.674697, 32.86462], [130.675691, 32.863344], [130.676664, 32.861789], [130.67794, 32.859744], [130.679782, 32.856494], [130.685353, 32.846708], [130.690163, 32.838321], [130.690656, 32.837455], [130.691631, 32.835701], [130.694287, 32.83107], [130.697173, 32.825988], [130.699002, 32.822766], [130.699222, 32.822244], [130.699459, 32.821586], [130.699548, 32.820977], [130.699565, 32.819946], [130.699544, 32.819495], [130.699374, 32.818794], [130.699095, 32.817871], [130.698408, 32.815995], [130.697035, 32.812552], [130.694766, 32.806997], [130.694512, 32.805967], [130.694411, 32.805], [130.694225, 32.800942], [130.694124, 32.799832], [130.694039, 32.799281], [130.693599, 32.797498], [130.693235, 32.79616], [130.693049, 32.795616], [130.692769, 32.795136], [130.692456, 32.794721], [130.692117, 32.794327], [130.689673, 32.791815], [130.689334, 32.791421], [130.689184, 32.791229]]}, "properties": {"id": "GEOM_TOKYO_4101", "route_id": "R_059A5F85", "route_name": null, "route_color": "#DE4B39", "route_text_color": null, "line_name": "九州新幹線", "operator_id": "九州旅客鉄道", "representation": "service_path", "min_zoom": 0, "max_zoom": 24, "offset_rank": 0}}, {"type": "Feature", "bbox": [130.572748, 32.941927, 130.574395, 32.943256], "geometry": {"type": "LineString", "coordinates": [[130.572748, 32.943256], [130.573082, 32.942944], [130.574395, 32.941927]]}, "properties": {"id": "GEOM_TOKYO_4102", "route_id": "R_059A5F85", "route_name": null, "route_color": "#DE4B39", "route_text_color": null, "line_name": "九州新幹線", "operator_id": "九州旅客鉄道", "representation": "service_path", "min_zoom": 0, "max_zoom": 24, "offset_rank": 0}}, {"type": "Feature", "bbox": [130.488548, 33.070375, 130.488959, 33.072257], "geometry": {"type": "LineString", "coordinates": [[130.488548, 33.072257], [130.488959, 33.070375]]}, "properties": {"id": "GEOM_TOKYO_4103", "route_id": "R_059A5F85", "route_name": null, "route_color": "#DE4B39", "route_text_color": null, "line_name": "九州新幹線", "operator_id": "九州旅客鉄道", "representation": "service_path", "min_zoom": 0, "max_zoom": 24, "offset_rank": 0}}, {"type": "Feature", "bbox": [130.488959, 32.943256, 130.572748, 33.070375], "geometry": {"type": "LineString", "coordinates": [[130.488959, 33.070375], [130.490585, 33.062927], [130.49257, 33.053962], [130.493269, 33.051463], [130.494576, 33.047758], [130.495797, 33.04491], [130.497146, 33.042184], [130.498468, 33.03986], [130.502908, 33.03322], [130.51122, 33.021058], [130.518799, 33.009874], [130.527829, 32.996646], [130.536317, 32.984169], [130.538145, 32.981704], [130.539908, 32.979572], [130.548138, 32.970259], [130.559708, 32.957275], [130.569266, 32.94651], [130.572748, 32.943256]]}, "properties": {"id": "GEOM_TOKYO_4104", "route_id": "R_059A5F85", "route_name": null, "route_color": "#DE4B39", "route_text_color": null, "line_name": "九州新幹線", "operator_id": "九州旅客鉄道", "representation": "service_path", "min_zoom": 0, "max_zoom": 24, "offset_rank": 0}}, {"type": "Feature", "bbox": [130.48587, 33.072257, 130.494065, 33.176724], "geometry": {"type": "LineString", "coordinates": [[130.492272, 33.176724], [130.492266, 33.176683], [130.492211, 33.175975], [130.492169, 33.174305], [130.492194, 33.172725], [130.492272, 33.171201], [130.492391, 33.169733], [130.492484, 33.168366], [130.49263, 33.166888], [130.492737, 33.165465], [130.492769, 33.164981], [130.492809, 33.164422], [130.492879, 33.163772], [130.492902, 33.163055], [130.492983, 33.162326], [130.493027, 33.161676], [130.49309, 33.160881], [130.493139, 33.160208], [130.493215, 33.159402], [130.493264, 33.158606], [130.493327, 33.157945], [130.493363, 33.157183], [130.493439, 33.156432], [130.493488, 33.155704], [130.493551, 33.154886], [130.493633, 33.153945], [130.493701, 33.15307], [130.493752, 33.15241], [130.493796, 33.151838], [130.493845, 33.151177], [130.493902, 33.150539], [130.493951, 33.149799], [130.494006, 33.148735], [130.494061, 33.147961], [130.494037, 33.147042], [130.494065, 33.146112], [130.49404, 33.145294], [130.49401, 33.144521], [130.493962, 33.143735], [130.493852, 33.142638], [130.493647, 33.140924], [130.493488, 33.139535], [130.49318, 33.137315], [130.492398, 33.131304], [130.490788, 33.118862], [130.49018, 33.114388], [130.487083, 33.099973], [130.486327, 33.0959], [130.48587, 33.091305], [130.485908, 33.087216], [130.486323, 33.082952], [130.487127, 33.078479], [130.488349, 33.073167], [130.488548, 33.072257]]}, "properties": {"id": "GEOM_TOKYO_4105", "route_id": "R_059A5F85", "route_name": null, "route_color": "#DE4B39", "route_text_color": null, "line_name": "九州新幹線", "operator_id": "九州旅客鉄道", "representation": "service_path", "min_zoom": 0, "max_zoom": 24, "offset_rank": 0}}]}