{"type": "FeatureCollection", "features": [{"type": "Feature", "bbox": [130.31263, 31.58398, 130.53948, 31.81268], "geometry": {"type": "LineString", "coordinates": [[130.53948, 31.58398], [130.5352, 31.58461], [130.53426, 31.58473], [130.53286, 31.58497], [130.53188, 31.58513], [130.53112, 31.58526], [130.52972, 31.58553], [130.52843, 31.58585], [130.52689, 31.58626], [130.52531, 31.58678], [130.5243, 31.5872], [130.52171, 31.58842], [130.51725, 31.59069], [130.51026, 31.59461], [130.50537, 31.59718], [130.50496, 31.59738], [130.50183, 31.59885], [130.49939, 31.59976], [130.49735, 31.60044], [130.49582, 31.6009], [130.4884, 31.60277], [130.48633, 31.60327], [130.48235, 31.60433], [130.48081, 31.6048], [130.4798, 31.60514], [130.47813, 31.60576], [130.47582, 31.60669], [130.47376, 31.60758], [130.47208, 31.60844], [130.46411, 31.61312], [130.45535, 31.61826], [130.45491, 31.61854], [130.45455, 31.61878], [130.45066, 31.62095], [130.44989, 31.62144], [130.44747, 31.62299], [130.43982, 31.62744], [130.43972, 31.62751], [130.43869, 31.62815], [130.43709, 31.62914], [130.43649, 31.62951], [130.43625, 31.62966], [130.43327, 31.63158], [130.43222, 31.63222], [130.43095, 31.63298], [130.42987, 31.63364], [130.42289, 31.6398], [130.42278, 31.63987], [130.4218, 31.64077], [130.4214, 31.64114], [130.41928, 31.64309], [130.4183, 31.64399], [130.4168, 31.64536], [130.41597, 31.64612], [130.41465, 31.64733], [130.41445, 31.64752], [130.40773, 31.65369], [130.40593, 31.65532], [130.40423, 31.65685], [130.40339, 31.65761], [130.39955, 31.66115], [130.39747, 31.66306], [130.39669, 31.66378], [130.39642, 31.66403], [130.39489, 31.6654], [130.39397, 31.66629], [130.39364, 31.6666], [130.3926, 31.66752], [130.39179, 31.66823], [130.38998, 31.66993], [130.38972, 31.67014], [130.3894, 31.67043], [130.38881, 31.67097], [130.38777, 31.67193], [130.3877, 31.67199], [130.38701, 31.67257], [130.38488, 31.67444], [130.38263, 31.67657], [130.38009, 31.67906], [130.37702, 31.68209], [130.37311, 31.68649], [130.37121, 31.68906], [130.36968, 31.69131], [130.36822, 31.69386], [130.36691, 31.69654], [130.3628, 31.70531], [130.35736, 31.71768], [130.35136, 31.73126], [130.34822, 31.73798], [130.34715, 31.74057], [130.34107, 31.75414], [130.33659, 31.76436], [130.33512, 31.7677], [130.33279, 31.77276], [130.32907, 31.7812], [130.32741, 31.78449], [130.32695, 31.78524], [130.32651, 31.78593], [130.32588, 31.78695], [130.32545, 31.78769], [130.32486, 31.78851], [130.32362, 31.79031], [130.32343, 31.79058], [130.32281, 31.79136], [130.32273, 31.79146], [130.32171, 31.79276], [130.32074, 31.79402], [130.31984, 31.7951], [130.31944, 31.79559], [130.31914, 31.79601], [130.3178, 31.79793], [130.31701, 31.7992], [130.31629, 31.80077], [130.31564, 31.80238], [130.31393, 31.80756], [130.31317, 31.81033], [130.31263, 31.81268]]}, "properties": {"id": "GEOM_TOKYO_0451", "route_id": "R_059A5F85", "route_name": null, "route_color": "#DE4B39", "route_text_color": null, "line_name": "九州新幹線", "operator_id": "九州旅客鉄道", "representation": "service_path", "min_zoom": 0, "max_zoom": 24, "offset_rank": 0}}, {"type": "Feature", "bbox": [130.2897, 31.81435, 130.36529, 32.08873], "geometry": {"type": "LineString", "coordinates": [[130.31218, 31.81435], [130.3091, 31.82438], [130.3088, 31.82559], [130.30854, 31.82658], [130.30801, 31.8292], [130.30749, 31.83315], [130.30719, 31.8345], [130.30673, 31.83598], [130.30542, 31.83934], [130.30365, 31.84319], [130.30275, 31.84512], [130.30174, 31.84693], [130.29894, 31.85233], [130.29585, 31.85795], [130.29503, 31.85944], [130.2946, 31.86042], [130.2934, 31.8635], [130.29134, 31.86908], [130.29086, 31.87089], [130.29057, 31.87211], [130.2904, 31.87318], [130.29007, 31.87501], [130.28988, 31.87772], [130.28978, 31.87996], [130.2897, 31.88133], [130.2897, 31.88228], [130.28977, 31.88392], [130.28978, 31.88409], [130.28993, 31.88595], [130.29008, 31.8877], [130.29027, 31.88955], [130.29049, 31.89128], [130.29064, 31.89218], [130.29095, 31.89406], [130.29112, 31.8951], [130.2912, 31.89556], [130.29131, 31.89617], [130.29155, 31.89737], [130.29158, 31.89751], [130.29256, 31.9033], [130.29408, 31.91223], [130.2941, 31.91235], [130.29479, 31.91659], [130.2948, 31.91664], [130.2958, 31.92291], [130.2966, 31.92788], [130.29759, 31.93434], [130.29919, 31.94375], [130.29984, 31.94755], [130.3005, 31.95195], [130.3009, 31.95507], [130.30172, 31.95991], [130.30253, 31.96436], [130.30281, 31.96602], [130.30333, 31.96936], [130.30445, 31.97608], [130.30473, 31.97774], [130.30509, 31.97935], [130.30569, 31.98169], [130.30596, 31.98248], [130.30682, 31.98467], [130.3081, 31.98728], [130.30902, 31.98891], [130.31037, 31.99114], [130.31166, 31.99286], [130.31655, 31.99976], [130.32038, 32.00525], [130.33882, 32.0306], [130.34139, 32.0346], [130.3455, 32.0405], [130.34713, 32.04279], [130.34813, 32.0443], [130.3535, 32.05153], [130.35442, 32.05271], [130.35948, 32.05872], [130.36086, 32.06066], [130.36219, 32.0628], [130.36332, 32.06514], [130.36444, 32.06794], [130.36492, 32.06947], [130.36518, 32.07065], [130.36529, 32.07215], [130.36526, 32.07326], [130.36516, 32.07481], [130.3651, 32.07537], [130.36504, 32.07604], [130.36486, 32.07682], [130.36463, 32.07763], [130.36434, 32.07848], [130.36418, 32.07899], [130.36402, 32.07946], [130.36385, 32.0799], [130.3637, 32.08029], [130.36286, 32.08221], [130.36199, 32.08398], [130.36192, 32.08408], [130.36175, 32.08431], [130.36143, 32.08468], [130.36098, 32.08529], [130.36078, 32.08554], [130.36042, 32.08596], [130.36022, 32.08623], [130.36003, 32.08654], [130.35991, 32.08677], [130.35963, 32.08722], [130.35951, 32.08742], [130.35906, 32.0882], [130.35879, 32.08873]]}, "properties": {"id": "GEOM_TOKYO_0452", "route_id": "R_059A5F85", "route_name": null, "route_color": "#DE4B39", "route_text_color": null, "line_name": "九州新幹線", "operator_id": "九州旅客鉄道", "representation": "service_path", "min_zoom": 0, "max_zoom": 24, "offset_rank": 0}}, {"type": "Feature", "bbox": [130.31218, 31.81268, 130.31263, 31.81435], "geometry": {"type": "LineString", "coordinates": [[130.31218, 31.81435], [130.31263, 31.81268]]}, "properties": {"id": "GEOM_TOKYO_0453", "route_id": "R_059A5F85", "route_name": null, "route_color": "#DE4B39", "route_text_color": null, "line_name": "九州新幹線", "operator_id": "九州旅客鉄道", "representation": "service_path", "min_zoom": 0, "max_zoom": 24, "offset_rank": 0}}, {"type": "Feature", "bbox": [130.53948, 31.58357, 130.54258, 31.58398], "geometry": {"type": "LineString", "coordinates": [[130.53948, 31.58398], [130.54258, 31.58357]]}, "properties": {"id": "GEOM_TOKYO_0454", "route_id": "R_059A5F85", "route_name": null, "route_color": "#DE4B39", "route_text_color": null, "line_name": "九州新幹線", "operator_id": "九州旅客鉄道", "representation": "service_path", "min_zoom": 0, "max_zoom": 24, "offset_rank": 0}}]}