{"type": "FeatureCollection", "features": [{"type": "Feature", "bbox": [137.28289999999998, 34.815745, 137.28289999999998, 34.815745], "geometry": {"type": "Point", "coordinates": [137.28289999999998, 34.815745]}, "properties": {"id": "PS_6E3B1086F432", "station_group_id": "SG_4AB5B0308DE7", "name_en": "三河大塚", "name_ja": "三河大塚", "label_rank": 72, "tags": ["tokyo", "v3"]}}, {"type": "Feature", "bbox": [137.43887, 34.725795000000005, 137.43887, 34.725795000000005], "geometry": {"type": "Point", "coordinates": [137.43887, 34.725795000000005]}, "properties": {"id": "PS_1F189D978587", "station_group_id": "SG_97A5DBD60D5C", "name_en": "二川", "name_ja": "二川", "label_rank": 72, "tags": ["tokyo", "v3"]}}, {"type": "Feature", "bbox": [137.31658499999998, 34.812585, 137.31658499999998, 34.812585], "geometry": {"type": "Point", "coordinates": [137.31658499999998, 34.812585]}, "properties": {"id": "PS_166D66A68816", "station_group_id": "SG_230D096BDBF5", "name_en": "愛知御津", "name_ja": "愛知御津", "label_rank": 72, "tags": ["tokyo", "v3"]}}, {"type": "Feature", "bbox": [137.484455, 34.723259999999996, 137.484455, 34.723259999999996], "geometry": {"type": "Point", "coordinates": [137.484455, 34.723259999999996]}, "properties": {"id": "PS_47E067852F80", "station_group_id": "SG_D5ACCD32BF3B", "name_en": "新所原", "name_ja": "新所原", "label_rank": 72, "tags": ["tokyo", "v3"]}}, {"type": "Feature", "bbox": [137.352685, 34.797025000000005, 137.352685, 34.797025000000005], "geometry": {"type": "Point", "coordinates": [137.352685, 34.797025000000005]}, "properties": {"id": "PS_260B561B00F2", "station_group_id": "SG_AC1682A156B6", "name_en": "西小坂井", "name_ja": "西小坂井", "label_rank": 72, "tags": ["tokyo", "v3"]}}, {"type": "Feature", "bbox": [137.38115, 34.76289, 137.38115, 34.76289], "geometry": {"type": "Point", "coordinates": [137.38115, 34.76289]}, "properties": {"id": "PS_5B7FCBE16BB1", "station_group_id": "SG_D326CA497DB4", "name_en": "豊橋", "name_ja": "豊橋", "label_rank": 72, "tags": ["tokyo", "v3"]}}, {"type": "Feature", "bbox": [137.38254, 34.762275, 137.38254, 34.762275], "geometry": {"type": "Point", "coordinates": [137.38254, 34.762275]}, "properties": {"id": "PS_01A0DB5168F3", "station_group_id": "SG_D326CA497DB4", "name_en": "豊橋", "name_ja": "豊橋", "label_rank": 72, "tags": ["tokyo", "v3"]}}]}