{"type": "FeatureCollection", "features": [{"type": "Feature", "bbox": [130.5010945, 33.3205875, 130.5010945, 33.3205875], "geometry": {"type": "Point", "coordinates": [130.5010945, 33.3205875]}, "properties": {"id": "PS_435871BFE411", "station_group_id": "SG_FCB073C83506", "operator_id": "jr_kyushu", "operator_ids": "jr_kyushu", "name_en": "久留米", "name_ja": "久留米", "label_rank": 72, "tags": ["tokyo", "v3"]}}, {"type": "Feature", "bbox": [130.421175, 33.589574999999996, 130.421175, 33.589574999999996], "geometry": {"type": "Point", "coordinates": [130.421175, 33.589574999999996]}, "properties": {"id": "PS_A8F93C50157E", "station_group_id": "SG_91C721B8DCF1", "operator_id": "jr_west", "operator_ids": "jr_west", "name_en": "博多", "name_ja": "博多", "label_rank": 72, "tags": ["tokyo", "v3"]}}, {"type": "Feature", "bbox": [130.421175, 33.589574999999996, 130.421175, 33.589574999999996], "geometry": {"type": "Point", "coordinates": [130.421175, 33.589574999999996]}, "properties": {"id": "PS_12A36A84944E", "station_group_id": "SG_91C721B8DCF1", "operator_id": "jr_kyushu", "operator_ids": "jr_kyushu", "name_en": "博多", "name_ja": "博多", "label_rank": 72, "tags": ["tokyo", "v3"]}}, {"type": "Feature", "bbox": [130.49109750000002, 33.3704365, 130.49109750000002, 33.3704365], "geometry": {"type": "Point", "coordinates": [130.49109750000002, 33.3704365]}, "properties": {"id": "PS_0A0BA8190E1E", "station_group_id": "SG_12178E5C8FDE", "operator_id": "jr_kyushu", "operator_ids": "jr_kyushu", "name_en": "新鳥栖", "name_ja": "新鳥栖", "label_rank": 72, "tags": ["tokyo", "v3"]}}, {"type": "Feature", "bbox": [130.4923975, 33.177694, 130.4923975, 33.177694], "geometry": {"type": "Point", "coordinates": [130.4923975, 33.177694]}, "properties": {"id": "PS_844D5612F835", "station_group_id": "SG_92C95F7F2B5A", "operator_id": "jr_kyushu", "operator_ids": "jr_kyushu", "name_en": "筑後船小屋", "name_ja": "筑後船小屋", "label_rank": 72, "tags": ["tokyo", "v3"]}}]}