{"type": "FeatureCollection", "features": [{"type": "Feature", "bbox": [130.4887535, 33.071315999999996, 130.4887535, 33.071315999999996], "geometry": {"type": "Point", "coordinates": [130.4887535, 33.071315999999996]}, "properties": {"id": "PS_8B14AE274515", "station_group_id": "SG_AB868873FDE4", "operator_id": "jr_kyushu", "operator_ids": "jr_kyushu", "name_en": "新大牟田", "name_ja": "新大牟田", "label_rank": 72, "tags": ["tokyo", "v3"]}}, {"type": "Feature", "bbox": [130.5735715, 32.9425915, 130.5735715, 32.9425915], "geometry": {"type": "Point", "coordinates": [130.5735715, 32.9425915]}, "properties": {"id": "PS_AD0766A3E5B4", "station_group_id": "SG_7312373B4CA6", "operator_id": "jr_kyushu", "operator_ids": "jr_kyushu", "name_en": "新玉名", "name_ja": "新玉名", "label_rank": 72, "tags": ["tokyo", "v3"]}}, {"type": "Feature", "bbox": [130.688599, 32.7904015, 130.688599, 32.7904015], "geometry": {"type": "Point", "coordinates": [130.688599, 32.7904015]}, "properties": {"id": "PS_89C84DFB9AA0", "station_group_id": "SG_163790039015", "operator_id": "jr_kyushu", "operator_ids": "jr_kyushu", "name_en": "熊本", "name_ja": "熊本", "label_rank": 72, "tags": ["tokyo", "v3"]}}]}