{"type": "FeatureCollection", "features": [{"type": "Feature", "bbox": [137.48227208, 36.8751489, 137.85965847, 37.0426576], "geometry": {"type": "LineString", "coordinates": [[137.85965847, 37.0426576], [137.85689591, 37.04187], [137.85249391, 37.04060888], [137.84991219, 37.03979987], [137.84704494, 37.03878859], [137.8398905, 37.03602455], [137.82791229, 37.03121328], [137.82243001, 37.02902894], [137.82008862, 37.02798673], [137.81149401, 37.02373226], [137.80806759, 37.02209043], [137.80665419, 37.02149081], [137.80498381, 37.02086263], [137.8025282, 37.0200203], [137.7991339, 37.01908041], [137.79523158, 37.01829995], [137.77880379, 37.01510195], [137.77421619, 37.01420727], [137.77128469, 37.01344585], [137.76791537, 37.01236081], [137.76258538, 37.01022882], [137.74332126, 37.00291911], [137.73789609, 37.00084422], [137.73587831, 37.00017797], [137.72902546, 36.99802694], [137.72483761, 36.99678962], [137.71461545, 36.99366777], [137.70713442, 36.99134541], [137.69849222, 36.98854717], [137.69044012, 36.98618674], [137.68309235, 36.98401667], [137.67372679, 36.98127553], [137.66491326, 36.9785915], [137.65948809, 36.97695443], [137.65431039, 36.9753364], [137.65006543, 36.97381354], [137.64580143, 36.97206226], [137.6300732, 36.96425049], [137.60849149, 36.95347153], [137.59057414, 36.94445338], [137.57168122, 36.9350783], [137.55133683, 36.924918], [137.52927923, 36.91382971], [137.51764366, 36.90804762], [137.51565681, 36.90695307], [137.51346771, 36.90557298], [137.51131787, 36.90407868], [137.50866239, 36.90196572], [137.50662081, 36.90002408], [137.50397961, 36.89714017], [137.49708393, 36.88934506], [137.49512117, 36.88719849], [137.49297966, 36.88502842], [137.48488473, 36.87750456], [137.48227208, 36.8751489]]}, "properties": {"id": "TRACK_TOKYO_4070", "line_name": "北陸新幹線", "station_group_ids": [], "mode": "shinkansen", "operator_id": "西日本旅客鉄道", "tags": ["tokyo", "track_centerline"]}}]}