{"type": "FeatureCollection", "features": [{"type": "Feature", "bbox": [136.88194, 34.97087, 137.0586, 35.16874], "geometry": {"type": "LineString", "coordinates": [[137.0586, 34.97087], [137.05796, 34.97157], [137.05775, 34.9718], [137.05754, 34.97203], [137.05729, 34.97229], [137.05658, 34.97304], [137.05641, 34.97325], [137.05622, 34.97346], [137.05596, 34.97375], [137.0558, 34.97392], [137.05516, 34.9746], [137.05435, 34.97549], [137.05366, 34.97624], [137.05348, 34.97643], [137.05337, 34.97654], [137.05267, 34.97733], [137.05209, 34.97797], [137.05198, 34.97809], [137.05187, 34.97821], [137.05173, 34.97835], [137.0511, 34.97907], [137.05074, 34.97945], [137.05049, 34.97972], [137.04992, 34.98033], [137.04971, 34.98054], [137.0494, 34.98088], [137.0493, 34.98097], [137.0487, 34.9816], [137.04819, 34.98213], [137.04804, 34.98227], [137.04788, 34.98241], [137.04729, 34.98295], [137.04671, 34.98346], [137.0465, 34.98364], [137.04621, 34.98388], [137.04531, 34.98467], [137.04376, 34.98595], [137.04358, 34.9861], [137.04297, 34.9866], [137.04279, 34.98674], [137.04239, 34.98705], [137.04233, 34.9871], [137.04227, 34.98714], [137.04149, 34.98777], [137.04134, 34.98789], [137.04106, 34.98812], [137.04064, 34.98846], [137.04018, 34.9888], [137.03948, 34.9893], [137.03923, 34.98946], [137.03904, 34.98959], [137.03885, 34.98972], [137.03807, 34.99024], [137.03727, 34.99078], [137.03695, 34.99098], [137.03667, 34.99116], [137.03601, 34.99159], [137.03431, 34.99272], [137.03407, 34.99288], [137.03359, 34.99318], [137.03335, 34.99334], [137.0333, 34.99337], [137.03253, 34.99389], [137.03189, 34.99431], [137.03134, 34.99467], [137.03085, 34.99499], [137.0307, 34.99509], [137.03053, 34.99521], [137.0299, 34.99563], [137.0297, 34.99576], [137.02957, 34.99585], [137.0288, 34.99634], [137.02866, 34.99644], [137.02847, 34.99658], [137.02813, 34.99678], [137.02798, 34.99688], [137.02791, 34.99694], [137.02716, 34.99743], [137.02686, 34.99762], [137.02578, 34.99831], [137.02502, 34.99881], [137.02484, 34.99893], [137.02398, 34.99949], [137.02307, 35.00007], [137.02178, 35.00092], [137.02138, 35.00117], [137.02044, 35.00178], [137.02024, 35.00191], [137.02003, 35.00205], [137.01955, 35.00236], [137.0186, 35.00296], [137.01814, 35.00325], [137.0153, 35.00508], [137.01487, 35.00538], [137.01406, 35.00591], [137.01358, 35.00622], [137.0116, 35.00751], [137.00695, 35.01057], [137.00637, 35.01095], [137.00546, 35.01153], [137.00507, 35.01179], [137.00427, 35.01233], [136.99807, 35.01638], [136.99704, 35.01704], [136.99406, 35.01895], [136.99301, 35.01963], [136.99295, 35.01967], [136.99263, 35.01987], [136.9907, 35.02112], [136.99059, 35.0212], [136.9901, 35.02151], [136.98953, 35.02188], [136.98849, 35.02255], [136.9865, 35.02384], [136.98088, 35.02746], [136.98023, 35.02788], [136.97945, 35.02839], [136.97913, 35.0286], [136.97769, 35.02954], [136.97725, 35.02983], [136.97561, 35.0309], [136.97371, 35.03211], [136.97098, 35.03386], [136.9708, 35.03398], [136.97012, 35.03442], [136.96872, 35.03534], [136.96854, 35.03545], [136.96846, 35.03551], [136.96829, 35.03562], [136.96811, 35.03574], [136.96788, 35.03589], [136.96722, 35.03633], [136.96589, 35.03722], [136.9651, 35.03776], [136.965, 35.03782], [136.96409, 35.03844], [136.96336, 35.03893], [136.96297, 35.03919], [136.96226, 35.03973], [136.96215, 35.03981], [136.96168, 35.04017], [136.96127, 35.04049], [136.96115, 35.04058], [136.9607, 35.04094], [136.96031, 35.04128], [136.96018, 35.04136], [136.95992, 35.04159], [136.95968, 35.04179], [136.959, 35.04237], [136.95841, 35.04292], [136.95819, 35.04312], [136.95786, 35.04343], [136.95673, 35.04463], [136.95611, 35.04528], [136.95515, 35.04636], [136.95487, 35.0467], [136.95457, 35.04706], [136.95358, 35.04834], [136.95328, 35.04877], [136.95299, 35.04919], [136.95278, 35.04949], [136.95231, 35.05017], [136.94977, 35.0541], [136.94832, 35.0564], [136.94786, 35.05712], [136.94771, 35.05737], [136.94721, 35.05816], [136.94694, 35.05859], [136.9468, 35.05882], [136.94529, 35.06119], [136.94514, 35.06144], [136.945, 35.06164], [136.94415, 35.06298], [136.94345, 35.06404], [136.94287, 35.06496], [136.94226, 35.06604], [136.94157, 35.06724], [136.94153, 35.0673], [136.94139, 35.06756], [136.94038, 35.0694], [136.93989, 35.07031], [136.93982, 35.07045], [136.93964, 35.07078], [136.93958, 35.07088], [136.9394, 35.07122], [136.93938, 35.07127], [136.93929, 35.07143], [136.93926, 35.07148], [136.93909, 35.0718], [136.9388, 35.07234], [136.93867, 35.07259], [136.93845, 35.07299], [136.93839, 35.0731], [136.93789, 35.07402], [136.93729, 35.07513], [136.93703, 35.0756], [136.93661, 35.07637], [136.93602, 35.07747], [136.93585, 35.07777], [136.93582, 35.07783], [136.93567, 35.0781], [136.93564, 35.07815], [136.93529, 35.07881], [136.93523, 35.07891], [136.93504, 35.07927], [136.93499, 35.07936], [136.9345, 35.08026], [136.93438, 35.08048], [136.93433, 35.08057], [136.93427, 35.08068], [136.93374, 35.08167], [136.93361, 35.08191], [136.93349, 35.08213], [136.93342, 35.08228], [136.93297, 35.08312], [136.93291, 35.08323], [136.93269, 35.08364], [136.93244, 35.08409], [136.93242, 35.08413], [136.93221, 35.08454], [136.93163, 35.08564], [136.93114, 35.08657], [136.93055, 35.08774], [136.92992, 35.08898], [136.92951, 35.08978], [136.92934, 35.09014], [136.9292, 35.09041], [136.92896, 35.09091], [136.92857, 35.09164], [136.92812, 35.09257], [136.92785, 35.09309], [136.92763, 35.09349], [136.92727, 35.09417], [136.92688, 35.09492], [136.92657, 35.09548], [136.92624, 35.09612], [136.92565, 35.09715], [136.92523, 35.09785], [136.92479, 35.09859], [136.92456, 35.09895], [136.92429, 35.0993], [136.92393, 35.09974], [136.92345, 35.10029], [136.92305, 35.10071], [136.92261, 35.10122], [136.92223, 35.1016], [136.92204, 35.10178], [136.92145, 35.10235], [136.92094, 35.10281], [136.9206, 35.10309], [136.91955, 35.10389], [136.91858, 35.1046], [136.91813, 35.10489], [136.91712, 35.10554], [136.91656, 35.1059], [136.91615, 35.10612], [136.91552, 35.10646], [136.91452, 35.10695], [136.91351, 35.10745], [136.91262, 35.10788], [136.91173, 35.10829], [136.91125, 35.1085], [136.91069, 35.10875], [136.90963, 35.10924], [136.90865, 35.1097], [136.90857, 35.10974], [136.90662, 35.11064], [136.90534, 35.11123], [136.90393, 35.11188], [136.90325, 35.11221], [136.90178, 35.11286], [136.9016, 35.11294], [136.90087, 35.11326], [136.89986, 35.11373], [136.89891, 35.11419], [136.89758, 35.11488], [136.89701, 35.1152], [136.89654, 35.11549], [136.89592, 35.11587], [136.89581, 35.11594], [136.89541, 35.11621], [136.89488, 35.11657], [136.89448, 35.11686], [136.89427, 35.11703], [136.89386, 35.11734], [136.89349, 35.11763], [136.89306, 35.118], [136.89278, 35.11823], [136.89254, 35.11846], [136.89232, 35.11867], [136.89171, 35.11926], [136.89118, 35.11978], [136.89088, 35.1201], [136.89045, 35.12057], [136.89005, 35.12108], [136.88966, 35.12157], [136.88946, 35.12184], [136.88924, 35.12215], [136.88904, 35.12244], [136.88876, 35.12282], [136.8886, 35.12306], [136.8884, 35.12339], [136.88821, 35.12369], [136.88806, 35.124], [136.88793, 35.12423], [136.88773, 35.12459], [136.88745, 35.12507], [136.88722, 35.12549], [136.88709, 35.12579], [136.88689, 35.12625], [136.88668, 35.12674], [136.88651, 35.12724], [136.88637, 35.12771], [136.88617, 35.1284], [136.88595, 35.12916], [136.88581, 35.12994], [136.88571, 35.1307], [136.88556, 35.13204], [136.88553, 35.13265], [136.88552, 35.13296], [136.88552, 35.13309], [136.88552, 35.13342], [136.88556, 35.13383], [136.88565, 35.13454], [136.88581, 35.13564], [136.88591, 35.13624], [136.88594, 35.13641], [136.88596, 35.13653], [136.88599, 35.13671], [136.88601, 35.1368], [136.88615, 35.13761], [136.88649, 35.13962], [136.88662, 35.14044], [136.88664, 35.14053], [136.88664, 35.14058], [136.88669, 35.14086], [136.88671, 35.14095], [136.88681, 35.14166], [136.88736, 35.14443], [136.88737, 35.14451], [136.88742, 35.14478], [136.88744, 35.14487], [136.88764, 35.14593], [136.88766, 35.14607], [136.88768, 35.14616], [136.88771, 35.14631], [136.88772, 35.14641], [136.88798, 35.14788], [136.88816, 35.14912], [136.88814, 35.15021], [136.88812, 35.15049], [136.88811, 35.15057], [136.88809, 35.15076], [136.88809, 35.15083], [136.88804, 35.15127], [136.88787, 35.15242], [136.88779, 35.15296], [136.88766, 35.15362], [136.8875, 35.15428], [136.88745, 35.15449], [136.88724, 35.15527], [136.88673, 35.15745], [136.88639, 35.15879], [136.8863, 35.15915], [136.88615, 35.15973], [136.8858, 35.16111], [136.8857, 35.16151], [136.88529, 35.16306], [136.88522, 35.16329], [136.88514, 35.16365], [136.88502, 35.16395], [136.88494, 35.16417], [136.88474, 35.16459], [136.88451, 35.16511], [136.88443, 35.16528], [136.88432, 35.16542], [136.88417, 35.16565], [136.88398, 35.16592], [136.88384, 35.1661], [136.88358, 35.16645], [136.88339, 35.16673], [136.88295, 35.16731], [136.88264, 35.16773], [136.88242, 35.16802], [136.88194, 35.16874]]}, "properties": {"id": "TRACK_TOKYO_0992", "line_name": "東海道新幹線", "station_group_ids": [], "mode": "shinkansen", "operator_id": "jr_central", "line_color": "#1F78FF", "tags": ["tokyo", "track_centerline"]}}, {"type": "Feature", "bbox": [136.91111, 35.09624, 136.92572, 35.12871], "geometry": {"type": "LineString", "coordinates": [[136.92572, 35.09624], [136.92559, 35.09651], [136.9248, 35.09804], [136.92426, 35.09911], [136.92379, 35.09993], [136.92361, 35.10027], [136.92339, 35.10071], [136.92327, 35.10098], [136.92305, 35.10141], [136.92267, 35.10211], [136.92232, 35.10277], [136.92216, 35.10308], [136.92184, 35.1037], [136.92153, 35.10426], [136.9213, 35.10472], [136.92129, 35.10475], [136.92109, 35.10513], [136.92098, 35.10532], [136.92078, 35.1057], [136.92033, 35.10653], [136.92013, 35.10691], [136.91982, 35.10749], [136.91938, 35.10835], [136.91913, 35.10881], [136.91881, 35.10944], [136.91867, 35.10971], [136.91831, 35.11039], [136.9181, 35.11079], [136.91798, 35.11105], [136.9176, 35.1119], [136.91759, 35.11191], [136.91749, 35.11215], [136.91739, 35.11243], [136.91694, 35.11354], [136.91664, 35.11434], [136.91658, 35.11447], [136.91654, 35.11458], [136.91583, 35.11639], [136.91568, 35.11678], [136.91558, 35.11705], [136.91543, 35.11747], [136.91541, 35.11752], [136.91524, 35.11798], [136.91504, 35.11852], [136.91473, 35.1193], [136.91462, 35.11959], [136.91447, 35.11997], [136.91414, 35.12082], [136.91398, 35.12124], [136.91346, 35.12255], [136.91305, 35.12367], [136.91291, 35.12399], [136.91253, 35.12502], [136.91215, 35.126], [136.91204, 35.12628], [136.912, 35.12637], [136.91186, 35.12675], [136.91155, 35.12756], [136.91137, 35.12804], [136.91111, 35.12871]]}, "properties": {"id": "TRACK_TOKYO_1093", "line_name": "東海道線", "station_group_ids": [], "mode": "rail", "operator_id": "jr_central", "line_color": "#F28E1C", "tags": ["tokyo", "track_centerline"]}}, {"type": "Feature", "bbox": [136.949005, 35.03576, 136.95451, 35.053952], "geometry": {"type": "LineString", "coordinates": [[136.95451, 35.03576], [136.95449, 35.03586], [136.95423, 35.03713], [136.95357, 35.0404], [136.95276, 35.04434], [136.95268, 35.04475], [136.95229, 35.04686], [136.95219, 35.04739], [136.95207, 35.04787], [136.95199, 35.04816], [136.95179, 35.04871], [136.95148, 35.04954], [136.95136, 35.04982], [136.9512, 35.05015], [136.95113, 35.0503], [136.95092, 35.0507], [136.95041, 35.05158], [136.949005, 35.053952]]}, "properties": {"id": "TRACK_TOKYO_1097", "line_name": "東海道線", "station_group_ids": [], "mode": "rail", "operator_id": "jr_central", "line_color": "#F28E1C", "tags": ["tokyo", "track_centerline"]}}, {"type": "Feature", "bbox": [136.89029, 35.14644, 136.89177, 35.14773], "geometry": {"type": "LineString", "coordinates": [[136.89177, 35.14644], [136.89148, 35.14665], [136.89115, 35.14689], [136.89086, 35.14714], [136.89055, 35.14744], [136.89029, 35.14773]]}, "properties": {"id": "TRACK_TOKYO_1098", "line_name": "東海道線", "station_group_ids": [], "mode": "rail", "operator_id": "jr_central", "line_color": "#F28E1C", "tags": ["tokyo", "track_centerline"]}}, {"type": "Feature", "bbox": [136.95451, 35.03497, 136.95465, 35.03576], "geometry": {"type": "LineString", "coordinates": [[136.95465, 35.03497], [136.95451, 35.03576]]}, "properties": {"id": "TRACK_TOKYO_1101", "line_name": "東海道線", "station_group_ids": [], "mode": "rail", "operator_id": "jr_central", "line_color": "#F28E1C", "tags": ["tokyo", "track_centerline"]}}, {"type": "Feature", "bbox": [136.89964, 35.14241, 136.90183, 35.14326], "geometry": {"type": "LineString", "coordinates": [[136.90183, 35.14241], [136.90122, 35.14265], [136.89964, 35.14326]]}, "properties": {"id": "TRACK_TOKYO_1102", "line_name": "東海道線", "station_group_ids": [], "mode": "rail", "operator_id": "jr_central", "line_color": "#F28E1C", "tags": ["tokyo", "track_centerline"]}}, {"type": "Feature", "bbox": [136.95465, 35.00938, 136.96141, 35.03497], "geometry": {"type": "LineString", "coordinates": [[136.96141, 35.00938], [136.96057, 35.01085], [136.96011, 35.01167], [136.95964, 35.01252], [136.95932, 35.01323], [136.9591, 35.01371], [136.95905, 35.01384], [136.95892, 35.01417], [136.95882, 35.01442], [136.95873, 35.0147], [136.95862, 35.01512], [136.95842, 35.01606], [136.9582, 35.01717], [136.95796, 35.01837], [136.95723, 35.02208], [136.95661, 35.0251], [136.95642, 35.02607], [136.95617, 35.02735], [136.95581, 35.02915], [136.95549, 35.03075], [136.95529, 35.03171], [136.95487, 35.03385], [136.95465, 35.03497]]}, "properties": {"id": "TRACK_TOKYO_1103", "line_name": "東海道線", "station_group_ids": [], "mode": "rail", "operator_id": "jr_central", "line_color": "#F28E1C", "tags": ["tokyo", "track_centerline"]}}, {"type": "Feature", "bbox": [136.93976, 35.06814, 136.9408, 35.07006], "geometry": {"type": "LineString", "coordinates": [[136.9408, 35.06814], [136.93976, 35.07006]]}, "properties": {"id": "TRACK_TOKYO_1106", "line_name": "東海道線", "station_group_ids": [], "mode": "rail", "operator_id": "jr_central", "line_color": "#F28E1C", "tags": ["tokyo", "track_centerline"]}}, {"type": "Feature", "bbox": [136.92697, 35.07006, 136.93976, 35.09397], "geometry": {"type": "LineString", "coordinates": [[136.93976, 35.07006], [136.93966, 35.07025], [136.93947, 35.07059], [136.93944, 35.07064], [136.9392, 35.07109], [136.93916, 35.07116], [136.93908, 35.07132], [136.93904, 35.0714], [136.93882, 35.0718], [136.93848, 35.07242], [136.93845, 35.07248], [136.93824, 35.07285], [136.93816, 35.073], [136.93768, 35.0739], [136.93711, 35.07495], [136.93688, 35.07537], [136.93667, 35.07575], [136.93597, 35.07705], [136.93566, 35.07762], [136.9356, 35.07772], [136.93549, 35.07793], [136.93543, 35.07805], [136.93509, 35.07867], [136.93504, 35.07877], [136.93491, 35.079], [136.93482, 35.07917], [136.93426, 35.0802], [136.93421, 35.0803], [136.93409, 35.08051], [136.93402, 35.08063], [136.93387, 35.08092], [136.93353, 35.08155], [136.93344, 35.08172], [136.93334, 35.08191], [136.93322, 35.08214], [136.93304, 35.08248], [136.93277, 35.08299], [136.93273, 35.08306], [136.93247, 35.08351], [136.93199, 35.08443], [136.93082, 35.08657], [136.93049, 35.08721], [136.92986, 35.08841], [136.92952, 35.08907], [136.92902, 35.09002], [136.92888, 35.09029], [136.92882, 35.09042], [136.92849, 35.09108], [136.92801, 35.09194], [136.92765, 35.09266], [136.92697, 35.09397]]}, "properties": {"id": "TRACK_TOKYO_1109", "line_name": "東海道線", "station_group_ids": [], "mode": "rail", "operator_id": "jr_central", "line_color": "#F28E1C", "tags": ["tokyo", "track_centerline"]}}, {"type": "Feature", "bbox": [136.88284, 35.14773, 136.89029, 35.17005], "geometry": {"type": "LineString", "coordinates": [[136.89029, 35.14773], [136.88998, 35.14816], [136.88978, 35.14846], [136.88961, 35.14874], [136.88935, 35.14923], [136.88915, 35.14968], [136.88884, 35.15053], [136.88877, 35.1508], [136.88842, 35.15216], [136.88835, 35.1525], [136.8881, 35.15345], [136.88807, 35.15361], [136.88802, 35.15383], [136.88788, 35.15434], [136.88769, 35.15505], [136.8875, 35.15582], [136.88733, 35.15655], [136.88715, 35.15732], [136.88701, 35.15796], [136.8868, 35.15883], [136.88671, 35.15919], [136.88654, 35.15983], [136.88635, 35.16077], [136.88624, 35.16109], [136.88621, 35.16122], [136.88598, 35.16211], [136.88588, 35.16254], [136.88572, 35.16309], [136.88556, 35.16368], [136.88547, 35.16405], [136.88525, 35.16465], [136.885, 35.1653], [136.88477, 35.16584], [136.88444, 35.16653], [136.88437, 35.16667], [136.88411, 35.16724], [136.88384, 35.16784], [136.88366, 35.16824], [136.8835, 35.16862], [136.88332, 35.16903], [136.88314, 35.16944], [136.88293, 35.16989], [136.88284, 35.17005]]}, "properties": {"id": "TRACK_TOKYO_1110", "line_name": "東海道線", "station_group_ids": [], "mode": "rail", "operator_id": "jr_central", "line_color": "#F28E1C", "tags": ["tokyo", "track_centerline"]}}, {"type": "Feature", "bbox": [136.91015, 35.12871, 136.91111, 35.13111], "geometry": {"type": "LineString", "coordinates": [[136.91111, 35.12871], [136.91091, 35.12921], [136.91053, 35.13018], [136.91015, 35.13111]]}, "properties": {"id": "TRACK_TOKYO_1114", "line_name": "東海道線", "station_group_ids": [], "mode": "rail", "operator_id": "jr_central", "line_color": "#F28E1C", "tags": ["tokyo", "track_centerline"]}}, {"type": "Feature", "bbox": [136.90183, 35.13111, 136.91015, 35.14241], "geometry": {"type": "LineString", "coordinates": [[136.91015, 35.13111], [136.91009, 35.13126], [136.90974, 35.13216], [136.90955, 35.13265], [136.90946, 35.13288], [136.90908, 35.13381], [136.90895, 35.13411], [136.90887, 35.1343], [136.90862, 35.13496], [136.90842, 35.13539], [136.90839, 35.13545], [136.90827, 35.13571], [136.90815, 35.13597], [136.90777, 35.13675], [136.90755, 35.13712], [136.90746, 35.13729], [136.90731, 35.1375], [136.90712, 35.13782], [136.90696, 35.13807], [136.90672, 35.13836], [136.90654, 35.1386], [136.90629, 35.1389], [136.90599, 35.13923], [136.90571, 35.13953], [136.9055, 35.13978], [136.90507, 35.14016], [136.90494, 35.14025], [136.9046, 35.14055], [136.9042, 35.14085], [136.90377, 35.14116], [136.90348, 35.14139], [136.90318, 35.14158], [136.90266, 35.14193], [136.90217, 35.14225], [136.90183, 35.14241]]}, "properties": {"id": "TRACK_TOKYO_1115", "line_name": "東海道線", "station_group_ids": [], "mode": "rail", "operator_id": "jr_central", "line_color": "#F28E1C", "tags": ["tokyo", "track_centerline"]}}, {"type": "Feature", "bbox": [136.92572, 35.09397, 136.92697, 35.09624], "geometry": {"type": "LineString", "coordinates": [[136.92697, 35.09397], [136.92599, 35.09574], [136.92572, 35.09624]]}, "properties": {"id": "TRACK_TOKYO_1116", "line_name": "東海道線", "station_group_ids": [], "mode": "rail", "operator_id": "jr_central", "line_color": "#F28E1C", "tags": ["tokyo", "track_centerline"]}}, {"type": "Feature", "bbox": [136.89177, 35.14326, 136.89964, 35.14644], "geometry": {"type": "LineString", "coordinates": [[136.89964, 35.14326], [136.8988, 35.14356], [136.89808, 35.14381], [136.89712, 35.14414], [136.89626, 35.14447], [136.89545, 35.14477], [136.89485, 35.14499], [136.89449, 35.14513], [136.8942, 35.14523], [136.89377, 35.1454], [136.89341, 35.14556], [136.89264, 35.14593], [136.89235, 35.14608], [136.89204, 35.14625], [136.89177, 35.14644]]}, "properties": {"id": "TRACK_TOKYO_1121", "line_name": "東海道線", "station_group_ids": [], "mode": "rail", "operator_id": "jr_central", "line_color": "#F28E1C", "tags": ["tokyo", "track_centerline"]}}, {"type": "Feature", "bbox": [136.9408, 35.054962, 136.948415, 35.06814], "geometry": {"type": "LineString", "coordinates": [[136.948415, 35.054962], [136.94719, 35.05711], [136.94649, 35.05831], [136.94639, 35.05848], [136.94535, 35.06018], [136.94355, 35.06321], [136.94282, 35.06444], [136.94278, 35.06452], [136.9426, 35.06482], [136.94232, 35.06529], [136.94223, 35.06545], [136.94185, 35.06618], [136.94131, 35.06718], [136.9413, 35.06722], [136.94118, 35.06742], [136.94114, 35.06751], [136.9408, 35.06814]]}, "properties": {"id": "TRACK_TOKYO_4466", "line_name": "東海道線", "station_group_ids": [], "mode": "rail", "operator_id": "jr_central", "line_color": "#F28E1C", "tags": ["tokyo", "track_centerline"]}}, {"type": "Feature", "bbox": [136.948415, 35.053952, 136.949005, 35.054962], "geometry": {"type": "LineString", "coordinates": [[136.949005, 35.053952], [136.94874, 35.05443], [136.948415, 35.054962]]}, "properties": {"id": "TRACK_TOKYO_4467", "line_name": "東海道線", "station_group_ids": [], "mode": "rail", "operator_id": "jr_central", "line_color": "#F28E1C", "tags": ["tokyo", "track_centerline"]}}]}