{"type": "FeatureCollection", "features": [{"type": "Feature", "bbox": [140.88245, 38.26243, 140.96898, 38.47974], "geometry": {"type": "LineString", "coordinates": [[140.88245, 38.26243], [140.88254, 38.26269], [140.88275, 38.26317], [140.88296, 38.26355], [140.88309, 38.26374], [140.88312, 38.26379], [140.88334, 38.26404], [140.88362, 38.26431], [140.8839, 38.26454], [140.88423, 38.26478], [140.8847, 38.26508], [140.88471, 38.26508], [140.88502, 38.26526], [140.88531, 38.26541], [140.8857, 38.26557], [140.88636, 38.26582], [140.88752, 38.26624], [140.88865, 38.26664], [140.89003, 38.26714], [140.89092, 38.26746], [140.89198, 38.26784], [140.89283, 38.26815], [140.89364, 38.26844], [140.89423, 38.26866], [140.89467, 38.26879], [140.89478, 38.26883], [140.8951, 38.26894], [140.89567, 38.2691], [140.89584, 38.26914], [140.89634, 38.26925], [140.89684, 38.26933], [140.89764, 38.26944], [140.89808, 38.26948], [140.89896, 38.26954], [140.90017, 38.2696], [140.90126, 38.26964], [140.90235, 38.26969], [140.90339, 38.26976], [140.90389, 38.26982], [140.90505, 38.26996], [140.90607, 38.27009], [140.90683, 38.27021], [140.90703, 38.27024], [140.90829, 38.27044], [140.90934, 38.27064], [140.91002, 38.27077], [140.91075, 38.27098], [140.91135, 38.27118], [140.91186, 38.2714], [140.91257, 38.27176], [140.91352, 38.2723], [140.91434, 38.27276], [140.91513, 38.27322], [140.91588, 38.27366], [140.91664, 38.27409], [140.91689, 38.27424], [140.91795, 38.27486], [140.91909, 38.27553], [140.92017, 38.27618], [140.92074, 38.27651], [140.92155, 38.277], [140.92219, 38.27736], [140.923, 38.27783], [140.92354, 38.27815], [140.924, 38.27842], [140.92469, 38.27883], [140.92519, 38.27912], [140.92562, 38.27938], [140.92583, 38.27951], [140.92649, 38.2799], [140.92725, 38.28034], [140.92763, 38.28057], [140.92816, 38.28089], [140.9285, 38.28108], [140.92896, 38.28136], [140.92959, 38.28174], [140.9299, 38.28192], [140.93031, 38.28216], [140.93083, 38.28246], [140.93137, 38.28279], [140.93174, 38.28301], [140.93227, 38.28332], [140.93278, 38.28362], [140.93326, 38.2839], [140.93378, 38.28421], [140.93432, 38.28453], [140.93458, 38.28468], [140.93485, 38.28483], [140.93527, 38.28508], [140.93568, 38.28532], [140.9361, 38.28557], [140.9366, 38.28587], [140.93713, 38.28618], [140.93787, 38.28662], [140.93842, 38.28695], [140.93896, 38.28726], [140.93952, 38.2876], [140.94048, 38.28817], [140.94124, 38.28862], [140.9421, 38.28911], [140.94256, 38.28939], [140.94307, 38.2897], [140.94344, 38.28991], [140.94354, 38.28998], [140.94374, 38.29011], [140.94428, 38.29045], [140.94469, 38.29071], [140.94521, 38.29103], [140.94585, 38.29145], [140.94648, 38.29186], [140.94706, 38.29225], [140.94745, 38.29251], [140.94809, 38.29294], [140.94858, 38.29326], [140.94899, 38.29354], [140.94941, 38.29383], [140.9499, 38.29418], [140.95015, 38.29435], [140.95031, 38.29448], [140.95063, 38.29473], [140.95106, 38.29508], [140.95124, 38.29524], [140.95176, 38.29574], [140.95191, 38.29587], [140.95222, 38.29617], [140.95258, 38.29654], [140.95297, 38.29696], [140.95345, 38.29746], [140.95395, 38.298], [140.95447, 38.29856], [140.95474, 38.29888], [140.95514, 38.29932], [140.95556, 38.29981], [140.95606, 38.30041], [140.95627, 38.30065], [140.95674, 38.30122], [140.95718, 38.30174], [140.95769, 38.30238], [140.95794, 38.30269], [140.95828, 38.30313], [140.95834, 38.30321], [140.95853, 38.30346], [140.95871, 38.30369], [140.95872, 38.30371], [140.9588, 38.30382], [140.95892, 38.30399], [140.9592, 38.30435], [140.95941, 38.30462], [140.95968, 38.30497], [140.95995, 38.30533], [140.96025, 38.30573], [140.96026, 38.30574], [140.96066, 38.3063], [140.96083, 38.3065], [140.96127, 38.30708], [140.96159, 38.30751], [140.96196, 38.308], [140.96212, 38.30822], [140.96232, 38.30848], [140.96233, 38.3085], [140.96261, 38.30886], [140.96284, 38.30917], [140.96306, 38.30945], [140.96312, 38.30953], [140.96335, 38.30984], [140.96351, 38.31007], [140.96377, 38.3104], [140.96409, 38.3109], [140.9644, 38.31138], [140.96472, 38.31187], [140.96499, 38.3123], [140.96523, 38.31273], [140.96528, 38.31282], [140.96548, 38.31318], [140.96574, 38.31369], [140.966, 38.31422], [140.96631, 38.31495], [140.96654, 38.31553], [140.96679, 38.3162], [140.96703, 38.31682], [140.96723, 38.31741], [140.96744, 38.3181], [140.96763, 38.31872], [140.96781, 38.31943], [140.96791, 38.31982], [140.96808, 38.32056], [140.96819, 38.32101], [140.96829, 38.32147], [140.96832, 38.3216], [140.96844, 38.3222], [140.96853, 38.32263], [140.96858, 38.32296], [140.96866, 38.3236], [140.96874, 38.32422], [140.96881, 38.32479], [140.96886, 38.32537], [140.96891, 38.326], [140.96895, 38.32645], [140.96897, 38.32689], [140.96898, 38.32721], [140.96896, 38.32762], [140.96894, 38.32842], [140.96891, 38.32895], [140.96887, 38.32973], [140.96884, 38.33045], [140.96883, 38.3306], [140.9688, 38.33108], [140.96877, 38.33154], [140.96876, 38.33192], [140.96876, 38.33194], [140.96875, 38.33199], [140.96874, 38.33234], [140.96872, 38.33277], [140.9687, 38.33321], [140.96868, 38.33364], [140.96865, 38.33398], [140.96865, 38.33425], [140.96864, 38.33429], [140.96862, 38.3346], [140.96862, 38.33461], [140.96862, 38.33464], [140.96861, 38.33531], [140.96861, 38.33579], [140.96858, 38.3363], [140.96855, 38.33705], [140.96849, 38.33795], [140.96842, 38.33884], [140.9684, 38.33928], [140.96838, 38.33944], [140.96837, 38.33949], [140.96833, 38.34017], [140.96833, 38.34022], [140.96829, 38.34074], [140.96826, 38.34125], [140.96821, 38.34211], [140.96816, 38.34295], [140.96809, 38.3442], [140.96804, 38.34488], [140.96798, 38.34588], [140.96795, 38.34675], [140.9679, 38.3475], [140.96785, 38.34844], [140.9678, 38.34918], [140.96775, 38.34988], [140.96772, 38.35033], [140.96767, 38.35122], [140.9676, 38.35204], [140.96755, 38.35294], [140.96745, 38.35435], [140.96736, 38.35602], [140.96731, 38.35682], [140.96728, 38.35732], [140.96728, 38.35736], [140.96728, 38.35738], [140.96723, 38.35807], [140.96723, 38.35811], [140.9672, 38.35848], [140.96715, 38.35945], [140.96714, 38.35955], [140.96709, 38.36029], [140.96704, 38.36147], [140.96702, 38.36194], [140.96697, 38.36268], [140.96693, 38.36319], [140.96693, 38.36324], [140.96692, 38.36336], [140.9669, 38.36371], [140.96688, 38.36414], [140.96687, 38.36438], [140.96685, 38.36466], [140.96682, 38.36509], [140.9668, 38.36535], [140.96679, 38.36551], [140.96678, 38.36577], [140.96677, 38.36589], [140.96676, 38.36609], [140.96676, 38.36614], [140.96675, 38.36644], [140.96671, 38.36682], [140.9667, 38.36694], [140.96669, 38.367], [140.96667, 38.36718], [140.96667, 38.36722], [140.96665, 38.36753], [140.96661, 38.3681], [140.9666, 38.36816], [140.96658, 38.36866], [140.96658, 38.36872], [140.96656, 38.36901], [140.96651, 38.36976], [140.96646, 38.37059], [140.96645, 38.37078], [140.96645, 38.37082], [140.96644, 38.37103], [140.96642, 38.37135], [140.9664, 38.37171], [140.96633, 38.37274], [140.96632, 38.37296], [140.9663, 38.37331], [140.96627, 38.37373], [140.96622, 38.37463], [140.96618, 38.37536], [140.96611, 38.37645], [140.96611, 38.37652], [140.9661, 38.37665], [140.96609, 38.37682], [140.96609, 38.37686], [140.96603, 38.37779], [140.96603, 38.37784], [140.96603, 38.37791], [140.96601, 38.37836], [140.96599, 38.37866], [140.96596, 38.37917], [140.96596, 38.37921], [140.96593, 38.37953], [140.9659, 38.37987], [140.96587, 38.38038], [140.96581, 38.38161], [140.96573, 38.38294], [140.96563, 38.3846], [140.96558, 38.38544], [140.96549, 38.38673], [140.9654, 38.38797], [140.96537, 38.38854], [140.96532, 38.38928], [140.96526, 38.39016], [140.96519, 38.39154], [140.96512, 38.39271], [140.96502, 38.39429], [140.96496, 38.39517], [140.96492, 38.39588], [140.96486, 38.39685], [140.96481, 38.39766], [140.96472, 38.39893], [140.96471, 38.39914], [140.96465, 38.40006], [140.96459, 38.40095], [140.96455, 38.40173], [140.9645, 38.40257], [140.96448, 38.40291], [140.96446, 38.40306], [140.96446, 38.40311], [140.96444, 38.40367], [140.96444, 38.40371], [140.96442, 38.40407], [140.96431, 38.40596], [140.96431, 38.406], [140.96428, 38.40644], [140.96426, 38.40679], [140.96425, 38.40706], [140.96424, 38.40712], [140.96423, 38.40733], [140.96419, 38.40798], [140.96415, 38.40864], [140.96412, 38.40925], [140.96409, 38.40974], [140.96409, 38.40979], [140.96407, 38.4102], [140.96404, 38.41036], [140.96404, 38.41045], [140.96404, 38.4105], [140.964, 38.41127], [140.964, 38.41131], [140.96398, 38.41172], [140.96386, 38.41343], [140.96384, 38.41379], [140.96383, 38.41386], [140.96382, 38.41391], [140.9638, 38.41401], [140.96379, 38.41407], [140.96376, 38.41457], [140.96372, 38.41525], [140.96371, 38.41538], [140.96369, 38.41571], [140.96364, 38.41661], [140.9636, 38.41731], [140.96356, 38.41812], [140.96347, 38.41962], [140.96345, 38.4201], [140.96342, 38.42069], [140.96338, 38.42156], [140.96332, 38.42237], [140.96332, 38.42245], [140.96328, 38.42322], [140.96323, 38.42399], [140.96315, 38.42514], [140.96309, 38.42599], [140.96302, 38.42696], [140.96295, 38.42802], [140.96292, 38.42887], [140.96286, 38.42973], [140.96284, 38.43], [140.96281, 38.43048], [140.96275, 38.43141], [140.96275, 38.43145], [140.96272, 38.43197], [140.96268, 38.43255], [140.96262, 38.43338], [140.96257, 38.43423], [140.96251, 38.43517], [140.96247, 38.43594], [140.9624, 38.43707], [140.96232, 38.43856], [140.96223, 38.43992], [140.9622, 38.44045], [140.9622, 38.44052], [140.96219, 38.44065], [140.96214, 38.44162], [140.96209, 38.44263], [140.96203, 38.44343], [140.962, 38.44395], [140.96199, 38.44407], [140.96196, 38.44446], [140.96193, 38.44493], [140.96191, 38.44514], [140.9619, 38.44553], [140.96186, 38.44614], [140.96177, 38.44745], [140.9617, 38.44854], [140.96165, 38.44929], [140.96163, 38.44959], [140.96156, 38.45069], [140.96154, 38.45103], [140.96152, 38.45138], [140.96151, 38.45159], [140.9615, 38.4518], [140.96149, 38.45199], [140.96147, 38.45222], [140.96143, 38.45288], [140.96139, 38.45357], [140.96133, 38.45465], [140.96132, 38.45485], [140.96128, 38.45532], [140.96128, 38.45554], [140.96127, 38.45575], [140.96126, 38.45599], [140.96125, 38.4562], [140.96123, 38.4566], [140.96116, 38.45764], [140.96111, 38.4583], [140.9611, 38.45834], [140.9611, 38.45848], [140.96105, 38.45913], [140.96105, 38.45918], [140.96105, 38.4592], [140.96097, 38.46027], [140.96093, 38.46094], [140.96092, 38.46099], [140.9609, 38.46133], [140.96088, 38.46167], [140.96088, 38.46169], [140.96085, 38.46206], [140.96081, 38.46285], [140.96075, 38.46377], [140.96072, 38.46424], [140.96071, 38.46429], [140.9607, 38.4644], [140.96069, 38.46452], [140.96068, 38.46484], [140.96067, 38.46511], [140.96064, 38.46543], [140.96064, 38.46546], [140.96063, 38.46564], [140.96061, 38.46602], [140.96061, 38.46606], [140.96057, 38.46665], [140.96052, 38.46758], [140.96052, 38.46762], [140.96049, 38.46805], [140.96048, 38.46809], [140.96048, 38.4681], [140.96048, 38.46816], [140.96047, 38.46828], [140.96046, 38.46845], [140.96044, 38.46866], [140.96043, 38.46885], [140.96041, 38.46912], [140.96041, 38.46916], [140.96035, 38.46997], [140.96027, 38.4711], [140.9602, 38.47222], [140.96017, 38.47261], [140.96013, 38.4732], [140.96013, 38.47322], [140.96013, 38.47328], [140.96013, 38.47334], [140.96006, 38.47444], [140.96003, 38.47482], [140.96003, 38.47488], [140.95999, 38.47558], [140.95991, 38.47669], [140.95983, 38.47783], [140.95981, 38.47802], [140.95981, 38.47807], [140.95978, 38.4784], [140.95977, 38.47861], [140.95976, 38.47866], [140.95974, 38.47895], [140.9597, 38.47972], [140.9597, 38.47974]]}, "properties": {"id": "GEOM_TOKYO_2990", "route_id": "R_86450D72", "route_name": null, "route_color": "#2D9C5B", "route_text_color": null, "line_name": "東北新幹線", "operator_id": "jr_east", "representation": "service_path", "min_zoom": 0, "max_zoom": 24, "offset_rank": 0}}, {"type": "Feature", "bbox": [140.95884, 38.47974, 140.96747, 38.56948], "geometry": {"type": "LineString", "coordinates": [[140.9597, 38.47974], [140.95968, 38.48008], [140.95962, 38.48119], [140.95954, 38.48232], [140.95952, 38.4827], [140.95951, 38.48273], [140.95951, 38.4828], [140.95946, 38.48341], [140.95938, 38.48456], [140.9593, 38.48567], [140.95922, 38.4868], [140.95915, 38.48793], [140.95911, 38.48846], [140.9591, 38.48854], [140.95908, 38.4888], [140.95901, 38.48967], [140.95889, 38.49101], [140.95885, 38.49166], [140.95884, 38.4921], [140.95884, 38.49289], [140.95884, 38.49292], [140.95884, 38.4931], [140.95884, 38.49327], [140.95884, 38.49357], [140.95884, 38.49361], [140.95884, 38.49371], [140.95884, 38.49406], [140.95885, 38.49408], [140.95886, 38.49459], [140.95889, 38.49546], [140.95893, 38.49642], [140.95895, 38.49685], [140.95896, 38.49733], [140.95899, 38.49797], [140.95899, 38.49814], [140.959, 38.49818], [140.95901, 38.49862], [140.95904, 38.49913], [140.95905, 38.49932], [140.95906, 38.49939], [140.95909, 38.5], [140.95912, 38.50053], [140.95916, 38.50111], [140.95917, 38.5013], [140.95917, 38.50133], [140.95917, 38.50137], [140.95919, 38.50162], [140.95923, 38.50216], [140.95924, 38.5022], [140.95924, 38.50227], [140.95925, 38.50253], [140.95926, 38.50272], [140.95925, 38.50295], [140.95925, 38.50297], [140.95924, 38.50307], [140.95925, 38.50331], [140.95927, 38.50363], [140.95927, 38.50406], [140.95931, 38.50453], [140.95933, 38.50495], [140.95937, 38.50534], [140.95937, 38.50548], [140.95937, 38.50583], [140.95939, 38.50622], [140.95942, 38.50664], [140.95944, 38.50706], [140.95946, 38.50744], [140.95948, 38.5078], [140.9595, 38.50828], [140.95952, 38.5088], [140.95954, 38.50913], [140.95956, 38.50955], [140.95958, 38.50997], [140.95961, 38.51041], [140.95964, 38.51088], [140.95967, 38.51115], [140.95967, 38.51126], [140.95967, 38.5113], [140.95966, 38.51145], [140.95967, 38.51149], [140.95966, 38.5116], [140.95967, 38.5119], [140.95968, 38.51224], [140.95969, 38.51243], [140.9597, 38.51247], [140.95973, 38.51283], [140.95973, 38.51291], [140.95977, 38.51326], [140.95979, 38.5135], [140.95978, 38.51359], [140.95979, 38.5139], [140.95979, 38.51394], [140.95983, 38.51449], [140.95985, 38.51483], [140.95986, 38.51498], [140.95986, 38.51501], [140.95986, 38.51521], [140.95987, 38.51527], [140.95987, 38.51545], [140.95988, 38.51575], [140.9599, 38.5161], [140.95992, 38.51614], [140.95992, 38.51623], [140.95992, 38.51628], [140.95992, 38.51649], [140.95993, 38.51655], [140.95994, 38.51677], [140.95996, 38.51708], [140.95998, 38.51744], [140.96, 38.51765], [140.96001, 38.51793], [140.96003, 38.51838], [140.96005, 38.51851], [140.96005, 38.51861], [140.96009, 38.51927], [140.96014, 38.52039], [140.96016, 38.52063], [140.96022, 38.52162], [140.96027, 38.52243], [140.9603, 38.52306], [140.96036, 38.52411], [140.96039, 38.52449], [140.96041, 38.52485], [140.96044, 38.52595], [140.96051, 38.52691], [140.96059, 38.52803], [140.96065, 38.52915], [140.96066, 38.52955], [140.96071, 38.53021], [140.96076, 38.53123], [140.96078, 38.53207], [140.96082, 38.53285], [140.96087, 38.5335], [140.96091, 38.53401], [140.96097, 38.53533], [140.961, 38.53608], [140.96106, 38.53732], [140.96112, 38.5383], [140.96117, 38.53941], [140.96126, 38.54092], [140.9613, 38.54171], [140.96134, 38.54251], [140.96135, 38.54254], [140.96137, 38.54291], [140.96139, 38.54345], [140.96147, 38.54432], [140.96155, 38.54492], [140.96161, 38.54533], [140.96181, 38.54652], [140.96201, 38.54739], [140.96223, 38.54845], [140.96246, 38.54934], [140.96264, 38.55018], [140.96284, 38.55097], [140.96297, 38.55159], [140.96302, 38.55182], [140.96313, 38.55233], [140.96342, 38.55351], [140.96372, 38.55469], [140.9639, 38.55544], [140.96421, 38.55666], [140.96445, 38.55756], [140.96471, 38.55863], [140.9649, 38.55931], [140.96505, 38.55993], [140.96524, 38.56065], [140.96551, 38.56164], [140.96578, 38.56272], [140.96602, 38.56366], [140.96618, 38.5643], [140.96632, 38.56495], [140.96653, 38.56576], [140.96672, 38.5665], [140.96696, 38.56746], [140.9671, 38.568], [140.96734, 38.56888], [140.96747, 38.56948]]}, "properties": {"id": "GEOM_TOKYO_2991", "route_id": "R_86450D72", "route_name": null, "route_color": "#2D9C5B", "route_text_color": null, "line_name": "東北新幹線", "operator_id": "jr_east", "representation": "service_path", "min_zoom": 0, "max_zoom": 24, "offset_rank": 0}}, {"type": "Feature", "bbox": [140.96819, 38.57235, 141.07063, 38.74718], "geometry": {"type": "LineString", "coordinates": [[141.07063, 38.74718], [141.07022, 38.74646], [141.06963, 38.7454], [141.06934, 38.74488], [141.06904, 38.74435], [141.06874, 38.74383], [141.06868, 38.74372], [141.06814, 38.74277], [141.06784, 38.74222], [141.06755, 38.74169], [141.06724, 38.74116], [141.06681, 38.74038], [141.06637, 38.7396], [141.06607, 38.73905], [141.06579, 38.73853], [141.06546, 38.73795], [141.06488, 38.73691], [141.06429, 38.73584], [141.06411, 38.73551], [141.06397, 38.73527], [141.0637, 38.73477], [141.06341, 38.73426], [141.06334, 38.73414], [141.06318, 38.73386], [141.0631, 38.73373], [141.06304, 38.73362], [141.06261, 38.73284], [141.06251, 38.73267], [141.0623, 38.7323], [141.06211, 38.73195], [141.06203, 38.73182], [141.06192, 38.73162], [141.06184, 38.73147], [141.06163, 38.73109], [141.06144, 38.73075], [141.06136, 38.73062], [141.06132, 38.73055], [141.06103, 38.73004], [141.06073, 38.72949], [141.06043, 38.72897], [141.06013, 38.72842], [141.05985, 38.72791], [141.05954, 38.72737], [141.05923, 38.72684], [141.05893, 38.72629], [141.05864, 38.72578], [141.05806, 38.72473], [141.05747, 38.72367], [141.05676, 38.72242], [141.05624, 38.72152], [141.05549, 38.72025], [141.05515, 38.7196], [141.05466, 38.71877], [141.0542, 38.71795], [141.05372, 38.71713], [141.05326, 38.71633], [141.05322, 38.71627], [141.05277, 38.71549], [141.05231, 38.71466], [141.05184, 38.71383], [141.05138, 38.713], [141.05091, 38.71215], [141.05047, 38.71136], [141.05004, 38.71058], [141.04955, 38.70972], [141.04908, 38.70889], [141.04862, 38.70807], [141.04809, 38.70715], [141.048, 38.70698], [141.04793, 38.70686], [141.04741, 38.70591], [141.04679, 38.70486], [141.0462, 38.70381], [141.04601, 38.7035], [141.0456, 38.70276], [141.04544, 38.70249], [141.04498, 38.70169], [141.04459, 38.70103], [141.04393, 38.69985], [141.04369, 38.69941], [141.04319, 38.69852], [141.04258, 38.69745], [141.0423, 38.69695], [141.04219, 38.69676], [141.04159, 38.69568], [141.0411, 38.69484], [141.04064, 38.69401], [141.04017, 38.6932], [141.03969, 38.69234], [141.03908, 38.69125], [141.03848, 38.6902], [141.03826, 38.68982], [141.03818, 38.68967], [141.03806, 38.68945], [141.03761, 38.68867], [141.03713, 38.68782], [141.03666, 38.687], [141.03617, 38.68615], [141.03584, 38.68559], [141.03549, 38.68495], [141.03541, 38.68481], [141.03519, 38.68444], [141.03503, 38.68416], [141.03494, 38.684], [141.03488, 38.68389], [141.03487, 38.68386], [141.03472, 38.68362], [141.03458, 38.68338], [141.0345, 38.68323], [141.03429, 38.68283], [141.03426, 38.68279], [141.03418, 38.68264], [141.034, 38.68233], [141.0337, 38.68178], [141.03355, 38.68154], [141.03339, 38.68127], [141.03315, 38.68081], [141.0331, 38.68072], [141.03295, 38.68046], [141.0325, 38.67966], [141.03226, 38.67923], [141.03196, 38.67868], [141.03191, 38.6786], [141.03176, 38.67835], [141.0316, 38.67805], [141.03156, 38.67798], [141.03152, 38.67792], [141.03141, 38.6777], [141.0313, 38.67752], [141.03061, 38.67629], [141.03059, 38.67625], [141.03056, 38.6762], [141.03043, 38.67595], [141.03014, 38.67542], [141.02986, 38.6749], [141.02955, 38.67435], [141.02925, 38.67383], [141.02902, 38.67343], [141.02894, 38.67328], [141.02869, 38.67286], [141.02864, 38.67277], [141.02833, 38.67223], [141.02808, 38.67178], [141.02803, 38.6717], [141.02789, 38.67146], [141.02769, 38.6711], [141.0276, 38.67093], [141.0275, 38.67076], [141.02711, 38.67008], [141.02683, 38.6696], [141.02675, 38.66948], [141.02656, 38.6692], [141.02629, 38.66874], [141.02612, 38.66844], [141.026, 38.66825], [141.02591, 38.66808], [141.02555, 38.66746], [141.02537, 38.66714], [141.02525, 38.66694], [141.02496, 38.66644], [141.02495, 38.66643], [141.02453, 38.66572], [141.02436, 38.66542], [141.02413, 38.665], [141.0239, 38.66462], [141.0238, 38.66444], [141.02327, 38.6635], [141.02293, 38.6629], [141.02244, 38.66206], [141.02224, 38.66171], [141.02203, 38.66132], [141.02179, 38.66089], [141.02165, 38.66065], [141.02118, 38.6598], [141.02085, 38.65919], [141.0196, 38.65696], [141.01704, 38.65245], [141.01499, 38.64884], [141.01445, 38.64792], [141.01361, 38.64638], [141.0124, 38.64426], [141.0123, 38.64408], [141.01112, 38.64204], [141.00942, 38.63905], [141.00885, 38.63805], [141.00785, 38.63629], [141.00773, 38.63609], [141.00742, 38.63554], [141.00682, 38.63456], [141.00643, 38.63397], [141.00548, 38.63261], [141.0053, 38.63234], [141.00497, 38.63186], [141.00387, 38.63026], [141.00252, 38.62836], [141.00155, 38.62703], [141.0009, 38.62612], [141.00003, 38.6249], [140.99942, 38.62405], [140.99925, 38.62381], [140.99795, 38.62203], [140.99654, 38.62009], [140.99642, 38.61992], [140.99611, 38.61949], [140.99606, 38.6194], [140.99571, 38.61893], [140.99536, 38.61841], [140.99504, 38.61796], [140.99502, 38.61793], [140.99466, 38.6174], [140.99432, 38.61692], [140.99395, 38.6164], [140.99361, 38.61593], [140.99325, 38.61541], [140.99291, 38.61493], [140.99255, 38.61441], [140.99222, 38.61395], [140.99185, 38.61342], [140.99153, 38.61296], [140.99115, 38.61242], [140.99081, 38.61195], [140.99044, 38.61143], [140.9901, 38.61096], [140.98983, 38.61058], [140.98974, 38.61044], [140.9894, 38.60996], [140.98927, 38.60977], [140.98902, 38.60943], [140.98869, 38.60896], [140.98833, 38.60843], [140.98799, 38.60797], [140.98762, 38.60745], [140.98729, 38.60697], [140.98693, 38.60645], [140.9866, 38.60598], [140.98624, 38.60546], [140.98591, 38.60498], [140.98554, 38.60446], [140.9852, 38.60399], [140.98485, 38.60347], [140.9845, 38.60299], [140.98413, 38.60247], [140.9838, 38.60199], [140.98377, 38.60195], [140.98343, 38.60148], [140.98309, 38.601], [140.98273, 38.60048], [140.98239, 38.6], [140.98203, 38.59948], [140.9817, 38.59902], [140.98134, 38.59851], [140.981, 38.59802], [140.98064, 38.5975], [140.98029, 38.59702], [140.97991, 38.59649], [140.97958, 38.59602], [140.97921, 38.59549], [140.97888, 38.59501], [140.97851, 38.59449], [140.97825, 38.59413], [140.97817, 38.59401], [140.97781, 38.59349], [140.97747, 38.59301], [140.97709, 38.59249], [140.97676, 38.59203], [140.97638, 38.59151], [140.97605, 38.59102], [140.97569, 38.5905], [140.97536, 38.59002], [140.975, 38.58951], [140.97483, 38.58927], [140.97467, 38.58903], [140.97449, 38.58876], [140.9743, 38.5885], [140.97413, 38.58824], [140.97397, 38.58802], [140.97378, 38.58776], [140.97361, 38.58751], [140.97344, 38.58728], [140.97327, 38.58704], [140.97311, 38.58679], [140.97292, 38.58645], [140.97282, 38.58627], [140.97274, 38.5861], [140.97266, 38.58595], [140.97255, 38.5857], [140.97239, 38.58541], [140.97221, 38.58509], [140.97208, 38.58484], [140.97189, 38.58444], [140.97167, 38.58396], [140.97143, 38.5834], [140.97121, 38.58284], [140.97098, 38.58227], [140.97079, 38.58179], [140.97057, 38.58118], [140.97044, 38.58076], [140.97023, 38.58004], [140.9701, 38.57958], [140.96997, 38.57906], [140.96989, 38.5788], [140.96978, 38.5784], [140.96966, 38.57792], [140.9696, 38.57767], [140.96951, 38.57731], [140.96938, 38.5768], [140.96922, 38.5762], [140.96906, 38.57567], [140.96891, 38.57511], [140.96876, 38.57453], [140.96861, 38.57393], [140.96838, 38.57313], [140.96819, 38.57235]]}, "properties": {"id": "GEOM_TOKYO_2992", "route_id": "R_86450D72", "route_name": null, "route_color": "#2D9C5B", "route_text_color": null, "line_name": "東北新幹線", "operator_id": "jr_east", "representation": "service_path", "min_zoom": 0, "max_zoom": 24, "offset_rank": 0}}, {"type": "Feature", "bbox": [140.96747, 38.56948, 140.96819, 38.57235], "geometry": {"type": "LineString", "coordinates": [[140.96747, 38.56948], [140.96771, 38.57044], [140.96778, 38.57073], [140.96819, 38.57235]]}, "properties": {"id": "GEOM_TOKYO_2993", "route_id": "R_86450D72", "route_name": null, "route_color": "#2D9C5B", "route_text_color": null, "line_name": "東北新幹線", "operator_id": "jr_east", "representation": "service_path", "min_zoom": 0, "max_zoom": 24, "offset_rank": 0}}, {"type": "Feature", "bbox": [141.07063, 38.74718, 141.07251, 38.75052], "geometry": {"type": "LineString", "coordinates": [[141.07251, 38.75052], [141.07157, 38.74885], [141.07122, 38.74824], [141.071, 38.74784], [141.07086, 38.74759], [141.07074, 38.74738], [141.07063, 38.74718]]}, "properties": {"id": "GEOM_TOKYO_2994", "route_id": "R_86450D72", "route_name": null, "route_color": "#2D9C5B", "route_text_color": null, "line_name": "東北新幹線", "operator_id": "jr_east", "representation": "service_path", "min_zoom": 0, "max_zoom": 24, "offset_rank": 0}}, {"type": "Feature", "bbox": [141.07251, 38.75052, 141.13841, 38.92493], "geometry": {"type": "LineString", "coordinates": [[141.07251, 38.75052], [141.07295, 38.75124], [141.07355, 38.75231], [141.07392, 38.75292], [141.07406, 38.75314], [141.07428, 38.75348], [141.07471, 38.75415], [141.07527, 38.75502], [141.0757, 38.75573], [141.07607, 38.75636], [141.07647, 38.75711], [141.07707, 38.75817], [141.07751, 38.75897], [141.07787, 38.75962], [141.07832, 38.76042], [141.07871, 38.76112], [141.0788, 38.76129], [141.07908, 38.7618], [141.0794, 38.76237], [141.07965, 38.7628], [141.07997, 38.76336], [141.08023, 38.76383], [141.08054, 38.76443], [141.08099, 38.76523], [141.08146, 38.76608], [141.08201, 38.76703], [141.08249, 38.76791], [141.08287, 38.76856], [141.08328, 38.76927], [141.0834, 38.76949], [141.08379, 38.7702], [141.08428, 38.77108], [141.08469, 38.7718], [141.08508, 38.7725], [141.08552, 38.77333], [141.08601, 38.77418], [141.08657, 38.77516], [141.0871, 38.77611], [141.0876, 38.77703], [141.088, 38.77769], [141.08805, 38.77778], [141.0885, 38.77862], [141.0889, 38.77937], [141.0892, 38.77993], [141.08954, 38.78058], [141.08984, 38.78115], [141.09019, 38.78185], [141.09054, 38.78259], [141.09085, 38.78331], [141.09114, 38.784], [141.09149, 38.78483], [141.09182, 38.78573], [141.09196, 38.7861], [141.09211, 38.78653], [141.09234, 38.78733], [141.09257, 38.78808], [141.09284, 38.78893], [141.09314, 38.78993], [141.09365, 38.79155], [141.094, 38.79272], [141.09435, 38.7939], [141.09453, 38.79457], [141.09473, 38.79529], [141.09521, 38.79683], [141.09556, 38.79804], [141.09603, 38.79981], [141.09641, 38.80119], [141.09681, 38.80255], [141.09704, 38.80335], [141.09714, 38.80371], [141.09754, 38.80509], [141.09769, 38.80563], [141.09778, 38.80595], [141.09793, 38.80653], [141.09811, 38.80714], [141.09835, 38.80795], [141.09848, 38.80837], [141.09871, 38.80914], [141.09907, 38.81035], [141.09917, 38.8107], [141.09933, 38.81123], [141.09956, 38.81201], [141.09989, 38.81316], [141.10004, 38.81368], [141.10061, 38.81561], [141.10068, 38.81583], [141.1009, 38.81663], [141.1014, 38.81827], [141.10146, 38.81848], [141.10188, 38.81997], [141.10206, 38.82059], [141.10229, 38.82133], [141.10262, 38.82246], [141.10286, 38.82329], [141.103, 38.82375], [141.10321, 38.82452], [141.10345, 38.82529], [141.10371, 38.82621], [141.10397, 38.82699], [141.10433, 38.82819], [141.10437, 38.82835], [141.10453, 38.82886], [141.10475, 38.82965], [141.10506, 38.83063], [141.10542, 38.83179], [141.10552, 38.83233], [141.10585, 38.83334], [141.10621, 38.83452], [141.10652, 38.83562], [141.10671, 38.83625], [141.10722, 38.83777], [141.10735, 38.83814], [141.10839, 38.8412], [141.10868, 38.84205], [141.10871, 38.84214], [141.11015, 38.84644], [141.11108, 38.84925], [141.11124, 38.84969], [141.11224, 38.85266], [141.1137, 38.85705], [141.11414, 38.85839], [141.11495, 38.86084], [141.11598, 38.86396], [141.116, 38.86401], [141.11624, 38.86474], [141.11699, 38.86694], [141.11834, 38.87084], [141.11837, 38.87093], [141.1196, 38.87453], [141.1205, 38.87713], [141.12136, 38.87953], [141.12139, 38.87961], [141.12151, 38.87992], [141.1216, 38.88007], [141.1217, 38.88032], [141.12177, 38.8805], [141.12231, 38.88192], [141.12289, 38.88336], [141.12297, 38.88355], [141.12378, 38.88561], [141.12452, 38.88736], [141.12537, 38.88939], [141.12643, 38.8919], [141.12715, 38.89359], [141.12795, 38.89561], [141.12814, 38.89608], [141.12832, 38.89664], [141.12868, 38.89799], [141.12917, 38.89977], [141.12928, 38.90015], [141.1297, 38.90167], [141.13041, 38.90426], [141.13101, 38.90637], [141.13176, 38.90894], [141.1321, 38.91002], [141.13214, 38.91017], [141.1322, 38.91036], [141.13223, 38.91047], [141.13263, 38.91165], [141.13299, 38.91265], [141.13363, 38.9141], [141.13371, 38.91427], [141.13505, 38.9173], [141.13513, 38.91752], [141.13557, 38.9185], [141.13571, 38.91885], [141.13592, 38.91932], [141.13604, 38.91957], [141.13628, 38.92012], [141.13655, 38.92074], [141.13685, 38.92136], [141.13839, 38.92488], [141.13841, 38.92493]]}, "properties": {"id": "GEOM_TOKYO_2996", "route_id": "R_86450D72", "route_name": null, "route_color": "#2D9C5B", "route_text_color": null, "line_name": "東北新幹線", "operator_id": "jr_east", "representation": "service_path", "min_zoom": 0, "max_zoom": 24, "offset_rank": 0}}, {"type": "Feature", "bbox": [140.88181, 38.25865, 140.88245, 38.26243], "geometry": {"type": "LineString", "coordinates": [[140.88181, 38.25865], [140.88207, 38.26086], [140.88229, 38.26195], [140.88245, 38.26243]]}, "properties": {"id": "GEOM_TOKYO_2998", "route_id": "R_86450D72", "route_name": null, "route_color": "#2D9C5B", "route_text_color": null, "line_name": "東北新幹線", "operator_id": "jr_east", "representation": "service_path", "min_zoom": 0, "max_zoom": 24, "offset_rank": 0}}, {"type": "Feature", "bbox": [140.88181, 38.20987, 140.89408, 38.25865], "geometry": {"type": "LineString", "coordinates": [[140.88274, 38.20987], [140.88274, 38.21075], [140.88269, 38.21197], [140.88269, 38.21271], [140.88268, 38.21355], [140.88269, 38.21434], [140.88273, 38.21474], [140.88278, 38.2152], [140.88282, 38.21553], [140.88286, 38.21575], [140.88289, 38.21592], [140.88298, 38.21654], [140.88313, 38.21735], [140.88326, 38.21798], [140.88338, 38.21859], [140.88349, 38.21912], [140.88365, 38.21984], [140.88375, 38.22025], [140.88389, 38.22088], [140.88403, 38.22147], [140.88421, 38.22217], [140.88435, 38.22274], [140.88454, 38.22349], [140.88483, 38.22462], [140.88486, 38.22473], [140.88508, 38.22563], [140.88529, 38.22639], [140.88546, 38.22708], [140.88565, 38.22789], [140.88579, 38.22841], [140.88604, 38.22933], [140.88622, 38.22996], [140.88642, 38.23057], [140.88677, 38.23144], [140.88703, 38.232], [140.88723, 38.23236], [140.88749, 38.23269], [140.88781, 38.23306], [140.88796, 38.23318], [140.88812, 38.23333], [140.88848, 38.23362], [140.88916, 38.23409], [140.88958, 38.23439], [140.89002, 38.23469], [140.89022, 38.23482], [140.89081, 38.23523], [140.89151, 38.23572], [140.89221, 38.2362], [140.89251, 38.23642], [140.89281, 38.23666], [140.89318, 38.23703], [140.89347, 38.23739], [140.89372, 38.2377], [140.89383, 38.23788], [140.89391, 38.2381], [140.89399, 38.23835], [140.89405, 38.23873], [140.89408, 38.23906], [140.89406, 38.23948], [140.89397, 38.23992], [140.89382, 38.2405], [140.89365, 38.24104], [140.89352, 38.2415], [140.8933, 38.24225], [140.89328, 38.24231], [140.89303, 38.24321], [140.89284, 38.24382], [140.89259, 38.24465], [140.89232, 38.2456], [140.89202, 38.24656], [140.89193, 38.24678], [140.8918, 38.24697], [140.89163, 38.2472], [140.89134, 38.24754], [140.89109, 38.24781], [140.89056, 38.24826], [140.89014, 38.24859], [140.88951, 38.24908], [140.88888, 38.24955], [140.88828, 38.25002], [140.88812, 38.25015], [140.88729, 38.25078], [140.88653, 38.25136], [140.88605, 38.25173], [140.88524, 38.25236], [140.88445, 38.25297], [140.88425, 38.25317], [140.88385, 38.25354], [140.88346, 38.25392], [140.88318, 38.25422], [140.88298, 38.25445], [140.88288, 38.25457], [140.88278, 38.25472], [140.88263, 38.25495], [140.88258, 38.25505], [140.88245, 38.25528], [140.88231, 38.25558], [140.88225, 38.25573], [140.88213, 38.25607], [140.88206, 38.2563], [140.88202, 38.25646], [140.88199, 38.25661], [140.8819, 38.25711], [140.88184, 38.25749], [140.88181, 38.25794], [140.88181, 38.25861], [140.88181, 38.25865]]}, "properties": {"id": "GEOM_TOKYO_3000", "route_id": "R_86450D72", "route_name": null, "route_color": "#2D9C5B", "route_text_color": null, "line_name": "東北新幹線", "operator_id": "jr_east", "representation": "service_path", "min_zoom": 0, "max_zoom": 24, "offset_rank": 0}}, {"type": "Feature", "bbox": [141.06419, 38.54147, 141.06434, 38.54312], "geometry": {"type": "LineString", "coordinates": [[141.06419, 38.54312], [141.0642, 38.54304], [141.06421, 38.54286], [141.06434, 38.54147]]}, "properties": {"id": "GEOM_TOKYO_3060", "route_id": "R_20E64CE3", "route_name": null, "route_color": "#3AA76D", "route_text_color": null, "line_name": "東北線", "operator_id": "jr_east", "representation": "service_path", "min_zoom": 0, "max_zoom": 24, "offset_rank": 0}}, {"type": "Feature", "bbox": [141.06389, 38.54312, 141.06419, 38.54641], "geometry": {"type": "LineString", "coordinates": [[141.06389, 38.54641], [141.06397, 38.54551], [141.06401, 38.54507], [141.06419, 38.54312]]}, "properties": {"id": "GEOM_TOKYO_3061", "route_id": "R_20E64CE3", "route_name": null, "route_color": "#3AA76D", "route_text_color": null, "line_name": "東北線", "operator_id": "jr_east", "representation": "service_path", "min_zoom": 0, "max_zoom": 24, "offset_rank": 0}}, {"type": "Feature", "bbox": [141.06434, 38.53985, 141.06449, 38.54147], "geometry": {"type": "LineString", "coordinates": [[141.06434, 38.54147], [141.06449, 38.53985]]}, "properties": {"id": "GEOM_TOKYO_3062", "route_id": "R_20E64CE3", "route_name": null, "route_color": "#3AA76D", "route_text_color": null, "line_name": "東北線", "operator_id": "jr_east", "representation": "service_path", "min_zoom": 0, "max_zoom": 24, "offset_rank": 0}}, {"type": "Feature", "bbox": [141.07552, 38.47541, 141.09912, 38.51191], "geometry": {"type": "LineString", "coordinates": [[141.07552, 38.51191], [141.07645, 38.51065], [141.07659, 38.51045], [141.07717, 38.50965], [141.07857, 38.50783], [141.08007, 38.50584], [141.08155, 38.50384], [141.08221, 38.50295], [141.0823, 38.50282], [141.08247, 38.5026], [141.08333, 38.50142], [141.08444, 38.49992], [141.08576, 38.49816], [141.08619, 38.49757], [141.08671, 38.49685], [141.08715, 38.49627], [141.08734, 38.49597], [141.08747, 38.49577], [141.08757, 38.49555], [141.08765, 38.49531], [141.08775, 38.4949], [141.08785, 38.49444], [141.08788, 38.49408], [141.08789, 38.49371], [141.0879, 38.49292], [141.08792, 38.49262], [141.08796, 38.4923], [141.08802, 38.49202], [141.08814, 38.49155], [141.08823, 38.49131], [141.08839, 38.49094], [141.08853, 38.49068], [141.08875, 38.49035], [141.08913, 38.48985], [141.08926, 38.48971], [141.08933, 38.48964], [141.08961, 38.48939], [141.08999, 38.4891], [141.09041, 38.48886], [141.09152, 38.48823], [141.09312, 38.48734], [141.09494, 38.48631], [141.09569, 38.48587], [141.09654, 38.48535], [141.09723, 38.48485], [141.09747, 38.48464], [141.09778, 38.48434], [141.09792, 38.48416], [141.09809, 38.48395], [141.09844, 38.48342], [141.09873, 38.48292], [141.09891, 38.48255], [141.09902, 38.4822], [141.09908, 38.48181], [141.09912, 38.48142], [141.09912, 38.48102], [141.09907, 38.48042], [141.09895, 38.47972], [141.09884, 38.4791], [141.09866, 38.4782], [141.09844, 38.47708], [141.09828, 38.47628], [141.09811, 38.47541]]}, "properties": {"id": "GEOM_TOKYO_3064", "route_id": "R_20E64CE3", "route_name": null, "route_color": "#3AA76D", "route_text_color": null, "line_name": "東北線", "operator_id": "jr_east", "representation": "service_path", "min_zoom": 0, "max_zoom": 24, "offset_rank": 0}}, {"type": "Feature", "bbox": [141.09782, 38.47362, 141.09811, 38.47541], "geometry": {"type": "LineString", "coordinates": [[141.09811, 38.47541], [141.09782, 38.47362]]}, "properties": {"id": "GEOM_TOKYO_3065", "route_id": "R_20E64CE3", "route_name": null, "route_color": "#3AA76D", "route_text_color": null, "line_name": "東北線", "operator_id": "jr_east", "representation": "service_path", "min_zoom": 0, "max_zoom": 24, "offset_rank": 0}}, {"type": "Feature", "bbox": [141.08126, 38.43063, 141.08328, 38.43251], "geometry": {"type": "LineString", "coordinates": [[141.08328, 38.43251], [141.08292, 38.43201], [141.08267, 38.43173], [141.08237, 38.43145], [141.08203, 38.43117], [141.08169, 38.43093], [141.08126, 38.43063]]}, "properties": {"id": "GEOM_TOKYO_3066", "route_id": "R_20E64CE3", "route_name": null, "route_color": "#3AA76D", "route_text_color": null, "line_name": "東北線", "operator_id": "jr_east", "representation": "service_path", "min_zoom": 0, "max_zoom": 24, "offset_rank": 0}}, {"type": "Feature", "bbox": [141.08637, 38.68194, 141.11833, 38.7107], "geometry": {"type": "LineString", "coordinates": [[141.11833, 38.7107], [141.118, 38.71047], [141.11759, 38.71017], [141.11724, 38.70991], [141.11668, 38.70951], [141.11581, 38.70888], [141.11546, 38.70864], [141.11503, 38.70832], [141.11447, 38.70794], [141.11354, 38.70729], [141.11309, 38.70698], [141.11269, 38.7067], [141.11225, 38.70639], [141.11172, 38.70602], [141.11114, 38.70563], [141.11, 38.70487], [141.10886, 38.70411], [141.10832, 38.70376], [141.10772, 38.70337], [141.10711, 38.70298], [141.10656, 38.70263], [141.10531, 38.70192], [141.10478, 38.70162], [141.10438, 38.70141], [141.10423, 38.70133], [141.10394, 38.70117], [141.10354, 38.70095], [141.10293, 38.70062], [141.10232, 38.70029], [141.10169, 38.69994], [141.10141, 38.69978], [141.10106, 38.6996], [141.10067, 38.69939], [141.10041, 38.69924], [141.10022, 38.69914], [141.1, 38.69899], [141.09983, 38.69886], [141.09967, 38.69873], [141.0995, 38.69859], [141.09938, 38.69848], [141.09925, 38.69837], [141.09914, 38.69826], [141.099, 38.69812], [141.09889, 38.69799], [141.09877, 38.69785], [141.09865, 38.6977], [141.09852, 38.69754], [141.09844, 38.69743], [141.09836, 38.6973], [141.09828, 38.69717], [141.0982, 38.69702], [141.09811, 38.69684], [141.09803, 38.69666], [141.09796, 38.69648], [141.09789, 38.69632], [141.09783, 38.69607], [141.09779, 38.69592], [141.09774, 38.6957], [141.0977, 38.69552], [141.09768, 38.69533], [141.09767, 38.69521], [141.09768, 38.695], [141.09768, 38.69485], [141.09768, 38.69474], [141.09772, 38.69422], [141.09778, 38.69361], [141.09781, 38.69325], [141.09782, 38.69302], [141.09786, 38.6925], [141.09787, 38.69219], [141.09787, 38.69194], [141.09786, 38.69179], [141.09785, 38.69156], [141.09783, 38.69138], [141.09779, 38.69122], [141.09767, 38.69076], [141.0976, 38.6905], [141.09751, 38.69024], [141.09743, 38.69009], [141.0973, 38.68989], [141.09714, 38.68967], [141.09689, 38.68935], [141.09668, 38.68911], [141.09648, 38.68892], [141.09629, 38.68873], [141.09581, 38.68831], [141.09558, 38.6881], [141.09528, 38.68784], [141.09481, 38.68743], [141.0943, 38.68698], [141.09415, 38.68685], [141.09384, 38.68658], [141.09332, 38.68612], [141.09299, 38.68583], [141.09233, 38.68525], [141.09186, 38.68484], [141.09156, 38.68461], [141.09134, 38.68442], [141.09115, 38.68431], [141.09069, 38.68405], [141.08975, 38.68353], [141.08888, 38.6831], [141.08763, 38.68248], [141.08701, 38.68218], [141.08687, 38.68212], [141.08668, 38.68205], [141.08637, 38.68194]]}, "properties": {"id": "GEOM_TOKYO_3067", "route_id": "R_20E64CE3", "route_name": null, "route_color": "#3AA76D", "route_text_color": null, "line_name": "東北線", "operator_id": "jr_east", "representation": "service_path", "min_zoom": 0, "max_zoom": 24, "offset_rank": 0}}, {"type": "Feature", "bbox": [141.08328, 38.43251, 141.09782, 38.47362], "geometry": {"type": "LineString", "coordinates": [[141.09782, 38.47362], [141.09759, 38.47241], [141.09744, 38.47166], [141.09728, 38.47085], [141.09713, 38.47012], [141.09698, 38.46933], [141.09681, 38.4685], [141.09666, 38.46779], [141.09654, 38.46709], [141.09635, 38.46605], [141.09629, 38.46577], [141.09613, 38.46495], [141.09592, 38.46383], [141.09574, 38.46298], [141.09557, 38.46211], [141.0955, 38.46165], [141.0954, 38.46104], [141.09531, 38.46043], [141.09517, 38.45964], [141.09495, 38.45829], [141.09468, 38.45685], [141.09466, 38.45676], [141.09463, 38.45659], [141.0943, 38.45496], [141.09427, 38.45482], [141.09405, 38.45368], [141.09394, 38.45307], [141.09383, 38.45252], [141.09366, 38.45159], [141.09334, 38.44989], [141.09309, 38.44871], [141.09292, 38.44813], [141.09281, 38.44783], [141.09249, 38.44717], [141.09225, 38.44673], [141.09189, 38.44616], [141.09185, 38.44608], [141.09125, 38.44509], [141.09123, 38.44505], [141.09102, 38.44472], [141.09065, 38.44412], [141.08963, 38.44246], [141.08859, 38.44081], [141.08839, 38.4405], [141.08768, 38.43938], [141.08669, 38.43786], [141.08561, 38.43622], [141.08506, 38.4354], [141.08438, 38.43435], [141.08392, 38.43363], [141.08362, 38.43313], [141.08328, 38.43251]]}, "properties": {"id": "GEOM_TOKYO_3071", "route_id": "R_20E64CE3", "route_name": null, "route_color": "#3AA76D", "route_text_color": null, "line_name": "東北線", "operator_id": "jr_east", "representation": "service_path", "min_zoom": 0, "max_zoom": 24, "offset_rank": 0}}, {"type": "Feature", "bbox": [141.05892, 38.59488, 141.05915, 38.59766], "geometry": {"type": "LineString", "coordinates": [[141.05892, 38.59766], [141.05915, 38.59488]]}, "properties": {"id": "GEOM_TOKYO_3076", "route_id": "R_20E64CE3", "route_name": null, "route_color": "#3AA76D", "route_text_color": null, "line_name": "東北線", "operator_id": "jr_east", "representation": "service_path", "min_zoom": 0, "max_zoom": 24, "offset_rank": 0}}, {"type": "Feature", "bbox": [141.1206, 38.71233, 141.15865, 38.76803], "geometry": {"type": "LineString", "coordinates": [[141.15865, 38.76803], [141.15797, 38.76696], [141.1578, 38.7667], [141.15664, 38.76492], [141.15488, 38.76225], [141.1528, 38.75904], [141.1526, 38.75873], [141.15132, 38.75674], [141.14941, 38.75373], [141.1491, 38.75333], [141.14877, 38.75292], [141.14871, 38.75283], [141.14863, 38.75274], [141.14848, 38.75259], [141.14769, 38.75188], [141.14759, 38.75179], [141.14594, 38.75033], [141.14507, 38.74953], [141.14479, 38.74923], [141.14456, 38.74889], [141.14426, 38.74833], [141.14403, 38.74785], [141.14391, 38.74758], [141.14096, 38.74087], [141.14075, 38.74038], [141.14035, 38.73945], [141.13856, 38.73536], [141.13819, 38.73452], [141.13644, 38.73053], [141.13511, 38.72753], [141.13498, 38.72724], [141.13466, 38.72651], [141.13323, 38.72328], [141.13302, 38.72286], [141.13273, 38.72233], [141.13252, 38.72199], [141.13103, 38.71993], [141.1304, 38.71908], [141.13032, 38.71898], [141.13018, 38.71879], [141.12971, 38.71813], [141.12886, 38.71693], [141.12852, 38.71653], [141.12809, 38.71607], [141.12765, 38.71566], [141.12726, 38.71532], [141.12687, 38.71509], [141.12627, 38.71477], [141.12563, 38.71447], [141.12352, 38.71363], [141.12152, 38.71279], [141.12124, 38.71264], [141.12102, 38.71253], [141.12076, 38.71241], [141.1206, 38.71233]]}, "properties": {"id": "GEOM_TOKYO_3078", "route_id": "R_20E64CE3", "route_name": null, "route_color": "#3AA76D", "route_text_color": null, "line_name": "東北線", "operator_id": "jr_east", "representation": "service_path", "min_zoom": 0, "max_zoom": 24, "offset_rank": 0}}, {"type": "Feature", "bbox": [141.05846, 38.59766, 141.07426, 38.65474], "geometry": {"type": "LineString", "coordinates": [[141.07404, 38.65474], [141.07413, 38.65426], [141.07418, 38.65376], [141.07423, 38.65306], [141.07426, 38.65247], [141.07426, 38.65212], [141.07424, 38.65189], [141.07418, 38.65161], [141.07406, 38.6512], [141.0739, 38.65082], [141.07367, 38.65036], [141.07301, 38.64892], [141.07235, 38.64746], [141.07206, 38.64685], [141.07154, 38.64572], [141.07061, 38.64373], [141.0691, 38.64043], [141.06821, 38.63852], [141.06804, 38.63814], [141.06784, 38.6377], [141.06709, 38.63607], [141.06637, 38.63452], [141.06482, 38.63111], [141.06446, 38.63036], [141.06435, 38.6301], [141.06367, 38.62861], [141.06355, 38.62836], [141.06355, 38.62834], [141.06283, 38.62682], [141.06176, 38.62454], [141.06086, 38.62261], [141.06064, 38.62211], [141.05993, 38.62058], [141.05981, 38.62031], [141.05955, 38.61964], [141.05939, 38.61925], [141.05929, 38.61894], [141.05918, 38.61831], [141.05914, 38.61778], [141.05907, 38.61677], [141.05903, 38.61566], [141.05899, 38.61479], [141.05891, 38.6131], [141.05879, 38.6107], [141.05869, 38.60835], [141.05861, 38.60665], [141.05859, 38.60627], [141.05848, 38.60367], [141.05846, 38.60281], [141.0585, 38.60197], [141.05853, 38.60118], [141.05862, 38.60011], [141.05875, 38.59918], [141.05892, 38.59766]]}, "properties": {"id": "GEOM_TOKYO_3080", "route_id": "R_20E64CE3", "route_name": null, "route_color": "#3AA76D", "route_text_color": null, "line_name": "東北線", "operator_id": "jr_east", "representation": "service_path", "min_zoom": 0, "max_zoom": 24, "offset_rank": 0}}, {"type": "Feature", "bbox": [141.11833, 38.7107, 141.1206, 38.71233], "geometry": {"type": "LineString", "coordinates": [[141.1206, 38.71233], [141.12032, 38.71213], [141.11951, 38.71157], [141.11885, 38.71108], [141.11833, 38.7107]]}, "properties": {"id": "GEOM_TOKYO_3081", "route_id": "R_20E64CE3", "route_name": null, "route_color": "#3AA76D", "route_text_color": null, "line_name": "東北線", "operator_id": "jr_east", "representation": "service_path", "min_zoom": 0, "max_zoom": 24, "offset_rank": 0}}, {"type": "Feature", "bbox": [141.06449, 38.5135, 141.07432, 38.53985], "geometry": {"type": "LineString", "coordinates": [[141.06449, 38.53985], [141.06469, 38.53716], [141.0647, 38.53702], [141.06486, 38.53587], [141.06494, 38.53529], [141.06499, 38.53492], [141.06504, 38.53453], [141.0651, 38.53404], [141.06513, 38.5336], [141.06518, 38.53269], [141.06529, 38.5308], [141.06528, 38.53034], [141.06525, 38.52938], [141.06521, 38.5281], [141.06519, 38.52747], [141.06519, 38.52739], [141.06523, 38.52662], [141.06531, 38.52611], [141.06545, 38.52553], [141.06563, 38.52508], [141.06582, 38.52476], [141.06618, 38.52424], [141.06731, 38.52286], [141.06805, 38.52188], [141.06842, 38.52139], [141.06856, 38.5212], [141.06941, 38.52005], [141.07116, 38.51772], [141.07312, 38.51514], [141.07432, 38.5135]]}, "properties": {"id": "GEOM_TOKYO_3082", "route_id": "R_20E64CE3", "route_name": null, "route_color": "#3AA76D", "route_text_color": null, "line_name": "東北線", "operator_id": "jr_east", "representation": "service_path", "min_zoom": 0, "max_zoom": 24, "offset_rank": 0}}, {"type": "Feature", "bbox": [141.07126, 38.65648, 141.08422, 38.68137], "geometry": {"type": "LineString", "coordinates": [[141.08422, 38.68137], [141.08406, 38.68134], [141.08331, 38.68116], [141.08188, 38.68084], [141.08137, 38.68073], [141.08111, 38.68067], [141.08084, 38.68062], [141.08062, 38.68055], [141.08031, 38.68045], [141.08, 38.68033], [141.07978, 38.68024], [141.07954, 38.68013], [141.07923, 38.67997], [141.07888, 38.67979], [141.07795, 38.67931], [141.07735, 38.679], [141.07662, 38.67862], [141.07641, 38.67852], [141.07609, 38.67835], [141.0757, 38.67812], [141.07549, 38.67799], [141.07522, 38.67781], [141.07504, 38.67766], [141.07485, 38.6775], [141.07465, 38.67733], [141.07445, 38.67713], [141.07427, 38.67692], [141.0742, 38.67685], [141.07415, 38.67677], [141.07402, 38.67659], [141.07389, 38.6764], [141.07375, 38.67617], [141.07366, 38.67604], [141.07357, 38.67587], [141.07347, 38.67565], [141.07324, 38.6751], [141.07311, 38.67481], [141.07276, 38.67399], [141.07253, 38.67344], [141.07216, 38.6726], [141.07193, 38.67207], [141.07168, 38.67149], [141.07149, 38.67098], [141.07139, 38.67065], [141.07135, 38.67051], [141.07132, 38.67028], [141.07129, 38.67009], [141.07127, 38.6696], [141.07126, 38.66933], [141.07132, 38.66865], [141.07141, 38.66787], [141.07155, 38.66646], [141.0717, 38.66537], [141.07198, 38.664], [141.07255, 38.66143], [141.07265, 38.66099], [141.07303, 38.6593], [141.07337, 38.65782], [141.07367, 38.65648]]}, "properties": {"id": "GEOM_TOKYO_3086", "route_id": "R_20E64CE3", "route_name": null, "route_color": "#3AA76D", "route_text_color": null, "line_name": "東北線", "operator_id": "jr_east", "representation": "service_path", "min_zoom": 0, "max_zoom": 24, "offset_rank": 0}}, {"type": "Feature", "bbox": [141.08422, 38.68137, 141.08637, 38.68194], "geometry": {"type": "LineString", "coordinates": [[141.08637, 38.68194], [141.08558, 38.68171], [141.08476, 38.6815], [141.08422, 38.68137]]}, "properties": {"id": "GEOM_TOKYO_3087", "route_id": "R_20E64CE3", "route_name": null, "route_color": "#3AA76D", "route_text_color": null, "line_name": "東北線", "operator_id": "jr_east", "representation": "service_path", "min_zoom": 0, "max_zoom": 24, "offset_rank": 0}}, {"type": "Feature", "bbox": [141.07432, 38.51191, 141.07552, 38.5135], "geometry": {"type": "LineString", "coordinates": [[141.07432, 38.5135], [141.07552, 38.51191]]}, "properties": {"id": "GEOM_TOKYO_3088", "route_id": "R_20E64CE3", "route_name": null, "route_color": "#3AA76D", "route_text_color": null, "line_name": "東北線", "operator_id": "jr_east", "representation": "service_path", "min_zoom": 0, "max_zoom": 24, "offset_rank": 0}}, {"type": "Feature", "bbox": [141.05915, 38.54641, 141.06389, 38.59488], "geometry": {"type": "LineString", "coordinates": [[141.05915, 38.59488], [141.05921, 38.59414], [141.0593, 38.59319], [141.05949, 38.59111], [141.05961, 38.58982], [141.05977, 38.58816], [141.05994, 38.58627], [141.05999, 38.58571], [141.06007, 38.58497], [141.06019, 38.5837], [141.0605, 38.58054], [141.06052, 38.58036], [141.0606, 38.57953], [141.06099, 38.57595], [141.06132, 38.57255], [141.06144, 38.57138], [141.06174, 38.56833], [141.06211, 38.5649], [141.06233, 38.56284], [141.06238, 38.56239], [141.06246, 38.56155], [141.06253, 38.5609], [141.06259, 38.56026], [141.06262, 38.55996], [141.06279, 38.55821], [141.06306, 38.5554], [141.06327, 38.55314], [141.06342, 38.55134], [141.06357, 38.54962], [141.06388, 38.54655], [141.06389, 38.54641]]}, "properties": {"id": "GEOM_TOKYO_3089", "route_id": "R_20E64CE3", "route_name": null, "route_color": "#3AA76D", "route_text_color": null, "line_name": "東北線", "operator_id": "jr_east", "representation": "service_path", "min_zoom": 0, "max_zoom": 24, "offset_rank": 0}}, {"type": "Feature", "bbox": [141.07367, 38.65474, 141.07404, 38.65648], "geometry": {"type": "LineString", "coordinates": [[141.07367, 38.65648], [141.07404, 38.65474]]}, "properties": {"id": "GEOM_TOKYO_3091", "route_id": "R_20E64CE3", "route_name": null, "route_color": "#3AA76D", "route_text_color": null, "line_name": "東北線", "operator_id": "jr_east", "representation": "service_path", "min_zoom": 0, "max_zoom": 24, "offset_rank": 0}}, {"type": "Feature", "bbox": [140.88234, 38.26136, 140.89282, 38.26842], "geometry": {"type": "LineString", "coordinates": [[140.88267, 38.26136], [140.88267, 38.26143], [140.88267, 38.26151], [140.88261, 38.26167], [140.88256, 38.26178], [140.88252, 38.26186], [140.88244, 38.26224], [140.88241, 38.26243], [140.88235, 38.26276], [140.88234, 38.26285], [140.88236, 38.263], [140.88238, 38.26309], [140.88241, 38.26318], [140.88248, 38.26338], [140.88256, 38.26357], [140.88264, 38.26372], [140.88273, 38.26386], [140.88274, 38.26387], [140.88294, 38.2641], [140.88311, 38.26432], [140.8833, 38.26452], [140.88358, 38.26477], [140.88362, 38.26479], [140.88382, 38.26493], [140.88416, 38.26519], [140.88442, 38.26533], [140.88479, 38.26551], [140.88514, 38.26565], [140.88571, 38.26586], [140.88638, 38.26609], [140.8868, 38.26625], [140.88753, 38.26651], [140.8882, 38.26676], [140.8889, 38.26701], [140.88948, 38.26722], [140.8902, 38.26748], [140.89069, 38.26766], [140.89142, 38.26791], [140.89199, 38.26812], [140.89282, 38.26842]]}, "properties": {"id": "GEOM_TOKYO_3105", "route_id": "R_20E64CE3", "route_name": null, "route_color": "#3AA76D", "route_text_color": null, "line_name": "東北線", "operator_id": "jr_east", "representation": "service_path", "min_zoom": 0, "max_zoom": 24, "offset_rank": 0}}, {"type": "Feature", "bbox": [140.88234, 38.25813, 140.88267, 38.26136], "geometry": {"type": "LineString", "coordinates": [[140.88267, 38.26136], [140.88267, 38.26134], [140.8826, 38.26065], [140.8825, 38.25955], [140.88249, 38.2595], [140.88234, 38.25813]]}, "properties": {"id": "GEOM_TOKYO_3106", "route_id": "R_20E64CE3", "route_name": null, "route_color": "#3AA76D", "route_text_color": null, "line_name": "東北線", "operator_id": "jr_east", "representation": "service_path", "min_zoom": 0, "max_zoom": 24, "offset_rank": 0}}, {"type": "Feature", "bbox": [140.97842, 38.29949, 140.98085, 38.29971], "geometry": {"type": "LineString", "coordinates": [[140.98085, 38.29971], [140.98007, 38.29965], [140.97857, 38.2995], [140.97842, 38.29949]]}, "properties": {"id": "GEOM_TOKYO_3107", "route_id": "R_20E64CE3", "route_name": null, "route_color": "#3AA76D", "route_text_color": null, "line_name": "東北線", "operator_id": "jr_east", "representation": "service_path", "min_zoom": 0, "max_zoom": 24, "offset_rank": 0}}, {"type": "Feature", "bbox": [140.9735, 38.31765, 140.98417, 38.3287], "geometry": {"type": "LineString", "coordinates": [[140.98417, 38.3287], [140.98416, 38.3287], [140.98384, 38.32836], [140.98364, 38.32818], [140.9833, 38.32782], [140.98307, 38.32758], [140.98281, 38.32731], [140.98241, 38.3269], [140.98221, 38.32669], [140.98205, 38.32653], [140.98171, 38.32619], [140.98142, 38.32588], [140.9812, 38.32566], [140.98092, 38.32537], [140.9806, 38.32504], [140.98033, 38.32475], [140.98029, 38.32472], [140.97993, 38.32433], [140.9796, 38.324], [140.97929, 38.32368], [140.97887, 38.32324], [140.97837, 38.32272], [140.97795, 38.32229], [140.97769, 38.32201], [140.97738, 38.3217], [140.97705, 38.32135], [140.97676, 38.32105], [140.97634, 38.32062], [140.9759, 38.32017], [140.97545, 38.31969], [140.97515, 38.31938], [140.97464, 38.31883], [140.97419, 38.31837], [140.9736, 38.31776], [140.9735, 38.31765]]}, "properties": {"id": "GEOM_TOKYO_3109", "route_id": "R_20E64CE3", "route_name": null, "route_color": "#3AA76D", "route_text_color": null, "line_name": "東北線", "operator_id": "jr_east", "representation": "service_path", "min_zoom": 0, "max_zoom": 24, "offset_rank": 0}}, {"type": "Feature", "bbox": [141.06488, 38.3968, 141.06548, 38.39849], "geometry": {"type": "LineString", "coordinates": [[141.06488, 38.3968], [141.06498, 38.39712], [141.06548, 38.39849]]}, "properties": {"id": "GEOM_TOKYO_3110", "route_id": "R_20E64CE3", "route_name": null, "route_color": "#3AA76D", "route_text_color": null, "line_name": "東北線", "operator_id": "jr_east", "representation": "service_path", "min_zoom": 0, "max_zoom": 24, "offset_rank": 0}}, {"type": "Feature", "bbox": [140.99565, 38.30131, 141.0095, 38.30933], "geometry": {"type": "LineString", "coordinates": [[141.0095, 38.30933], [141.00947, 38.30921], [141.00945, 38.30914], [141.00942, 38.30903], [141.00935, 38.30877], [141.00928, 38.30855], [141.00901, 38.308], [141.00893, 38.30784], [141.0089, 38.30778], [141.00885, 38.3077], [141.00877, 38.30755], [141.00875, 38.30751], [141.00855, 38.30715], [141.0082, 38.30658], [141.00783, 38.30611], [141.00756, 38.30583], [141.00748, 38.30575], [141.00714, 38.30545], [141.00667, 38.30512], [141.00651, 38.30501], [141.00573, 38.30448], [141.00534, 38.30427], [141.00493, 38.30407], [141.00441, 38.30388], [141.0034, 38.30359], [141.00158, 38.30308], [140.9998, 38.30255], [140.99786, 38.30197], [140.99656, 38.30159], [140.99634, 38.30153], [140.99582, 38.30138], [140.99565, 38.30131]]}, "properties": {"id": "GEOM_TOKYO_3113", "route_id": "R_20E64CE3", "route_name": null, "route_color": "#3AA76D", "route_text_color": null, "line_name": "東北線", "operator_id": "jr_east", "representation": "service_path", "min_zoom": 0, "max_zoom": 24, "offset_rank": 0}}, {"type": "Feature", "bbox": [140.92101, 38.27705, 140.95446, 38.30072], "geometry": {"type": "LineString", "coordinates": [[140.95446, 38.30072], [140.95397, 38.3006], [140.95305, 38.30037], [140.95238, 38.3002], [140.95196, 38.3001], [140.95189, 38.30008], [140.95161, 38.30002], [140.95142, 38.29997], [140.95101, 38.29986], [140.95077, 38.2998], [140.95035, 38.2997], [140.95006, 38.29962], [140.94967, 38.29952], [140.94906, 38.29933], [140.94869, 38.29918], [140.94839, 38.29905], [140.94811, 38.29892], [140.94794, 38.29883], [140.94774, 38.29871], [140.94754, 38.2986], [140.94732, 38.29844], [140.94728, 38.29842], [140.94722, 38.29838], [140.94716, 38.29834], [140.94704, 38.29823], [140.9468, 38.298], [140.94636, 38.29759], [140.94598, 38.29724], [140.94535, 38.29665], [140.94469, 38.29605], [140.94411, 38.29551], [140.94356, 38.295], [140.94298, 38.29446], [140.94227, 38.29379], [140.94225, 38.29377], [140.94172, 38.29328], [140.94075, 38.29239], [140.93982, 38.29152], [140.939, 38.29074], [140.93829, 38.29008], [140.93737, 38.28922], [140.93682, 38.28871], [140.93624, 38.28817], [140.93566, 38.28762], [140.93526, 38.28724], [140.93497, 38.28698], [140.93469, 38.28672], [140.93405, 38.28611], [140.93352, 38.28563], [140.93296, 38.2851], [140.93256, 38.28472], [140.93217, 38.28436], [140.93168, 38.28389], [140.93159, 38.28381], [140.93135, 38.28358], [140.93111, 38.28336], [140.93086, 38.28312], [140.93061, 38.28288], [140.93023, 38.28255], [140.92998, 38.28235], [140.9299, 38.28229], [140.9296, 38.28208], [140.9291, 38.28177], [140.92839, 38.28136], [140.9277, 38.28095], [140.92753, 38.28085], [140.92724, 38.28068], [140.92683, 38.28044], [140.92638, 38.28018], [140.92606, 38.27999], [140.92547, 38.27965], [140.92505, 38.27941], [140.92439, 38.27902], [140.92373, 38.27865], [140.92319, 38.27831], [140.92273, 38.27805], [140.92229, 38.2778], [140.92179, 38.27751], [140.92106, 38.27708], [140.92101, 38.27705]]}, "properties": {"id": "GEOM_TOKYO_3114", "route_id": "R_20E64CE3", "route_name": null, "route_color": "#3AA76D", "route_text_color": null, "line_name": "東北線", "operator_id": "jr_east", "representation": "service_path", "min_zoom": 0, "max_zoom": 24, "offset_rank": 0}}, {"type": "Feature", "bbox": [140.95654, 38.30125, 140.95709, 38.30138], "geometry": {"type": "LineString", "coordinates": [[140.95654, 38.30125], [140.95676, 38.3013], [140.95706, 38.30137], [140.95709, 38.30138]]}, "properties": {"id": "GEOM_TOKYO_3118", "route_id": "R_20E64CE3", "route_name": null, "route_color": "#3AA76D", "route_text_color": null, "line_name": "東北線", "operator_id": "jr_east", "representation": "service_path", "min_zoom": 0, "max_zoom": 24, "offset_rank": 0}}, {"type": "Feature", "bbox": [140.97285, 38.31698, 140.9735, 38.31765], "geometry": {"type": "LineString", "coordinates": [[140.9735, 38.31765], [140.97296, 38.31709], [140.97285, 38.31698]]}, "properties": {"id": "GEOM_TOKYO_3121", "route_id": "R_20E64CE3", "route_name": null, "route_color": "#3AA76D", "route_text_color": null, "line_name": "東北線", "operator_id": "jr_east", "representation": "service_path", "min_zoom": 0, "max_zoom": 24, "offset_rank": 0}}, {"type": "Feature", "bbox": [141.00915, 38.31, 141.06469, 38.37869], "geometry": {"type": "LineString", "coordinates": [[141.00959, 38.31], [141.00968, 38.31062], [141.00968, 38.3109], [141.00958, 38.31241], [141.00944, 38.31431], [141.00924, 38.31608], [141.00922, 38.31649], [141.00919, 38.31701], [141.00915, 38.31846], [141.00918, 38.31891], [141.00928, 38.31932], [141.00942, 38.3197], [141.00947, 38.31984], [141.00956, 38.32002], [141.00964, 38.32017], [141.00966, 38.32021], [141.00969, 38.32026], [141.00996, 38.32052], [141.0103, 38.3209], [141.01075, 38.3213], [141.01122, 38.32168], [141.01163, 38.322], [141.01216, 38.32235], [141.01288, 38.32278], [141.01435, 38.32378], [141.01554, 38.32458], [141.01639, 38.32506], [141.01706, 38.32542], [141.01754, 38.32564], [141.01815, 38.32587], [141.01824, 38.3259], [141.01901, 38.32618], [141.02068, 38.32669], [141.02093, 38.32678], [141.02163, 38.32711], [141.02224, 38.32744], [141.02262, 38.32772], [141.02282, 38.32789], [141.02296, 38.32801], [141.0233, 38.32832], [141.02378, 38.32876], [141.02434, 38.32935], [141.02495, 38.32994], [141.02513, 38.33018], [141.02653, 38.33162], [141.02704, 38.33213], [141.02756, 38.33251], [141.02797, 38.33276], [141.02957, 38.33379], [141.0307, 38.3345], [141.03214, 38.33542], [141.03303, 38.33597], [141.03352, 38.3363], [141.03399, 38.3366], [141.03413, 38.3367], [141.03458, 38.33712], [141.03484, 38.33741], [141.03508, 38.33775], [141.03526, 38.33807], [141.03547, 38.33865], [141.03555, 38.33898], [141.03568, 38.33944], [141.03572, 38.3396], [141.03576, 38.33978], [141.03606, 38.34056], [141.0364, 38.34152], [141.03654, 38.34202], [141.03666, 38.3425], [141.03682, 38.34317], [141.03699, 38.34395], [141.03704, 38.34429], [141.03707, 38.34467], [141.0371, 38.34508], [141.03722, 38.34546], [141.03732, 38.34575], [141.03763, 38.34623], [141.03821, 38.34702], [141.03892, 38.34795], [141.04033, 38.34978], [141.04108, 38.3508], [141.04196, 38.35194], [141.04223, 38.35228], [141.04278, 38.3529], [141.04311, 38.35322], [141.04351, 38.35357], [141.04453, 38.35427], [141.04524, 38.35475], [141.0457, 38.35505], [141.04649, 38.35553], [141.04688, 38.35576], [141.04718, 38.35589], [141.04819, 38.35634], [141.04867, 38.35659], [141.04888, 38.35669], [141.04914, 38.35685], [141.04974, 38.35724], [141.04996, 38.35741], [141.05012, 38.35754], [141.05042, 38.35774], [141.05096, 38.35818], [141.05131, 38.35854], [141.05248, 38.35969], [141.05285, 38.36001], [141.05332, 38.36038], [141.05363, 38.36059], [141.05473, 38.3612], [141.05535, 38.36159], [141.05574, 38.36187], [141.05634, 38.36235], [141.05684, 38.36275], [141.05752, 38.36349], [141.05787, 38.36398], [141.05813, 38.36441], [141.05829, 38.36484], [141.05841, 38.36529], [141.05847, 38.36567], [141.05848, 38.36598], [141.05845, 38.36683], [141.05838, 38.36727], [141.05825, 38.36769], [141.05806, 38.36818], [141.05761, 38.36919], [141.05723, 38.37014], [141.05711, 38.37051], [141.05707, 38.37102], [141.05711, 38.37153], [141.05717, 38.37188], [141.05726, 38.37241], [141.05727, 38.37249], [141.0574, 38.37295], [141.05753, 38.3733], [141.05766, 38.37362], [141.05778, 38.37382], [141.05793, 38.37401], [141.05823, 38.37436], [141.05887, 38.37505], [141.05934, 38.37553], [141.05978, 38.37595], [141.06022, 38.37627], [141.06116, 38.37683], [141.06233, 38.37749], [141.06285, 38.37775], [141.06344, 38.37805], [141.06427, 38.37844], [141.06451, 38.37856], [141.06469, 38.37869]]}, "properties": {"id": "GEOM_TOKYO_3122", "route_id": "R_20E64CE3", "route_name": null, "route_color": "#3AA76D", "route_text_color": null, "line_name": "東北線", "operator_id": "jr_east", "representation": "service_path", "min_zoom": 0, "max_zoom": 24, "offset_rank": 0}}, {"type": "Feature", "bbox": [140.90908, 38.27091, 140.91869, 38.27568], "geometry": {"type": "LineString", "coordinates": [[140.91869, 38.27568], [140.91832, 38.27547], [140.91758, 38.27502], [140.91673, 38.27454], [140.91605, 38.27414], [140.91537, 38.27374], [140.9148, 38.27339], [140.91446, 38.27319], [140.91412, 38.273], [140.9135, 38.27265], [140.91311, 38.27242], [140.9127, 38.2722], [140.91235, 38.27203], [140.91184, 38.27179], [140.91126, 38.27152], [140.91071, 38.27131], [140.91061, 38.27128], [140.91012, 38.27112], [140.90997, 38.27108], [140.90987, 38.27106], [140.90963, 38.271], [140.9096, 38.271], [140.90925, 38.27094], [140.90908, 38.27091]]}, "properties": {"id": "GEOM_TOKYO_3124", "route_id": "R_20E64CE3", "route_name": null, "route_color": "#3AA76D", "route_text_color": null, "line_name": "東北線", "operator_id": "jr_east", "representation": "service_path", "min_zoom": 0, "max_zoom": 24, "offset_rank": 0}}, {"type": "Feature", "bbox": [141.06472, 38.38019, 141.06737, 38.3968], "geometry": {"type": "LineString", "coordinates": [[141.06612, 38.38019], [141.06634, 38.38047], [141.06653, 38.38078], [141.0667, 38.38122], [141.06687, 38.38182], [141.06706, 38.38265], [141.06728, 38.38426], [141.0673, 38.38448], [141.06737, 38.38522], [141.06737, 38.38562], [141.06736, 38.38601], [141.0673, 38.38634], [141.06723, 38.38664], [141.06689, 38.38777], [141.06642, 38.38924], [141.06575, 38.39136], [141.06513, 38.39327], [141.06503, 38.39362], [141.06496, 38.39381], [141.06482, 38.39441], [141.06475, 38.39496], [141.06472, 38.3958], [141.06475, 38.39617], [141.06479, 38.39635], [141.06483, 38.39662], [141.06488, 38.3968]]}, "properties": {"id": "GEOM_TOKYO_3127", "route_id": "R_20E64CE3", "route_name": null, "route_color": "#3AA76D", "route_text_color": null, "line_name": "東北線", "operator_id": "jr_east", "representation": "service_path", "min_zoom": 0, "max_zoom": 24, "offset_rank": 0}}, {"type": "Feature", "bbox": [140.89282, 38.26842, 140.89595, 38.26953], "geometry": {"type": "LineString", "coordinates": [[140.89282, 38.26842], [140.89284, 38.26843], [140.89352, 38.26866], [140.89415, 38.26888], [140.89458, 38.26904], [140.89535, 38.2693], [140.89584, 38.26949], [140.89595, 38.26953]]}, "properties": {"id": "GEOM_TOKYO_3129", "route_id": "R_20E64CE3", "route_name": null, "route_color": "#3AA76D", "route_text_color": null, "line_name": "東北線", "operator_id": "jr_east", "representation": "service_path", "min_zoom": 0, "max_zoom": 24, "offset_rank": 0}}, {"type": "Feature", "bbox": [141.0095, 38.30933, 141.00959, 38.31], "geometry": {"type": "LineString", "coordinates": [[141.00959, 38.31], [141.00953, 38.30961], [141.0095, 38.30933]]}, "properties": {"id": "GEOM_TOKYO_3134", "route_id": "R_20E64CE3", "route_name": null, "route_color": "#3AA76D", "route_text_color": null, "line_name": "東北線", "operator_id": "jr_east", "representation": "service_path", "min_zoom": 0, "max_zoom": 24, "offset_rank": 0}}, {"type": "Feature", "bbox": [140.91869, 38.27568, 140.92101, 38.27705], "geometry": {"type": "LineString", "coordinates": [[140.92101, 38.27705], [140.91922, 38.27599], [140.91869, 38.27568]]}, "properties": {"id": "GEOM_TOKYO_3136", "route_id": "R_20E64CE3", "route_name": null, "route_color": "#3AA76D", "route_text_color": null, "line_name": "東北線", "operator_id": "jr_east", "representation": "service_path", "min_zoom": 0, "max_zoom": 24, "offset_rank": 0}}, {"type": "Feature", "bbox": [140.89595, 38.26953, 140.90908, 38.27091], "geometry": {"type": "LineString", "coordinates": [[140.89595, 38.26953], [140.89617, 38.26957], [140.89642, 38.26961], [140.89663, 38.26964], [140.89721, 38.2697], [140.89769, 38.26977], [140.89812, 38.2698], [140.89819, 38.26981], [140.89874, 38.26985], [140.89921, 38.26985], [140.89976, 38.26984], [140.90051, 38.26984], [140.90106, 38.26987], [140.90181, 38.26991], [140.9029, 38.26997], [140.90367, 38.27004], [140.90435, 38.27011], [140.90497, 38.2702], [140.90578, 38.27034], [140.9065, 38.27046], [140.9075, 38.27062], [140.90826, 38.27076], [140.90908, 38.27091]]}, "properties": {"id": "GEOM_TOKYO_3137", "route_id": "R_20E64CE3", "route_name": null, "route_color": "#3AA76D", "route_text_color": null, "line_name": "東北線", "operator_id": "jr_east", "representation": "service_path", "min_zoom": 0, "max_zoom": 24, "offset_rank": 0}}, {"type": "Feature", "bbox": [140.95709, 38.29886, 140.97842, 38.30161], "geometry": {"type": "LineString", "coordinates": [[140.97842, 38.29949], [140.97797, 38.29944], [140.97724, 38.29938], [140.97662, 38.29933], [140.97577, 38.29926], [140.97529, 38.29922], [140.97463, 38.29915], [140.97455, 38.29915], [140.97397, 38.2991], [140.97311, 38.29902], [140.97256, 38.29898], [140.97203, 38.29894], [140.97143, 38.29889], [140.9711, 38.29886], [140.97075, 38.29886], [140.97069, 38.29886], [140.9701, 38.29889], [140.96951, 38.29892], [140.96914, 38.29893], [140.96854, 38.29897], [140.96803, 38.29902], [140.96761, 38.29906], [140.96712, 38.29913], [140.96664, 38.29921], [140.96618, 38.29931], [140.96585, 38.29939], [140.96555, 38.29948], [140.96524, 38.29959], [140.96484, 38.29975], [140.96449, 38.29993], [140.96405, 38.30017], [140.96358, 38.30041], [140.96328, 38.30057], [140.96296, 38.30071], [140.96258, 38.30088], [140.96222, 38.30103], [140.96197, 38.30112], [140.96147, 38.30128], [140.96076, 38.30145], [140.96029, 38.30153], [140.96016, 38.30155], [140.95963, 38.3016], [140.95912, 38.30161], [140.95862, 38.30159], [140.9582, 38.30157], [140.9579, 38.30153], [140.9575, 38.30145], [140.95709, 38.30138]]}, "properties": {"id": "GEOM_TOKYO_3140", "route_id": "R_20E64CE3", "route_name": null, "route_color": "#3AA76D", "route_text_color": null, "line_name": "東北線", "operator_id": "jr_east", "representation": "service_path", "min_zoom": 0, "max_zoom": 24, "offset_rank": 0}}, {"type": "Feature", "bbox": [140.98085, 38.29971, 140.99391, 38.30092], "geometry": {"type": "LineString", "coordinates": [[140.99391, 38.30092], [140.99385, 38.30091], [140.99301, 38.30082], [140.99237, 38.30076], [140.99156, 38.30068], [140.99089, 38.30062], [140.99015, 38.30056], [140.98944, 38.30049], [140.98859, 38.30041], [140.98811, 38.30038], [140.98732, 38.3003], [140.98661, 38.30024], [140.98587, 38.30017], [140.98576, 38.30016], [140.98537, 38.30012], [140.98524, 38.30011], [140.98502, 38.30009], [140.9846, 38.30005], [140.98416, 38.30001], [140.98361, 38.29996], [140.98296, 38.2999], [140.98251, 38.29987], [140.98231, 38.29985], [140.9816, 38.29978], [140.98098, 38.29973], [140.98085, 38.29971]]}, "properties": {"id": "GEOM_TOKYO_3141", "route_id": "R_20E64CE3", "route_name": null, "route_color": "#3AA76D", "route_text_color": null, "line_name": "東北線", "operator_id": "jr_east", "representation": "service_path", "min_zoom": 0, "max_zoom": 24, "offset_rank": 0}}, {"type": "Feature", "bbox": [141.06469, 38.37869, 141.06612, 38.38019], "geometry": {"type": "LineString", "coordinates": [[141.06469, 38.37869], [141.06513, 38.37907], [141.06537, 38.3793], [141.06612, 38.38019]]}, "properties": {"id": "GEOM_TOKYO_3144", "route_id": "R_20E64CE3", "route_name": null, "route_color": "#3AA76D", "route_text_color": null, "line_name": "東北線", "operator_id": "jr_east", "representation": "service_path", "min_zoom": 0, "max_zoom": 24, "offset_rank": 0}}, {"type": "Feature", "bbox": [140.95709, 38.30138, 140.97285, 38.31698], "geometry": {"type": "LineString", "coordinates": [[140.97285, 38.31698], [140.97249, 38.31661], [140.97247, 38.31659], [140.97221, 38.31632], [140.97196, 38.31605], [140.97158, 38.31567], [140.97114, 38.31522], [140.97097, 38.31505], [140.97071, 38.31477], [140.97067, 38.31473], [140.97017, 38.31422], [140.96982, 38.31386], [140.96937, 38.3134], [140.96912, 38.31313], [140.96891, 38.31291], [140.96833, 38.3123], [140.9678, 38.31174], [140.96746, 38.3114], [140.96724, 38.31116], [140.96672, 38.31063], [140.96639, 38.31028], [140.96597, 38.30986], [140.96575, 38.30963], [140.96556, 38.30943], [140.96492, 38.30877], [140.96459, 38.30843], [140.96424, 38.30807], [140.96396, 38.30779], [140.96372, 38.30754], [140.96336, 38.30716], [140.9631, 38.3069], [140.9628, 38.30658], [140.96237, 38.30614], [140.96216, 38.30593], [140.96197, 38.30573], [140.96153, 38.30527], [140.96129, 38.30501], [140.96126, 38.30499], [140.96109, 38.30481], [140.96075, 38.30445], [140.96052, 38.30422], [140.96039, 38.30409], [140.96019, 38.30388], [140.96007, 38.30376], [140.9599, 38.30359], [140.95968, 38.30335], [140.95943, 38.3031], [140.95933, 38.303], [140.959, 38.30267], [140.95869, 38.30239], [140.95847, 38.30221], [140.95821, 38.30202], [140.95789, 38.3018], [140.95766, 38.30166], [140.95743, 38.30153], [140.95709, 38.30138]]}, "properties": {"id": "GEOM_TOKYO_3145", "route_id": "R_20E64CE3", "route_name": null, "route_color": "#3AA76D", "route_text_color": null, "line_name": "東北線", "operator_id": "jr_east", "representation": "service_path", "min_zoom": 0, "max_zoom": 24, "offset_rank": 0}}, {"type": "Feature", "bbox": [140.89595, 38.26953, 140.90908, 38.27128], "geometry": {"type": "LineString", "coordinates": [[140.89595, 38.26953], [140.89632, 38.26966], [140.89656, 38.26974], [140.89696, 38.26988], [140.89739, 38.27003], [140.89801, 38.27025], [140.89869, 38.27049], [140.8992, 38.27064], [140.89971, 38.2708], [140.90053, 38.27101], [140.90097, 38.27112], [140.90129, 38.27117], [140.9016, 38.27121], [140.90199, 38.27124], [140.90259, 38.27128], [140.9033, 38.27128], [140.90387, 38.27126], [140.90462, 38.27121], [140.9053, 38.27116], [140.90628, 38.27108], [140.90699, 38.27102], [140.90773, 38.27096], [140.90783, 38.27096], [140.90873, 38.27091], [140.90908, 38.27091]]}, "properties": {"id": "GEOM_TOKYO_3147", "route_id": "R_20E64CE3", "route_name": null, "route_color": "#3AA76D", "route_text_color": null, "line_name": "東北線", "operator_id": "jr_east", "representation": "service_path", "min_zoom": 0, "max_zoom": 24, "offset_rank": 0}}, {"type": "Feature", "bbox": [140.98417, 38.3287, 140.98543, 38.33], "geometry": {"type": "LineString", "coordinates": [[140.98543, 38.33], [140.98417, 38.3287]]}, "properties": {"id": "GEOM_TOKYO_3149", "route_id": "R_20E64CE3", "route_name": null, "route_color": "#3AA76D", "route_text_color": null, "line_name": "東北線", "operator_id": "jr_east", "representation": "service_path", "min_zoom": 0, "max_zoom": 24, "offset_rank": 0}}, {"type": "Feature", "bbox": [140.95446, 38.30072, 140.95654, 38.30125], "geometry": {"type": "LineString", "coordinates": [[140.95654, 38.30125], [140.95498, 38.30084], [140.95446, 38.30072]]}, "properties": {"id": "GEOM_TOKYO_3150", "route_id": "R_20E64CE3", "route_name": null, "route_color": "#3AA76D", "route_text_color": null, "line_name": "東北線", "operator_id": "jr_east", "representation": "service_path", "min_zoom": 0, "max_zoom": 24, "offset_rank": 0}}, {"type": "Feature", "bbox": [140.8823, 38.22812, 140.89446, 38.25813], "geometry": {"type": "LineString", "coordinates": [[140.88647, 38.22812], [140.88674, 38.22915], [140.88693, 38.22993], [140.88703, 38.23032], [140.88716, 38.23087], [140.88734, 38.23157], [140.88743, 38.23186], [140.8875, 38.23204], [140.88753, 38.23211], [140.88754, 38.23215], [140.88772, 38.23249], [140.88796, 38.23278], [140.88835, 38.23314], [140.88876, 38.23343], [140.88893, 38.23355], [140.88897, 38.23358], [140.88915, 38.2337], [140.88942, 38.23389], [140.88982, 38.23417], [140.8899, 38.23423], [140.89023, 38.23446], [140.89063, 38.23474], [140.89082, 38.23485], [140.89097, 38.23495], [140.89123, 38.23511], [140.89147, 38.23529], [140.89179, 38.23553], [140.89227, 38.23586], [140.89291, 38.23631], [140.89348, 38.23678], [140.8938, 38.23713], [140.89409, 38.23756], [140.89427, 38.23791], [140.89439, 38.23821], [140.89444, 38.23853], [140.89446, 38.23877], [140.89444, 38.23907], [140.89436, 38.23953], [140.89431, 38.23976], [140.89395, 38.241], [140.89365, 38.24213], [140.89322, 38.24361], [140.89317, 38.24379], [140.89312, 38.24398], [140.89289, 38.24477], [140.89286, 38.2449], [140.89281, 38.24505], [140.89252, 38.24611], [140.89232, 38.24666], [140.89228, 38.24675], [140.89224, 38.24683], [140.89222, 38.24687], [140.89219, 38.24693], [140.89211, 38.24706], [140.89165, 38.24764], [140.8911, 38.24819], [140.89084, 38.24839], [140.89066, 38.24853], [140.89011, 38.24897], [140.88887, 38.24992], [140.88765, 38.25088], [140.88674, 38.25156], [140.88535, 38.25265], [140.88491, 38.25297], [140.88456, 38.25326], [140.88405, 38.25373], [140.88361, 38.25416], [140.88337, 38.25443], [140.88318, 38.25467], [140.88293, 38.25501], [140.8829, 38.25506], [140.88271, 38.25543], [140.88258, 38.25572], [140.88244, 38.25611], [140.88241, 38.25623], [140.88236, 38.25645], [140.88232, 38.25684], [140.8823, 38.25717], [140.8823, 38.25722], [140.88232, 38.25767], [140.88234, 38.25813]]}, "properties": {"id": "GEOM_TOKYO_3152", "route_id": "R_20E64CE3", "route_name": null, "route_color": "#3AA76D", "route_text_color": null, "line_name": "東北線", "operator_id": "jr_east", "representation": "service_path", "min_zoom": 0, "max_zoom": 24, "offset_rank": 0}}, {"type": "Feature", "bbox": [141.06527, 38.39849, 141.08126, 38.43063], "geometry": {"type": "LineString", "coordinates": [[141.08126, 38.43063], [141.08039, 38.43012], [141.07817, 38.42891], [141.07746, 38.42848], [141.07688, 38.42816], [141.07638, 38.4279], [141.07615, 38.42777], [141.07591, 38.42763], [141.07549, 38.42734], [141.07512, 38.42702], [141.07481, 38.42671], [141.07447, 38.42634], [141.07418, 38.42598], [141.07381, 38.42541], [141.07355, 38.42492], [141.07334, 38.42428], [141.07321, 38.42367], [141.07315, 38.42306], [141.07311, 38.4225], [141.07315, 38.42198], [141.07322, 38.42157], [141.07341, 38.42098], [141.07376, 38.42012], [141.07386, 38.41984], [141.07391, 38.41963], [141.074, 38.41916], [141.07405, 38.41857], [141.07408, 38.41818], [141.07409, 38.41749], [141.07408, 38.41723], [141.07406, 38.41686], [141.07397, 38.41634], [141.07391, 38.41604], [141.07377, 38.41564], [141.07356, 38.41511], [141.07345, 38.41487], [141.07332, 38.41462], [141.07318, 38.41434], [141.07294, 38.41397], [141.07265, 38.41357], [141.07226, 38.41308], [141.07197, 38.41274], [141.0716, 38.41236], [141.07144, 38.41222], [141.07095, 38.41176], [141.07051, 38.41143], [141.07014, 38.41117], [141.06985, 38.4109], [141.06952, 38.4106], [141.06891, 38.40991], [141.06827, 38.40917], [141.06749, 38.40831], [141.06698, 38.40772], [141.06619, 38.40687], [141.06594, 38.40657], [141.06576, 38.40627], [141.06556, 38.40575], [141.06544, 38.40525], [141.06529, 38.40457], [141.06527, 38.40424], [141.06527, 38.40382], [141.06543, 38.40274], [141.06566, 38.40187], [141.06579, 38.40127], [141.06582, 38.40103], [141.06582, 38.40054], [141.06579, 38.40002], [141.06576, 38.39963], [141.06572, 38.39944], [141.06563, 38.39896], [141.06548, 38.39849]]}, "properties": {"id": "GEOM_TOKYO_3153", "route_id": "R_20E64CE3", "route_name": null, "route_color": "#3AA76D", "route_text_color": null, "line_name": "東北線", "operator_id": "jr_east", "representation": "service_path", "min_zoom": 0, "max_zoom": 24, "offset_rank": 0}}, {"type": "Feature", "bbox": [140.99391, 38.30092, 140.99565, 38.30131], "geometry": {"type": "LineString", "coordinates": [[140.99565, 38.30131], [140.9954, 38.30124], [140.99511, 38.30115], [140.99499, 38.30112], [140.99475, 38.30107], [140.99451, 38.30102], [140.99426, 38.30098], [140.99408, 38.30095], [140.99391, 38.30092]]}, "properties": {"id": "GEOM_TOKYO_3154", "route_id": "R_20E64CE3", "route_name": null, "route_color": "#3AA76D", "route_text_color": null, "line_name": "東北線", "operator_id": "jr_east", "representation": "service_path", "min_zoom": 0, "max_zoom": 24, "offset_rank": 0}}, {"type": "Feature", "bbox": [141.06201716000012, 38.37675905000009, 141.07331, 38.38256], "geometry": {"type": "LineString", "coordinates": [[141.06201716000012, 38.37675905000009], [141.06487, 38.37771], [141.06704527286686, 38.378447508183605], [141.06779, 38.3787], [141.06902, 38.37912], [141.06955, 38.3793], [141.07038, 38.3796], [141.07056, 38.37967], [141.07066, 38.37974], [141.07083, 38.37985], [141.07101, 38.38], [141.07119, 38.38018], [141.07126, 38.38025], [141.0713451995511, 38.380346006817], [141.07142812964977, 38.38044101996771], [141.0715795413763, 38.380611511386704], [141.07178044775702, 38.38083773375918], [141.07201480663275, 38.381101623044756], [141.072228993959, 38.38135074589363], [141.07286, 38.38207], [141.07331, 38.38256]]}, "properties": {"id": "GEOM_TOKYO_4093", "route_id": "R_20E64CE3", "route_name": null, "route_color": "#3AA76D", "route_text_color": null, "line_name": "東北線", "operator_id": "jr_east", "representation": "service_path", "min_zoom": 0, "max_zoom": 24, "offset_rank": 0}}, {"type": "Feature", "bbox": [141.07331, 38.38256, 141.07379, 38.38309], "geometry": {"type": "LineString", "coordinates": [[141.07379, 38.38309], [141.07331, 38.38256]]}, "properties": {"id": "GEOM_TOKYO_4124", "route_id": "R_20E64CE3", "route_name": null, "route_color": "#3AA76D", "route_text_color": null, "line_name": "東北線", "operator_id": "jr_east", "representation": "service_path", "min_zoom": 0, "max_zoom": 24, "offset_rank": 0}}, {"type": "Feature", "bbox": [141.05874363, 38.374913759999956, 141.06201716000012, 38.37675905000009], "geometry": {"type": "LineString", "coordinates": [[141.05874363, 38.374913759999956], [141.05957693, 38.375662410000245], [141.06027292000002, 38.37617399000003], [141.06087967999997, 38.37646548000005], [141.06146265000015, 38.37663799000007], [141.06201716000012, 38.37675905000009]]}, "properties": {"id": "GEOM_TOKYO_4132", "route_id": "R_20E64CE3", "route_name": null, "route_color": "#3AA76D", "route_text_color": null, "line_name": "東北線", "operator_id": "jr_east", "representation": "service_path", "min_zoom": 0, "max_zoom": 24, "offset_rank": 0}}]}