{"type": "FeatureCollection", "features": [{"type": "Feature", "bbox": [138.96582, 36.3548, 138.99996, 36.6856], "geometry": {"type": "LineString", "coordinates": [[138.99996, 36.3548], [138.99878, 36.3564], [138.99827, 36.35718], [138.99794, 36.35774], [138.99785, 36.35787], [138.99757, 36.35832], [138.99728, 36.3588], [138.99681, 36.35957], [138.99667, 36.35976], [138.9966, 36.35989], [138.99648, 36.36008], [138.99637, 36.36031], [138.99626, 36.3605], [138.99617, 36.36069], [138.99604, 36.36093], [138.99587, 36.36129], [138.99573, 36.36159], [138.99564, 36.36178], [138.99558, 36.36192], [138.99541, 36.36229], [138.99533, 36.36247], [138.99527, 36.36265], [138.99518, 36.36286], [138.99513, 36.36298], [138.99499, 36.36332], [138.99483, 36.36375], [138.99475, 36.36397], [138.9946, 36.36439], [138.99451, 36.36465], [138.99435, 36.36509], [138.99423, 36.36547], [138.99408, 36.36597], [138.99398, 36.36631], [138.99388, 36.36667], [138.99373, 36.36727], [138.99364, 36.36769], [138.99355, 36.36812], [138.99347, 36.36853], [138.99339, 36.36895], [138.99325, 36.36974], [138.99312, 36.37047], [138.99304, 36.37097], [138.99295, 36.3716], [138.99294, 36.37167], [138.99289, 36.37197], [138.9928, 36.37255], [138.99276, 36.37282], [138.99269, 36.37333], [138.99262, 36.37369], [138.99256, 36.3741], [138.99249, 36.37456], [138.99242, 36.37507], [138.99233, 36.37558], [138.99227, 36.37598], [138.99217, 36.37668], [138.99206, 36.37745], [138.992, 36.37789], [138.9919, 36.37847], [138.99181, 36.37907], [138.99172, 36.37967], [138.99167, 36.38003], [138.99161, 36.38045], [138.99158, 36.38062], [138.99154, 36.38086], [138.99145, 36.38147], [138.99134, 36.38215], [138.99128, 36.38266], [138.99122, 36.3831], [138.99114, 36.38355], [138.99112, 36.38372], [138.99104, 36.38424], [138.991, 36.38452], [138.99094, 36.3849], [138.99089, 36.38519], [138.99083, 36.38558], [138.99079, 36.38585], [138.99074, 36.38622], [138.99067, 36.3866], [138.99064, 36.38679], [138.9906, 36.38711], [138.99049, 36.38778], [138.99043, 36.38816], [138.99033, 36.38894], [138.99019, 36.38977], [138.99013, 36.39015], [138.99003, 36.39088], [138.98997, 36.3913], [138.98979, 36.39247], [138.98975, 36.39274], [138.98972, 36.39294], [138.98968, 36.39322], [138.98948, 36.39457], [138.98942, 36.39494], [138.98937, 36.39522], [138.98931, 36.39556], [138.98924, 36.39606], [138.98917, 36.39658], [138.98905, 36.39734], [138.98895, 36.3978], [138.98889, 36.39834], [138.98884, 36.39872], [138.98871, 36.39963], [138.98864, 36.40005], [138.98857, 36.40051], [138.98825, 36.40261], [138.98797, 36.4044], [138.98774, 36.4059], [138.98762, 36.40676], [138.98756, 36.40712], [138.9875, 36.40757], [138.98749, 36.40767], [138.98745, 36.4079], [138.98733, 36.40859], [138.98709, 36.41025], [138.98701, 36.41077], [138.98694, 36.41122], [138.9869, 36.41152], [138.9868, 36.41211], [138.98673, 36.41252], [138.98652, 36.41392], [138.98645, 36.41438], [138.9864, 36.41474], [138.98632, 36.41522], [138.98611, 36.41656], [138.98611, 36.41661], [138.98608, 36.41679], [138.98602, 36.41726], [138.98593, 36.4178], [138.98585, 36.41827], [138.9858, 36.41858], [138.98568, 36.41932], [138.98564, 36.4198], [138.98547, 36.42092], [138.98535, 36.42181], [138.98508, 36.42359], [138.98493, 36.42435], [138.9848, 36.42528], [138.98476, 36.42556], [138.98468, 36.42609], [138.98467, 36.42613], [138.98462, 36.4265], [138.98443, 36.4279], [138.98431, 36.42864], [138.98417, 36.42963], [138.9841, 36.4301], [138.98381, 36.43184], [138.98354, 36.43369], [138.98343, 36.4344], [138.98314, 36.43636], [138.98295, 36.43758], [138.98279, 36.43858], [138.98275, 36.43887], [138.9826, 36.4398], [138.98235, 36.44147], [138.9822, 36.44243], [138.98195, 36.44429], [138.98189, 36.44464], [138.98151, 36.4473], [138.98148, 36.44753], [138.98133, 36.44847], [138.98107, 36.45004], [138.98098, 36.45066], [138.98066, 36.45269], [138.98054, 36.45349], [138.98027, 36.45534], [138.98015, 36.45628], [138.98011, 36.45647], [138.9799, 36.45775], [138.97984, 36.45828], [138.97952, 36.46028], [138.97942, 36.46106], [138.97912, 36.46292], [138.97899, 36.46382], [138.97879, 36.46518], [138.97867, 36.46597], [138.97856, 36.4667], [138.97847, 36.46733], [138.97815, 36.46946], [138.97812, 36.4697], [138.97772, 36.4722], [138.97765, 36.47265], [138.97732, 36.47485], [138.97729, 36.47506], [138.9771, 36.47628], [138.97704, 36.47667], [138.97697, 36.47718], [138.97681, 36.47821], [138.97674, 36.47869], [138.97646, 36.48038], [138.97635, 36.48116], [138.97619, 36.48228], [138.97605, 36.4832], [138.97593, 36.48386], [138.97575, 36.48521], [138.97574, 36.48523], [138.97568, 36.48556], [138.97563, 36.48587], [138.97545, 36.48713], [138.97526, 36.48834], [138.97508, 36.48959], [138.97502, 36.49003], [138.97485, 36.49104], [138.97465, 36.49247], [138.97439, 36.49414], [138.97439, 36.49418], [138.9742, 36.49538], [138.97402, 36.49657], [138.97379, 36.49817], [138.97359, 36.4995], [138.97334, 36.50093], [138.97314, 36.50224], [138.97302, 36.50312], [138.97292, 36.50362], [138.97279, 36.50453], [138.97271, 36.50507], [138.97258, 36.50588], [138.97248, 36.50655], [138.97239, 36.507], [138.97224, 36.50815], [138.97212, 36.50883], [138.97208, 36.50904], [138.97201, 36.50947], [138.97194, 36.51005], [138.97188, 36.51046], [138.97178, 36.51097], [138.97174, 36.51129], [138.9717, 36.5116], [138.97161, 36.51208], [138.97156, 36.51249], [138.9715, 36.51285], [138.97145, 36.5132], [138.97137, 36.51359], [138.9713, 36.51401], [138.97127, 36.51437], [138.97119, 36.51517], [138.97115, 36.51575], [138.9711, 36.51642], [138.97108, 36.51678], [138.97103, 36.51749], [138.97101, 36.51793], [138.97101, 36.51801], [138.97098, 36.51857], [138.97093, 36.51907], [138.97089, 36.51955], [138.97089, 36.52012], [138.97086, 36.52053], [138.9708, 36.52107], [138.97077, 36.52167], [138.97075, 36.52207], [138.97071, 36.5227], [138.97068, 36.52333], [138.97065, 36.52379], [138.97062, 36.52423], [138.9706, 36.52464], [138.97056, 36.52518], [138.97053, 36.52564], [138.97049, 36.52617], [138.97046, 36.52672], [138.97043, 36.52701], [138.9704, 36.52745], [138.97038, 36.52791], [138.97034, 36.52854], [138.97031, 36.52893], [138.97027, 36.52957], [138.97027, 36.52962], [138.97023, 36.53014], [138.97021, 36.5307], [138.97017, 36.53121], [138.97012, 36.53179], [138.97009, 36.53235], [138.97004, 36.53311], [138.97001, 36.53369], [138.96997, 36.53423], [138.96992, 36.53514], [138.96988, 36.53564], [138.96986, 36.53608], [138.9698, 36.53709], [138.96979, 36.53743], [138.96974, 36.53794], [138.96973, 36.53848], [138.96972, 36.53858], [138.9697, 36.53889], [138.96967, 36.53935], [138.96963, 36.5398], [138.96961, 36.54022], [138.96958, 36.54069], [138.96956, 36.54105], [138.96952, 36.54151], [138.96951, 36.54185], [138.96947, 36.54239], [138.96945, 36.5429], [138.96943, 36.54306], [138.96941, 36.54345], [138.9694, 36.54371], [138.96933, 36.54436], [138.9693, 36.54467], [138.9693, 36.54474], [138.9693, 36.54517], [138.96928, 36.54538], [138.96925, 36.54571], [138.96922, 36.54629], [138.96919, 36.54674], [138.96916, 36.54732], [138.96913, 36.54773], [138.96911, 36.54813], [138.96908, 36.54856], [138.96904, 36.5493], [138.969, 36.54963], [138.969, 36.54984], [138.96897, 36.55036], [138.96894, 36.55076], [138.96892, 36.55111], [138.96889, 36.55168], [138.96885, 36.55211], [138.96882, 36.55252], [138.9688, 36.55297], [138.96877, 36.55343], [138.96876, 36.55368], [138.96875, 36.55392], [138.96872, 36.55432], [138.96869, 36.55475], [138.96867, 36.55511], [138.96865, 36.55553], [138.96862, 36.55594], [138.96858, 36.55648], [138.96855, 36.55697], [138.96851, 36.5576], [138.96847, 36.55815], [138.96845, 36.55863], [138.9684, 36.55919], [138.96838, 36.55973], [138.96833, 36.5602], [138.9683, 36.56062], [138.96827, 36.56118], [138.96824, 36.5617], [138.96821, 36.56239], [138.96819, 36.56268], [138.96818, 36.56281], [138.96814, 36.56335], [138.96811, 36.56378], [138.96808, 36.56419], [138.96805, 36.56471], [138.96802, 36.56523], [138.96798, 36.56575], [138.96795, 36.56626], [138.96793, 36.56672], [138.96788, 36.56716], [138.96787, 36.56762], [138.96783, 36.568], [138.96781, 36.56846], [138.9678, 36.56881], [138.96776, 36.56927], [138.96773, 36.56968], [138.96771, 36.56998], [138.9677, 36.5703], [138.96767, 36.57063], [138.96765, 36.57096], [138.96764, 36.57124], [138.96761, 36.57157], [138.96761, 36.57168], [138.9676, 36.57189], [138.96756, 36.57232], [138.96754, 36.57271], [138.96754, 36.57304], [138.96749, 36.57352], [138.96747, 36.57381], [138.96745, 36.57434], [138.96743, 36.57471], [138.96743, 36.57495], [138.96742, 36.57546], [138.96742, 36.5759], [138.96742, 36.57634], [138.96742, 36.57688], [138.96744, 36.57752], [138.96743, 36.57792], [138.96746, 36.57834], [138.9675, 36.57873], [138.96751, 36.57905], [138.96754, 36.57952], [138.96757, 36.57986], [138.9676, 36.58024], [138.96761, 36.58053], [138.96764, 36.58069], [138.96768, 36.58092], [138.96775, 36.58152], [138.96783, 36.58224], [138.96789, 36.58265], [138.96797, 36.58314], [138.96803, 36.58354], [138.9681, 36.58401], [138.96817, 36.58442], [138.96823, 36.58482], [138.96827, 36.58513], [138.96833, 36.58556], [138.96838, 36.58594], [138.96843, 36.58627], [138.96846, 36.58645], [138.96849, 36.58682], [138.96851, 36.58737], [138.9685, 36.58778], [138.9684, 36.5891], [138.96828, 36.58969], [138.96801, 36.59058], [138.96753, 36.59182], [138.96701, 36.59331], [138.96671, 36.59439], [138.96664, 36.59462], [138.96629, 36.59596], [138.96614, 36.59707], [138.96598, 36.5986], [138.96592, 36.59956], [138.96589, 36.59999], [138.96586, 36.60046], [138.96585, 36.601], [138.96583, 36.60153], [138.96582, 36.60216], [138.96582, 36.60293], [138.96583, 36.60335], [138.96585, 36.60398], [138.96592, 36.60535], [138.96596, 36.60593], [138.96604, 36.6071], [138.96612, 36.60774], [138.96625, 36.60891], [138.96645, 36.61018], [138.96657, 36.61086], [138.96687, 36.61226], [138.96688, 36.61232], [138.96702, 36.61296], [138.96727, 36.61409], [138.96746, 36.61489], [138.96771, 36.61592], [138.9679, 36.61674], [138.96817, 36.61786], [138.96845, 36.61907], [138.96877, 36.62046], [138.96895, 36.62117], [138.96906, 36.62165], [138.96928, 36.62258], [138.96971, 36.6244], [138.97003, 36.62574], [138.97026, 36.62681], [138.97033, 36.62702], [138.97046, 36.62766], [138.97084, 36.62913], [138.97103, 36.63006], [138.97121, 36.63076], [138.97144, 36.63174], [138.97164, 36.6326], [138.97195, 36.63387], [138.97214, 36.63466], [138.97237, 36.6357], [138.97251, 36.63626], [138.97262, 36.63679], [138.97275, 36.6373], [138.9728, 36.63749], [138.97303, 36.63846], [138.97332, 36.63969], [138.97349, 36.64044], [138.97366, 36.64113], [138.97402, 36.64271], [138.97447, 36.64452], [138.97472, 36.64561], [138.97484, 36.64616], [138.97513, 36.64738], [138.97552, 36.64898], [138.97596, 36.65086], [138.97623, 36.65203], [138.97637, 36.65266], [138.97676, 36.65425], [138.97698, 36.65519], [138.97723, 36.65626], [138.97742, 36.65711], [138.97758, 36.65778], [138.97764, 36.65801], [138.97804, 36.65973], [138.97836, 36.66108], [138.97867, 36.66244], [138.97906, 36.66404], [138.97929, 36.66501], [138.97944, 36.66567], [138.97967, 36.66664], [138.97988, 36.66753], [138.97994, 36.66774], [138.98012, 36.66859], [138.98039, 36.66977], [138.9805, 36.67008], [138.98059, 36.6718], [138.98065, 36.67359], [138.98064, 36.67456], [138.98061, 36.67553], [138.98052, 36.67678], [138.98041, 36.67762], [138.98032, 36.67833], [138.98013, 36.67942], [138.97969, 36.6818], [138.97955, 36.68255], [138.97937, 36.68355], [138.97911, 36.68493], [138.97897, 36.6856]]}, "properties": {"id": "GEOM_TOKYO_2411", "route_id": "R_D6BC8A01", "route_name": null, "route_color": "#E65045", "route_text_color": null, "line_name": "上越新幹線", "operator_id": "jr_east", "representation": "service_path", "min_zoom": 0, "max_zoom": 24, "offset_rank": 0}}, {"type": "Feature", "bbox": [139.04673, 36.60097, 139.04833, 36.60335], "geometry": {"type": "LineString", "coordinates": [[139.04833, 36.60097], [139.04817, 36.60138], [139.04801, 36.60166], [139.04784, 36.60194], [139.0476, 36.60227], [139.04728, 36.60267], [139.04696, 36.60308], [139.04673, 36.60335]]}, "properties": {"id": "GEOM_TOKYO_2458", "route_id": "R_C0AFF1D8", "route_name": null, "route_color": "#00A7E3", "route_text_color": null, "line_name": "上越線", "operator_id": "jr_east", "representation": "service_path", "min_zoom": 0, "max_zoom": 24, "offset_rank": 0}}, {"type": "Feature", "bbox": [138.97943, 36.68015, 138.99929, 36.73466], "geometry": {"type": "LineString", "coordinates": [[138.99929, 36.68015], [138.99845, 36.68079], [138.99799, 36.68114], [138.99785, 36.68125], [138.99772, 36.68136], [138.99759, 36.68147], [138.99748, 36.68158], [138.99742, 36.68164], [138.99739, 36.68168], [138.99733, 36.68175], [138.99727, 36.68184], [138.9968, 36.6824], [138.99666, 36.6826], [138.99656, 36.68283], [138.9964, 36.68334], [138.99619, 36.68401], [138.99599, 36.6847], [138.99598, 36.68476], [138.99583, 36.6852], [138.99566, 36.68571], [138.99524, 36.68679], [138.99505, 36.68725], [138.99489, 36.68772], [138.99465, 36.68832], [138.99448, 36.68879], [138.99428, 36.68925], [138.99411, 36.68971], [138.9938, 36.69029], [138.99352, 36.69073], [138.99304, 36.69151], [138.99276, 36.69198], [138.99255, 36.69241], [138.99235, 36.69288], [138.99227, 36.69317], [138.99221, 36.69341], [138.99197, 36.69405], [138.99174, 36.69452], [138.99149, 36.69491], [138.99117, 36.69529], [138.99087, 36.69559], [138.99045, 36.69594], [138.99013, 36.69616], [138.9898, 36.69637], [138.98948, 36.69653], [138.9892, 36.69665], [138.98902, 36.69672], [138.98849, 36.69688], [138.98799, 36.697], [138.98746, 36.69712], [138.98678, 36.69742], [138.98639, 36.69759], [138.98523, 36.69837], [138.98441, 36.69892], [138.98416, 36.69909], [138.98394, 36.69926], [138.9839, 36.69929], [138.98328, 36.69987], [138.9829, 36.70033], [138.98252, 36.70089], [138.982, 36.70186], [138.98192, 36.702], [138.98161, 36.70254], [138.981, 36.70362], [138.98072, 36.70415], [138.98061, 36.70434], [138.98055, 36.70446], [138.98023, 36.70499], [138.98021, 36.70503], [138.97988, 36.70561], [138.97949, 36.70667], [138.97943, 36.70741], [138.97943, 36.7079], [138.97949, 36.7084], [138.97955, 36.70887], [138.97972, 36.71], [138.97982, 36.71065], [138.97986, 36.71083], [138.97989, 36.71097], [138.97994, 36.71114], [138.98013, 36.71164], [138.98021, 36.7119], [138.98025, 36.71206], [138.98031, 36.71234], [138.98036, 36.713], [138.9804, 36.71357], [138.98042, 36.71387], [138.98046, 36.71447], [138.98046, 36.71462], [138.98055, 36.71569], [138.9807, 36.71649], [138.98085, 36.71694], [138.98091, 36.71714], [138.98101, 36.71732], [138.98115, 36.71759], [138.98135, 36.71788], [138.98158, 36.71817], [138.98194, 36.71859], [138.98209, 36.71879], [138.98223, 36.71903], [138.98242, 36.71939], [138.983, 36.72066], [138.98305, 36.72078], [138.98329, 36.72128], [138.98343, 36.72162], [138.98354, 36.72196], [138.98359, 36.72209], [138.98363, 36.72225], [138.98366, 36.7225], [138.98365, 36.72284], [138.98363, 36.72303], [138.98357, 36.72321], [138.98351, 36.72336], [138.98339, 36.72361], [138.98332, 36.72376], [138.98317, 36.72402], [138.98294, 36.72439], [138.98266, 36.72492], [138.9825, 36.72524], [138.98238, 36.72557], [138.98227, 36.72595], [138.98214, 36.72642], [138.98211, 36.72678], [138.98213, 36.72719], [138.98221, 36.72763], [138.98231, 36.72795], [138.98238, 36.72812], [138.98245, 36.72828], [138.98256, 36.72846], [138.98263, 36.72856], [138.98285, 36.72887], [138.98298, 36.72906], [138.98316, 36.72935], [138.98327, 36.72954], [138.98338, 36.72976], [138.98345, 36.72992], [138.98353, 36.73012], [138.98361, 36.73036], [138.9837, 36.73071], [138.98374, 36.73091], [138.98394, 36.73205], [138.98439, 36.73466]]}, "properties": {"id": "GEOM_TOKYO_2462", "route_id": "R_C0AFF1D8", "route_name": null, "route_color": "#00A7E3", "route_text_color": null, "line_name": "上越線", "operator_id": "jr_east", "representation": "service_path", "min_zoom": 0, "max_zoom": 24, "offset_rank": 0}}, {"type": "Feature", "bbox": [139.03471, 36.62466, 139.03994, 36.63216], "geometry": {"type": "LineString", "coordinates": [[139.03487, 36.62466], [139.03475, 36.62506], [139.03472, 36.62517], [139.03471, 36.62551], [139.03473, 36.62579], [139.03476, 36.62603], [139.03487, 36.62633], [139.03508, 36.62675], [139.03529, 36.62713], [139.03552, 36.62749], [139.03588, 36.62801], [139.03614, 36.62833], [139.03654, 36.62881], [139.03682, 36.6291], [139.03732, 36.62959], [139.03762, 36.62991], [139.03809, 36.63038], [139.03893, 36.63118], [139.03937, 36.63163], [139.03994, 36.63216]]}, "properties": {"id": "GEOM_TOKYO_2466", "route_id": "R_C0AFF1D8", "route_name": null, "route_color": "#00A7E3", "route_text_color": null, "line_name": "上越線", "operator_id": "jr_east", "representation": "service_path", "min_zoom": 0, "max_zoom": 24, "offset_rank": 0}}, {"type": "Feature", "bbox": [139.03491, 36.64124, 139.03638, 36.64335], "geometry": {"type": "LineString", "coordinates": [[139.03638, 36.64124], [139.03491, 36.64335]]}, "properties": {"id": "GEOM_TOKYO_2467", "route_id": "R_C0AFF1D8", "route_name": null, "route_color": "#00A7E3", "route_text_color": null, "line_name": "上越線", "operator_id": "jr_east", "representation": "service_path", "min_zoom": 0, "max_zoom": 24, "offset_rank": 0}}, {"type": "Feature", "bbox": [138.99929, 36.67895, 139.00094, 36.68015], "geometry": {"type": "LineString", "coordinates": [[139.00094, 36.67895], [139.00055, 36.67923], [138.99952, 36.67998], [138.99929, 36.68015]]}, "properties": {"id": "GEOM_TOKYO_2470", "route_id": "R_C0AFF1D8", "route_name": null, "route_color": "#00A7E3", "route_text_color": null, "line_name": "上越線", "operator_id": "jr_east", "representation": "service_path", "min_zoom": 0, "max_zoom": 24, "offset_rank": 0}}, {"type": "Feature", "bbox": [139.03638, 36.63216, 139.04036, 36.64124], "geometry": {"type": "LineString", "coordinates": [[139.03638, 36.64124], [139.03649, 36.64106], [139.0367, 36.64075], [139.03691, 36.64046], [139.03692, 36.64043], [139.03696, 36.6404], [139.03711, 36.64018], [139.03725, 36.63999], [139.03732, 36.63988], [139.03741, 36.63975], [139.03748, 36.63966], [139.03855, 36.63811], [139.03905, 36.63734], [139.03906, 36.63729], [139.03908, 36.63728], [139.03926, 36.63699], [139.0396, 36.63637], [139.03972, 36.63612], [139.03998, 36.63553], [139.04005, 36.63537], [139.04009, 36.63525], [139.04019, 36.63486], [139.04024, 36.63469], [139.04031, 36.6343], [139.04035, 36.63388], [139.04036, 36.63365], [139.04034, 36.63334], [139.04032, 36.63313], [139.0403, 36.63309], [139.04029, 36.63299], [139.04028, 36.63292], [139.04024, 36.63277], [139.04017, 36.6326], [139.04011, 36.63245], [139.03994, 36.63216]]}, "properties": {"id": "GEOM_TOKYO_2471", "route_id": "R_C0AFF1D8", "route_name": null, "route_color": "#00A7E3", "route_text_color": null, "line_name": "上越線", "operator_id": "jr_east", "representation": "service_path", "min_zoom": 0, "max_zoom": 24, "offset_rank": 0}}, {"type": "Feature", "bbox": [139.03487, 36.61158, 139.04187, 36.62466], "geometry": {"type": "LineString", "coordinates": [[139.03487, 36.62466], [139.03491, 36.62448], [139.03498, 36.6243], [139.03504, 36.62416], [139.0352, 36.62385], [139.03546, 36.62346], [139.03576, 36.62313], [139.03599, 36.62294], [139.0362, 36.6228], [139.03654, 36.62257], [139.03689, 36.62238], [139.03741, 36.62212], [139.03805, 36.62179], [139.03807, 36.62178], [139.03851, 36.62154], [139.03891, 36.62131], [139.03926, 36.62107], [139.0396, 36.62077], [139.04002, 36.62032], [139.04005, 36.62029], [139.04016, 36.62014], [139.04043, 36.61975], [139.04051, 36.61957], [139.04062, 36.61931], [139.04069, 36.61897], [139.04074, 36.61866], [139.0408, 36.61845], [139.04087, 36.61825], [139.04097, 36.61803], [139.04107, 36.61786], [139.04127, 36.61751], [139.04137, 36.61733], [139.04143, 36.61726], [139.04148, 36.61713], [139.04158, 36.61691], [139.04166, 36.61669], [139.04178, 36.61632], [139.04185, 36.61605], [139.04187, 36.61581], [139.04187, 36.61555], [139.04185, 36.61519], [139.04179, 36.61476], [139.0417, 36.61416], [139.04148, 36.61273], [139.04139, 36.61203], [139.04133, 36.61158]]}, "properties": {"id": "GEOM_TOKYO_2478", "route_id": "R_C0AFF1D8", "route_name": null, "route_color": "#00A7E3", "route_text_color": null, "line_name": "上越線", "operator_id": "jr_east", "representation": "service_path", "min_zoom": 0, "max_zoom": 24, "offset_rank": 0}}, {"type": "Feature", "bbox": [139.00094, 36.64335, 139.03491, 36.67895], "geometry": {"type": "LineString", "coordinates": [[139.00094, 36.67895], [139.00158, 36.67847], [139.00272, 36.67762], [139.00387, 36.67679], [139.00415, 36.67659], [139.00575, 36.67543], [139.00718, 36.67438], [139.00818, 36.67365], [139.00918, 36.67292], [139.0095, 36.67269], [139.01051, 36.67195], [139.01126, 36.67137], [139.01249, 36.67034], [139.01321, 36.66977], [139.01328, 36.66971], [139.01498, 36.66824], [139.01563, 36.66769], [139.01658, 36.6669], [139.01693, 36.6666], [139.01697, 36.66657], [139.01748, 36.66614], [139.01804, 36.66569], [139.01817, 36.66558], [139.01879, 36.66505], [139.01969, 36.6643], [139.01985, 36.66416], [139.01998, 36.66405], [139.02012, 36.66394], [139.02021, 36.66386], [139.02144, 36.66284], [139.02166, 36.66267], [139.02194, 36.66242], [139.02257, 36.6619], [139.02279, 36.66173], [139.02292, 36.66162], [139.02311, 36.66147], [139.02323, 36.66135], [139.02369, 36.66097], [139.0238, 36.66088], [139.02472, 36.66012], [139.02505, 36.65985], [139.02583, 36.65915], [139.02612, 36.65885], [139.02626, 36.65867], [139.02637, 36.65854], [139.02645, 36.65843], [139.02655, 36.6583], [139.02668, 36.65811], [139.02672, 36.65802], [139.02684, 36.65776], [139.02695, 36.65751], [139.02756, 36.6562], [139.02765, 36.656], [139.02775, 36.65579], [139.0279, 36.65547], [139.02802, 36.65521], [139.0281, 36.65504], [139.02817, 36.65487], [139.02825, 36.65473], [139.02831, 36.6546], [139.02839, 36.65441], [139.02847, 36.65423], [139.02903, 36.65302], [139.02913, 36.65278], [139.02997, 36.6509], [139.03002, 36.6508], [139.03007, 36.65066], [139.03038, 36.64999], [139.03038, 36.64998], [139.03041, 36.64995], [139.03047, 36.64984], [139.03071, 36.64946], [139.03096, 36.6491], [139.03111, 36.64889], [139.0312, 36.64874], [139.03165, 36.64811], [139.0318, 36.64788], [139.03187, 36.64774], [139.03206, 36.64748], [139.03222, 36.64724], [139.03242, 36.64696], [139.03249, 36.64685], [139.03328, 36.6457], [139.03358, 36.64527], [139.03369, 36.6451], [139.03382, 36.64492], [139.03397, 36.6447], [139.03409, 36.64452], [139.0342, 36.64436], [139.03439, 36.64412], [139.03491, 36.64335]]}, "properties": {"id": "GEOM_TOKYO_2494", "route_id": "R_C0AFF1D8", "route_name": null, "route_color": "#00A7E3", "route_text_color": null, "line_name": "上越線", "operator_id": "jr_east", "representation": "service_path", "min_zoom": 0, "max_zoom": 24, "offset_rank": 0}}, {"type": "Feature", "bbox": [139.03483, 36.62466, 139.03994, 36.63216], "geometry": {"type": "LineString", "coordinates": [[139.03487, 36.62466], [139.03484, 36.62499], [139.03483, 36.62518], [139.03483, 36.62542], [139.03487, 36.62567], [139.03495, 36.62601], [139.03504, 36.62623], [139.03528, 36.62664], [139.03559, 36.62716], [139.03581, 36.62747], [139.03596, 36.62768], [139.03616, 36.62793], [139.03642, 36.62824], [139.03672, 36.6286], [139.03697, 36.6289], [139.03739, 36.62931], [139.0379, 36.62982], [139.03828, 36.63019], [139.03911, 36.63101], [139.03947, 36.63145], [139.03994, 36.63216]]}, "properties": {"id": "GEOM_TOKYO_2497", "route_id": "R_C0AFF1D8", "route_name": null, "route_color": "#00A7E3", "route_text_color": null, "line_name": "上越線", "operator_id": "jr_east", "representation": "service_path", "min_zoom": 0, "max_zoom": 24, "offset_rank": 0}}, {"type": "Feature", "bbox": [139.04307, 36.55845, 139.04427, 36.56067], "geometry": {"type": "LineString", "coordinates": [[139.04307, 36.56067], [139.04345, 36.55999], [139.04361, 36.55968], [139.04393, 36.5591], [139.04427, 36.55845]]}, "properties": {"id": "GEOM_TOKYO_2509", "route_id": "R_C0AFF1D8", "route_name": null, "route_color": "#00A7E3", "route_text_color": null, "line_name": "上越線", "operator_id": "jr_east", "representation": "service_path", "min_zoom": 0, "max_zoom": 24, "offset_rank": 0}}, {"type": "Feature", "bbox": [139.00665, 36.4651, 139.01901, 36.48986], "geometry": {"type": "LineString", "coordinates": [[139.0083, 36.48986], [139.00818, 36.48948], [139.00809, 36.48924], [139.00797, 36.48889], [139.0079, 36.48871], [139.00786, 36.48858], [139.0078, 36.48843], [139.00728, 36.48702], [139.00694, 36.4861], [139.00684, 36.48579], [139.00678, 36.48561], [139.00668, 36.48519], [139.00665, 36.48492], [139.00665, 36.4846], [139.00671, 36.48402], [139.00673, 36.4839], [139.00682, 36.48299], [139.00686, 36.48263], [139.00689, 36.4824], [139.00693, 36.48204], [139.00697, 36.48153], [139.0071, 36.48022], [139.00713, 36.47988], [139.00715, 36.47976], [139.00716, 36.47966], [139.00717, 36.47956], [139.00725, 36.47907], [139.0073, 36.4788], [139.00735, 36.47866], [139.00751, 36.47814], [139.00771, 36.47767], [139.00776, 36.47755], [139.00781, 36.47746], [139.00786, 36.47738], [139.00804, 36.47707], [139.00823, 36.47684], [139.00841, 36.47665], [139.00887, 36.47621], [139.00983, 36.47535], [139.01036, 36.47489], [139.01062, 36.47466], [139.0108, 36.4745], [139.01124, 36.47411], [139.01193, 36.47351], [139.01248, 36.47306], [139.01318, 36.47257], [139.01374, 36.47219], [139.01385, 36.47212], [139.01397, 36.47203], [139.01471, 36.47152], [139.01483, 36.47144], [139.01536, 36.47108], [139.01547, 36.47101], [139.01566, 36.47088], [139.01591, 36.47071], [139.01609, 36.47058], [139.01639, 36.47036], [139.0166, 36.47022], [139.01669, 36.47016], [139.01707, 36.46986], [139.01739, 36.46957], [139.01751, 36.46946], [139.01758, 36.46938], [139.01781, 36.4691], [139.01804, 36.46878], [139.01828, 36.46834], [139.01832, 36.46822], [139.01835, 36.46818], [139.0184, 36.46806], [139.01849, 36.46778], [139.01855, 36.46753], [139.01899, 36.46521], [139.01901, 36.4651]]}, "properties": {"id": "GEOM_TOKYO_2510", "route_id": "R_C0AFF1D8", "route_name": null, "route_color": "#00A7E3", "route_text_color": null, "line_name": "上越線", "operator_id": "jr_east", "representation": "service_path", "min_zoom": 0, "max_zoom": 24, "offset_rank": 0}}, {"type": "Feature", "bbox": [139.0083, 36.48986, 139.00928, 36.4926], "geometry": {"type": "LineString", "coordinates": [[139.0083, 36.48986], [139.00928, 36.4926]]}, "properties": {"id": "GEOM_TOKYO_2511", "route_id": "R_C0AFF1D8", "route_name": null, "route_color": "#00A7E3", "route_text_color": null, "line_name": "上越線", "operator_id": "jr_east", "representation": "service_path", "min_zoom": 0, "max_zoom": 24, "offset_rank": 0}}, {"type": "Feature", "bbox": [139.0102, 36.49523, 139.02151, 36.49894], "geometry": {"type": "LineString", "coordinates": [[139.0102, 36.49523], [139.0104, 36.49557], [139.01062, 36.49578], [139.01076, 36.49591], [139.01098, 36.49612], [139.01117, 36.49626], [139.01137, 36.4964], [139.01156, 36.49652], [139.01179, 36.49664], [139.01205, 36.49679], [139.01227, 36.4969], [139.01246, 36.49699], [139.01259, 36.49704], [139.01285, 36.49713], [139.01308, 36.4972], [139.01334, 36.49725], [139.01362, 36.49729], [139.01417, 36.49731], [139.01461, 36.49731], [139.01572, 36.49734], [139.01629, 36.49735], [139.01662, 36.49736], [139.01736, 36.49736], [139.01759, 36.49736], [139.0178, 36.49737], [139.01805, 36.49737], [139.01822, 36.49738], [139.01853, 36.49739], [139.01868, 36.49742], [139.01895, 36.49747], [139.01941, 36.49762], [139.01974, 36.49773], [139.02004, 36.49786], [139.02036, 36.49799], [139.02057, 36.49809], [139.02075, 36.49819], [139.02087, 36.49829], [139.02102, 36.49842], [139.02121, 36.49862], [139.02151, 36.49894]]}, "properties": {"id": "GEOM_TOKYO_2512", "route_id": "R_C0AFF1D8", "route_name": null, "route_color": "#00A7E3", "route_text_color": null, "line_name": "上越線", "operator_id": "jr_east", "representation": "service_path", "min_zoom": 0, "max_zoom": 24, "offset_rank": 0}}, {"type": "Feature", "bbox": [139.0102, 36.49523, 139.02151, 36.49894], "geometry": {"type": "LineString", "coordinates": [[139.0102, 36.49523], [139.0104, 36.49565], [139.01055, 36.49589], [139.01066, 36.49603], [139.01077, 36.49616], [139.01096, 36.49634], [139.01149, 36.49674], [139.01192, 36.497], [139.01235, 36.49723], [139.01274, 36.4974], [139.01314, 36.49752], [139.01335, 36.49757], [139.01352, 36.49759], [139.01404, 36.49761], [139.01455, 36.49761], [139.01571, 36.49763], [139.01629, 36.49763], [139.01697, 36.49764], [139.01747, 36.49765], [139.01779, 36.49765], [139.01802, 36.49767], [139.0183, 36.49768], [139.01856, 36.4977], [139.01875, 36.49772], [139.01897, 36.49776], [139.01926, 36.49783], [139.01967, 36.49797], [139.01992, 36.49806], [139.0202, 36.49819], [139.02079, 36.49847], [139.02116, 36.49868], [139.02151, 36.49894]]}, "properties": {"id": "GEOM_TOKYO_2513", "route_id": "R_C0AFF1D8", "route_name": null, "route_color": "#00A7E3", "route_text_color": null, "line_name": "上越線", "operator_id": "jr_east", "representation": "service_path", "min_zoom": 0, "max_zoom": 24, "offset_rank": 0}}, {"type": "Feature", "bbox": [139.03378, 36.53675, 139.03409, 36.53836], "geometry": {"type": "LineString", "coordinates": [[139.03378, 36.53836], [139.03409, 36.53675]]}, "properties": {"id": "GEOM_TOKYO_2514", "route_id": "R_C0AFF1D8", "route_name": null, "route_color": "#00A7E3", "route_text_color": null, "line_name": "上越線", "operator_id": "jr_east", "representation": "service_path", "min_zoom": 0, "max_zoom": 24, "offset_rank": 0}}, {"type": "Feature", "bbox": [139.03282, 36.53836, 139.03432, 36.54697], "geometry": {"type": "LineString", "coordinates": [[139.03378, 36.53836], [139.03378, 36.53844], [139.03364, 36.53914], [139.03357, 36.53952], [139.03347, 36.54014], [139.0333, 36.541], [139.03323, 36.54142], [139.03315, 36.54185], [139.03291, 36.54313], [139.03285, 36.54344], [139.03282, 36.5437], [139.03282, 36.54413], [139.03283, 36.54433], [139.03287, 36.54466], [139.03289, 36.54486], [139.03295, 36.54519], [139.03303, 36.54543], [139.03313, 36.54566], [139.03327, 36.54589], [139.03349, 36.54618], [139.03371, 36.54641], [139.0341, 36.5468], [139.03421, 36.54688], [139.03431, 36.54697], [139.03432, 36.54697]]}, "properties": {"id": "GEOM_TOKYO_2515", "route_id": "R_C0AFF1D8", "route_name": null, "route_color": "#00A7E3", "route_text_color": null, "line_name": "上越線", "operator_id": "jr_east", "representation": "service_path", "min_zoom": 0, "max_zoom": 24, "offset_rank": 0}}, {"type": "Feature", "bbox": [139.00928, 36.4926, 139.0102, 36.49523], "geometry": {"type": "LineString", "coordinates": [[139.00928, 36.4926], [139.00935, 36.4928], [139.0094, 36.49292], [139.00944, 36.49306], [139.0095, 36.4932], [139.00954, 36.49331], [139.00965, 36.49363], [139.00981, 36.49407], [139.00989, 36.49429], [139.00998, 36.49454], [139.01007, 36.49479], [139.01012, 36.49493], [139.01016, 36.49506], [139.0102, 36.49523]]}, "properties": {"id": "GEOM_TOKYO_2516", "route_id": "R_C0AFF1D8", "route_name": null, "route_color": "#00A7E3", "route_text_color": null, "line_name": "上越線", "operator_id": "jr_east", "representation": "service_path", "min_zoom": 0, "max_zoom": 24, "offset_rank": 0}}, {"type": "Feature", "bbox": [139.03431, 36.54697, 139.04457, 36.55845], "geometry": {"type": "LineString", "coordinates": [[139.03431, 36.54697], [139.03445, 36.54716], [139.03456, 36.54729], [139.03482, 36.54756], [139.03496, 36.54777], [139.03514, 36.54807], [139.03523, 36.54822], [139.0353, 36.54839], [139.03532, 36.54851], [139.0354, 36.54898], [139.03542, 36.54922], [139.0355, 36.54969], [139.0356, 36.55007], [139.03578, 36.55054], [139.03604, 36.55107], [139.03618, 36.55128], [139.03627, 36.55141], [139.03668, 36.55183], [139.03687, 36.55197], [139.0371, 36.55212], [139.03731, 36.55222], [139.03759, 36.55233], [139.03809, 36.5525], [139.03859, 36.55265], [139.03925, 36.5528], [139.0394, 36.55283], [139.03968, 36.55289], [139.03978, 36.55292], [139.03991, 36.55294], [139.04087, 36.55314], [139.0413, 36.55323], [139.04154, 36.5533], [139.04201, 36.55352], [139.04232, 36.5537], [139.04249, 36.5538], [139.04261, 36.55386], [139.04279, 36.55399], [139.04294, 36.55408], [139.04312, 36.55418], [139.04331, 36.5543], [139.04335, 36.55433], [139.04355, 36.55452], [139.04393, 36.55492], [139.04403, 36.55506], [139.04414, 36.55521], [139.04429, 36.55547], [139.04435, 36.55562], [139.04445, 36.55595], [139.04449, 36.55617], [139.04452, 36.55634], [139.04455, 36.55657], [139.04457, 36.55712], [139.04452, 36.55759], [139.04448, 36.55784], [139.04438, 36.55811], [139.04427, 36.55845]]}, "properties": {"id": "GEOM_TOKYO_2517", "route_id": "R_C0AFF1D8", "route_name": null, "route_color": "#00A7E3", "route_text_color": null, "line_name": "上越線", "operator_id": "jr_east", "representation": "service_path", "min_zoom": 0, "max_zoom": 24, "offset_rank": 0}}, {"type": "Feature", "bbox": [139.02151, 36.49894, 139.03497, 36.53675], "geometry": {"type": "LineString", "coordinates": [[139.03409, 36.53675], [139.03419, 36.53623], [139.03428, 36.53572], [139.03439, 36.53507], [139.03447, 36.5346], [139.03456, 36.53404], [139.03457, 36.53399], [139.03461, 36.53367], [139.03474, 36.53294], [139.03483, 36.53246], [139.03495, 36.53181], [139.03497, 36.53156], [139.03497, 36.53132], [139.03494, 36.53099], [139.03489, 36.53075], [139.0348, 36.53046], [139.03467, 36.53013], [139.03458, 36.52992], [139.03446, 36.52972], [139.03425, 36.52947], [139.03405, 36.52925], [139.03386, 36.52908], [139.03361, 36.52889], [139.03343, 36.52876], [139.03318, 36.52859], [139.03305, 36.52849], [139.03288, 36.52834], [139.0327, 36.52816], [139.03253, 36.52795], [139.03239, 36.52776], [139.03223, 36.52751], [139.03206, 36.52719], [139.03195, 36.52693], [139.03182, 36.5266], [139.03173, 36.52635], [139.03159, 36.52587], [139.03156, 36.52575], [139.03152, 36.52561], [139.03133, 36.52493], [139.03118, 36.52439], [139.03109, 36.52403], [139.0309, 36.52331], [139.03074, 36.52263], [139.03061, 36.52214], [139.03049, 36.52168], [139.03042, 36.52142], [139.03035, 36.52124], [139.03006, 36.52047], [139.02997, 36.52023], [139.02986, 36.51999], [139.02967, 36.51953], [139.02953, 36.51918], [139.02912, 36.51814], [139.02911, 36.5181], [139.02885, 36.51741], [139.0287, 36.51705], [139.02863, 36.5168], [139.02851, 36.51632], [139.02832, 36.51566], [139.02809, 36.51485], [139.02799, 36.51449], [139.02797, 36.51444], [139.02794, 36.51431], [139.02788, 36.51416], [139.02785, 36.51406], [139.02779, 36.51391], [139.02771, 36.51373], [139.02754, 36.51342], [139.02741, 36.51319], [139.02725, 36.51297], [139.02691, 36.5126], [139.02668, 36.51239], [139.0264, 36.51216], [139.02625, 36.51205], [139.02598, 36.51188], [139.0252, 36.51138], [139.02481, 36.51111], [139.02439, 36.5108], [139.02422, 36.51063], [139.02409, 36.51046], [139.02401, 36.51035], [139.02393, 36.51021], [139.02384, 36.51008], [139.02372, 36.50979], [139.02361, 36.50937], [139.02357, 36.50915], [139.02354, 36.50875], [139.02356, 36.50825], [139.02358, 36.50814], [139.02361, 36.50793], [139.02365, 36.50771], [139.02367, 36.50756], [139.02371, 36.50743], [139.02375, 36.50721], [139.02376, 36.50698], [139.02374, 36.50671], [139.02371, 36.5066], [139.02368, 36.50648], [139.02341, 36.50525], [139.02335, 36.50499], [139.02332, 36.50487], [139.02327, 36.50462], [139.02317, 36.50416], [139.02315, 36.50407], [139.02301, 36.50346], [139.02295, 36.50312], [139.02262, 36.50202], [139.0225, 36.50161], [139.02244, 36.50138], [139.02241, 36.50126], [139.02238, 36.50108], [139.02236, 36.501], [139.02228, 36.50066], [139.02213, 36.50003], [139.02206, 36.49982], [139.02196, 36.49962], [139.02186, 36.4994], [139.02166, 36.49913], [139.02151, 36.49894]]}, "properties": {"id": "GEOM_TOKYO_2521", "route_id": "R_C0AFF1D8", "route_name": null, "route_color": "#00A7E3", "route_text_color": null, "line_name": "上越線", "operator_id": "jr_east", "representation": "service_path", "min_zoom": 0, "max_zoom": 24, "offset_rank": 0}}, {"type": "Feature", "bbox": [139.01901, 36.46248, 139.01949, 36.4651], "geometry": {"type": "LineString", "coordinates": [[139.01949, 36.46248], [139.01901, 36.4651]]}, "properties": {"id": "GEOM_TOKYO_2522", "route_id": "R_C0AFF1D8", "route_name": null, "route_color": "#00A7E3", "route_text_color": null, "line_name": "上越線", "operator_id": "jr_east", "representation": "service_path", "min_zoom": 0, "max_zoom": 24, "offset_rank": 0}}, {"type": "Feature", "bbox": [139.03432, 36.54697, 139.04476, 36.55845], "geometry": {"type": "LineString", "coordinates": [[139.03432, 36.54697], [139.03471, 36.54726], [139.03492, 36.54745], [139.03506, 36.54761], [139.0352, 36.54781], [139.03536, 36.54804], [139.03548, 36.54826], [139.03554, 36.54843], [139.03561, 36.54872], [139.03566, 36.54896], [139.03569, 36.54922], [139.03575, 36.54962], [139.0358, 36.54986], [139.03587, 36.55009], [139.03595, 36.55028], [139.03605, 36.55049], [139.03611, 36.55062], [139.03621, 36.5508], [139.03644, 36.55113], [139.03666, 36.55135], [139.03704, 36.55167], [139.03715, 36.55176], [139.03725, 36.55182], [139.0376, 36.55204], [139.03795, 36.55222], [139.03853, 36.55243], [139.03865, 36.55247], [139.03922, 36.55263], [139.04012, 36.5528], [139.04026, 36.55283], [139.04086, 36.55292], [139.0414, 36.55307], [139.0419, 36.55327], [139.04246, 36.55356], [139.04259, 36.55368], [139.04269, 36.55376], [139.04306, 36.55404], [139.04361, 36.5543], [139.04379, 36.55446], [139.04418, 36.55486], [139.04428, 36.55497], [139.0444, 36.55515], [139.0445, 36.55535], [139.04458, 36.55556], [139.04468, 36.55589], [139.04474, 36.55629], [139.04476, 36.55683], [139.04476, 36.55709], [139.04465, 36.55767], [139.04455, 36.55795], [139.04442, 36.55823], [139.04427, 36.55845]]}, "properties": {"id": "GEOM_TOKYO_2523", "route_id": "R_C0AFF1D8", "route_name": null, "route_color": "#00A7E3", "route_text_color": null, "line_name": "上越線", "operator_id": "jr_east", "representation": "service_path", "min_zoom": 0, "max_zoom": 24, "offset_rank": 0}}, {"type": "Feature", "bbox": [139.04266, 36.56067, 139.04307, 36.56139], "geometry": {"type": "LineString", "coordinates": [[139.04266, 36.56139], [139.04307, 36.56067]]}, "properties": {"id": "GEOM_TOKYO_2525", "route_id": "R_C0AFF1D8", "route_name": null, "route_color": "#00A7E3", "route_text_color": null, "line_name": "上越線", "operator_id": "jr_east", "representation": "service_path", "min_zoom": 0, "max_zoom": 24, "offset_rank": 0}}, {"type": "Feature", "bbox": [139.01949, 36.41682, 139.03204, 36.46248], "geometry": {"type": "LineString", "coordinates": [[139.01949, 36.46248], [139.0195, 36.46242], [139.01964, 36.46165], [139.01966, 36.46148], [139.0197, 36.46133], [139.01973, 36.46117], [139.01986, 36.46041], [139.01991, 36.46019], [139.01997, 36.45985], [139.02005, 36.45943], [139.02014, 36.45894], [139.02014, 36.45886], [139.02024, 36.45839], [139.02038, 36.45771], [139.0205, 36.45706], [139.02061, 36.45641], [139.02065, 36.45627], [139.02076, 36.45557], [139.02081, 36.45503], [139.02081, 36.45461], [139.02077, 36.45427], [139.02068, 36.45384], [139.02064, 36.4537], [139.0206, 36.45355], [139.02051, 36.45324], [139.02023, 36.45226], [139.02021, 36.45224], [139.02017, 36.45207], [139.02013, 36.45187], [139.02005, 36.45149], [139.02001, 36.45133], [139.01999, 36.45114], [139.01998, 36.45106], [139.01997, 36.4509], [139.01996, 36.45087], [139.01996, 36.4508], [139.01996, 36.45013], [139.01998, 36.44984], [139.02008, 36.44931], [139.02021, 36.4489], [139.02027, 36.44873], [139.02046, 36.44838], [139.0207, 36.44802], [139.02154, 36.44689], [139.02201, 36.44626], [139.02208, 36.44617], [139.02241, 36.44573], [139.02249, 36.44561], [139.02254, 36.44554], [139.0226, 36.44546], [139.02292, 36.44504], [139.0232, 36.44477], [139.02357, 36.44447], [139.02422, 36.44392], [139.02438, 36.44377], [139.02467, 36.44352], [139.02513, 36.44305], [139.02538, 36.44277], [139.02564, 36.44234], [139.02582, 36.442], [139.02596, 36.44165], [139.02597, 36.44158], [139.0261, 36.4413], [139.02653, 36.44018], [139.02683, 36.43946], [139.0269, 36.43929], [139.02696, 36.43913], [139.02733, 36.43818], [139.02738, 36.43808], [139.02741, 36.43797], [139.02772, 36.43718], [139.02789, 36.43663], [139.02795, 36.43635], [139.028, 36.43613], [139.02801, 36.43604], [139.02813, 36.43547], [139.02835, 36.43446], [139.02863, 36.4332], [139.02874, 36.43272], [139.02874, 36.43267], [139.02876, 36.43262], [139.02881, 36.4324], [139.02885, 36.43218], [139.02887, 36.4321], [139.02888, 36.43203], [139.02897, 36.43165], [139.02905, 36.4312], [139.02913, 36.43085], [139.02937, 36.4297], [139.02965, 36.42837], [139.02991, 36.42716], [139.02999, 36.42678], [139.03017, 36.42592], [139.03029, 36.42529], [139.03034, 36.42509], [139.0304, 36.42476], [139.03041, 36.42472], [139.03042, 36.42466], [139.03045, 36.42455], [139.03064, 36.42364], [139.03067, 36.4235], [139.03075, 36.42314], [139.03091, 36.42234], [139.03121, 36.42086], [139.03142, 36.4198], [139.03154, 36.41927], [139.03162, 36.41892], [139.03169, 36.41859], [139.03185, 36.41774], [139.03188, 36.41762], [139.03194, 36.41731], [139.03199, 36.41705], [139.03204, 36.41682]]}, "properties": {"id": "GEOM_TOKYO_2527", "route_id": "R_C0AFF1D8", "route_name": null, "route_color": "#00A7E3", "route_text_color": null, "line_name": "上越線", "operator_id": "jr_east", "representation": "service_path", "min_zoom": 0, "max_zoom": 24, "offset_rank": 0}}, {"type": "Feature", "bbox": [139.04125, 36.60411, 139.04606, 36.61158], "geometry": {"type": "LineString", "coordinates": [[139.04133, 36.61158], [139.04125, 36.61114], [139.04125, 36.61093], [139.04129, 36.61068], [139.04133, 36.61028], [139.04143, 36.60988], [139.04151, 36.60962], [139.04159, 36.60941], [139.04173, 36.60914], [139.04192, 36.60878], [139.04214, 36.6084], [139.04237, 36.60805], [139.04272, 36.6075], [139.04295, 36.60716], [139.04346, 36.60639], [139.04375, 36.60603], [139.04407, 36.60565], [139.04446, 36.60526], [139.0448, 36.60495], [139.04495, 36.60482], [139.04511, 36.60475], [139.04536, 36.6046], [139.04562, 36.60442], [139.04606, 36.60411]]}, "properties": {"id": "GEOM_TOKYO_2534", "route_id": "R_C0AFF1D8", "route_name": null, "route_color": "#00A7E3", "route_text_color": null, "line_name": "上越線", "operator_id": "jr_east", "representation": "service_path", "min_zoom": 0, "max_zoom": 24, "offset_rank": 0}}, {"type": "Feature", "bbox": [139.04133, 36.60411, 139.04606, 36.61158], "geometry": {"type": "LineString", "coordinates": [[139.04133, 36.61158], [139.04133, 36.61115], [139.04137, 36.61077], [139.04145, 36.61046], [139.04158, 36.61012], [139.04184, 36.6095], [139.04198, 36.6092], [139.04218, 36.60891], [139.04254, 36.60837], [139.04268, 36.60817], [139.04296, 36.60778], [139.04393, 36.6065], [139.04429, 36.60605], [139.04477, 36.60555], [139.04486, 36.60547], [139.04509, 36.60527], [139.04563, 36.60463], [139.04606, 36.60411]]}, "properties": {"id": "GEOM_TOKYO_2535", "route_id": "R_C0AFF1D8", "route_name": null, "route_color": "#00A7E3", "route_text_color": null, "line_name": "上越線", "operator_id": "jr_east", "representation": "service_path", "min_zoom": 0, "max_zoom": 24, "offset_rank": 0}}, {"type": "Feature", "bbox": [139.04606, 36.60335, 139.04673, 36.60411], "geometry": {"type": "LineString", "coordinates": [[139.04606, 36.60411], [139.04673, 36.60335]]}, "properties": {"id": "GEOM_TOKYO_2536", "route_id": "R_C0AFF1D8", "route_name": null, "route_color": "#00A7E3", "route_text_color": null, "line_name": "上越線", "operator_id": "jr_east", "representation": "service_path", "min_zoom": 0, "max_zoom": 24, "offset_rank": 0}}, {"type": "Feature", "bbox": [139.04833, 36.58616, 139.05557, 36.60097], "geometry": {"type": "LineString", "coordinates": [[139.05557, 36.58616], [139.05552, 36.5864], [139.05553, 36.58645], [139.05548, 36.58656], [139.05536, 36.58682], [139.05528, 36.58693], [139.05479, 36.58753], [139.05455, 36.58782], [139.05428, 36.58813], [139.05399, 36.58841], [139.05365, 36.58868], [139.05334, 36.58888], [139.05272, 36.58927], [139.05166, 36.58989], [139.05118, 36.59023], [139.05021, 36.59129], [139.04962, 36.59195], [139.04949, 36.5921], [139.04915, 36.59247], [139.04906, 36.5926], [139.04899, 36.59278], [139.04885, 36.59334], [139.04875, 36.59384], [139.04872, 36.59427], [139.04865, 36.5963], [139.04861, 36.59735], [139.04856, 36.59846], [139.04852, 36.59899], [139.04849, 36.59959], [139.04844, 36.60013], [139.04839, 36.60057], [139.04833, 36.60097]]}, "properties": {"id": "GEOM_TOKYO_2537", "route_id": "R_C0AFF1D8", "route_name": null, "route_color": "#00A7E3", "route_text_color": null, "line_name": "上越線", "operator_id": "jr_east", "representation": "service_path", "min_zoom": 0, "max_zoom": 24, "offset_rank": 0}}, {"type": "Feature", "bbox": [139.0533, 36.57506, 139.05557, 36.58616], "geometry": {"type": "LineString", "coordinates": [[139.0533, 36.57506], [139.05351, 36.57568], [139.0536, 36.576], [139.05365, 36.57619], [139.0537, 36.57638], [139.05376, 36.57661], [139.0538, 36.57678], [139.05386, 36.57709], [139.05396, 36.57747], [139.05416, 36.57833], [139.05458, 36.58043], [139.05488, 36.58205], [139.05513, 36.58351], [139.05523, 36.58403], [139.05528, 36.58427], [139.05531, 36.58442], [139.05542, 36.58486], [139.05552, 36.58548], [139.05557, 36.58616]]}, "properties": {"id": "GEOM_TOKYO_2538", "route_id": "R_C0AFF1D8", "route_name": null, "route_color": "#00A7E3", "route_text_color": null, "line_name": "上越線", "operator_id": "jr_east", "representation": "service_path", "min_zoom": 0, "max_zoom": 24, "offset_rank": 0}}, {"type": "Feature", "bbox": [139.03959, 36.56139, 139.0533, 36.57506], "geometry": {"type": "LineString", "coordinates": [[139.04266, 36.56139], [139.04219, 36.56224], [139.04169, 36.56301], [139.04161, 36.56314], [139.04149, 36.56329], [139.04138, 36.56347], [139.04127, 36.56363], [139.04104, 36.56392], [139.04096, 36.56405], [139.04034, 36.56503], [139.0402, 36.56525], [139.04004, 36.56549], [139.0399, 36.56577], [139.03973, 36.56616], [139.03968, 36.56634], [139.03961, 36.56662], [139.03959, 36.56695], [139.03961, 36.5673], [139.03965, 36.56754], [139.03971, 36.56783], [139.03983, 36.56817], [139.03993, 36.56843], [139.04003, 36.56861], [139.04013, 36.56877], [139.04029, 36.56899], [139.04072, 36.56944], [139.04105, 36.56974], [139.04137, 36.56999], [139.04176, 36.57023], [139.04199, 36.57034], [139.04234, 36.57047], [139.04257, 36.57055], [139.04278, 36.5706], [139.04284, 36.57061], [139.04315, 36.57064], [139.04339, 36.57066], [139.04363, 36.57064], [139.04402, 36.5706], [139.04435, 36.57057], [139.04449, 36.57054], [139.04479, 36.57051], [139.04515, 36.57045], [139.046, 36.57033], [139.04627, 36.57028], [139.04675, 36.57021], [139.04704, 36.5702], [139.04753, 36.5702], [139.04794, 36.57024], [139.04798, 36.57025], [139.0481, 36.57026], [139.04848, 36.57033], [139.04894, 36.57045], [139.04922, 36.57055], [139.04947, 36.57067], [139.04961, 36.57075], [139.0497, 36.57081], [139.05002, 36.571], [139.05044, 36.57127], [139.05071, 36.57148], [139.05101, 36.57176], [139.05134, 36.5721], [139.05135, 36.57212], [139.05176, 36.57261], [139.05191, 36.57279], [139.05216, 36.57314], [139.05222, 36.57324], [139.05241, 36.57356], [139.05244, 36.57361], [139.05309, 36.57468], [139.0533, 36.57506]]}, "properties": {"id": "GEOM_TOKYO_2539", "route_id": "R_C0AFF1D8", "route_name": null, "route_color": "#00A7E3", "route_text_color": null, "line_name": "上越線", "operator_id": "jr_east", "representation": "service_path", "min_zoom": 0, "max_zoom": 24, "offset_rank": 0}}, {"type": "Feature", "bbox": [139.0533, 36.57506, 139.05602, 36.58616], "geometry": {"type": "LineString", "coordinates": [[139.0533, 36.57506], [139.05366, 36.57564], [139.0541, 36.5764], [139.05428, 36.57676], [139.05436, 36.57694], [139.05452, 36.57739], [139.05466, 36.57773], [139.05477, 36.5781], [139.05486, 36.57841], [139.05504, 36.57901], [139.05529, 36.57994], [139.05553, 36.58086], [139.0558, 36.58205], [139.05599, 36.58316], [139.05602, 36.58345], [139.05601, 36.58364], [139.05597, 36.58403], [139.05595, 36.58436], [139.05589, 36.58474], [139.05586, 36.585], [139.05583, 36.58526], [139.05579, 36.58549], [139.05568, 36.58587], [139.05557, 36.58616]]}, "properties": {"id": "GEOM_TOKYO_2540", "route_id": "R_C0AFF1D8", "route_name": null, "route_color": "#00A7E3", "route_text_color": null, "line_name": "上越線", "operator_id": "jr_east", "representation": "service_path", "min_zoom": 0, "max_zoom": 24, "offset_rank": 0}}]}