{"type": "FeatureCollection", "features": [{"type": "Feature", "bbox": [139.20231, 35.92642, 139.20252, 35.92757], "geometry": {"type": "LineString", "coordinates": [[139.20252, 35.92757], [139.20231, 35.92642]]}, "properties": {"id": "GEOM_TOKYO_0801", "route_id": "R_9BE40388", "route_name": "西武秩父線", "route_color": "#00A15F", "route_text_color": "#ffffff", "line_name": "西武秩父線", "operator_id": "seibu", "representation": "service_path", "min_zoom": 0, "max_zoom": 24, "offset_rank": 0}}, {"type": "Feature", "bbox": [139.20144, 35.90834, 139.22536, 35.92642], "geometry": {"type": "LineString", "coordinates": [[139.22536, 35.90834], [139.22514, 35.90839], [139.22395, 35.90867], [139.22329, 35.9089], [139.22283, 35.90912], [139.2223, 35.90944], [139.22191, 35.90981], [139.22159, 35.91025], [139.22145, 35.91063], [139.22115, 35.91157], [139.22101, 35.91189], [139.22069, 35.91241], [139.22049, 35.91264], [139.22027, 35.91281], [139.21987, 35.91306], [139.21958, 35.91325], [139.21902, 35.91358], [139.21871, 35.91376], [139.21828, 35.91404], [139.21787, 35.9144], [139.2177, 35.91462], [139.21751, 35.91496], [139.21739, 35.91528], [139.21726, 35.91592], [139.21705, 35.91671], [139.21689, 35.9171], [139.21659, 35.9175], [139.21618, 35.91785], [139.21566, 35.91817], [139.21508, 35.91846], [139.21442, 35.91874], [139.21406, 35.91888], [139.2136, 35.91907], [139.21306, 35.91918], [139.21294, 35.91919], [139.21254, 35.91921], [139.212, 35.91921], [139.21117, 35.91917], [139.2111, 35.91917], [139.20864, 35.91905], [139.20775, 35.91908], [139.20724, 35.91914], [139.207, 35.91919], [139.20671, 35.91928], [139.2061, 35.91959], [139.20567, 35.91981], [139.20557, 35.91986], [139.20518, 35.92004], [139.20475, 35.92027], [139.20381, 35.92076], [139.20352, 35.92094], [139.2033, 35.92109], [139.20299, 35.92138], [139.20239, 35.92198], [139.20227, 35.92212], [139.20196, 35.92251], [139.20167, 35.9229], [139.20154, 35.92311], [139.20148, 35.92329], [139.20145, 35.92346], [139.20144, 35.92367], [139.20144, 35.92391], [139.20146, 35.92398], [139.20162, 35.92452], [139.20169, 35.92481], [139.20179, 35.92507], [139.20202, 35.92556], [139.20211, 35.92576], [139.20223, 35.92604], [139.20231, 35.92642]]}, "properties": {"id": "GEOM_TOKYO_0803", "route_id": "R_9BE40388", "route_name": "西武秩父線", "route_color": "#00A15F", "route_text_color": "#ffffff", "line_name": "西武秩父線", "operator_id": "seibu", "representation": "service_path", "min_zoom": 0, "max_zoom": 24, "offset_rank": 0}}, {"type": "Feature", "bbox": [139.18212, 35.92757, 139.20313, 35.938], "geometry": {"type": "LineString", "coordinates": [[139.18212, 35.938], [139.18386, 35.9372], [139.18424, 35.93702], [139.18452, 35.93689], [139.18481, 35.93676], [139.18506, 35.93666], [139.18559, 35.93652], [139.18576, 35.9365], [139.18603, 35.93649], [139.18717, 35.93644], [139.18866, 35.93639], [139.18951, 35.93633], [139.19005, 35.9363], [139.1907, 35.93624], [139.19125, 35.93618], [139.19183, 35.9361], [139.19236, 35.93602], [139.19283, 35.93592], [139.19314, 35.93585], [139.19367, 35.93564], [139.19408, 35.93554], [139.19446, 35.93541], [139.19504, 35.93527], [139.19522, 35.93525], [139.1954, 35.93525], [139.19559, 35.93525], [139.19588, 35.93527], [139.19615, 35.93531], [139.19657, 35.93535], [139.19681, 35.93538], [139.19702, 35.93539], [139.19725, 35.93539], [139.19743, 35.93537], [139.19766, 35.93534], [139.19783, 35.93528], [139.19812, 35.93518], [139.19829, 35.93507], [139.19859, 35.93489], [139.19911, 35.93458], [139.19964, 35.93421], [139.20039, 35.9338], [139.20103, 35.93347], [139.2015, 35.9332], [139.20165, 35.93307], [139.20181, 35.93294], [139.20203, 35.93261], [139.20256, 35.93187], [139.20288, 35.93143], [139.20297, 35.93121], [139.20306, 35.93104], [139.20311, 35.93071], [139.20313, 35.9306], [139.20313, 35.93038], [139.20312, 35.93024], [139.20306, 35.92995], [139.2029, 35.92939], [139.20276, 35.92873], [139.20273, 35.92856], [139.20252, 35.92757]]}, "properties": {"id": "GEOM_TOKYO_0805", "route_id": "R_9BE40388", "route_name": "西武秩父線", "route_color": "#00A15F", "route_text_color": "#ffffff", "line_name": "西武秩父線", "operator_id": "seibu", "representation": "service_path", "min_zoom": 0, "max_zoom": 24, "offset_rank": 0}}, {"type": "Feature", "bbox": [139.22536, 35.90829, 139.22645, 35.90834], "geometry": {"type": "LineString", "coordinates": [[139.22645, 35.90831], [139.22592, 35.90829], [139.22536, 35.90834]]}, "properties": {"id": "GEOM_TOKYO_0806", "route_id": "R_9BE40388", "route_name": "西武秩父線", "route_color": "#00A15F", "route_text_color": "#ffffff", "line_name": "西武秩父線", "operator_id": "seibu", "representation": "service_path", "min_zoom": 0, "max_zoom": 24, "offset_rank": 0}}, {"type": "Feature", "bbox": [139.26053, 35.88575, 139.28015, 35.89205], "geometry": {"type": "LineString", "coordinates": [[139.28015, 35.88575], [139.27994, 35.886], [139.27964, 35.88631], [139.27943, 35.88649], [139.2792, 35.88668], [139.27904, 35.88681], [139.279, 35.88685], [139.27891, 35.88691], [139.27868, 35.88707], [139.27858, 35.88713], [139.27846, 35.8872], [139.27817, 35.88734], [139.27806, 35.88739], [139.27791, 35.88746], [139.2778, 35.88751], [139.2777, 35.88755], [139.27758, 35.88758], [139.27731, 35.88765], [139.27709, 35.88769], [139.27684, 35.88771], [139.27655, 35.8877], [139.27624, 35.88765], [139.27612, 35.88762], [139.27573, 35.88748], [139.27553, 35.88739], [139.27506, 35.88713], [139.27491, 35.88705], [139.27447, 35.88682], [139.27407, 35.8866], [139.274, 35.88657], [139.27396, 35.88655], [139.27355, 35.88636], [139.27334, 35.88627], [139.27304, 35.88619], [139.27266, 35.88614], [139.27238, 35.88612], [139.27191, 35.88612], [139.27162, 35.88615], [139.27123, 35.88621], [139.27099, 35.88626], [139.27082, 35.88631], [139.27068, 35.88635], [139.27056, 35.88639], [139.27044, 35.88644], [139.27039, 35.88647], [139.27032, 35.88651], [139.27013, 35.88664], [139.27001, 35.88672], [139.2699, 35.88682], [139.26971, 35.88703], [139.26952, 35.88726], [139.26928, 35.88756], [139.26918, 35.88774], [139.26911, 35.88808], [139.26907, 35.88838], [139.26906, 35.88858], [139.26903, 35.88942], [139.26903, 35.88956], [139.26901, 35.88983], [139.26896, 35.8901], [139.2689, 35.89029], [139.26882, 35.89045], [139.2687, 35.89067], [139.26862, 35.89076], [139.26856, 35.89084], [139.26849, 35.89091], [139.26835, 35.89105], [139.26814, 35.89121], [139.26794, 35.89136], [139.26764, 35.89154], [139.26756, 35.89156], [139.26746, 35.8916], [139.26733, 35.89163], [139.26717, 35.89167], [139.26682, 35.89171], [139.26651, 35.89173], [139.26632, 35.89172], [139.26606, 35.89167], [139.26578, 35.89161], [139.2656, 35.89157], [139.26524, 35.89147], [139.26504, 35.89139], [139.26483, 35.89133], [139.26401, 35.89106], [139.26379, 35.89099], [139.26353, 35.8909], [139.26342, 35.89088], [139.26328, 35.89088], [139.26306, 35.89088], [139.26303, 35.89088], [139.26285, 35.89089], [139.26257, 35.89093], [139.26233, 35.89098], [139.26215, 35.89103], [139.26206, 35.89105], [139.26198, 35.89108], [139.26184, 35.89112], [139.26168, 35.89119], [139.26143, 35.89132], [139.26104, 35.89156], [139.26097, 35.89161], [139.26088, 35.89168], [139.26073, 35.89182], [139.26063, 35.89193], [139.26057, 35.892], [139.26053, 35.89205]]}, "properties": {"id": "GEOM_TOKYO_0888", "route_id": "R_250D6650", "route_name": "池袋線", "route_color": "#00A15F", "route_text_color": "#ffffff", "line_name": "池袋線", "operator_id": "seibu", "representation": "service_path", "min_zoom": 0, "max_zoom": 24, "offset_rank": 0}}, {"type": "Feature", "bbox": [139.26002, 35.89205, 139.26053, 35.89289], "geometry": {"type": "LineString", "coordinates": [[139.26053, 35.89205], [139.26002, 35.89289]]}, "properties": {"id": "GEOM_TOKYO_0889", "route_id": "R_250D6650", "route_name": "池袋線", "route_color": "#00A15F", "route_text_color": "#ffffff", "line_name": "池袋線", "operator_id": "seibu", "representation": "service_path", "min_zoom": 0, "max_zoom": 24, "offset_rank": 0}}, {"type": "Feature", "bbox": [139.22645, 35.89289, 139.26002, 35.9097], "geometry": {"type": "LineString", "coordinates": [[139.22645, 35.90831], [139.22661, 35.90834], [139.22695, 35.9084], [139.22725, 35.9085], [139.22758, 35.90868], [139.22796, 35.90894], [139.22852, 35.90925], [139.22929, 35.90957], [139.22955, 35.90964], [139.22999, 35.9097], [139.23041, 35.9097], [139.23087, 35.90962], [139.23136, 35.90943], [139.23189, 35.9092], [139.23248, 35.90893], [139.233, 35.90869], [139.23364, 35.90844], [139.23407, 35.90835], [139.23456, 35.90829], [139.23509, 35.90825], [139.23557, 35.90819], [139.23591, 35.90814], [139.23621, 35.90802], [139.23636, 35.90793], [139.23652, 35.90783], [139.23662, 35.90775], [139.2369, 35.90752], [139.23745, 35.90703], [139.23819, 35.90643], [139.23859, 35.90616], [139.23918, 35.90587], [139.23958, 35.90578], [139.23992, 35.90574], [139.24078, 35.90567], [139.24122, 35.90564], [139.24134, 35.90562], [139.24176, 35.90555], [139.24243, 35.9053], [139.24322, 35.90486], [139.24345, 35.90467], [139.2436, 35.90457], [139.24384, 35.90431], [139.24405, 35.90404], [139.2443, 35.9036], [139.2445, 35.90309], [139.24472, 35.90215], [139.24483, 35.90133], [139.24501, 35.90029], [139.24511, 35.89981], [139.2454, 35.89922], [139.24571, 35.89881], [139.24617, 35.89841], [139.24681, 35.89806], [139.24694, 35.89801], [139.24715, 35.89792], [139.2474, 35.89785], [139.24755, 35.89782], [139.24784, 35.89775], [139.24824, 35.89769], [139.24881, 35.8976], [139.24984, 35.89745], [139.25099, 35.89727], [139.25256, 35.89703], [139.25306, 35.89695], [139.25329, 35.89689], [139.25343, 35.89683], [139.25368, 35.89671], [139.25386, 35.89663], [139.25417, 35.89648], [139.2544, 35.89636], [139.25474, 35.8962], [139.25503, 35.89606], [139.25539, 35.89589], [139.25586, 35.89568], [139.25675, 35.89525], [139.25715, 35.89506], [139.25783, 35.89473], [139.25827, 35.89453], [139.25863, 35.89434], [139.25887, 35.8942], [139.25906, 35.89407], [139.25928, 35.89391], [139.25942, 35.89379], [139.25954, 35.89365], [139.25969, 35.89344], [139.25987, 35.89314], [139.26002, 35.89289]]}, "properties": {"id": "GEOM_TOKYO_0897", "route_id": "R_250D6650", "route_name": "池袋線", "route_color": "#00A15F", "route_text_color": "#ffffff", "line_name": "池袋線", "operator_id": "seibu", "representation": "service_path", "min_zoom": 0, "max_zoom": 24, "offset_rank": 0}}, {"type": "Feature", "bbox": [139.22536, 35.90829, 139.22645, 35.90834], "geometry": {"type": "LineString", "coordinates": [[139.22645, 35.90831], [139.22592, 35.90829], [139.22536, 35.90834]]}, "properties": {"id": "GEOM_TOKYO_0901", "route_id": "R_250D6650", "route_name": "池袋線", "route_color": "#00A15F", "route_text_color": "#ffffff", "line_name": "池袋線", "operator_id": "seibu", "representation": "service_path", "min_zoom": 0, "max_zoom": 24, "offset_rank": 0}}]}