{"type": "FeatureCollection", "features": [{"type": "Feature", "bbox": [131.80401, 34.03371, 132.14869, 34.16314], "geometry": {"type": "LineString", "coordinates": [[132.14869, 34.16314], [132.14866, 34.16308], [132.14731, 34.16085], [132.14599, 34.1586], [132.14592, 34.1585], [132.14543, 34.1577], [132.1449, 34.15686], [132.14405, 34.15544], [132.14396, 34.1553], [132.14332, 34.15425], [132.14319, 34.15404], [132.14265, 34.15302], [132.14184, 34.15166], [132.14122, 34.1506], [132.1401, 34.14881], [132.13896, 34.14696], [132.13865, 34.14645], [132.13773, 34.14493], [132.13697, 34.14369], [132.1359, 34.14195], [132.13523, 34.14088], [132.13474, 34.14009], [132.1342, 34.1393], [132.13364, 34.13841], [132.13343, 34.13809], [132.13268, 34.13693], [132.1317, 34.13533], [132.13089, 34.13411], [132.12983, 34.13259], [132.12908, 34.1314], [132.12844, 34.13045], [132.12803, 34.12984], [132.12714, 34.12857], [132.12626, 34.12735], [132.12539, 34.12621], [132.12492, 34.12564], [132.12368, 34.12413], [132.12252, 34.12284], [132.12159, 34.12197], [132.12149, 34.12188], [132.12056, 34.121], [132.11939, 34.11991], [132.11858, 34.11918], [132.11761, 34.11838], [132.11654, 34.11753], [132.11577, 34.1169], [132.11489, 34.11625], [132.11449, 34.11597], [132.11374, 34.11545], [132.11288, 34.11486], [132.11009, 34.11308], [132.10799, 34.11184], [132.10768, 34.11166], [132.10564, 34.11053], [132.10322, 34.1094], [132.10153, 34.10869], [132.09996, 34.10807], [132.09798, 34.10734], [132.09783, 34.10731], [132.09739, 34.10715], [132.09678, 34.10693], [132.09662, 34.10688], [132.09617, 34.10674], [132.09597, 34.10668], [132.09408, 34.10603], [132.09233, 34.1055], [132.08961, 34.10478], [132.08751, 34.10429], [132.08624, 34.10406], [132.08535, 34.10389], [132.08355, 34.10354], [132.08173, 34.10319], [132.08139, 34.10312], [132.08101, 34.10306], [132.07756, 34.10236], [132.07475, 34.10185], [132.07185, 34.1013], [132.07057, 34.10106], [132.07031, 34.10101], [132.06888, 34.10073], [132.06768, 34.10052], [132.06632, 34.10024], [132.06393, 34.09978], [132.06168, 34.09936], [132.06004, 34.09907], [132.0595, 34.09897], [132.05936, 34.09894], [132.05904, 34.09889], [132.05871, 34.09881], [132.05818, 34.09873], [132.05624, 34.09837], [132.05424, 34.09799], [132.05366, 34.09788], [132.05027, 34.09725], [132.04774, 34.09677], [132.04246, 34.09582], [132.04164, 34.09567], [132.04129, 34.09561], [132.04034, 34.09543], [132.03993, 34.09535], [132.03784, 34.09497], [132.03521, 34.09449], [132.0341, 34.09427], [132.03299, 34.09408], [132.03224, 34.09393], [132.0312, 34.0937], [132.03011, 34.09344], [132.02843, 34.09294], [132.02762, 34.0927], [132.02499, 34.09181], [132.02462, 34.09167], [132.02367, 34.0913], [132.02247, 34.09083], [132.02236, 34.09079], [132.02002, 34.08985], [132.01804, 34.08903], [132.01654, 34.08841], [132.01505, 34.08774], [132.01368, 34.08708], [132.01269, 34.0866], [132.01164, 34.086], [132.0102, 34.08512], [132.00855, 34.08405], [132.00682, 34.08292], [132.00579, 34.08223], [132.00513, 34.0818], [132.00355, 34.08076], [132.00134, 34.0793], [131.99966, 34.07818], [131.99753, 34.07678], [131.99673, 34.07619], [131.99557, 34.07543], [131.99497, 34.07505], [131.99338, 34.07398], [131.99207, 34.07315], [131.99058, 34.07214], [131.98887, 34.07102], [131.98741, 34.07006], [131.98694, 34.06977], [131.98594, 34.06914], [131.98486, 34.06846], [131.9834, 34.06759], [131.98171, 34.06671], [131.98036, 34.06598], [131.97893, 34.06529], [131.97777, 34.06473], [131.97729, 34.0645], [131.97653, 34.06414], [131.97401, 34.06297], [131.97293, 34.06248], [131.97288, 34.06246], [131.97149, 34.06186], [131.96993, 34.06122], [131.96825, 34.0605], [131.96642, 34.05967], [131.96469, 34.05891], [131.96376, 34.05851], [131.96335, 34.05827], [131.96284, 34.05798], [131.96107, 34.05698], [131.9602, 34.05649], [131.95849, 34.05543], [131.95715, 34.05443], [131.95658, 34.05402], [131.95603, 34.05362], [131.9555, 34.05323], [131.95377, 34.05191], [131.95208, 34.05061], [131.951, 34.0498], [131.95026, 34.04924], [131.94935, 34.04857], [131.9488, 34.04815], [131.94674, 34.0466], [131.94578, 34.04591], [131.94413, 34.04483], [131.94325, 34.04428], [131.94219, 34.04365], [131.94114, 34.04304], [131.94052, 34.04273], [131.93983, 34.04239], [131.93807, 34.04153], [131.93686, 34.04099], [131.93526, 34.04049], [131.93291, 34.03995], [131.9328, 34.03993], [131.9309, 34.03953], [131.92859, 34.03903], [131.92618, 34.03863], [131.92498, 34.0385], [131.92353, 34.03843], [131.92207, 34.03839], [131.9206, 34.03835], [131.91882, 34.03835], [131.91776, 34.03827], [131.916, 34.03827], [131.91525, 34.0383], [131.91403, 34.03839], [131.91194, 34.0384], [131.91, 34.03833], [131.90862, 34.03826], [131.90765, 34.03818], [131.90456, 34.03789], [131.90448, 34.03787], [131.90222, 34.03757], [131.89953, 34.03717], [131.89692, 34.03679], [131.896, 34.03668], [131.8932, 34.03623], [131.89115, 34.03589], [131.88935, 34.03556], [131.8876, 34.03528], [131.88592, 34.03508], [131.88512, 34.03501], [131.88425, 34.03494], [131.88193, 34.03482], [131.88026, 34.03483], [131.87785, 34.03498], [131.87548, 34.03512], [131.87406, 34.03522], [131.87332, 34.03527], [131.87254, 34.03529], [131.86941, 34.03544], [131.86828, 34.03548], [131.86805, 34.03549], [131.86754, 34.03549], [131.86675, 34.03551], [131.86552, 34.03557], [131.86432, 34.03563], [131.863, 34.03566], [131.86219, 34.03569], [131.86133, 34.0357], [131.86008, 34.0357], [131.85931, 34.03567], [131.85869, 34.03561], [131.85809, 34.03555], [131.85722, 34.03545], [131.8562, 34.03531], [131.85471, 34.03511], [131.85332, 34.03486], [131.85253, 34.03471], [131.85096, 34.03445], [131.85016, 34.03433], [131.84937, 34.03421], [131.84779, 34.03402], [131.8471, 34.03394], [131.84604, 34.03387], [131.8448, 34.03381], [131.84475, 34.03381], [131.84287, 34.03374], [131.84169, 34.03371], [131.84032, 34.03372], [131.83893, 34.03378], [131.83769, 34.03388], [131.83592, 34.03413], [131.83479, 34.03431], [131.8338, 34.03449], [131.83344, 34.03455], [131.83233, 34.03479], [131.83118, 34.03505], [131.82958, 34.03551], [131.82833, 34.03584], [131.82772, 34.03605], [131.82706, 34.03627], [131.82437, 34.03731], [131.82289, 34.03791], [131.8218, 34.03846], [131.82174, 34.03849], [131.81938, 34.03973], [131.81779, 34.04053], [131.81592, 34.04147], [131.81363, 34.04266], [131.81243, 34.04328], [131.81189, 34.04356], [131.81024, 34.04443], [131.8087, 34.04523], [131.80738, 34.04595], [131.80672, 34.04638], [131.80598, 34.04691], [131.80528, 34.04761], [131.80401, 34.04899]]}, "properties": {"id": "GEOM_TOKYO_0679", "route_id": "R_A02272B9", "route_name": null, "route_color": null, "route_text_color": null, "representation": "service_path", "min_zoom": 0, "max_zoom": 24, "offset_rank": 0}}]}