{"type": "FeatureCollection", "features": [{"type": "Feature", "bbox": [139.39057, 36.11504, 139.43095, 36.1396], "geometry": {"type": "LineString", "coordinates": [[139.43095, 36.11504], [139.43084, 36.11515], [139.42931, 36.11671], [139.42913, 36.11685], [139.42872, 36.11716], [139.42774, 36.11781], [139.42699, 36.11831], [139.42639, 36.11871], [139.42535, 36.11938], [139.42383, 36.12037], [139.42375, 36.12042], [139.42187, 36.12163], [139.42131, 36.12198], [139.42094, 36.12221], [139.42007, 36.12266], [139.41738, 36.12392], [139.4157, 36.12471], [139.41265, 36.12617], [139.4099, 36.12747], [139.40782, 36.12847], [139.40781, 36.12847], [139.40666, 36.12904], [139.40622, 36.1293], [139.40573, 36.12964], [139.40506, 36.13013], [139.40373, 36.13113], [139.40228, 36.13225], [139.40106, 36.13315], [139.39992, 36.13404], [139.39975, 36.13417], [139.39947, 36.13438], [139.39831, 36.13526], [139.39646, 36.13664], [139.39547, 36.13734], [139.39526, 36.13751], [139.39463, 36.13796], [139.39422, 36.13819], [139.39378, 36.1384], [139.39274, 36.13881], [139.39057, 36.1396]]}, "properties": {"id": "TRACK_TOKYO_2184", "line_name": "高崎線", "station_group_ids": [], "mode": "rail", "operator_id": "jr_east", "line_color": "#F28E1C", "tags": ["tokyo", "track_centerline"]}}, {"type": "Feature", "bbox": [139.38928, 36.1396, 139.39057, 36.14002], "geometry": {"type": "LineString", "coordinates": [[139.39057, 36.1396], [139.38928, 36.14002]]}, "properties": {"id": "TRACK_TOKYO_2186", "line_name": "高崎線", "station_group_ids": [], "mode": "rail", "operator_id": "jr_east", "line_color": "#F28E1C", "tags": ["tokyo", "track_centerline"]}}, {"type": "Feature", "bbox": [139.45188, 36.10217, 139.45533, 36.10361], "geometry": {"type": "LineString", "coordinates": [[139.45533, 36.10217], [139.4547, 36.10243], [139.45382, 36.10279], [139.45273, 36.10325], [139.45188, 36.10361]]}, "properties": {"id": "TRACK_TOKYO_2187", "line_name": "高崎線", "station_group_ids": [], "mode": "rail", "operator_id": "jr_east", "line_color": "#F28E1C", "tags": ["tokyo", "track_centerline"]}}, {"type": "Feature", "bbox": [139.47607, 36.08459, 139.47784, 36.0864], "geometry": {"type": "LineString", "coordinates": [[139.47607, 36.0864], [139.47784, 36.08459]]}, "properties": {"id": "TRACK_TOKYO_2188", "line_name": "高崎線", "station_group_ids": [], "mode": "rail", "operator_id": "jr_east", "line_color": "#F28E1C", "tags": ["tokyo", "track_centerline"]}}, {"type": "Feature", "bbox": [139.43095, 36.11275, 139.43322, 36.11504], "geometry": {"type": "LineString", "coordinates": [[139.43322, 36.11275], [139.43248, 36.11348], [139.43171, 36.11426], [139.43095, 36.11504]]}, "properties": {"id": "TRACK_TOKYO_2190", "line_name": "高崎線", "station_group_ids": [], "mode": "rail", "operator_id": "jr_east", "line_color": "#F28E1C", "tags": ["tokyo", "track_centerline"]}}, {"type": "Feature", "bbox": [139.36504, 36.14002, 139.38928, 36.15588], "geometry": {"type": "LineString", "coordinates": [[139.38928, 36.14002], [139.38792, 36.14055], [139.38547, 36.14149], [139.38422, 36.14197], [139.38176, 36.14293], [139.37866, 36.1441], [139.37816, 36.14431], [139.3779, 36.14445], [139.37759, 36.14469], [139.37613, 36.14609], [139.37528, 36.14689], [139.37387, 36.14824], [139.37381, 36.14829], [139.37274, 36.14927], [139.37179, 36.15015], [139.3715, 36.15036], [139.37116, 36.15068], [139.37054, 36.15125], [139.36961, 36.15212], [139.36911, 36.15261], [139.36844, 36.15321], [139.36754, 36.15405], [139.36679, 36.15465], [139.36598, 36.15527], [139.36541, 36.15567], [139.36504, 36.15588]]}, "properties": {"id": "TRACK_TOKYO_2191", "line_name": "高崎線", "station_group_ids": [], "mode": "rail", "operator_id": "jr_east", "line_color": "#F28E1C", "tags": ["tokyo", "track_centerline"]}}, {"type": "Feature", "bbox": [139.53448, 35.99929, 139.56328, 36.03059], "geometry": {"type": "LineString", "coordinates": [[139.53448, 36.03059], [139.53461, 36.03035], [139.53485, 36.02997], [139.53495, 36.02981], [139.53549, 36.02901], [139.5356, 36.02886], [139.53572, 36.02869], [139.53588, 36.02846], [139.53643, 36.0278], [139.53791, 36.02605], [139.53864, 36.0252], [139.5395, 36.02419], [139.53968, 36.02396], [139.53985, 36.02377], [139.54007, 36.02349], [139.54067, 36.02277], [139.54094, 36.02244], [139.54142, 36.02186], [139.54227, 36.02081], [139.54309, 36.01979], [139.5441, 36.01853], [139.54422, 36.0184], [139.54512, 36.0173], [139.54551, 36.01683], [139.547, 36.01501], [139.54706, 36.01493], [139.54734, 36.01461], [139.54795, 36.01385], [139.54849, 36.0132], [139.54886, 36.01282], [139.54943, 36.01229], [139.54943, 36.01228], [139.55084, 36.01094], [139.55164, 36.01019], [139.55191, 36.00992], [139.55268, 36.0092], [139.55317, 36.00875], [139.55346, 36.00848], [139.55359, 36.00836], [139.55374, 36.00822], [139.55404, 36.00794], [139.55413, 36.00785], [139.55451, 36.00751], [139.5549, 36.00715], [139.55533, 36.00675], [139.5555, 36.0066], [139.55566, 36.00645], [139.55596, 36.00618], [139.55627, 36.00589], [139.55643, 36.00574], [139.55657, 36.00561], [139.55754, 36.00472], [139.55786, 36.00443], [139.55804, 36.00427], [139.55821, 36.00411], [139.55836, 36.00396], [139.5586, 36.00376], [139.55919, 36.00319], [139.56094, 36.00151], [139.56328, 35.99929]]}, "properties": {"id": "TRACK_TOKYO_2192", "line_name": "高崎線", "station_group_ids": [], "mode": "rail", "operator_id": "jr_east", "line_color": "#F28E1C", "tags": ["tokyo", "track_centerline"]}}, {"type": "Feature", "bbox": [139.53261, 36.03059, 139.53448, 36.03377], "geometry": {"type": "LineString", "coordinates": [[139.53261, 36.03377], [139.53313, 36.03292], [139.53448, 36.03059]]}, "properties": {"id": "TRACK_TOKYO_2194", "line_name": "高崎線", "station_group_ids": [], "mode": "rail", "operator_id": "jr_east", "line_color": "#F28E1C", "tags": ["tokyo", "track_centerline"]}}, {"type": "Feature", "bbox": [139.51077, 36.03377, 139.53261, 36.05763], "geometry": {"type": "LineString", "coordinates": [[139.51077, 36.05763], [139.51084, 36.05756], [139.51091, 36.05746], [139.511, 36.05734], [139.51115, 36.05714], [139.51128, 36.05695], [139.51136, 36.05685], [139.51152, 36.05663], [139.51174, 36.05636], [139.51183, 36.05623], [139.51197, 36.05605], [139.51211, 36.05588], [139.51256, 36.05533], [139.51262, 36.05524], [139.51307, 36.05471], [139.51453, 36.0532], [139.51553, 36.0522], [139.51571, 36.05201], [139.51592, 36.0518], [139.51626, 36.05146], [139.5163, 36.05142], [139.51648, 36.05124], [139.51677, 36.05094], [139.51691, 36.0508], [139.51743, 36.05027], [139.51811, 36.0496], [139.51877, 36.04893], [139.51913, 36.04856], [139.51923, 36.04847], [139.51957, 36.04812], [139.51975, 36.04794], [139.52005, 36.04764], [139.5203, 36.0474], [139.52044, 36.04725], [139.52055, 36.04714], [139.52066, 36.04702], [139.52074, 36.04694], [139.52092, 36.04677], [139.52103, 36.04664], [139.52114, 36.04654], [139.52126, 36.04641], [139.52146, 36.0462], [139.52182, 36.04584], [139.52274, 36.04489], [139.52303, 36.0446], [139.52319, 36.04443], [139.5236, 36.04399], [139.52369, 36.04391], [139.52412, 36.04345], [139.5243, 36.04325], [139.52455, 36.04301], [139.52606, 36.0414], [139.52629, 36.04115], [139.52668, 36.04075], [139.5271, 36.0403], [139.52752, 36.03988], [139.52826, 36.03909], [139.52859, 36.03872], [139.52906, 36.03822], [139.52942, 36.03785], [139.5305, 36.03673], [139.53088, 36.03629], [139.53126, 36.0358], [139.53169, 36.03516], [139.53178, 36.03501], [139.5319, 36.03483], [139.53261, 36.03377]]}, "properties": {"id": "TRACK_TOKYO_2196", "line_name": "高崎線", "station_group_ids": [], "mode": "rail", "operator_id": "jr_east", "line_color": "#F28E1C", "tags": ["tokyo", "track_centerline"]}}, {"type": "Feature", "bbox": [139.5084, 36.05763, 139.51077, 36.06085], "geometry": {"type": "LineString", "coordinates": [[139.51077, 36.05763], [139.5084, 36.06085]]}, "properties": {"id": "TRACK_TOKYO_2197", "line_name": "高崎線", "station_group_ids": [], "mode": "rail", "operator_id": "jr_east", "line_color": "#F28E1C", "tags": ["tokyo", "track_centerline"]}}, {"type": "Feature", "bbox": [139.43322, 36.10361, 139.45188, 36.11275], "geometry": {"type": "LineString", "coordinates": [[139.45188, 36.10361], [139.45186, 36.10362], [139.45114, 36.10393], [139.44945, 36.10453], [139.44887, 36.10466], [139.44778, 36.10485], [139.44444, 36.10527], [139.44306, 36.10546], [139.44192, 36.10566], [139.44142, 36.1058], [139.4412, 36.10585], [139.44096, 36.10593], [139.44071, 36.10601], [139.44047, 36.10612], [139.43985, 36.10644], [139.43932, 36.1068], [139.43884, 36.10718], [139.43766, 36.10833], [139.4364, 36.10959], [139.43496, 36.11103], [139.43395, 36.11202], [139.43363, 36.11234], [139.43322, 36.11275]]}, "properties": {"id": "TRACK_TOKYO_2198", "line_name": "高崎線", "station_group_ids": [], "mode": "rail", "operator_id": "jr_east", "line_color": "#F28E1C", "tags": ["tokyo", "track_centerline"]}}, {"type": "Feature", "bbox": [139.45533, 36.0864, 139.47607, 36.10217], "geometry": {"type": "LineString", "coordinates": [[139.45533, 36.10217], [139.45776, 36.10116], [139.45858, 36.10081], [139.45887, 36.10068], [139.45942, 36.1004], [139.45997, 36.10003], [139.46021, 36.09975], [139.4604, 36.09953], [139.46084, 36.09897], [139.46203, 36.09743], [139.46274, 36.09651], [139.46306, 36.0961], [139.46356, 36.09546], [139.46488, 36.09373], [139.46576, 36.09263], [139.46609, 36.09224], [139.46628, 36.09207], [139.46702, 36.09165], [139.46812, 36.09109], [139.46846, 36.09092], [139.47058, 36.08987], [139.47142, 36.08944], [139.47284, 36.08873], [139.47385, 36.0882], [139.47412, 36.08806], [139.47425, 36.08798], [139.47487, 36.0875], [139.47551, 36.08694], [139.47596, 36.08651], [139.47607, 36.0864]]}, "properties": {"id": "TRACK_TOKYO_2200", "line_name": "高崎線", "station_group_ids": [], "mode": "rail", "operator_id": "jr_east", "line_color": "#F28E1C", "tags": ["tokyo", "track_centerline"]}}, {"type": "Feature", "bbox": [139.47784, 36.06085, 139.5084, 36.08459], "geometry": {"type": "LineString", "coordinates": [[139.47784, 36.08459], [139.47804, 36.08439], [139.47861, 36.08382], [139.47894, 36.08349], [139.47935, 36.08307], [139.47944, 36.08299], [139.47957, 36.08286], [139.4801, 36.08232], [139.48033, 36.08211], [139.48053, 36.08189], [139.48121, 36.08123], [139.48189, 36.08055], [139.48242, 36.0801], [139.48278, 36.07982], [139.483, 36.07967], [139.48333, 36.07946], [139.48355, 36.07933], [139.48407, 36.07905], [139.48453, 36.07884], [139.48483, 36.0787], [139.48562, 36.07833], [139.48604, 36.07814], [139.48656, 36.07787], [139.48702, 36.07764], [139.4875, 36.07737], [139.48777, 36.07721], [139.48804, 36.07704], [139.48878, 36.07661], [139.48949, 36.07619], [139.4909, 36.07536], [139.49206, 36.07468], [139.4926, 36.07436], [139.49359, 36.07378], [139.49432, 36.07335], [139.49499, 36.07296], [139.49557, 36.07263], [139.49616, 36.0723], [139.49659, 36.07207], [139.49678, 36.07195], [139.49782, 36.07133], [139.49826, 36.07107], [139.49887, 36.0707], [139.49984, 36.07014], [139.50004, 36.07001], [139.50015, 36.06996], [139.50183, 36.06895], [139.50223, 36.06868], [139.50252, 36.06847], [139.50262, 36.0684], [139.50284, 36.06823], [139.50306, 36.06804], [139.50312, 36.06799], [139.50327, 36.06784], [139.50344, 36.06764], [139.50353, 36.06752], [139.50357, 36.06747], [139.50374, 36.06722], [139.50401, 36.06685], [139.50434, 36.0664], [139.50556, 36.06475], [139.50722, 36.06248], [139.5084, 36.06085]]}, "properties": {"id": "TRACK_TOKYO_2202", "line_name": "高崎線", "station_group_ids": [], "mode": "rail", "operator_id": "jr_east", "line_color": "#F28E1C", "tags": ["tokyo", "track_centerline"]}}, {"type": "Feature", "bbox": [139.28287, 36.17515, 139.32852, 36.19097], "geometry": {"type": "LineString", "coordinates": [[139.32852, 36.17515], [139.3277, 36.17548], [139.32714, 36.17572], [139.32615, 36.17613], [139.32558, 36.17638], [139.32536, 36.17647], [139.32311, 36.1774], [139.32245, 36.17769], [139.32055, 36.17848], [139.31856, 36.17932], [139.31719, 36.17989], [139.31673, 36.18009], [139.31538, 36.18066], [139.31447, 36.18105], [139.31272, 36.18177], [139.312, 36.18208], [139.31011, 36.18288], [139.30952, 36.18312], [139.30758, 36.18393], [139.30707, 36.18416], [139.30689, 36.18423], [139.30616, 36.18452], [139.30448, 36.18524], [139.30415, 36.18538], [139.30336, 36.18567], [139.30283, 36.18589], [139.30202, 36.18614], [139.30112, 36.18639], [139.29906, 36.18691], [139.29844, 36.18706], [139.29661, 36.18752], [139.29597, 36.18768], [139.29473, 36.188], [139.29269, 36.18851], [139.29166, 36.18877], [139.28983, 36.18923], [139.28886, 36.18946], [139.2872, 36.18989], [139.28654, 36.19005], [139.28602, 36.19018], [139.28575, 36.19025], [139.28476, 36.1905], [139.28423, 36.19062], [139.28287, 36.19097]]}, "properties": {"id": "TRACK_TOKYO_2213", "line_name": "高崎線", "station_group_ids": [], "mode": "rail", "operator_id": "jr_east", "line_color": "#F28E1C", "tags": ["tokyo", "track_centerline"]}}, {"type": "Feature", "bbox": [139.34721, 36.15588, 139.36504, 36.16551], "geometry": {"type": "LineString", "coordinates": [[139.34721, 36.16551], [139.34865, 36.16463], [139.35015, 36.16383], [139.35186, 36.16296], [139.35231, 36.16271], [139.35347, 36.16192], [139.35451, 36.16121], [139.35463, 36.16113], [139.35522, 36.16078], [139.35586, 36.16042], [139.35671, 36.15995], [139.35769, 36.15943], [139.35888, 36.15883], [139.35917, 36.15868], [139.35946, 36.15853], [139.36175, 36.15743], [139.36282, 36.15692], [139.36389, 36.15642], [139.36421, 36.15626], [139.36504, 36.15588]]}, "properties": {"id": "TRACK_TOKYO_2216", "line_name": "高崎線", "station_group_ids": [], "mode": "rail", "operator_id": "jr_east", "line_color": "#F28E1C", "tags": ["tokyo", "track_centerline"]}}, {"type": "Feature", "bbox": [139.34721, 36.15588, 139.36504, 36.16551], "geometry": {"type": "LineString", "coordinates": [[139.34721, 36.16551], [139.34792, 36.16522], [139.34881, 36.16482], [139.35017, 36.16413], [139.3514, 36.16349], [139.35262, 36.16284], [139.35391, 36.16215], [139.35515, 36.16148], [139.35725, 36.16034], [139.35954, 36.15911], [139.35983, 36.15896], [139.36017, 36.15878], [139.36151, 36.15806], [139.3629, 36.15726], [139.36369, 36.15679], [139.36479, 36.15607], [139.36504, 36.15588]]}, "properties": {"id": "TRACK_TOKYO_2220", "line_name": "高崎線", "station_group_ids": [], "mode": "rail", "operator_id": "jr_east", "line_color": "#F28E1C", "tags": ["tokyo", "track_centerline"]}}, {"type": "Feature", "bbox": [139.332, 36.16551, 139.34721, 36.17369], "geometry": {"type": "LineString", "coordinates": [[139.332, 36.17369], [139.33325, 36.17312], [139.33364, 36.17292], [139.33491, 36.17225], [139.33625, 36.17152], [139.33801, 36.17057], [139.339, 36.17003], [139.33939, 36.16983], [139.34015, 36.16938], [139.34086, 36.16896], [139.34151, 36.16861], [139.34246, 36.16808], [139.34344, 36.16755], [139.34525, 36.16656], [139.34636, 36.16596], [139.34721, 36.16551]]}, "properties": {"id": "TRACK_TOKYO_2221", "line_name": "高崎線", "station_group_ids": [], "mode": "rail", "operator_id": "jr_east", "line_color": "#F28E1C", "tags": ["tokyo", "track_centerline"]}}, {"type": "Feature", "bbox": [139.32852, 36.17369, 139.332, 36.17515], "geometry": {"type": "LineString", "coordinates": [[139.332, 36.17369], [139.32852, 36.17515]]}, "properties": {"id": "TRACK_TOKYO_2223", "line_name": "高崎線", "station_group_ids": [], "mode": "rail", "operator_id": "jr_east", "line_color": "#F28E1C", "tags": ["tokyo", "track_centerline"]}}, {"type": "Feature", "bbox": [139.39115, 35.97526, 139.62471, 36.13894], "geometry": {"type": "LineString", "coordinates": [[139.39115, 36.13894], [139.39267, 36.13838], [139.39291, 36.1383], [139.39461, 36.13766], [139.39508, 36.13748], [139.39547, 36.13734], [139.39666, 36.1369], [139.39859, 36.13619], [139.40133, 36.13518], [139.40275, 36.13463], [139.4028, 36.1346], [139.40408, 36.13413], [139.40472, 36.13391], [139.40587, 36.13348], [139.40747, 36.13289], [139.40875, 36.13243], [139.40903, 36.13233], [139.41044, 36.13182], [139.41177, 36.13133], [139.41339, 36.13075], [139.41481, 36.13024], [139.41715, 36.12939], [139.41747, 36.12927], [139.41857, 36.12887], [139.41952, 36.12854], [139.42043, 36.12821], [139.42147, 36.12783], [139.42211, 36.12761], [139.42392, 36.12693], [139.42441, 36.12676], [139.42445, 36.12673], [139.42521, 36.12647], [139.4272, 36.12574], [139.42724, 36.12572], [139.42744, 36.12565], [139.42753, 36.12562], [139.429, 36.12509], [139.43034, 36.12459], [139.43075, 36.12445], [139.43122, 36.12428], [139.43148, 36.12418], [139.43158, 36.12415], [139.43186, 36.12405], [139.43213, 36.12395], [139.43243, 36.12384], [139.43298, 36.12364], [139.43316, 36.12358], [139.4333, 36.12352], [139.43359, 36.12343], [139.4344, 36.12311], [139.43493, 36.12292], [139.43506, 36.12288], [139.43559, 36.12267], [139.43609, 36.1225], [139.43623, 36.12244], [139.43674, 36.12226], [139.43717, 36.1221], [139.43883, 36.12148], [139.43989, 36.12106], [139.44125, 36.1205], [139.4419, 36.12024], [139.44261, 36.11996], [139.44327, 36.11968], [139.4443, 36.11928], [139.44581, 36.11865], [139.44728, 36.11804], [139.4481, 36.1177], [139.44944, 36.1171], [139.45041, 36.11667], [139.45191, 36.11595], [139.45378, 36.11501], [139.45398, 36.11491], [139.45499, 36.11438], [139.45572, 36.11399], [139.45682, 36.11335], [139.45789, 36.11274], [139.45868, 36.11229], [139.45879, 36.11223], [139.45914, 36.11202], [139.46024, 36.11139], [139.46125, 36.11079], [139.46141, 36.1107], [139.46284, 36.10987], [139.46435, 36.10901], [139.46487, 36.10871], [139.46655, 36.10776], [139.46726, 36.10735], [139.46766, 36.10711], [139.46783, 36.10702], [139.46865, 36.10653], [139.47009, 36.10571], [139.47133, 36.10501], [139.47346, 36.10376], [139.47536, 36.10266], [139.47687, 36.1018], [139.47752, 36.10143], [139.47841, 36.10091], [139.47858, 36.1008], [139.47871, 36.10074], [139.4797, 36.10015], [139.48064, 36.09962], [139.48128, 36.09927], [139.48144, 36.09916], [139.48161, 36.09906], [139.48318, 36.09816], [139.48628, 36.09635], [139.48785, 36.09544], [139.48845, 36.09511], [139.48942, 36.09454], [139.49047, 36.09393], [139.49054, 36.09388], [139.49179, 36.09317], [139.49265, 36.09268], [139.49367, 36.09208], [139.49409, 36.09184], [139.49524, 36.09117], [139.49584, 36.09082], [139.49678, 36.09027], [139.49692, 36.09019], [139.49701, 36.09015], [139.4978, 36.08969], [139.49806, 36.08954], [139.49846, 36.08931], [139.49882, 36.0891], [139.49925, 36.08886], [139.49976, 36.08856], [139.50019, 36.08831], [139.50067, 36.08804], [139.50104, 36.08782], [139.50166, 36.08746], [139.50241, 36.08702], [139.50318, 36.08659], [139.50332, 36.08651], [139.50392, 36.08617], [139.50471, 36.08572], [139.50508, 36.08551], [139.50524, 36.08541], [139.50543, 36.08532], [139.50579, 36.0851], [139.50612, 36.08492], [139.50623, 36.08485], [139.50727, 36.08424], [139.50774, 36.08398], [139.50884, 36.08335], [139.50977, 36.08283], [139.51013, 36.08263], [139.51096, 36.08214], [139.51202, 36.08151], [139.51238, 36.08132], [139.51337, 36.08075], [139.5134, 36.08073], [139.51378, 36.08051], [139.51392, 36.08043], [139.51414, 36.08029], [139.51494, 36.07982], [139.51581, 36.0793], [139.51585, 36.07927], [139.51621, 36.07904], [139.51665, 36.07878], [139.51694, 36.0786], [139.51756, 36.07821], [139.51767, 36.07814], [139.51842, 36.07766], [139.51869, 36.07747], [139.51927, 36.07708], [139.5195, 36.07692], [139.5203, 36.07636], [139.52078, 36.07603], [139.52117, 36.07577], [139.52175, 36.07535], [139.52215, 36.07507], [139.52354, 36.07406], [139.52439, 36.07343], [139.52457, 36.07328], [139.5254, 36.07265], [139.52694, 36.07145], [139.52726, 36.0712], [139.52803, 36.07059], [139.52922, 36.06965], [139.53, 36.06906], [139.53048, 36.06867], [139.53174, 36.06769], [139.53201, 36.06747], [139.53238, 36.06718], [139.5333, 36.06647], [139.53356, 36.06626], [139.5341, 36.06584], [139.53476, 36.06532], [139.53478, 36.06531], [139.53492, 36.0652], [139.53542, 36.0648], [139.53696, 36.06356], [139.53831, 36.06248], [139.53909, 36.06189], [139.53924, 36.06175], [139.54063, 36.0607], [139.54137, 36.06012], [139.54182, 36.05978], [139.54289, 36.05894], [139.54427, 36.05785], [139.5461, 36.05642], [139.54707, 36.05565], [139.54711, 36.05562], [139.54906, 36.0541], [139.54918, 36.05399], [139.55, 36.05335], [139.55087, 36.05268], [139.55134, 36.05231], [139.55236, 36.0515], [139.55312, 36.05092], [139.55348, 36.05064], [139.55379, 36.0504], [139.55392, 36.05029], [139.55493, 36.04951], [139.55523, 36.04926], [139.55534, 36.04919], [139.55587, 36.04876], [139.55597, 36.04869], [139.55747, 36.04752], [139.55779, 36.04726], [139.55797, 36.04712], [139.55824, 36.04691], [139.55841, 36.04677], [139.55859, 36.04664], [139.55885, 36.04643], [139.55942, 36.04598], [139.55982, 36.04566], [139.56053, 36.04511], [139.56057, 36.04509], [139.561, 36.04474], [139.56169, 36.0442], [139.56176, 36.04415], [139.56471, 36.04184], [139.56511, 36.04153], [139.56568, 36.0411], [139.56606, 36.04079], [139.56613, 36.04074], [139.56683, 36.04017], [139.56738, 36.03973], [139.56744, 36.03968], [139.56791, 36.03931], [139.56841, 36.03891], [139.5703, 36.03742], [139.5705, 36.03726], [139.57077, 36.03706], [139.5709, 36.03696], [139.57108, 36.03682], [139.57189, 36.03619], [139.57209, 36.03605], [139.57337, 36.03505], [139.57383, 36.03469], [139.57501, 36.03374], [139.57574, 36.03316], [139.57617, 36.03281], [139.57703, 36.03214], [139.57778, 36.03155], [139.57819, 36.03122], [139.57849, 36.03097], [139.57852, 36.03096], [139.57928, 36.03036], [139.58015, 36.02969], [139.58204, 36.02819], [139.58223, 36.02806], [139.58256, 36.02782], [139.58299, 36.02748], [139.5838, 36.02684], [139.58392, 36.02672], [139.58559, 36.02542], [139.58619, 36.02497], [139.58784, 36.02366], [139.5881, 36.02346], [139.58832, 36.02329], [139.58914, 36.02265], [139.58993, 36.02202], [139.59025, 36.02177], [139.59094, 36.02121], [139.59095, 36.0212], [139.59135, 36.0209], [139.59193, 36.02044], [139.59318, 36.01947], [139.59351, 36.01921], [139.59383, 36.01896], [139.59419, 36.01867], [139.59463, 36.01831], [139.59506, 36.01797], [139.59537, 36.01771], [139.59561, 36.01753], [139.59596, 36.01725], [139.5969, 36.01649], [139.59726, 36.01622], [139.59764, 36.01594], [139.59772, 36.01588], [139.59858, 36.01521], [139.59864, 36.01518], [139.59887, 36.01499], [139.59979, 36.01427], [139.60107, 36.01327], [139.60149, 36.01293], [139.60268, 36.012], [139.60431, 36.01071], [139.60443, 36.01063], [139.60518, 36.01004], [139.60685, 36.00874], [139.60712, 36.00853], [139.60746, 36.00826], [139.60777, 36.00802], [139.60847, 36.00746], [139.6085, 36.00745], [139.60906, 36.00701], [139.60946, 36.00669], [139.61072, 36.0057], [139.61161, 36.00498], [139.61228, 36.00444], [139.61369, 36.00319], [139.61447, 36.00251], [139.61577, 36.00119], [139.61638, 36.00052], [139.61649, 36.0004], [139.61713, 35.9997], [139.6178, 35.99885], [139.61824, 35.99829], [139.61939, 35.99668], [139.61982, 35.99599], [139.62014, 35.9955], [139.62064, 35.99466], [139.62099, 35.99401], [139.62177, 35.9925], [139.62194, 35.99215], [139.62248, 35.99084], [139.6226, 35.9905], [139.6227, 35.99026], [139.62275, 35.99014], [139.62277, 35.9901], [139.62309, 35.98919], [139.62331, 35.98858], [139.62349, 35.98795], [139.62363, 35.98745], [139.62382, 35.98671], [139.62393, 35.98628], [139.62398, 35.986], [139.62404, 35.98575], [139.62408, 35.98549], [139.62418, 35.98497], [139.62424, 35.98465], [139.62426, 35.98452], [139.6243, 35.98424], [139.62438, 35.98381], [139.62443, 35.9835], [139.62448, 35.98314], [139.62453, 35.98292], [139.6246, 35.98222], [139.62464, 35.98177], [139.62469, 35.98107], [139.62471, 35.98048], [139.6247, 35.97929], [139.62468, 35.97899], [139.62466, 35.97858], [139.62464, 35.97813], [139.62459, 35.97689], [139.62458, 35.97668], [139.62455, 35.97595], [139.62452, 35.97526]]}, "properties": {"id": "TRACK_TOKYO_2306", "line_name": "上越新幹線", "station_group_ids": [], "mode": "shinkansen", "operator_id": "jr_east", "line_color": "#E65045", "tags": ["tokyo", "track_centerline"]}}, {"type": "Feature", "bbox": [139.38814, 36.13894, 139.39115, 36.14006], "geometry": {"type": "LineString", "coordinates": [[139.39115, 36.13894], [139.38814, 36.14006]]}, "properties": {"id": "TRACK_TOKYO_2307", "line_name": "上越新幹線", "station_group_ids": [], "mode": "shinkansen", "operator_id": "jr_east", "line_color": "#E65045", "tags": ["tokyo", "track_centerline"]}}, {"type": "Feature", "bbox": [139.18155, 36.14006, 139.38814, 36.21779], "geometry": {"type": "LineString", "coordinates": [[139.38814, 36.14006], [139.38689, 36.1405], [139.38651, 36.14064], [139.38406, 36.14155], [139.38155, 36.14247], [139.3799, 36.14308], [139.3795, 36.14324], [139.37919, 36.14335], [139.37853, 36.1436], [139.37647, 36.14441], [139.37535, 36.14485], [139.37179, 36.14627], [139.37147, 36.14639], [139.37026, 36.14682], [139.36898, 36.14729], [139.36843, 36.14749], [139.36759, 36.14779], [139.36662, 36.14813], [139.3658, 36.1484], [139.36369, 36.14911], [139.36226, 36.14956], [139.36058, 36.15007], [139.35807, 36.15068], [139.35794, 36.15072], [139.35655, 36.151], [139.3553, 36.15123], [139.35382, 36.15148], [139.35246, 36.15168], [139.35109, 36.15184], [139.34965, 36.15197], [139.34829, 36.15208], [139.34716, 36.15217], [139.34685, 36.1522], [139.34539, 36.1523], [139.34367, 36.15243], [139.34177, 36.15257], [139.33986, 36.1527], [139.33823, 36.15282], [139.33659, 36.15296], [139.33612, 36.153], [139.33464, 36.15312], [139.33328, 36.15322], [139.33212, 36.15332], [139.32992, 36.15346], [139.32871, 36.15354], [139.32716, 36.15364], [139.32578, 36.15374], [139.32508, 36.15378], [139.3238, 36.15387], [139.32154, 36.15406], [139.31918, 36.15428], [139.31735, 36.15452], [139.31521, 36.15482], [139.31412, 36.15503], [139.31303, 36.15524], [139.31168, 36.15555], [139.31058, 36.15581], [139.30875, 36.15634], [139.30784, 36.15666], [139.30664, 36.15709], [139.30553, 36.1575], [139.30382, 36.15823], [139.3038, 36.15824], [139.30248, 36.15883], [139.301, 36.15954], [139.29961, 36.16021], [139.29859, 36.16071], [139.29645, 36.16174], [139.29517, 36.16236], [139.29425, 36.16282], [139.29362, 36.16313], [139.29208, 36.16388], [139.28983, 36.165], [139.2895, 36.16516], [139.28822, 36.16581], [139.28665, 36.16659], [139.2846, 36.1676], [139.28338, 36.1682], [139.28146, 36.16915], [139.28002, 36.16983], [139.27979, 36.16993], [139.27798, 36.17079], [139.27787, 36.17085], [139.27649, 36.17152], [139.27446, 36.17247], [139.27241, 36.17346], [139.27019, 36.17454], [139.26889, 36.17517], [139.26845, 36.17539], [139.26651, 36.17633], [139.26536, 36.17688], [139.26277, 36.17815], [139.26159, 36.17873], [139.25894, 36.18002], [139.2588, 36.18009], [139.25644, 36.18125], [139.25492, 36.18199], [139.25277, 36.18304], [139.24969, 36.18456], [139.24945, 36.18468], [139.24679, 36.186], [139.24612, 36.18635], [139.2452, 36.18679], [139.24461, 36.18707], [139.24386, 36.18744], [139.24334, 36.1877], [139.24303, 36.18785], [139.24242, 36.18815], [139.242, 36.18835], [139.24171, 36.18849], [139.24109, 36.18879], [139.24002, 36.1893], [139.23933, 36.18964], [139.23874, 36.18992], [139.23811, 36.19023], [139.23749, 36.19054], [139.23634, 36.19109], [139.23549, 36.19151], [139.2351, 36.1917], [139.23457, 36.19196], [139.23383, 36.19232], [139.23272, 36.19286], [139.23159, 36.19341], [139.23021, 36.19408], [139.22876, 36.1948], [139.22792, 36.19521], [139.2271, 36.1956], [139.2254, 36.19644], [139.22438, 36.19692], [139.22432, 36.19695], [139.22356, 36.19732], [139.22173, 36.19821], [139.22052, 36.19879], [139.21921, 36.19945], [139.21762, 36.20022], [139.21606, 36.20098], [139.21481, 36.20158], [139.21439, 36.20178], [139.21318, 36.20239], [139.21201, 36.20295], [139.21138, 36.20326], [139.21078, 36.20356], [139.20972, 36.20407], [139.20888, 36.20447], [139.20812, 36.20484], [139.20739, 36.2052], [139.20664, 36.20557], [139.20609, 36.20584], [139.20558, 36.2061], [139.20531, 36.20623], [139.20485, 36.20645], [139.20409, 36.20683], [139.20335, 36.2072], [139.20247, 36.20763], [139.2017, 36.20799], [139.20095, 36.20835], [139.20014, 36.20875], [139.19975, 36.20894], [139.19884, 36.20938], [139.19828, 36.20966], [139.19773, 36.20993], [139.19697, 36.2103], [139.19595, 36.21079], [139.1958, 36.21086], [139.19498, 36.21127], [139.19432, 36.21158], [139.19428, 36.2116], [139.19379, 36.21184], [139.19311, 36.21217], [139.19214, 36.21264], [139.19115, 36.21312], [139.1903, 36.21353], [139.18951, 36.21393], [139.18832, 36.2145], [139.18705, 36.21513], [139.18639, 36.21545], [139.18545, 36.2159], [139.18495, 36.21614], [139.18481, 36.21622], [139.18455, 36.21635], [139.18399, 36.21661], [139.18335, 36.21693], [139.18266, 36.21725], [139.18172, 36.21771], [139.18155, 36.21779]]}, "properties": {"id": "TRACK_TOKYO_2327", "line_name": "上越新幹線", "station_group_ids": [], "mode": "shinkansen", "operator_id": "jr_east", "line_color": "#E65045", "tags": ["tokyo", "track_centerline"]}}, {"type": "Feature", "bbox": [139.52619, 36.17113, 139.53377, 36.20823], "geometry": {"type": "LineString", "coordinates": [[139.53377, 36.17113], [139.53323, 36.17298], [139.53262, 36.17511], [139.5323, 36.17621], [139.5321, 36.1769], [139.53161, 36.17861], [139.5314, 36.1793], [139.53091, 36.18102], [139.53045, 36.1826], [139.52983, 36.18476], [139.52976, 36.18498], [139.52968, 36.18528], [139.52952, 36.18585], [139.52921, 36.18691], [139.52912, 36.18722], [139.52904, 36.1875], [139.52874, 36.1885], [139.52871, 36.18863], [139.5286, 36.18904], [139.52817, 36.19049], [139.52792, 36.19137], [139.52788, 36.19149], [139.52767, 36.19223], [139.52734, 36.19339], [139.52711, 36.19418], [139.52703, 36.19444], [139.52697, 36.19468], [139.52672, 36.19549], [139.5266, 36.19594], [139.52653, 36.19621], [139.52643, 36.19674], [139.52635, 36.19717], [139.52632, 36.19735], [139.52631, 36.19743], [139.52623, 36.19814], [139.5262, 36.19852], [139.52619, 36.19877], [139.52619, 36.1992], [139.52619, 36.19922], [139.52624, 36.20053], [139.52628, 36.20145], [139.52632, 36.20299], [139.5264, 36.20513], [139.52644, 36.20693], [139.52648, 36.20823]]}, "properties": {"id": "TRACK_TOKYO_3581", "line_name": "伊勢崎線", "station_group_ids": [], "mode": "private", "operator_id": "tobu", "line_color": "#1F78FF", "tags": ["tokyo", "track_centerline"]}}, {"type": "Feature", "bbox": [139.55748, 36.12325, 139.59493, 36.14926], "geometry": {"type": "LineString", "coordinates": [[139.55748, 36.14926], [139.56075, 36.14698], [139.56112, 36.14673], [139.56293, 36.14548], [139.56522, 36.14388], [139.5662, 36.1432], [139.56873, 36.14144], [139.56954, 36.14087], [139.57155, 36.13945], [139.57247, 36.13882], [139.5725, 36.1388], [139.57391, 36.13779], [139.57562, 36.13657], [139.57696, 36.13563], [139.57736, 36.13534], [139.57786, 36.135], [139.57908, 36.13416], [139.58084, 36.13292], [139.5825, 36.13178], [139.58375, 36.13091], [139.58481, 36.13018], [139.58539, 36.12977], [139.58577, 36.12949], [139.58642, 36.12903], [139.58739, 36.12835], [139.58896, 36.12729], [139.5903, 36.12637], [139.59132, 36.12565], [139.59277, 36.12465], [139.59354, 36.1241], [139.59428, 36.12364], [139.59493, 36.12325]]}, "properties": {"id": "TRACK_TOKYO_3585", "line_name": "伊勢崎線", "station_group_ids": [], "mode": "private", "operator_id": "tobu", "line_color": "#1F78FF", "tags": ["tokyo", "track_centerline"]}}, {"type": "Feature", "bbox": [139.53377, 36.16925, 139.53426, 36.17113], "geometry": {"type": "LineString", "coordinates": [[139.53377, 36.17113], [139.53406, 36.16984], [139.53426, 36.16925]]}, "properties": {"id": "TRACK_TOKYO_3586", "line_name": "伊勢崎線", "station_group_ids": [], "mode": "private", "operator_id": "tobu", "line_color": "#1F78FF", "tags": ["tokyo", "track_centerline"]}}, {"type": "Feature", "bbox": [139.55643, 36.14926, 139.55748, 36.14999], "geometry": {"type": "LineString", "coordinates": [[139.55643, 36.14999], [139.55748, 36.14926]]}, "properties": {"id": "TRACK_TOKYO_3589", "line_name": "伊勢崎線", "station_group_ids": [], "mode": "private", "operator_id": "tobu", "line_color": "#1F78FF", "tags": ["tokyo", "track_centerline"]}}, {"type": "Feature", "bbox": [139.53426, 36.14999, 139.55643, 36.16925], "geometry": {"type": "LineString", "coordinates": [[139.53426, 36.16925], [139.53456, 36.16846], [139.5349, 36.16747], [139.53534, 36.16636], [139.5356, 36.16586], [139.53621, 36.1649], [139.53648, 36.16451], [139.53675, 36.16416], [139.53707, 36.16378], [139.53773, 36.16316], [139.53842, 36.16255], [139.53895, 36.16214], [139.53957, 36.1617], [139.54061, 36.16098], [139.54223, 36.15985], [139.5431, 36.15927], [139.54417, 36.15852], [139.54701, 36.15656], [139.54802, 36.15586], [139.54978, 36.15465], [139.55127, 36.15363], [139.55344, 36.15207], [139.55524, 36.15082], [139.55643, 36.14999]]}, "properties": {"id": "TRACK_TOKYO_3595", "line_name": "伊勢崎線", "station_group_ids": [], "mode": "private", "operator_id": "tobu", "line_color": "#1F78FF", "tags": ["tokyo", "track_centerline"]}}, {"type": "Feature", "bbox": [139.35702, 35.93191, 139.3697, 35.93995], "geometry": {"type": "LineString", "coordinates": [[139.3697, 35.93995], [139.36916, 35.93956], [139.36863, 35.93921], [139.36772, 35.93858], [139.3673, 35.9383], [139.36621, 35.93755], [139.36619, 35.93754], [139.36592, 35.93735], [139.36513, 35.9368], [139.36477, 35.93655], [139.36398, 35.93601], [139.36296, 35.93531], [139.36221, 35.9348], [139.36182, 35.93454], [139.36063, 35.93372], [139.36002, 35.93331], [139.35957, 35.93298], [139.35943, 35.93288], [139.35899, 35.93262], [139.35863, 35.93245], [139.35817, 35.93224], [139.35775, 35.9321], [139.3575, 35.93203], [139.35702, 35.93191]]}, "properties": {"id": "TRACK_TOKYO_3681", "line_name": "越生線", "station_group_ids": [], "mode": "private", "operator_id": "tobu", "line_color": "#1F78FF", "tags": ["tokyo", "track_centerline"]}}, {"type": "Feature", "bbox": [139.39349, 35.95702, 139.3946, 35.95708], "geometry": {"type": "LineString", "coordinates": [[139.3946, 35.95708], [139.39349, 35.95702]]}, "properties": {"id": "TRACK_TOKYO_3682", "line_name": "越生線", "station_group_ids": [], "mode": "private", "operator_id": "tobu", "line_color": "#1F78FF", "tags": ["tokyo", "track_centerline"]}}, {"type": "Feature", "bbox": [139.37046, 35.94048, 139.39349, 35.95702], "geometry": {"type": "LineString", "coordinates": [[139.39349, 35.95702], [139.39311, 35.957], [139.39274, 35.95696], [139.39265, 35.95694], [139.39251, 35.95692], [139.39231, 35.95687], [139.39219, 35.95683], [139.39196, 35.95674], [139.39172, 35.95662], [139.39135, 35.95638], [139.39111, 35.95619], [139.39088, 35.95595], [139.39039, 35.95533], [139.38994, 35.95472], [139.38962, 35.95429], [139.38948, 35.95416], [139.38924, 35.95393], [139.3885, 35.95352], [139.388, 35.95328], [139.38751, 35.95304], [139.38692, 35.9526], [139.38563, 35.95166], [139.38556, 35.9516], [139.38548, 35.95155], [139.3854, 35.95149], [139.38357, 35.95014], [139.38348, 35.95007], [139.38236, 35.94925], [139.38129, 35.94846], [139.38041, 35.94781], [139.38037, 35.94777], [139.379, 35.94676], [139.37856, 35.94644], [139.37801, 35.94602], [139.3779, 35.94595], [139.37656, 35.94495], [139.37536, 35.94407], [139.37494, 35.94377], [139.37455, 35.94348], [139.37342, 35.94264], [139.3718, 35.94147], [139.3717, 35.9414], [139.37097, 35.94085], [139.37046, 35.94048]]}, "properties": {"id": "TRACK_TOKYO_3683", "line_name": "越生線", "station_group_ids": [], "mode": "private", "operator_id": "tobu", "line_color": "#1F78FF", "tags": ["tokyo", "track_centerline"]}}, {"type": "Feature", "bbox": [139.3946, 35.957, 139.39663, 35.95708], "geometry": {"type": "LineString", "coordinates": [[139.39663, 35.957], [139.39612, 35.95704], [139.39569, 35.95707], [139.3946, 35.95708]]}, "properties": {"id": "TRACK_TOKYO_3684", "line_name": "越生線", "station_group_ids": [], "mode": "private", "operator_id": "tobu", "line_color": "#1F78FF", "tags": ["tokyo", "track_centerline"]}}, {"type": "Feature", "bbox": [139.3697, 35.93995, 139.37046, 35.94048], "geometry": {"type": "LineString", "coordinates": [[139.37046, 35.94048], [139.3697, 35.93995]]}, "properties": {"id": "TRACK_TOKYO_3685", "line_name": "越生線", "station_group_ids": [], "mode": "private", "operator_id": "tobu", "line_color": "#1F78FF", "tags": ["tokyo", "track_centerline"]}}, {"type": "Feature", "bbox": [139.30963, 35.94748, 139.31491, 35.95186], "geometry": {"type": "LineString", "coordinates": [[139.31491, 35.94748], [139.31362, 35.94852], [139.31326, 35.9488], [139.31248, 35.94944], [139.31202, 35.9498], [139.31147, 35.95025], [139.31096, 35.95064], [139.31078, 35.95079], [139.31059, 35.95094], [139.31053, 35.95099], [139.31025, 35.95124], [139.30995, 35.95152], [139.30963, 35.95186]]}, "properties": {"id": "TRACK_TOKYO_3686", "line_name": "越生線", "station_group_ids": [], "mode": "private", "operator_id": "tobu", "line_color": "#1F78FF", "tags": ["tokyo", "track_centerline"]}}, {"type": "Feature", "bbox": [139.3559, 35.93161, 139.35702, 35.93191], "geometry": {"type": "LineString", "coordinates": [[139.35702, 35.93191], [139.3559, 35.93161]]}, "properties": {"id": "TRACK_TOKYO_3687", "line_name": "越生線", "station_group_ids": [], "mode": "private", "operator_id": "tobu", "line_color": "#1F78FF", "tags": ["tokyo", "track_centerline"]}}, {"type": "Feature", "bbox": [139.32671, 35.9377, 139.34595, 35.94187], "geometry": {"type": "LineString", "coordinates": [[139.34595, 35.9377], [139.34526, 35.93782], [139.34429, 35.93799], [139.34401, 35.93804], [139.34366, 35.93811], [139.34263, 35.93829], [139.34224, 35.93838], [139.34135, 35.93858], [139.34081, 35.9387], [139.34038, 35.93879], [139.3399, 35.9389], [139.33957, 35.93898], [139.33882, 35.93914], [139.33799, 35.93932], [139.33739, 35.93946], [139.3366, 35.93964], [139.33623, 35.93972], [139.33567, 35.93985], [139.33532, 35.93993], [139.33461, 35.94008], [139.3332, 35.9404], [139.3324, 35.94058], [139.33133, 35.94081], [139.3306, 35.94098], [139.32956, 35.94122], [139.32934, 35.94127], [139.32897, 35.94136], [139.32863, 35.94143], [139.32773, 35.94164], [139.32671, 35.94187]]}, "properties": {"id": "TRACK_TOKYO_3688", "line_name": "越生線", "station_group_ids": [], "mode": "private", "operator_id": "tobu", "line_color": "#1F78FF", "tags": ["tokyo", "track_centerline"]}}, {"type": "Feature", "bbox": [139.32567, 35.94187, 139.32671, 35.94212], "geometry": {"type": "LineString", "coordinates": [[139.32671, 35.94187], [139.32567, 35.94212]]}, "properties": {"id": "TRACK_TOKYO_3689", "line_name": "越生線", "station_group_ids": [], "mode": "private", "operator_id": "tobu", "line_color": "#1F78FF", "tags": ["tokyo", "track_centerline"]}}, {"type": "Feature", "bbox": [139.34595, 35.93751, 139.347, 35.9377], "geometry": {"type": "LineString", "coordinates": [[139.347, 35.93751], [139.34595, 35.9377]]}, "properties": {"id": "TRACK_TOKYO_3690", "line_name": "越生線", "station_group_ids": [], "mode": "private", "operator_id": "tobu", "line_color": "#1F78FF", "tags": ["tokyo", "track_centerline"]}}, {"type": "Feature", "bbox": [139.347, 35.9314, 139.3559, 35.93751], "geometry": {"type": "LineString", "coordinates": [[139.3559, 35.93161], [139.3556, 35.93154], [139.35522, 35.93146], [139.35504, 35.93143], [139.35482, 35.93141], [139.35456, 35.9314], [139.35431, 35.93141], [139.35387, 35.93147], [139.35366, 35.93151], [139.35354, 35.93155], [139.35321, 35.93164], [139.35301, 35.93172], [139.35282, 35.9318], [139.35236, 35.93204], [139.35208, 35.93221], [139.35196, 35.93229], [139.35179, 35.9324], [139.35167, 35.93252], [139.3516, 35.93259], [139.35154, 35.93267], [139.35147, 35.93277], [139.35135, 35.93292], [139.35103, 35.9334], [139.35069, 35.93391], [139.35023, 35.93459], [139.34994, 35.93503], [139.34955, 35.93562], [139.34941, 35.93584], [139.34913, 35.93625], [139.34903, 35.9364], [139.34881, 35.9367], [139.34867, 35.93685], [139.34856, 35.93695], [139.34848, 35.93701], [139.34838, 35.93707], [139.34815, 35.93718], [139.34773, 35.93732], [139.34743, 35.93743], [139.347, 35.93751]]}, "properties": {"id": "TRACK_TOKYO_3691", "line_name": "越生線", "station_group_ids": [], "mode": "private", "operator_id": "tobu", "line_color": "#1F78FF", "tags": ["tokyo", "track_centerline"]}}, {"type": "Feature", "bbox": [139.29975, 35.95256, 139.30889, 35.96231], "geometry": {"type": "LineString", "coordinates": [[139.29975, 35.96231], [139.29986, 35.96193], [139.30016, 35.96082], [139.30022, 35.96062], [139.30028, 35.96046], [139.30035, 35.96034], [139.30042, 35.96024], [139.3005, 35.96011], [139.3006, 35.96001], [139.30073, 35.95988], [139.3013, 35.9593], [139.30143, 35.95917], [139.3017, 35.9589], [139.30228, 35.95831], [139.303, 35.95759], [139.30346, 35.95712], [139.30417, 35.95641], [139.30447, 35.9561], [139.30511, 35.95545], [139.30528, 35.95528], [139.30547, 35.95508], [139.30581, 35.95473], [139.30596, 35.95459], [139.30615, 35.95441], [139.30633, 35.95425], [139.30654, 35.95408], [139.30669, 35.95398], [139.30684, 35.95388], [139.30731, 35.95358], [139.30751, 35.95345], [139.30781, 35.95326], [139.3082, 35.95299], [139.30841, 35.95285], [139.30889, 35.95256]]}, "properties": {"id": "TRACK_TOKYO_3692", "line_name": "越生線", "station_group_ids": [], "mode": "private", "operator_id": "tobu", "line_color": "#1F78FF", "tags": ["tokyo", "track_centerline"]}}, {"type": "Feature", "bbox": [139.31491, 35.94682, 139.31575, 35.94748], "geometry": {"type": "LineString", "coordinates": [[139.31575, 35.94682], [139.31491, 35.94748]]}, "properties": {"id": "TRACK_TOKYO_3693", "line_name": "越生線", "station_group_ids": [], "mode": "private", "operator_id": "tobu", "line_color": "#1F78FF", "tags": ["tokyo", "track_centerline"]}}, {"type": "Feature", "bbox": [139.31575, 35.94212, 139.32567, 35.94682], "geometry": {"type": "LineString", "coordinates": [[139.32567, 35.94212], [139.32533, 35.94219], [139.32469, 35.94233], [139.32385, 35.94252], [139.32286, 35.94275], [139.32234, 35.94287], [139.32172, 35.943], [139.32123, 35.94312], [139.32097, 35.9432], [139.32067, 35.9433], [139.32039, 35.94342], [139.32006, 35.94356], [139.3199, 35.94365], [139.31976, 35.94373], [139.31958, 35.94385], [139.31943, 35.94396], [139.31898, 35.94427], [139.31803, 35.94502], [139.3178, 35.94519], [139.31728, 35.94562], [139.31644, 35.94628], [139.31575, 35.94682]]}, "properties": {"id": "TRACK_TOKYO_3694", "line_name": "越生線", "station_group_ids": [], "mode": "private", "operator_id": "tobu", "line_color": "#1F78FF", "tags": ["tokyo", "track_centerline"]}}, {"type": "Feature", "bbox": [139.29948, 35.96231, 139.29975, 35.9633], "geometry": {"type": "LineString", "coordinates": [[139.29948, 35.9633], [139.29961, 35.9628], [139.29975, 35.96231]]}, "properties": {"id": "TRACK_TOKYO_3695", "line_name": "越生線", "station_group_ids": [], "mode": "private", "operator_id": "tobu", "line_color": "#1F78FF", "tags": ["tokyo", "track_centerline"]}}, {"type": "Feature", "bbox": [139.30889, 35.95186, 139.30963, 35.95256], "geometry": {"type": "LineString", "coordinates": [[139.30963, 35.95186], [139.30941, 35.95208], [139.3092, 35.95229], [139.30889, 35.95256]]}, "properties": {"id": "TRACK_TOKYO_3696", "line_name": "越生線", "station_group_ids": [], "mode": "private", "operator_id": "tobu", "line_color": "#1F78FF", "tags": ["tokyo", "track_centerline"]}}, {"type": "Feature", "bbox": [139.3743, 36.04496, 139.37636, 36.04537], "geometry": {"type": "LineString", "coordinates": [[139.37636, 36.04496], [139.3743, 36.04537]]}, "properties": {"id": "TRACK_TOKYO_3782", "line_name": "東上本線", "station_group_ids": [], "mode": "private", "operator_id": "tobu", "line_color": "#1F78FF", "tags": ["tokyo", "track_centerline"]}}, {"type": "Feature", "bbox": [139.37636, 36.03572, 139.40117, 36.04496], "geometry": {"type": "LineString", "coordinates": [[139.40117, 36.03572], [139.40101, 36.03605], [139.40088, 36.03631], [139.40071, 36.03662], [139.4005, 36.03694], [139.40038, 36.03711], [139.40014, 36.03742], [139.39991, 36.03768], [139.39966, 36.03793], [139.39947, 36.0381], [139.39921, 36.03831], [139.39904, 36.03841], [139.3987, 36.03864], [139.39836, 36.03883], [139.39822, 36.0389], [139.39808, 36.03897], [139.39673, 36.03956], [139.39556, 36.04007], [139.39531, 36.04018], [139.39461, 36.04049], [139.39427, 36.04064], [139.3941, 36.04071], [139.39395, 36.04077], [139.39306, 36.04111], [139.3924, 36.04135], [139.39217, 36.04142], [139.3918, 36.04154], [139.39141, 36.04166], [139.39083, 36.04183], [139.39023, 36.04199], [139.39004, 36.04203], [139.38903, 36.04227], [139.38833, 36.04243], [139.3873, 36.04264], [139.38588, 36.04293], [139.38516, 36.04308], [139.38461, 36.0432], [139.38371, 36.04339], [139.38223, 36.0437], [139.38118, 36.04392], [139.37865, 36.04445], [139.37636, 36.04496]]}, "properties": {"id": "TRACK_TOKYO_3783", "line_name": "東上本線", "station_group_ids": [], "mode": "private", "operator_id": "tobu", "line_color": "#1F78FF", "tags": ["tokyo", "track_centerline"]}}, {"type": "Feature", "bbox": [139.38888, 35.9572, 139.3963, 35.97132], "geometry": {"type": "LineString", "coordinates": [[139.3963, 35.97132], [139.39627, 35.97128], [139.39388, 35.96826], [139.39379, 35.96812], [139.39377, 35.96812], [139.3937, 35.96802], [139.39359, 35.9679], [139.39336, 35.96759], [139.39313, 35.96732], [139.39283, 35.96695], [139.39266, 35.96674], [139.39251, 35.96655], [139.39218, 35.96613], [139.39171, 35.96551], [139.39165, 35.96545], [139.39143, 35.96517], [139.39099, 35.96463], [139.39073, 35.96429], [139.39058, 35.96411], [139.39056, 35.96407], [139.39028, 35.96371], [139.38999, 35.96333], [139.38979, 35.96305], [139.38952, 35.96267], [139.38925, 35.96218], [139.38917, 35.96203], [139.3891, 35.96186], [139.38903, 35.96167], [139.38897, 35.96146], [139.38892, 35.96112], [139.38888, 35.96065], [139.3889, 35.96007], [139.38893, 35.95972], [139.38901, 35.95932], [139.38905, 35.95922], [139.38905, 35.95919], [139.38916, 35.95887], [139.38932, 35.95856], [139.38957, 35.95826], [139.39002, 35.9579], [139.39017, 35.95779], [139.39019, 35.95779], [139.39025, 35.95774], [139.39028, 35.95772], [139.39042, 35.95763], [139.39052, 35.95757], [139.39062, 35.95752], [139.39068, 35.95749], [139.3909, 35.9574], [139.39127, 35.9573], [139.3915, 35.95726], [139.39207, 35.95721], [139.39239, 35.9572], [139.39253, 35.95721], [139.39309, 35.95721]]}, "properties": {"id": "TRACK_TOKYO_3785", "line_name": "東上本線", "station_group_ids": [], "mode": "private", "operator_id": "tobu", "line_color": "#1F78FF", "tags": ["tokyo", "track_centerline"]}}, {"type": "Feature", "bbox": [139.40803, 35.94841, 139.40929, 35.94945], "geometry": {"type": "LineString", "coordinates": [[139.40803, 35.94945], [139.40814, 35.94936], [139.40929, 35.94841]]}, "properties": {"id": "TRACK_TOKYO_3786", "line_name": "東上本線", "station_group_ids": [], "mode": "private", "operator_id": "tobu", "line_color": "#1F78FF", "tags": ["tokyo", "track_centerline"]}}, {"type": "Feature", "bbox": [139.40929, 35.93735, 139.42302, 35.94841], "geometry": {"type": "LineString", "coordinates": [[139.40929, 35.94841], [139.41031, 35.94758], [139.41034, 35.94757], [139.41053, 35.94742], [139.41098, 35.94703], [139.411, 35.94702], [139.41117, 35.94689], [139.41238, 35.94589], [139.41244, 35.94585], [139.4128, 35.94555], [139.41284, 35.94552], [139.41287, 35.94551], [139.41301, 35.94538], [139.41402, 35.94455], [139.41499, 35.94376], [139.41505, 35.94372], [139.41506, 35.9437], [139.41539, 35.94343], [139.41591, 35.94301], [139.41731, 35.94188], [139.41791, 35.94137], [139.41819, 35.94115], [139.41895, 35.94053], [139.41958, 35.94], [139.41971, 35.9399], [139.41988, 35.93976], [139.42102, 35.93882], [139.42107, 35.93879], [139.42135, 35.93856], [139.42138, 35.93854], [139.42153, 35.93842], [139.42302, 35.93735]]}, "properties": {"id": "TRACK_TOKYO_3787", "line_name": "東上本線", "station_group_ids": [], "mode": "private", "operator_id": "tobu", "line_color": "#1F78FF", "tags": ["tokyo", "track_centerline"]}}, {"type": "Feature", "bbox": [139.3963, 35.97132, 139.39739, 35.97264], "geometry": {"type": "LineString", "coordinates": [[139.39739, 35.97264], [139.3963, 35.97132]]}, "properties": {"id": "TRACK_TOKYO_3788", "line_name": "東上本線", "station_group_ids": [], "mode": "private", "operator_id": "tobu", "line_color": "#1F78FF", "tags": ["tokyo", "track_centerline"]}}, {"type": "Feature", "bbox": [139.39523, 35.957, 139.39663, 35.95729], "geometry": {"type": "LineString", "coordinates": [[139.39663, 35.957], [139.39617, 35.95715], [139.39597, 35.95721], [139.39576, 35.95724], [139.3957, 35.95725], [139.39556, 35.95727], [139.39543, 35.95728], [139.39523, 35.95729]]}, "properties": {"id": "TRACK_TOKYO_3789", "line_name": "東上本線", "station_group_ids": [], "mode": "private", "operator_id": "tobu", "line_color": "#1F78FF", "tags": ["tokyo", "track_centerline"]}}, {"type": "Feature", "bbox": [139.39663, 35.94945, 139.40803, 35.957], "geometry": {"type": "LineString", "coordinates": [[139.40803, 35.94945], [139.40751, 35.94987], [139.40749, 35.94987], [139.40735, 35.95], [139.40635, 35.95081], [139.40571, 35.95134], [139.40525, 35.95171], [139.40381, 35.95287], [139.4037, 35.95296], [139.40317, 35.95339], [139.40285, 35.95365], [139.40253, 35.95391], [139.40235, 35.95405], [139.40215, 35.95421], [139.40049, 35.95553], [139.4004, 35.9556], [139.4001, 35.95576], [139.40001, 35.95582], [139.39982, 35.95589], [139.39949, 35.95604], [139.39874, 35.95636], [139.3985, 35.95644], [139.39834, 35.95649], [139.39768, 35.95669], [139.39731, 35.95681], [139.39713, 35.95686], [139.397, 35.9569], [139.39695, 35.95691], [139.39691, 35.95692], [139.39674, 35.95698], [139.39663, 35.957]]}, "properties": {"id": "TRACK_TOKYO_3790", "line_name": "東上本線", "station_group_ids": [], "mode": "private", "operator_id": "tobu", "line_color": "#1F78FF", "tags": ["tokyo", "track_centerline"]}}, {"type": "Feature", "bbox": [139.40117, 36.03392, 139.40187, 36.03572], "geometry": {"type": "LineString", "coordinates": [[139.40187, 36.03392], [139.40174, 36.03426], [139.40157, 36.03466], [139.40117, 36.03572]]}, "properties": {"id": "TRACK_TOKYO_3792", "line_name": "東上本線", "station_group_ids": [], "mode": "private", "operator_id": "tobu", "line_color": "#1F78FF", "tags": ["tokyo", "track_centerline"]}}, {"type": "Feature", "bbox": [139.42302, 35.93609, 139.42502, 35.93735], "geometry": {"type": "LineString", "coordinates": [[139.42502, 35.93609], [139.42369, 35.93693], [139.42302, 35.93735]]}, "properties": {"id": "TRACK_TOKYO_3793", "line_name": "東上本線", "station_group_ids": [], "mode": "private", "operator_id": "tobu", "line_color": "#1F78FF", "tags": ["tokyo", "track_centerline"]}}, {"type": "Feature", "bbox": [139.39736, 36.00191, 139.398, 36.004], "geometry": {"type": "LineString", "coordinates": [[139.398, 36.00191], [139.39779, 36.00261], [139.39769, 36.00294], [139.39762, 36.00318], [139.39736, 36.004]]}, "properties": {"id": "TRACK_TOKYO_3794", "line_name": "東上本線", "station_group_ids": [], "mode": "private", "operator_id": "tobu", "line_color": "#1F78FF", "tags": ["tokyo", "track_centerline"]}}, {"type": "Feature", "bbox": [139.39739, 35.97264, 139.40067, 36.00191], "geometry": {"type": "LineString", "coordinates": [[139.39739, 35.97264], [139.39774, 35.9731], [139.39792, 35.97337], [139.39806, 35.97366], [139.39846, 35.97504], [139.39849, 35.97513], [139.3985, 35.97523], [139.39924, 35.9779], [139.3997, 35.9795], [139.39976, 35.97968], [139.39977, 35.97972], [139.39989, 35.98016], [139.3999, 35.98021], [139.39998, 35.98048], [139.40006, 35.98076], [139.40022, 35.98132], [139.4003, 35.9816], [139.40034, 35.98172], [139.40043, 35.98203], [139.40043, 35.98205], [139.40045, 35.98206], [139.40048, 35.98217], [139.40057, 35.98252], [139.40064, 35.98281], [139.40066, 35.98307], [139.40067, 35.98337], [139.40066, 35.98357], [139.40065, 35.98377], [139.40063, 35.98434], [139.40062, 35.98459], [139.4006, 35.98499], [139.4006, 35.98509], [139.40057, 35.98598], [139.40056, 35.98624], [139.40056, 35.98642], [139.40057, 35.98661], [139.40059, 35.98739], [139.4006, 35.98765], [139.40064, 35.98908], [139.40066, 35.99157], [139.40063, 35.99249], [139.40062, 35.99269], [139.40062, 35.99276], [139.40054, 35.99313], [139.40053, 35.99318], [139.39979, 35.99553], [139.39903, 35.99817], [139.398, 36.00191]]}, "properties": {"id": "TRACK_TOKYO_3795", "line_name": "東上本線", "station_group_ids": [], "mode": "private", "operator_id": "tobu", "line_color": "#1F78FF", "tags": ["tokyo", "track_centerline"]}}, {"type": "Feature", "bbox": [139.42502, 35.92574, 139.44288, 35.93609], "geometry": {"type": "LineString", "coordinates": [[139.42502, 35.93609], [139.42538, 35.93586], [139.42555, 35.93575], [139.42573, 35.93564], [139.42641, 35.9352], [139.42644, 35.93518], [139.42667, 35.93503], [139.42722, 35.9347], [139.42902, 35.93365], [139.4292, 35.93354], [139.42989, 35.93313], [139.43074, 35.93262], [139.43168, 35.93206], [139.43263, 35.93149], [139.433, 35.93127], [139.43373, 35.93083], [139.43382, 35.93079], [139.43429, 35.9305], [139.43464, 35.93029], [139.43541, 35.92981], [139.43603, 35.92943], [139.43606, 35.92941], [139.43646, 35.92917], [139.4366, 35.92908], [139.43668, 35.92903], [139.43711, 35.92877], [139.43729, 35.92865], [139.43731, 35.92865], [139.43762, 35.92847], [139.43792, 35.92828], [139.43821, 35.92811], [139.43822, 35.9281], [139.43848, 35.92794], [139.43884, 35.92771], [139.43924, 35.92748], [139.43986, 35.9271], [139.44062, 35.92666], [139.44098, 35.92645], [139.4417, 35.92611], [139.4424, 35.92589], [139.44288, 35.92574]]}, "properties": {"id": "TRACK_TOKYO_3797", "line_name": "東上本線", "station_group_ids": [], "mode": "private", "operator_id": "tobu", "line_color": "#1F78FF", "tags": ["tokyo", "track_centerline"]}}, {"type": "Feature", "bbox": [139.39309, 35.95721, 139.39523, 35.95729], "geometry": {"type": "LineString", "coordinates": [[139.39523, 35.95729], [139.3934, 35.95722], [139.39309, 35.95721]]}, "properties": {"id": "TRACK_TOKYO_3798", "line_name": "東上本線", "station_group_ids": [], "mode": "private", "operator_id": "tobu", "line_color": "#1F78FF", "tags": ["tokyo", "track_centerline"]}}, {"type": "Feature", "bbox": [139.39695, 36.004, 139.4025, 36.03392], "geometry": {"type": "LineString", "coordinates": [[139.39736, 36.004], [139.39721, 36.00445], [139.39711, 36.00484], [139.39702, 36.00525], [139.39699, 36.00537], [139.39697, 36.00551], [139.39695, 36.00563], [139.39695, 36.00595], [139.39697, 36.00624], [139.39699, 36.00658], [139.397, 36.0067], [139.39704, 36.00688], [139.39714, 36.00726], [139.39723, 36.00754], [139.39734, 36.00779], [139.39746, 36.00805], [139.39763, 36.00836], [139.39785, 36.00868], [139.39819, 36.00915], [139.39848, 36.00957], [139.3988, 36.01004], [139.39906, 36.0104], [139.39931, 36.01075], [139.39957, 36.0111], [139.39994, 36.01164], [139.40031, 36.01215], [139.40085, 36.01291], [139.40116, 36.01336], [139.40125, 36.01351], [139.40133, 36.01365], [139.40146, 36.01391], [139.40156, 36.01413], [139.40164, 36.01433], [139.40171, 36.0145], [139.40179, 36.01476], [139.40188, 36.0151], [139.40195, 36.01544], [139.40199, 36.01565], [139.40201, 36.01575], [139.40201, 36.01588], [139.40206, 36.01676], [139.40208, 36.0171], [139.40214, 36.01856], [139.40218, 36.01974], [139.40223, 36.02104], [139.40228, 36.02214], [139.40234, 36.02397], [139.40237, 36.02469], [139.4024, 36.02528], [139.40244, 36.02577], [139.40246, 36.02612], [139.40247, 36.02637], [139.40247, 36.02677], [139.40249, 36.02767], [139.4025, 36.02852], [139.40247, 36.02925], [139.40243, 36.03001], [139.40241, 36.03045], [139.40233, 36.0313], [139.40223, 36.03211], [139.40215, 36.03273], [139.40212, 36.03291], [139.40209, 36.0331], [139.40206, 36.03321], [139.40187, 36.03392]]}, "properties": {"id": "TRACK_TOKYO_3799", "line_name": "東上本線", "station_group_ids": [], "mode": "private", "operator_id": "tobu", "line_color": "#1F78FF", "tags": ["tokyo", "track_centerline"]}}, {"type": "Feature", "bbox": [139.26121, 36.04474, 139.32695, 36.05854], "geometry": {"type": "LineString", "coordinates": [[139.32695, 36.04474], [139.32626, 36.04504], [139.32481, 36.0457], [139.32333, 36.04638], [139.32207, 36.04698], [139.3213, 36.04735], [139.32072, 36.04764], [139.32047, 36.04776], [139.31961, 36.04819], [139.31853, 36.04869], [139.31798, 36.04901], [139.31762, 36.04923], [139.31739, 36.0494], [139.31696, 36.04968], [139.31663, 36.0499], [139.31609, 36.05028], [139.31562, 36.05062], [139.31519, 36.0509], [139.31491, 36.05108], [139.31449, 36.05133], [139.31403, 36.05151], [139.31369, 36.05163], [139.31347, 36.05169], [139.31294, 36.05178], [139.31252, 36.05182], [139.31222, 36.05181], [139.31193, 36.05178], [139.31143, 36.05173], [139.31116, 36.05169], [139.31086, 36.05164], [139.31057, 36.05159], [139.31028, 36.05154], [139.30952, 36.05141], [139.30902, 36.05134], [139.30857, 36.05132], [139.30823, 36.05131], [139.30798, 36.05131], [139.30758, 36.05132], [139.30715, 36.05138], [139.30662, 36.05148], [139.30595, 36.0517], [139.30555, 36.05187], [139.3051, 36.05208], [139.30433, 36.05254], [139.30408, 36.05271], [139.30357, 36.05312], [139.30284, 36.05371], [139.30215, 36.05428], [139.30155, 36.05478], [139.301, 36.05524], [139.30039, 36.05574], [139.29968, 36.05633], [139.29931, 36.05657], [139.29929, 36.05659], [139.29876, 36.05685], [139.29844, 36.05699], [139.29816, 36.05709], [139.2978, 36.0572], [139.29738, 36.05725], [139.29659, 36.05728], [139.2965, 36.05727], [139.29624, 36.05723], [139.29601, 36.05719], [139.29569, 36.05713], [139.29548, 36.05709], [139.29516, 36.05701], [139.29499, 36.05695], [139.29487, 36.05689], [139.29468, 36.05681], [139.29423, 36.05654], [139.29383, 36.05622], [139.29352, 36.05587], [139.29324, 36.05546], [139.29304, 36.05507], [139.29284, 36.05454], [139.29253, 36.05402], [139.29228, 36.05366], [139.29175, 36.05302], [139.29138, 36.05256], [139.29102, 36.05222], [139.29063, 36.05191], [139.29017, 36.05162], [139.28976, 36.05148], [139.28937, 36.05135], [139.28901, 36.0513], [139.2887, 36.05129], [139.2881, 36.05132], [139.28766, 36.05138], [139.28735, 36.05148], [139.2871, 36.05155], [139.28696, 36.05158], [139.28624, 36.05179], [139.28584, 36.05189], [139.28458, 36.05225], [139.28402, 36.0524], [139.28315, 36.05264], [139.28281, 36.05277], [139.28248, 36.05292], [139.28215, 36.05312], [139.28155, 36.05352], [139.28133, 36.05369], [139.28086, 36.05402], [139.2801, 36.05458], [139.27927, 36.0552], [139.2791, 36.05532], [139.27893, 36.05544], [139.27859, 36.05567], [139.27834, 36.05581], [139.27796, 36.05601], [139.2774, 36.05623], [139.27703, 36.05635], [139.27665, 36.05645], [139.27586, 36.0566], [139.27499, 36.0567], [139.27423, 36.05675], [139.27295, 36.0568], [139.27152, 36.05686], [139.26976, 36.05694], [139.26891, 36.05697], [139.26851, 36.05698], [139.26817, 36.05699], [139.2672, 36.05704], [139.26584, 36.05711], [139.2649, 36.05722], [139.26411, 36.05744], [139.2637, 36.05757], [139.263, 36.05783], [139.26197, 36.05824], [139.26121, 36.05854]]}, "properties": {"id": "TRACK_TOKYO_3849", "line_name": "東上本線", "station_group_ids": [], "mode": "private", "operator_id": "tobu", "line_color": "#1F78FF", "tags": ["tokyo", "track_centerline"]}}, {"type": "Feature", "bbox": [139.34516, 36.04338, 139.34597, 36.04365], "geometry": {"type": "LineString", "coordinates": [[139.34516, 36.04338], [139.34597, 36.04365]]}, "properties": {"id": "TRACK_TOKYO_3855", "line_name": "東上本線", "station_group_ids": [], "mode": "private", "operator_id": "tobu", "line_color": "#1F78FF", "tags": ["tokyo", "track_centerline"]}}, {"type": "Feature", "bbox": [139.32853, 36.04121, 139.34516, 36.04403], "geometry": {"type": "LineString", "coordinates": [[139.34516, 36.04338], [139.3447, 36.04323], [139.34301, 36.04266], [139.34185, 36.04227], [139.34112, 36.04203], [139.33996, 36.04168], [139.33994, 36.04167], [139.33934, 36.0415], [139.33887, 36.04141], [139.33819, 36.04129], [139.33769, 36.04123], [139.33702, 36.04121], [139.33611, 36.04124], [139.33538, 36.04136], [139.33458, 36.04154], [139.33385, 36.04178], [139.33336, 36.04196], [139.33174, 36.04264], [139.33011, 36.04334], [139.32957, 36.04358], [139.32853, 36.04403]]}, "properties": {"id": "TRACK_TOKYO_3856", "line_name": "東上本線", "station_group_ids": [], "mode": "private", "operator_id": "tobu", "line_color": "#1F78FF", "tags": ["tokyo", "track_centerline"]}}, {"type": "Feature", "bbox": [139.32695, 36.04403, 139.32853, 36.04474], "geometry": {"type": "LineString", "coordinates": [[139.32853, 36.04403], [139.32695, 36.04474]]}, "properties": {"id": "TRACK_TOKYO_3861", "line_name": "東上本線", "station_group_ids": [], "mode": "private", "operator_id": "tobu", "line_color": "#1F78FF", "tags": ["tokyo", "track_centerline"]}}, {"type": "Feature", "bbox": [139.34597, 36.04365, 139.3743, 36.04757], "geometry": {"type": "LineString", "coordinates": [[139.3743, 36.04537], [139.37379, 36.04548], [139.37326, 36.04559], [139.37282, 36.04569], [139.37247, 36.04578], [139.37225, 36.04584], [139.37179, 36.04594], [139.3715, 36.04599], [139.37041, 36.04622], [139.36947, 36.04638], [139.36815, 36.04665], [139.36751, 36.04676], [139.36662, 36.0469], [139.36633, 36.04693], [139.36625, 36.04694], [139.36425, 36.04714], [139.36187, 36.04738], [139.36131, 36.04743], [139.36073, 36.0475], [139.36025, 36.04755], [139.3593, 36.04757], [139.35853, 36.04753], [139.35778, 36.04743], [139.35726, 36.04733], [139.35614, 36.04704], [139.354, 36.04634], [139.35268, 36.04589], [139.35087, 36.04531], [139.3502, 36.04508], [139.34941, 36.04481], [139.3461, 36.04369], [139.34597, 36.04365]]}, "properties": {"id": "TRACK_TOKYO_3862", "line_name": "東上本線", "station_group_ids": [], "mode": "private", "operator_id": "tobu", "line_color": "#1F78FF", "tags": ["tokyo", "track_centerline"]}}]}