{"type": "FeatureCollection", "features": [{"type": "Feature", "bbox": [136.01835, 35.05779, 136.28889, 35.31326], "geometry": {"type": "LineString", "coordinates": [[136.28889, 35.31326], [136.28853, 35.31237], [136.28763, 35.31016], [136.28672, 35.30787], [136.28624, 35.30672], [136.28537, 35.30446], [136.28517, 35.30395], [136.28457, 35.3024], [136.2836, 35.29988], [136.28342, 35.29939], [136.28306, 35.29823], [136.28295, 35.29778], [136.2828, 35.29714], [136.28279, 35.29706], [136.28262, 35.29591], [136.28236, 35.29399], [136.28211, 35.29198], [136.28179, 35.28932], [136.28175, 35.28903], [136.28136, 35.2859], [136.28133, 35.28561], [136.28125, 35.28496], [136.28101, 35.28302], [136.28087, 35.28188], [136.28082, 35.28153], [136.28079, 35.28122], [136.28076, 35.28094], [136.28046, 35.27857], [136.28026, 35.27692], [136.27999, 35.27468], [136.27914, 35.26795], [136.27869, 35.2647], [136.27864, 35.26438], [136.27846, 35.26342], [136.27828, 35.26258], [136.2782, 35.26219], [136.27808, 35.2618], [136.27747, 35.25998], [136.27715, 35.25922], [136.27681, 35.25848], [136.27649, 35.2578], [136.27594, 35.25672], [136.27531, 35.25551], [136.27407, 35.25321], [136.27374, 35.25253], [136.27368, 35.25241], [136.27357, 35.25222], [136.27355, 35.25216], [136.27351, 35.25209], [136.27338, 35.25185], [136.27293, 35.25102], [136.27289, 35.25094], [136.27274, 35.25067], [136.27221, 35.24966], [136.27201, 35.24928], [136.27199, 35.24926], [136.27197, 35.24923], [136.27176, 35.24882], [136.27174, 35.24878], [136.27166, 35.24863], [136.2715, 35.24833], [136.27145, 35.24826], [136.27128, 35.24793], [136.27122, 35.24781], [136.27109, 35.24757], [136.27091, 35.24723], [136.27053, 35.24652], [136.27047, 35.24641], [136.27042, 35.24629], [136.27013, 35.24575], [136.26976, 35.24508], [136.26972, 35.245], [136.26938, 35.24435], [136.26923, 35.24406], [136.26911, 35.24383], [136.26894, 35.2435], [136.26881, 35.24326], [136.26868, 35.243], [136.26856, 35.24277], [136.26832, 35.24233], [136.2683, 35.24227], [136.26828, 35.24226], [136.26802, 35.24175], [136.26799, 35.2417], [136.26786, 35.24145], [136.26715, 35.24011], [136.26631, 35.23851], [136.26581, 35.23757], [136.2655, 35.23698], [136.26494, 35.23592], [136.26478, 35.23562], [136.26443, 35.23495], [136.26428, 35.23465], [136.26424, 35.23458], [136.26414, 35.23439], [136.26384, 35.23381], [136.26379, 35.23375], [136.26377, 35.2337], [136.26298, 35.23233], [136.26295, 35.23228], [136.2628, 35.23204], [136.26268, 35.23186], [136.26258, 35.2317], [136.26247, 35.23155], [136.26233, 35.23135], [136.26217, 35.23111], [136.26213, 35.23105], [136.26207, 35.23097], [136.26191, 35.23075], [136.26164, 35.2304], [136.26137, 35.23006], [136.26098, 35.22958], [136.26089, 35.22949], [136.2605, 35.22905], [136.26048, 35.22902], [136.26021, 35.22873], [136.26004, 35.22854], [136.25889, 35.22728], [136.25877, 35.22715], [136.25873, 35.2271], [136.25871, 35.22709], [136.2582, 35.22653], [136.25796, 35.22627], [136.25787, 35.22618], [136.2577, 35.22598], [136.25768, 35.22596], [136.2575, 35.22578], [136.257, 35.22525], [136.25537, 35.22351], [136.25529, 35.22343], [136.25477, 35.22287], [136.25448, 35.22256], [136.2537, 35.22173], [136.25315, 35.22114], [136.25306, 35.22103], [136.25304, 35.22102], [136.25272, 35.22068], [136.2527, 35.22066], [136.25262, 35.22057], [136.25253, 35.22048], [136.25232, 35.22026], [136.25228, 35.22021], [136.25134, 35.21921], [136.2512, 35.21905], [136.25096, 35.2188], [136.2509, 35.21873], [136.25047, 35.21828], [136.25018, 35.21796], [136.24983, 35.21759], [136.24967, 35.21743], [136.24963, 35.21738], [136.2492, 35.21693], [136.24918, 35.2169], [136.24911, 35.21683], [136.24835, 35.21601], [136.24813, 35.21578], [136.24801, 35.21565], [136.24725, 35.21484], [136.24711, 35.21468], [136.24694, 35.21452], [136.24589, 35.21337], [136.24533, 35.21277], [136.24381, 35.21115], [136.24353, 35.21085], [136.24291, 35.21019], [136.24213, 35.20936], [136.24204, 35.20927], [136.24163, 35.20881], [136.24097, 35.20813], [136.24004, 35.20713], [136.23972, 35.20677], [136.23965, 35.20671], [136.23854, 35.20555], [136.2363, 35.20316], [136.23531, 35.20211], [136.23361, 35.2003], [136.23239, 35.19902], [136.23187, 35.19846], [136.23086, 35.1974], [136.23017, 35.19667], [136.2301, 35.1966], [136.22965, 35.19611], [136.22847, 35.19485], [136.22738, 35.19367], [136.22671, 35.19295], [136.22563, 35.19179], [136.22511, 35.19119], [136.22477, 35.19077], [136.22345, 35.18904], [136.22302, 35.18845], [136.22256, 35.18784], [136.22224, 35.18742], [136.22182, 35.18685], [136.2208, 35.18551], [136.21999, 35.18441], [136.21976, 35.18411], [136.21863, 35.1826], [136.21794, 35.18169], [136.21705, 35.18049], [136.21608, 35.1792], [136.21538, 35.17829], [136.21483, 35.17754], [136.21354, 35.17582], [136.21305, 35.17517], [136.21187, 35.1736], [136.21056, 35.17183], [136.20987, 35.17087], [136.20917, 35.16988], [136.20859, 35.16914], [136.20833, 35.1688], [136.20812, 35.1685], [136.20598, 35.16563], [136.20561, 35.16516], [136.20523, 35.16467], [136.20472, 35.16397], [136.20384, 35.1628], [136.20217, 35.16057], [136.20205, 35.16041], [136.20104, 35.15906], [136.20021, 35.15795], [136.19962, 35.15715], [136.19944, 35.1569], [136.19929, 35.15671], [136.19911, 35.15646], [136.19899, 35.15631], [136.19884, 35.15612], [136.19863, 35.15582], [136.19814, 35.15517], [136.19805, 35.15504], [136.19792, 35.1549], [136.19779, 35.15473], [136.19749, 35.15435], [136.19626, 35.15282], [136.19557, 35.15202], [136.19471, 35.15108], [136.19469, 35.15107], [136.19454, 35.15091], [136.19325, 35.14974], [136.19264, 35.14921], [136.1915, 35.14832], [136.19127, 35.14817], [136.19109, 35.14803], [136.19064, 35.14772], [136.19001, 35.1473], [136.18921, 35.14676], [136.18818, 35.14613], [136.18798, 35.14601], [136.18779, 35.1459], [136.18719, 35.14555], [136.18606, 35.14492], [136.18521, 35.14449], [136.18492, 35.14433], [136.18441, 35.14405], [136.18362, 35.1436], [136.18285, 35.14317], [136.18238, 35.14291], [136.18222, 35.14282], [136.18168, 35.14252], [136.1815, 35.14241], [136.18125, 35.14228], [136.18109, 35.14219], [136.17845, 35.14073], [136.17719, 35.14003], [136.17677, 35.13979], [136.17592, 35.13932], [136.17562, 35.13915], [136.17506, 35.13885], [136.174, 35.13826], [136.17321, 35.13783], [136.1728, 35.1376], [136.1726, 35.13749], [136.1713, 35.1368], [136.17067, 35.13646], [136.16978, 35.13599], [136.16941, 35.13578], [136.16935, 35.13576], [136.16869, 35.1354], [136.16847, 35.13529], [136.1684, 35.13526], [136.16751, 35.13478], [136.167, 35.1345], [136.16659, 35.13429], [136.16614, 35.13404], [136.16585, 35.13388], [136.16552, 35.13371], [136.16524, 35.13357], [136.16511, 35.1335], [136.16499, 35.13343], [136.16443, 35.13315], [136.16362, 35.13275], [136.16327, 35.13259], [136.16321, 35.13256], [136.16316, 35.13254], [136.16313, 35.13253], [136.1631, 35.13251], [136.16277, 35.13236], [136.16166, 35.13189], [136.16161, 35.13188], [136.16042, 35.13139], [136.16033, 35.13135], [136.16023, 35.1313], [136.16012, 35.13127], [136.15983, 35.13114], [136.15934, 35.13094], [136.15932, 35.13092], [136.15918, 35.13087], [136.15913, 35.13086], [136.15769, 35.13027], [136.1574, 35.13015], [136.15707, 35.13001], [136.15649, 35.12977], [136.15614, 35.12963], [136.15583, 35.12951], [136.15532, 35.1293], [136.15508, 35.12921], [136.15483, 35.12911], [136.15458, 35.129], [136.15448, 35.12896], [136.15361, 35.1286], [136.15344, 35.12854], [136.15329, 35.12847], [136.15277, 35.12825], [136.15131, 35.12766], [136.15099, 35.12754], [136.15051, 35.12734], [136.15018, 35.12721], [136.14991, 35.1271], [136.14805, 35.12634], [136.14757, 35.12614], [136.14746, 35.1261], [136.14718, 35.12598], [136.14602, 35.1255], [136.146, 35.12549], [136.14584, 35.12543], [136.14571, 35.12537], [136.14395, 35.12466], [136.14386, 35.12462], [136.14259, 35.1241], [136.1409, 35.12341], [136.14067, 35.12331], [136.13962, 35.12288], [136.13868, 35.12249], [136.13848, 35.12241], [136.13837, 35.12237], [136.13766, 35.12207], [136.13764, 35.12206], [136.13669, 35.12167], [136.13589, 35.12134], [136.13501, 35.12098], [136.13492, 35.12095], [136.1346, 35.12082], [136.13445, 35.12075], [136.13412, 35.1206], [136.13357, 35.12037], [136.13332, 35.12027], [136.13322, 35.12022], [136.13245, 35.1199], [136.1317, 35.11956], [136.13166, 35.11955], [136.13141, 35.11944], [136.13137, 35.11942], [136.13108, 35.11928], [136.13078, 35.11915], [136.13073, 35.11912], [136.13063, 35.11908], [136.12997, 35.11877], [136.12984, 35.11872], [136.12961, 35.11861], [136.12904, 35.11834], [136.12841, 35.11805], [136.12745, 35.11758], [136.12677, 35.11725], [136.12655, 35.11715], [136.12636, 35.11706], [136.12604, 35.1169], [136.12574, 35.11676], [136.12507, 35.11644], [136.12364, 35.11575], [136.12335, 35.11562], [136.12312, 35.11551], [136.1226, 35.11527], [136.12231, 35.11512], [136.12213, 35.11505], [136.1191, 35.11358], [136.11623, 35.11222], [136.11588, 35.11205], [136.11424, 35.11129], [136.11331, 35.11085], [136.11141, 35.10999], [136.10889, 35.10895], [136.10782, 35.1085], [136.10503, 35.1074], [136.1035, 35.10679], [136.10307, 35.10662], [136.10244, 35.10636], [136.10025, 35.10546], [136.09773, 35.10446], [136.09539, 35.10353], [136.09347, 35.10276], [136.09287, 35.10251], [136.09108, 35.1018], [136.08844, 35.10074], [136.08565, 35.09962], [136.08447, 35.09914], [136.08382, 35.09888], [136.08306, 35.09858], [136.08095, 35.09773], [136.07783, 35.09648], [136.07553, 35.09554], [136.07391, 35.09484], [136.07359, 35.09471], [136.07152, 35.09376], [136.06959, 35.09289], [136.06789, 35.09208], [136.06625, 35.09127], [136.06432, 35.0902], [136.06221, 35.08902], [136.06083, 35.08822], [136.05899, 35.08708], [136.05868, 35.08689], [136.05811, 35.08655], [136.05699, 35.08583], [136.05548, 35.08488], [136.05394, 35.08388], [136.05226, 35.08281], [136.05171, 35.08245], [136.04988, 35.08128], [136.04956, 35.08107], [136.04887, 35.08062], [136.04846, 35.08036], [136.04841, 35.08033], [136.04803, 35.08009], [136.04743, 35.07972], [136.04709, 35.07949], [136.04635, 35.07902], [136.04566, 35.07857], [136.04559, 35.07854], [136.04555, 35.0785], [136.04481, 35.07803], [136.04408, 35.07757], [136.04396, 35.07749], [136.04381, 35.07739], [136.04299, 35.07687], [136.04211, 35.0763], [136.04208, 35.07629], [136.04138, 35.07584], [136.04101, 35.07558], [136.04053, 35.07528], [136.04003, 35.07495], [136.03966, 35.07471], [136.03947, 35.07458], [136.03918, 35.07442], [136.03751, 35.07333], [136.03745, 35.07328], [136.03645, 35.07264], [136.03638, 35.07259], [136.03565, 35.07212], [136.03538, 35.07194], [136.0352, 35.07183], [136.03451, 35.07138], [136.03441, 35.07132], [136.0341, 35.07112], [136.03355, 35.07077], [136.03346, 35.07071], [136.03305, 35.07045], [136.0327, 35.07021], [136.03268, 35.0702], [136.03262, 35.07017], [136.0323, 35.06996], [136.03099, 35.06911], [136.03082, 35.06898], [136.03067, 35.06889], [136.03038, 35.06869], [136.02988, 35.06834], [136.02936, 35.06799], [136.02905, 35.06775], [136.02842, 35.06728], [136.02792, 35.06689], [136.0278, 35.06679], [136.02679, 35.06598], [136.02587, 35.06521], [136.02545, 35.06484], [136.02516, 35.06459], [136.02511, 35.06454], [136.0249, 35.06434], [136.02453, 35.06401], [136.02339, 35.06288], [136.02316, 35.06266], [136.02272, 35.06218], [136.02251, 35.06196], [136.02231, 35.06176], [136.02184, 35.06126], [136.02029, 35.0597], [136.0198, 35.05923], [136.01935, 35.05877], [136.01908, 35.05851], [136.0188, 35.05823], [136.01847, 35.0579], [136.01835, 35.05779]]}, "properties": {"id": "TRACK_TOKYO_0996", "line_name": "東海道新幹線", "station_group_ids": [], "mode": "shinkansen", "operator_id": "東海旅客鉄道", "line_color": "#1F78FF", "tags": ["tokyo", "track_centerline"]}}, {"type": "Feature", "bbox": [136.07933105289555, 35.646054162472524, 136.1985471750487, 35.8942867225669], "geometry": {"type": "LineString", "coordinates": [[136.1985471750487, 35.8942867225669], [136.19746689975193, 35.8901417014946], [136.19647823370394, 35.8864368807084], [136.1953646459532, 35.88226092664286], [136.19449644011866, 35.87893235812817], [136.1933661961408, 35.874732609452565], [136.19283205671707, 35.872988910684285], [136.1918088884845, 35.87018114669729], [136.19103556365758, 35.86843224285792], [136.19045259571112, 35.867183025829604], [136.18952222645783, 35.86535084085523], [136.1883800851749, 35.86335209361016], [136.18715228329586, 35.861424730195324], [136.18566274070622, 35.85927131798485], [136.18243619158193, 35.855088225536406], [136.18012335548417, 35.852118658200936], [136.17620676266847, 35.847040888414256], [136.17483079968417, 35.8452570858135], [136.17401702401992, 35.84412922129667], [136.17340312308045, 35.84324406180235], [136.17216104443548, 35.841295283238594], [136.17120093191943, 35.839660593527526], [136.1699302997423, 35.83721926653544], [136.16914507761044, 35.835534608143234], [136.1676207948899, 35.831891177450984], [136.16529844094805, 35.82576168589969], [136.1636213968311, 35.82158335237324], [136.16143229270563, 35.81592975302311], [136.15939547408482, 35.81075204587427], [136.15429866860995, 35.797455617773096], [136.13141658184657, 35.73852826596129], [136.11261408097755, 35.689932533837066], [136.11077832681167, 35.68559834561489], [136.10996931006957, 35.683980312130814], [136.10866060651654, 35.68154136459975], [136.10691170267705, 35.678590832952295], [136.1055197179886, 35.67635413960676], [136.10301604911785, 35.67201019559428], [136.101493194074, 35.66892641413068], [136.09951348251718, 35.66487181257662], [136.09911373306818, 35.66401520661441], [136.09808580591357, 35.661978387993315], [136.0974956995841, 35.660912389462624], [136.097110623478, 35.66030681663659], [136.09655739879406, 35.659551337767255], [136.09613504446554, 35.659045702303445], [136.09564725495932, 35.65848652896699], [136.09468952190446, 35.65753474456477], [136.0937992069114, 35.656766971813454], [136.0928616992751, 35.65605313351176], [136.09229538755562, 35.65567241975077], [136.09154823679978, 35.65519176862762], [136.08824364135467, 35.6534055072504], [136.0872371293492, 35.65279874469377], [136.08618778704567, 35.65201352256179], [136.08522410533806, 35.651214023663954], [136.08450669784497, 35.65059655353275], [136.08251508898297, 35.64886906484253], [136.08138722446597, 35.64786255283707], [136.08019511450198, 35.6468060721503], [136.07933105289555, 35.646054162472524]]}, "properties": {"id": "TRACK_TOKYO_4153", "line_name": "北陸新幹線", "station_group_ids": [], "mode": "shinkansen", "operator_id": "西日本旅客鉄道", "line_color": "#2C62C9", "tags": ["tokyo", "track_centerline"]}}, {"type": "Feature", "bbox": [136.0765053403104, 35.64385549956421, 136.07933105289555, 35.646054162472524], "geometry": {"type": "LineString", "coordinates": [[136.07933105289555, 35.646054162472524], [136.0765053403104, 35.64385549956421]]}, "properties": {"id": "TRACK_TOKYO_4159", "line_name": "北陸新幹線", "station_group_ids": [], "mode": "shinkansen", "operator_id": "西日本旅客鉄道", "line_color": "#2C62C9", "tags": ["tokyo", "track_centerline"]}}]}