{"type": "FeatureCollection", "features": [{"type": "Feature", "bbox": [139.061745, 37.912005, 139.061745, 37.912005], "geometry": {"type": "Point", "coordinates": [139.061745, 37.912005]}, "properties": {"id": "PS_BE499D87CCB4", "station_group_id": "SG_71665F3CB98E", "name_en": "新潟", "name_ja": "新潟", "label_rank": 72, "tags": ["tokyo", "v3"]}}, {"type": "Feature", "bbox": [139.46331500000002, 38.21988, 139.46331500000002, 38.21988], "geometry": {"type": "Point", "coordinates": [139.46331500000002, 38.21988]}, "properties": {"id": "PS_E04CA538C33D", "station_group_id": "SG_CE4F5FC20BF8", "name_en": "村上", "name_ja": "村上", "label_rank": 72, "tags": ["tokyo", "v3"]}}]}