{"type": "FeatureCollection", "features": [{"type": "Feature", "bbox": [139.51845581893167, 36.31516572736646, 139.51845581893167, 36.31516572736646], "geometry": {"type": "Point", "coordinates": [139.51845581893167, 36.31516572736646]}, "properties": {"id": "PS_AD101A0B6074", "station_group_id": "SG_972E4E7104C5", "name_en": "あしかがフラワーパーク", "name_ja": "あしかがフラワーパーク", "label_rank": 72, "tags": ["tokyo", "v3"]}}, {"type": "Feature", "bbox": [139.354965, 36.3134, 139.354965, 36.3134], "geometry": {"type": "Point", "coordinates": [139.354965, 36.3134]}, "properties": {"id": "PS_102EE82028E5", "station_group_id": "SG_E6E549E3C369", "name_en": "三枚橋", "name_ja": "三枚橋", "label_rank": 72, "tags": ["tokyo", "v3"]}}, {"type": "Feature", "bbox": [139.281975, 36.272940000000006, 139.281975, 36.272940000000006], "geometry": {"type": "Point", "coordinates": [139.281975, 36.272940000000006]}, "properties": {"id": "PS_81816BC98063", "station_group_id": "SG_B2E62B9DCBC6", "name_en": "世良田", "name_ja": "世良田", "label_rank": 72, "tags": ["tokyo", "v3"]}}, {"type": "Feature", "bbox": [139.02327000000002, 36.35744, 139.02327000000002, 36.35744], "geometry": {"type": "Point", "coordinates": [139.02327000000002, 36.35744]}, "properties": {"id": "PS_B19758E72B13", "station_group_id": "SG_941EDC31A627", "name_en": "井野", "name_ja": "井野", "label_rank": 72, "tags": ["tokyo", "v3"]}}, {"type": "Feature", "bbox": [139.19331, 36.32688, 139.19331, 36.32688], "geometry": {"type": "Point", "coordinates": [139.19331, 36.32688]}, "properties": {"id": "PS_A1EA090C881F", "station_group_id": "SG_E9272B699544", "name_en": "伊勢崎", "name_ja": "伊勢崎", "label_rank": 72, "tags": ["tokyo", "v3"]}}, {"type": "Feature", "bbox": [139.194955, 36.32642, 139.194955, 36.32642], "geometry": {"type": "Point", "coordinates": [139.194955, 36.32642]}, "properties": {"id": "PS_8D90ED79E7E0", "station_group_id": "SG_E9272B699544", "name_en": "伊勢崎", "name_ja": "伊勢崎", "label_rank": 72, "tags": ["tokyo", "v3"]}}, {"type": "Feature", "bbox": [139.04944, 36.300305, 139.04944, 36.300305], "geometry": {"type": "Point", "coordinates": [139.04944, 36.300305]}, "properties": {"id": "PS_538286A34DBD", "station_group_id": "SG_6E89F2028AA7", "name_en": "倉賀野", "name_ja": "倉賀野", "label_rank": 72, "tags": ["tokyo", "v3"]}}, {"type": "Feature", "bbox": [139.01925, 36.46379, 139.01925, 36.46379], "geometry": {"type": "Point", "coordinates": [139.01925, 36.46379]}, "properties": {"id": "PS_0CF1777285F3", "station_group_id": "SG_A49EDE0D78C9", "name_en": "八木原", "name_ja": "八木原", "label_rank": 72, "tags": ["tokyo", "v3"]}}, {"type": "Feature", "bbox": [139.07337, 36.38347, 139.07337, 36.38347], "geometry": {"type": "Point", "coordinates": [139.07337, 36.38347]}, "properties": {"id": "PS_0EC0E1B5E169", "station_group_id": "SG_6D78F7A2A8F5", "name_en": "前橋", "name_ja": "前橋", "label_rank": 72, "tags": ["tokyo", "v3"]}}, {"type": "Feature", "bbox": [139.109015, 36.3709, 139.109015, 36.3709], "geometry": {"type": "Point", "coordinates": [139.109015, 36.3709]}, "properties": {"id": "PS_395B6703BE7B", "station_group_id": "SG_628A0ABD0BCB", "name_en": "前橋大島", "name_ja": "前橋大島", "label_rank": 72, "tags": ["tokyo", "v3"]}}, {"type": "Feature", "bbox": [139.22388, 36.295415, 139.22388, 36.295415], "geometry": {"type": "Point", "coordinates": [139.22388, 36.295415]}, "properties": {"id": "PS_6E285DAAF9ED", "station_group_id": "SG_7E1E507175E8", "name_en": "剛志", "name_ja": "剛志", "label_rank": 72, "tags": ["tokyo", "v3"]}}, {"type": "Feature", "bbox": [139.242455, 36.359004999999996, 139.242455, 36.359004999999996], "geometry": {"type": "Point", "coordinates": [139.242455, 36.359004999999996]}, "properties": {"id": "PS_F427A52A891E", "station_group_id": "SG_7FBB3F061117", "name_en": "国定", "name_ja": "国定", "label_rank": 72, "tags": ["tokyo", "v3"]}}, {"type": "Feature", "bbox": [139.256255, 36.277165, 139.256255, 36.277165], "geometry": {"type": "Point", "coordinates": [139.256255, 36.277165]}, "properties": {"id": "PS_9679CEC6C81D", "station_group_id": "SG_04B57260A556", "name_en": "境町", "name_ja": "境町", "label_rank": 72, "tags": ["tokyo", "v3"]}}, {"type": "Feature", "bbox": [139.50032, 36.27368, 139.50032, 36.27368], "geometry": {"type": "Point", "coordinates": [139.50032, 36.27368]}, "properties": {"id": "PS_18742724DFFD", "station_group_id": "SG_651DEB7FF7B1", "name_en": "多々良", "name_ja": "多々良", "label_rank": 72, "tags": ["tokyo", "v3"]}}, {"type": "Feature", "bbox": [139.378935, 36.294205000000005, 139.378935, 36.294205000000005], "geometry": {"type": "Point", "coordinates": [139.378935, 36.294205000000005]}, "properties": {"id": "PS_23DA873F535C", "station_group_id": "SG_25A9EA50F243", "name_en": "太田", "name_ja": "太田", "label_rank": 72, "tags": ["tokyo", "v3"]}}, {"type": "Feature", "bbox": [139.378935, 36.294205000000005, 139.378935, 36.294205000000005], "geometry": {"type": "Point", "coordinates": [139.378935, 36.294205000000005]}, "properties": {"id": "PS_683D22D61FE3", "station_group_id": "SG_25A9EA50F243", "name_en": "太田", "name_ja": "太田", "label_rank": 72, "tags": ["tokyo", "v3"]}}, {"type": "Feature", "bbox": [139.379155, 36.29392, 139.379155, 36.29392], "geometry": {"type": "Point", "coordinates": [139.379155, 36.29392]}, "properties": {"id": "PS_9CF747A0FF05", "station_group_id": "SG_25A9EA50F243", "name_en": "太田", "name_ja": "太田", "label_rank": 72, "tags": ["tokyo", "v3"]}}, {"type": "Feature", "bbox": [139.52879000000001, 36.31618, 139.52879000000001, 36.31618], "geometry": {"type": "Point", "coordinates": [139.52879000000001, 36.31618]}, "properties": {"id": "PS_3BFAB28852B2", "station_group_id": "SG_1A36FABD66AF", "name_en": "富田", "name_ja": "富田", "label_rank": 72, "tags": ["tokyo", "v3"]}}, {"type": "Feature", "bbox": [139.374425, 36.37499, 139.374425, 36.37499], "geometry": {"type": "Point", "coordinates": [139.374425, 36.37499]}, "properties": {"id": "PS_8A05543A5D66", "station_group_id": "SG_D84F621CD531", "name_en": "小俣", "name_ja": "小俣", "label_rank": 72, "tags": ["tokyo", "v3"]}}, {"type": "Feature", "bbox": [139.42025, 36.26153, 139.42025, 36.26153], "geometry": {"type": "Point", "coordinates": [139.42025, 36.26153]}, "properties": {"id": "PS_6413B9758E1D", "station_group_id": "SG_CFF3E7034F85", "name_en": "小泉町", "name_ja": "小泉町", "label_rank": 72, "tags": ["tokyo", "v3"]}}, {"type": "Feature", "bbox": [139.41127, 36.347390000000004, 139.41127, 36.347390000000004], "geometry": {"type": "Point", "coordinates": [139.41127, 36.347390000000004]}, "properties": {"id": "PS_21411B840226", "station_group_id": "SG_63ABBB9299E1", "name_en": "山前", "name_ja": "山前", "label_rank": 72, "tags": ["tokyo", "v3"]}}, {"type": "Feature", "bbox": [139.23748999999998, 36.20574, 139.23748999999998, 36.20574], "geometry": {"type": "Point", "coordinates": [139.23748999999998, 36.20574]}, "properties": {"id": "PS_2135BBC96651", "station_group_id": "SG_51875232B285", "name_en": "岡部", "name_ja": "岡部", "label_rank": 72, "tags": ["tokyo", "v3"]}}, {"type": "Feature", "bbox": [139.29711500000002, 36.39589, 139.29711500000002, 36.39589], "geometry": {"type": "Point", "coordinates": [139.29711500000002, 36.39589]}, "properties": {"id": "PS_4BC378E38D05", "station_group_id": "SG_0EC3AD30E67F", "name_en": "岩宿", "name_ja": "岩宿", "label_rank": 72, "tags": ["tokyo", "v3"]}}, {"type": "Feature", "bbox": [139.04753, 36.60216, 139.04753, 36.60216], "geometry": {"type": "Point", "coordinates": [139.04753, 36.60216]}, "properties": {"id": "PS_689C8F56E81D", "station_group_id": "SG_7CB4484D22F7", "name_en": "岩本", "name_ja": "岩本", "label_rank": 72, "tags": ["tokyo", "v3"]}}, {"type": "Feature", "bbox": [139.526505, 36.208884999999995, 139.526505, 36.208884999999995], "geometry": {"type": "Point", "coordinates": [139.526505, 36.208884999999995]}, "properties": {"id": "PS_F67D93A9D2EF", "station_group_id": "SG_672A25E38820", "name_en": "川俣", "name_ja": "川俣", "label_rank": 72, "tags": ["tokyo", "v3"]}}, {"type": "Feature", "bbox": [139.000115, 36.67955, 139.000115, 36.67955], "geometry": {"type": "Point", "coordinates": [139.000115, 36.67955]}, "properties": {"id": "PS_B8138D4B8481", "station_group_id": "SG_1748A6A7C881", "name_en": "後閑", "name_ja": "後閑", "label_rank": 72, "tags": ["tokyo", "v3"]}}, {"type": "Feature", "bbox": [139.50557, 36.24908, 139.50557, 36.24908], "geometry": {"type": "Point", "coordinates": [139.50557, 36.24908]}, "properties": {"id": "PS_CCDE333A5290", "station_group_id": "SG_AFBDA16C9350", "name_en": "成島", "name_ja": "成島", "label_rank": 72, "tags": ["tokyo", "v3"]}}, {"type": "Feature", "bbox": [139.03393499999999, 36.537555, 139.03393499999999, 36.537555], "geometry": {"type": "Point", "coordinates": [139.03393499999999, 36.537555]}, "properties": {"id": "PS_A58DFE439582", "station_group_id": "SG_36EC752AFCDE", "name_en": "敷島", "name_ja": "敷島", "label_rank": 72, "tags": ["tokyo", "v3"]}}, {"type": "Feature", "bbox": [139.201815, 36.318084999999996, 139.201815, 36.318084999999996], "geometry": {"type": "Point", "coordinates": [139.201815, 36.318084999999996]}, "properties": {"id": "PS_D6E84F1D62AE", "station_group_id": "SG_417579E1B479", "name_en": "新伊勢崎", "name_ja": "新伊勢崎", "label_rank": 72, "tags": ["tokyo", "v3"]}}, {"type": "Feature", "bbox": [139.04700000000003, 36.379005, 139.04700000000003, 36.379005], "geometry": {"type": "Point", "coordinates": [139.04700000000003, 36.379005]}, "properties": {"id": "PS_42D473A6D540", "station_group_id": "SG_5A31788EC418", "name_en": "新前橋", "name_ja": "新前橋", "label_rank": 72, "tags": ["tokyo", "v3"]}}, {"type": "Feature", "bbox": [139.04700000000003, 36.379005, 139.04700000000003, 36.379005], "geometry": {"type": "Point", "coordinates": [139.04700000000003, 36.379005]}, "properties": {"id": "PS_E0E9B227F2A4", "station_group_id": "SG_5A31788EC418", "name_en": "新前橋", "name_ja": "新前橋", "label_rank": 72, "tags": ["tokyo", "v3"]}}, {"type": "Feature", "bbox": [139.320085, 36.395025000000004, 139.320085, 36.395025000000004], "geometry": {"type": "Point", "coordinates": [139.320085, 36.395025000000004]}, "properties": {"id": "PS_E059711BF493", "station_group_id": "SG_4CBB5B70698F", "name_en": "新桐生", "name_ja": "新桐生", "label_rank": 72, "tags": ["tokyo", "v3"]}}, {"type": "Feature", "bbox": [139.105315, 36.273105, 139.105315, 36.273105], "geometry": {"type": "Point", "coordinates": [139.105315, 36.273105]}, "properties": {"id": "PS_7AA41C8F2322", "station_group_id": "SG_7E79D1535AB9", "name_en": "新町", "name_ja": "新町", "label_rank": 72, "tags": ["tokyo", "v3"]}}, {"type": "Feature", "bbox": [139.313005, 36.27139, 139.313005, 36.27139], "geometry": {"type": "Point", "coordinates": [139.313005, 36.27139]}, "properties": {"id": "PS_164C4EACA054", "station_group_id": "SG_529EEBFE29E6", "name_en": "木崎", "name_ja": "木崎", "label_rank": 72, "tags": ["tokyo", "v3"]}}, {"type": "Feature", "bbox": [139.46954, 36.258445, 139.46954, 36.258445], "geometry": {"type": "Point", "coordinates": [139.46954, 36.258445]}, "properties": {"id": "PS_83C77154B140", "station_group_id": "SG_D5888E7CDCE0", "name_en": "本中野", "name_ja": "本中野", "label_rank": 72, "tags": ["tokyo", "v3"]}}, {"type": "Feature", "bbox": [139.188135, 36.2363, 139.188135, 36.2363], "geometry": {"type": "Point", "coordinates": [139.188135, 36.2363]}, "properties": {"id": "PS_B3039FD7998A", "station_group_id": "SG_3DA37292FC17", "name_en": "本庄", "name_ja": "本庄", "label_rank": 72, "tags": ["tokyo", "v3"]}}, {"type": "Feature", "bbox": [139.179725, 36.218685, 139.179725, 36.218685], "geometry": {"type": "Point", "coordinates": [139.179725, 36.218685]}, "properties": {"id": "PS_7C83BD9C1BFA", "station_group_id": "SG_4F2B0C0E0DBC", "name_en": "本庄早稲田", "name_ja": "本庄早稲田", "label_rank": 72, "tags": ["tokyo", "v3"]}}, {"type": "Feature", "bbox": [139.42856, 36.259715, 139.42856, 36.259715], "geometry": {"type": "Point", "coordinates": [139.42856, 36.259715]}, "properties": {"id": "PS_3757E5B91520", "station_group_id": "SG_A3119AA12A68", "name_en": "東小泉", "name_ja": "東小泉", "label_rank": 72, "tags": ["tokyo", "v3"]}}, {"type": "Feature", "bbox": [139.45508999999998, 36.315655, 139.45508999999998, 36.315655], "geometry": {"type": "Point", "coordinates": [139.45508999999998, 36.315655]}, "properties": {"id": "PS_B9EC4B896E2D", "station_group_id": "SG_33814D8EAF9A", "name_en": "東武和泉", "name_ja": "東武和泉", "label_rank": 72, "tags": ["tokyo", "v3"]}}, {"type": "Feature", "bbox": [139.33321999999998, 36.411114999999995, 139.33321999999998, 36.411114999999995], "geometry": {"type": "Point", "coordinates": [139.33321999999998, 36.411114999999995]}, "properties": {"id": "PS_526F929D1129", "station_group_id": "SG_385C72F7FDFF", "name_en": "桐生", "name_ja": "桐生", "label_rank": 72, "tags": ["tokyo", "v3"]}}, {"type": "Feature", "bbox": [139.341365, 36.333025, 139.341365, 36.333025], "geometry": {"type": "Point", "coordinates": [139.341365, 36.333025]}, "properties": {"id": "PS_84CC2BA5ED20", "station_group_id": "SG_41EF4EC75659", "name_en": "治良門橋", "name_ja": "治良門橋", "label_rank": 72, "tags": ["tokyo", "v3"]}}, {"type": "Feature", "bbox": [139.035645, 36.642295000000004, 139.035645, 36.642295000000004], "geometry": {"type": "Point", "coordinates": [139.035645, 36.642295000000004]}, "properties": {"id": "PS_2C398CC8AC52", "station_group_id": "SG_BDADF07D2126", "name_en": "沼田", "name_ja": "沼田", "label_rank": 72, "tags": ["tokyo", "v3"]}}, {"type": "Feature", "bbox": [139.042865, 36.56103, 139.042865, 36.56103], "geometry": {"type": "Point", "coordinates": [139.042865, 36.56103]}, "properties": {"id": "PS_75EC0EB7AD90", "station_group_id": "SG_E6A557F81543", "name_en": "津久田", "name_ja": "津久田", "label_rank": 72, "tags": ["tokyo", "v3"]}}, {"type": "Feature", "bbox": [139.281345, 36.191345, 139.281345, 36.191345], "geometry": {"type": "Point", "coordinates": [139.281345, 36.191345]}, "properties": {"id": "PS_F9E55939C22E", "station_group_id": "SG_6AD709B58947", "name_en": "深谷", "name_ja": "深谷", "label_rank": 72, "tags": ["tokyo", "v3"]}}, {"type": "Feature", "bbox": [139.00878999999998, 36.49123, 139.00878999999998, 36.49123], "geometry": {"type": "Point", "coordinates": [139.00878999999998, 36.49123]}, "properties": {"id": "PS_64935E3E374D", "station_group_id": "SG_1332B7B67946", "name_en": "渋川", "name_ja": "渋川", "label_rank": 72, "tags": ["tokyo", "v3"]}}, {"type": "Feature", "bbox": [139.53748, 36.26184000000001, 139.53748, 36.26184000000001], "geometry": {"type": "Point", "coordinates": [139.53748, 36.26184000000001]}, "properties": {"id": "PS_F958688E5352", "station_group_id": "SG_5835906B9FC1", "name_en": "渡瀬", "name_ja": "渡瀬", "label_rank": 72, "tags": ["tokyo", "v3"]}}, {"type": "Feature", "bbox": [139.303915, 36.410635, 139.303915, 36.410635], "geometry": {"type": "Point", "coordinates": [139.303915, 36.410635]}, "properties": {"id": "PS_1B068BC914F2", "station_group_id": "SG_58204DDE1E3C", "name_en": "相老", "name_ja": "相老", "label_rank": 72, "tags": ["tokyo", "v3"]}}, {"type": "Feature", "bbox": [139.47236, 36.290625, 139.47236, 36.290625], "geometry": {"type": "Point", "coordinates": [139.47236, 36.290625]}, "properties": {"id": "PS_8C79467FC9DB", "station_group_id": "SG_7800F7C4E48F", "name_en": "県", "name_ja": "県", "label_rank": 72, "tags": ["tokyo", "v3"]}}, {"type": "Feature", "bbox": [139.149015, 36.253625, 139.149015, 36.253625], "geometry": {"type": "Point", "coordinates": [139.149015, 36.253625]}, "properties": {"id": "PS_E4B0E9C52212", "station_group_id": "SG_E27E3958D46E", "name_en": "神保原", "name_ja": "神保原", "label_rank": 72, "tags": ["tokyo", "v3"]}}, {"type": "Feature", "bbox": [139.45866999999998, 36.305205, 139.45866999999998, 36.305205], "geometry": {"type": "Point", "coordinates": [139.45866999999998, 36.305205]}, "properties": {"id": "PS_24DA9202FC4E", "station_group_id": "SG_35419AF7A4C2", "name_en": "福居", "name_ja": "福居", "label_rank": 72, "tags": ["tokyo", "v3"]}}, {"type": "Feature", "bbox": [139.4091, 36.27885, 139.4091, 36.27885], "geometry": {"type": "Point", "coordinates": [139.4091, 36.27885]}, "properties": {"id": "PS_E5A1049C9307", "station_group_id": "SG_FFD1FF88E2AA", "name_en": "竜舞", "name_ja": "竜舞", "label_rank": 72, "tags": ["tokyo", "v3"]}}, {"type": "Feature", "bbox": [139.44609, 36.256815, 139.44609, 36.256815], "geometry": {"type": "Point", "coordinates": [139.44609, 36.256815]}, "properties": {"id": "PS_6491574BD5AA", "station_group_id": "SG_5F13D073A459", "name_en": "篠塚", "name_ja": "篠塚", "label_rank": 72, "tags": ["tokyo", "v3"]}}, {"type": "Feature", "bbox": [139.34899000000001, 36.282975, 139.34899000000001, 36.282975], "geometry": {"type": "Point", "coordinates": [139.34899000000001, 36.282975]}, "properties": {"id": "PS_ECAC27AB46A9", "station_group_id": "SG_704FD3C8E471", "name_en": "細谷", "name_ja": "細谷", "label_rank": 72, "tags": ["tokyo", "v3"]}}, {"type": "Feature", "bbox": [139.032285, 36.41551, 139.032285, 36.41551], "geometry": {"type": "Point", "coordinates": [139.032285, 36.41551]}, "properties": {"id": "PS_A390570DFFA6", "station_group_id": "SG_ABC22AB0D52C", "name_en": "群馬総社", "name_ja": "群馬総社", "label_rank": 72, "tags": ["tokyo", "v3"]}}, {"type": "Feature", "bbox": [139.527045, 36.22635, 139.527045, 36.22635], "geometry": {"type": "Point", "coordinates": [139.527045, 36.22635]}, "properties": {"id": "PS_8426B561B2C1", "station_group_id": "SG_4A71603FF10D", "name_en": "茂林寺前", "name_ja": "茂林寺前", "label_rank": 72, "tags": ["tokyo", "v3"]}}, {"type": "Feature", "bbox": [139.31577, 36.358760000000004, 139.31577, 36.358760000000004], "geometry": {"type": "Point", "coordinates": [139.31577, 36.358760000000004]}, "properties": {"id": "PS_817A186D22E2", "station_group_id": "SG_7CFD97334114", "name_en": "藪塚", "name_ja": "藪塚", "label_rank": 72, "tags": ["tokyo", "v3"]}}, {"type": "Feature", "bbox": [139.40850999999998, 36.258665, 139.40850999999998, 36.258665], "geometry": {"type": "Point", "coordinates": [139.40850999999998, 36.258665]}, "properties": {"id": "PS_CCB29F528E35", "station_group_id": "SG_A03C347CF0E2", "name_en": "西小泉", "name_ja": "西小泉", "label_rank": 72, "tags": ["tokyo", "v3"]}}, {"type": "Feature", "bbox": [139.27678, 36.425619999999995, 139.27678, 36.425619999999995], "geometry": {"type": "Point", "coordinates": [139.27678, 36.425619999999995]}, "properties": {"id": "PS_711C9D6860CF", "station_group_id": "SG_DC5B0B5E3660", "name_en": "赤城", "name_ja": "赤城", "label_rank": 72, "tags": ["tokyo", "v3"]}}, {"type": "Feature", "bbox": [139.45635, 36.331869999999995, 139.45635, 36.331869999999995], "geometry": {"type": "Point", "coordinates": [139.45635, 36.331869999999995]}, "properties": {"id": "PS_A02218394B99", "station_group_id": "SG_3473087027CF", "name_en": "足利", "name_ja": "足利", "label_rank": 72, "tags": ["tokyo", "v3"]}}, {"type": "Feature", "bbox": [139.44818, 36.329435, 139.44818, 36.329435], "geometry": {"type": "Point", "coordinates": [139.44818, 36.329435]}, "properties": {"id": "PS_701CC780F467", "station_group_id": "SG_4B25E315995A", "name_en": "足利市", "name_ja": "足利市", "label_rank": 72, "tags": ["tokyo", "v3"]}}, {"type": "Feature", "bbox": [139.43201, 36.326285, 139.43201, 36.326285], "geometry": {"type": "Point", "coordinates": [139.43201, 36.326285]}, "properties": {"id": "PS_09CA40946C96", "station_group_id": "SG_C018BCE2825B", "name_en": "野州山辺", "name_ja": "野州山辺", "label_rank": 72, "tags": ["tokyo", "v3"]}}, {"type": "Feature", "bbox": [139.306545, 36.3851, 139.306545, 36.3851], "geometry": {"type": "Point", "coordinates": [139.306545, 36.3851]}, "properties": {"id": "PS_86C22448E3F6", "station_group_id": "SG_395E86C7ADF6", "name_en": "阿左美", "name_ja": "阿左美", "label_rank": 72, "tags": ["tokyo", "v3"]}}, {"type": "Feature", "bbox": [139.4024, 36.30815, 139.4024, 36.30815], "geometry": {"type": "Point", "coordinates": [139.4024, 36.30815]}, "properties": {"id": "PS_85C6C4B82549", "station_group_id": "SG_E4E3D90A2EA9", "name_en": "韮川", "name_ja": "韮川", "label_rank": 72, "tags": ["tokyo", "v3"]}}, {"type": "Feature", "bbox": [139.52781, 36.246595, 139.52781, 36.246595], "geometry": {"type": "Point", "coordinates": [139.52781, 36.246595]}, "properties": {"id": "PS_8E48EEB5BAEE", "station_group_id": "SG_F6212117F6FF", "name_en": "館林", "name_ja": "館林", "label_rank": 92, "tags": ["tokyo", "v3"]}}, {"type": "Feature", "bbox": [139.52781, 36.246595, 139.52781, 36.246595], "geometry": {"type": "Point", "coordinates": [139.52781, 36.246595]}, "properties": {"id": "PS_676D472FCA94", "station_group_id": "SG_F6212117F6FF", "name_en": "館林", "name_ja": "館林", "label_rank": 92, "tags": ["tokyo", "v3"]}}, {"type": "Feature", "bbox": [139.52781, 36.246595, 139.52781, 36.246595], "geometry": {"type": "Point", "coordinates": [139.52781, 36.246595]}, "properties": {"id": "PS_C6C84A547EB6", "station_group_id": "SG_F6212117F6FF", "name_en": "館林", "name_ja": "館林", "label_rank": 92, "tags": ["tokyo", "v3"]}}, {"type": "Feature", "bbox": [139.139545, 36.35411, 139.139545, 36.35411], "geometry": {"type": "Point", "coordinates": [139.139545, 36.35411]}, "properties": {"id": "PS_72FDB1DEE583", "station_group_id": "SG_E3357B3F6C79", "name_en": "駒形", "name_ja": "駒形", "label_rank": 72, "tags": ["tokyo", "v3"]}}, {"type": "Feature", "bbox": [139.01234, 36.32227, 139.01234, 36.32227], "geometry": {"type": "Point", "coordinates": [139.01234, 36.32227]}, "properties": {"id": "PS_BC86762CE6E6", "station_group_id": "SG_30CB898DCA41", "name_en": "高崎", "name_ja": "高崎", "label_rank": 72, "tags": ["tokyo", "v3"]}}, {"type": "Feature", "bbox": [139.01298500000001, 36.322955, 139.01298500000001, 36.322955], "geometry": {"type": "Point", "coordinates": [139.01298500000001, 36.322955]}, "properties": {"id": "PS_CA59D6C2C0FC", "station_group_id": "SG_30CB898DCA41", "name_en": "高崎", "name_ja": "高崎", "label_rank": 72, "tags": ["tokyo", "v3"]}}, {"type": "Feature", "bbox": [139.01234, 36.32227, 139.01234, 36.32227], "geometry": {"type": "Point", "coordinates": [139.01234, 36.32227]}, "properties": {"id": "PS_B2C9321932DD", "station_group_id": "SG_30CB898DCA41", "name_en": "高崎", "name_ja": "高崎", "label_rank": 72, "tags": ["tokyo", "v3"]}}, {"type": "Feature", "bbox": [139.01298500000001, 36.322955, 139.01298500000001, 36.322955], "geometry": {"type": "Point", "coordinates": [139.01298500000001, 36.322955]}, "properties": {"id": "PS_6C16D2E593E7", "station_group_id": "SG_30CB898DCA41", "name_en": "高崎", "name_ja": "高崎", "label_rank": 72, "tags": ["tokyo", "v3"]}}, {"type": "Feature", "bbox": [139.01723, 36.346135000000004, 139.01723, 36.346135000000004], "geometry": {"type": "Point", "coordinates": [139.01723, 36.346135000000004]}, "properties": {"id": "PS_63955149E987", "station_group_id": "SG_D8AB86BACFD9", "name_en": "高崎問屋町", "name_ja": "高崎問屋町", "label_rank": 72, "tags": ["tokyo", "v3"]}}]}