{"type": "FeatureCollection", "features": [{"type": "Feature", "bbox": [140.38076, 38.42861, 140.38076, 38.42861], "geometry": {"type": "Point", "coordinates": [140.38076, 38.42861]}, "properties": {"id": "PS_8834BB419674", "station_group_id": "SG_B31E5634B6D9", "name_en": "さくらんぼ東根", "name_ja": "さくらんぼ東根", "label_rank": 72, "tags": ["tokyo", "v3"]}}, {"type": "Feature", "bbox": [140.36943, 38.36005666666667, 140.36943, 38.36005666666667], "geometry": {"type": "Point", "coordinates": [140.36943, 38.36005666666667]}, "properties": {"id": "PS_E1648FE02591", "station_group_id": "SG_5C8D6B322EE9", "name_en": "天童", "name_ja": "天童", "label_rank": 72, "tags": ["tokyo", "v3"]}}, {"type": "Feature", "bbox": [140.38642, 38.4771, 140.38642, 38.4771], "geometry": {"type": "Point", "coordinates": [140.38642, 38.4771]}, "properties": {"id": "PS_5BB40DC1F96F", "station_group_id": "SG_884227D5452F", "name_en": "村山", "name_ja": "村山", "label_rank": 72, "tags": ["tokyo", "v3"]}}]}