{"type": "FeatureCollection", "features": [{"type": "Feature", "bbox": [140.27845000000002, 38.151905, 140.27845000000002, 38.151905], "geometry": {"type": "Point", "coordinates": [140.27845000000002, 38.151905]}, "properties": {"id": "PS_40EFA0D1EF2C", "station_group_id": "SG_7029595EE774", "name_en": "かみのやま温泉", "name_ja": "かみのやま温泉", "label_rank": 72, "tags": ["tokyo", "v3"]}}, {"type": "Feature", "bbox": [140.3274725, 38.24845, 140.3274725, 38.24845], "geometry": {"type": "Point", "coordinates": [140.3274725, 38.24845]}, "properties": {"id": "PS_DC63454C4DBC", "station_group_id": "SG_1C8A6E3CAB14", "name_en": "山形", "name_ja": "山形", "label_rank": 72, "tags": ["tokyo", "v3"]}}, {"type": "Feature", "bbox": [140.14901, 38.04723, 140.14901, 38.04723], "geometry": {"type": "Point", "coordinates": [140.14901, 38.04723]}, "properties": {"id": "PS_0D4AF704EC7D", "station_group_id": "SG_4C8A7F521BC5", "name_en": "赤湯", "name_ja": "赤湯", "label_rank": 72, "tags": ["tokyo", "v3"]}}, {"type": "Feature", "bbox": [140.14901, 38.04723, 140.14901, 38.04723], "geometry": {"type": "Point", "coordinates": [140.14901, 38.04723]}, "properties": {"id": "PS_A185C75D233A", "station_group_id": "SG_4C8A7F521BC5", "name_en": "赤湯", "name_ja": "赤湯", "label_rank": 72, "tags": ["tokyo", "v3"]}}, {"type": "Feature", "bbox": [140.15281, 37.992335, 140.15281, 37.992335], "geometry": {"type": "Point", "coordinates": [140.15281, 37.992335]}, "properties": {"id": "PS_077E799E0E9B", "station_group_id": "SG_A51E2EC0A8CE", "name_en": "高畠", "name_ja": "高畠", "label_rank": 72, "tags": ["tokyo", "v3"]}}]}