{"type": "FeatureCollection", "features": [{"type": "Feature", "bbox": [140.38774, 37.482445, 140.38774, 37.482445], "geometry": {"type": "Point", "coordinates": [140.38774, 37.482445]}, "properties": {"id": "PS_AE0AAB677446", "station_group_id": "SG_2FB3F70F9CC6", "operator_id": "jr_east", "operator_ids": "jr_east", "name_en": "五百川", "name_ja": "五百川", "label_rank": 72, "tags": ["tokyo", "v3"]}}, {"type": "Feature", "bbox": [140.399335, 37.513735, 140.399335, 37.513735], "geometry": {"type": "Point", "coordinates": [140.399335, 37.513735]}, "properties": {"id": "PS_3BB74D04B148", "station_group_id": "SG_3CE6CC0C9672", "operator_id": "jr_east", "operator_ids": "jr_east", "name_en": "本宮", "name_ja": "本宮", "label_rank": 72, "tags": ["tokyo", "v3"]}}, {"type": "Feature", "bbox": [140.41391, 37.563445, 140.41391, 37.563445], "geometry": {"type": "Point", "coordinates": [140.41391, 37.563445]}, "properties": {"id": "PS_C7A1B3E7DB4C", "station_group_id": "SG_8F168A4339A2", "operator_id": "jr_east", "operator_ids": "jr_east", "name_en": "杉田", "name_ja": "杉田", "label_rank": 92, "tags": ["tokyo", "v3"]}}]}