{"type": "FeatureCollection", "features": [{"type": "Feature", "bbox": [140.36882, 37.35659, 140.36882, 37.35659], "geometry": {"type": "Point", "coordinates": [140.36882, 37.35659]}, "properties": {"id": "PS_22C456ECD5DA", "station_group_id": "SG_41256A82C046", "name_en": "安積永盛", "name_ja": "安積永盛", "label_rank": 72, "tags": ["tokyo", "v3"]}}, {"type": "Feature", "bbox": [140.38836500000002, 37.44596, 140.38836500000002, 37.44596], "geometry": {"type": "Point", "coordinates": [140.38836500000002, 37.44596]}, "properties": {"id": "PS_763E4A2B2AEA", "station_group_id": "SG_27FEFAD9B0F6", "name_en": "日和田", "name_ja": "日和田", "label_rank": 72, "tags": ["tokyo", "v3"]}}, {"type": "Feature", "bbox": [140.38862, 37.39862, 140.38862, 37.39862], "geometry": {"type": "Point", "coordinates": [140.38862, 37.39862]}, "properties": {"id": "PS_C02A086496EF", "station_group_id": "SG_0F07E72AEE8E", "name_en": "郡山", "name_ja": "郡山", "label_rank": 72, "tags": ["tokyo", "v3"]}}, {"type": "Feature", "bbox": [140.388865, 37.398145, 140.388865, 37.398145], "geometry": {"type": "Point", "coordinates": [140.388865, 37.398145]}, "properties": {"id": "PS_88A1D58EB164", "station_group_id": "SG_0F07E72AEE8E", "name_en": "郡山", "name_ja": "郡山", "label_rank": 72, "tags": ["tokyo", "v3"]}}, {"type": "Feature", "bbox": [140.34684, 37.250564999999995, 140.34684, 37.250564999999995], "geometry": {"type": "Point", "coordinates": [140.34684, 37.250564999999995]}, "properties": {"id": "PS_BE40079D42CC", "station_group_id": "SG_8D94BD2DAAC6", "name_en": "鏡石", "name_ja": "鏡石", "label_rank": 72, "tags": ["tokyo", "v3"]}}, {"type": "Feature", "bbox": [140.37157000000002, 37.300435, 140.37157000000002, 37.300435], "geometry": {"type": "Point", "coordinates": [140.37157000000002, 37.300435]}, "properties": {"id": "PS_3F2176DE8D62", "station_group_id": "SG_813F30314B80", "name_en": "須賀川", "name_ja": "須賀川", "label_rank": 72, "tags": ["tokyo", "v3"]}}]}