{"type": "FeatureCollection", "features": [{"type": "Feature", "bbox": [140.260185, 37.137525, 140.260185, 37.137525], "geometry": {"type": "Point", "coordinates": [140.260185, 37.137525]}, "properties": {"id": "PS_3DE15486F29C", "station_group_id": "SG_B299DC7D6BF4", "operator_id": "jr_east", "operator_ids": "jr_east", "name_en": "久田野", "name_ja": "久田野", "label_rank": 72, "tags": ["tokyo", "v3"]}}, {"type": "Feature", "bbox": [140.188825, 37.123310000000004, 140.188825, 37.123310000000004], "geometry": {"type": "Point", "coordinates": [140.188825, 37.123310000000004]}, "properties": {"id": "PS_C7F25103F27A", "station_group_id": "SG_202A1F59BFCA", "operator_id": "jr_east", "operator_ids": "jr_east", "name_en": "新白河", "name_ja": "新白河", "label_rank": 72, "tags": ["tokyo", "v3"]}}, {"type": "Feature", "bbox": [140.187535, 37.12254, 140.187535, 37.12254], "geometry": {"type": "Point", "coordinates": [140.187535, 37.12254]}, "properties": {"id": "PS_DDCEE70E7623", "station_group_id": "SG_202A1F59BFCA", "operator_id": "jr_east", "operator_ids": "jr_east", "name_en": "新白河", "name_ja": "新白河", "label_rank": 72, "tags": ["tokyo", "v3"]}}, {"type": "Feature", "bbox": [140.29906, 37.158235000000005, 140.29906, 37.158235000000005], "geometry": {"type": "Point", "coordinates": [140.29906, 37.158235000000005]}, "properties": {"id": "PS_B6E3E59A3ADE", "station_group_id": "SG_B39A688538F1", "operator_id": "jr_east", "operator_ids": "jr_east", "name_en": "泉崎", "name_ja": "泉崎", "label_rank": 72, "tags": ["tokyo", "v3"]}}, {"type": "Feature", "bbox": [140.184705, 37.095275, 140.184705, 37.095275], "geometry": {"type": "Point", "coordinates": [140.184705, 37.095275]}, "properties": {"id": "PS_C4E4E71DB051", "station_group_id": "SG_5A9C4FA6D55F", "operator_id": "jr_east", "operator_ids": "jr_east", "name_en": "白坂", "name_ja": "白坂", "label_rank": 72, "tags": ["tokyo", "v3"]}}, {"type": "Feature", "bbox": [140.212425, 37.130219999999994, 140.212425, 37.130219999999994], "geometry": {"type": "Point", "coordinates": [140.212425, 37.130219999999994]}, "properties": {"id": "PS_FFCF8395D90D", "station_group_id": "SG_3E69FECA7D4D", "operator_id": "jr_east", "operator_ids": "jr_east", "name_en": "白河", "name_ja": "白河", "label_rank": 72, "tags": ["tokyo", "v3"]}}, {"type": "Feature", "bbox": [140.32827500000002, 37.20575, 140.32827500000002, 37.20575], "geometry": {"type": "Point", "coordinates": [140.32827500000002, 37.20575]}, "properties": {"id": "PS_73E4D25BC464", "station_group_id": "SG_57499845C463", "operator_id": "jr_east", "operator_ids": "jr_east", "name_en": "矢吹", "name_ja": "矢吹", "label_rank": 72, "tags": ["tokyo", "v3"]}}, {"type": "Feature", "bbox": [140.15509500000002, 37.054964999999996, 140.15509500000002, 37.054964999999996], "geometry": {"type": "Point", "coordinates": [140.15509500000002, 37.054964999999996]}, "properties": {"id": "PS_8820303B0B7E", "station_group_id": "SG_AF5F554E5A56", "operator_id": "jr_east", "operator_ids": "jr_east", "name_en": "豊原", "name_ja": "豊原", "label_rank": 72, "tags": ["tokyo", "v3"]}}]}