{"type": "FeatureCollection", "features": [{"type": "Feature", "bbox": [140.35262999999998, 36.370045, 140.35262999999998, 36.370045], "geometry": {"type": "Point", "coordinates": [140.35262999999998, 36.370045]}, "properties": {"id": "PS_97E53F063BEC", "station_group_id": "SG_D6FD5A19BC2C", "name_en": "内原", "name_ja": "内原", "label_rank": 72, "tags": ["tokyo", "v3"]}}, {"type": "Feature", "bbox": [140.30602499999998, 36.35046, 140.30602499999998, 36.35046], "geometry": {"type": "Point", "coordinates": [140.30602499999998, 36.35046]}, "properties": {"id": "PS_E6DAA9358588", "station_group_id": "SG_2EED928BCE97", "name_en": "友部", "name_ja": "友部", "label_rank": 72, "tags": ["tokyo", "v3"]}}, {"type": "Feature", "bbox": [140.27651500000002, 36.295424999999994, 140.27651500000002, 36.295424999999994], "geometry": {"type": "Point", "coordinates": [140.27651500000002, 36.295424999999994]}, "properties": {"id": "PS_17921333E68C", "station_group_id": "SG_7BB4136F279A", "name_en": "岩間", "name_ja": "岩間", "label_rank": 72, "tags": ["tokyo", "v3"]}}, {"type": "Feature", "bbox": [140.279765, 36.191495, 140.279765, 36.191495], "geometry": {"type": "Point", "coordinates": [140.279765, 36.191495]}, "properties": {"id": "PS_652FEEAC5DE6", "station_group_id": "SG_87F2ACC7CDF3", "name_en": "石岡", "name_ja": "石岡", "label_rank": 72, "tags": ["tokyo", "v3"]}}, {"type": "Feature", "bbox": [140.28677499999998, 36.24754, 140.28677499999998, 36.24754], "geometry": {"type": "Point", "coordinates": [140.28677499999998, 36.24754]}, "properties": {"id": "PS_FEB29A705825", "station_group_id": "SG_A1F25DA5A066", "name_en": "羽鳥", "name_ja": "羽鳥", "label_rank": 72, "tags": ["tokyo", "v3"]}}, {"type": "Feature", "bbox": [140.41516000000001, 36.381755, 140.41516000000001, 36.381755], "geometry": {"type": "Point", "coordinates": [140.41516000000001, 36.381755]}, "properties": {"id": "PS_7E348C0263AA", "station_group_id": "SG_D4A6707E68D1", "name_en": "赤塚", "name_ja": "赤塚", "label_rank": 72, "tags": ["tokyo", "v3"]}}]}