{"type": "FeatureCollection", "features": [{"type": "Feature", "bbox": [140.158295, 36.007495, 140.158295, 36.007495], "geometry": {"type": "Point", "coordinates": [140.158295, 36.007495]}, "properties": {"id": "PS_4815E172781A", "station_group_id": "SG_732511FD3B31", "name_en": "ひたち野うしく", "name_ja": "ひたち野うしく", "label_rank": 72, "tags": ["tokyo", "v3"]}}, {"type": "Feature", "bbox": [140.20623999999998, 36.078595, 140.20623999999998, 36.078595], "geometry": {"type": "Point", "coordinates": [140.20623999999998, 36.078595]}, "properties": {"id": "PS_F5FA2F2D0360", "station_group_id": "SG_4DB04A942A12", "name_en": "土浦", "name_ja": "土浦", "label_rank": 72, "tags": ["tokyo", "v3"]}}, {"type": "Feature", "bbox": [140.14103, 35.97518, 140.14103, 35.97518], "geometry": {"type": "Point", "coordinates": [140.14103, 35.97518]}, "properties": {"id": "PS_275E07D01237", "station_group_id": "SG_D5B46D702E16", "name_en": "牛久", "name_ja": "牛久", "label_rank": 72, "tags": ["tokyo", "v3"]}}, {"type": "Feature", "bbox": [140.24860999999999, 36.12043, 140.24860999999999, 36.12043], "geometry": {"type": "Point", "coordinates": [140.24860999999999, 36.12043]}, "properties": {"id": "PS_0B6E36682219", "station_group_id": "SG_F3ED49092008", "name_en": "神立", "name_ja": "神立", "label_rank": 72, "tags": ["tokyo", "v3"]}}, {"type": "Feature", "bbox": [140.16598499999998, 36.030595000000005, 140.16598499999998, 36.030595000000005], "geometry": {"type": "Point", "coordinates": [140.16598499999998, 36.030595000000005]}, "properties": {"id": "PS_FE02DFF3FDA8", "station_group_id": "SG_9BDC06A0CD8F", "name_en": "荒川沖", "name_ja": "荒川沖", "label_rank": 72, "tags": ["tokyo", "v3"]}}, {"type": "Feature", "bbox": [140.29448000000002, 36.163495, 140.29448000000002, 36.163495], "geometry": {"type": "Point", "coordinates": [140.29448000000002, 36.163495]}, "properties": {"id": "PS_CE4B4B6DEAB7", "station_group_id": "SG_756E26E927A7", "name_en": "高浜", "name_ja": "高浜", "label_rank": 72, "tags": ["tokyo", "v3"]}}]}