{"type": "FeatureCollection", "features": [{"type": "Feature", "bbox": [140.16634499999998, 35.550015, 140.16634499999998, 35.550015], "geometry": {"type": "Point", "coordinates": [140.16634499999998, 35.550015]}, "properties": {"id": "PS_EACB976ED069", "station_group_id": "SG_12AE4D07CC39", "name_en": "おゆみ野", "name_ja": "おゆみ野", "label_rank": 72, "tags": ["tokyo", "v3"]}}, {"type": "Feature", "bbox": [140.1701, 35.533545000000004, 140.1701, 35.533545000000004], "geometry": {"type": "Point", "coordinates": [140.1701, 35.533545000000004]}, "properties": {"id": "PS_AB6B75BCC0B8", "station_group_id": "SG_108D9E5B3FFD", "name_en": "ちはら台", "name_ja": "ちはら台", "label_rank": 72, "tags": ["tokyo", "v3"]}}, {"type": "Feature", "bbox": [140.31741499999998, 35.663174999999995, 140.31741499999998, 35.663174999999995], "geometry": {"type": "Point", "coordinates": [140.31741499999998, 35.663174999999995]}, "properties": {"id": "PS_0B41F048458E", "station_group_id": "SG_BC7E78750F54", "name_en": "八街", "name_ja": "八街", "label_rank": 72, "tags": ["tokyo", "v3"]}}, {"type": "Feature", "bbox": [140.164895, 35.66279, 140.164895, 35.66279], "geometry": {"type": "Point", "coordinates": [140.164895, 35.66279]}, "properties": {"id": "PS_D2109A88FF35", "station_group_id": "SG_E2790D53B8C8", "name_en": "四街道", "name_ja": "四街道", "label_rank": 72, "tags": ["tokyo", "v3"]}}, {"type": "Feature", "bbox": [140.26982, 35.5309025, 140.26982, 35.5309025], "geometry": {"type": "Point", "coordinates": [140.26982, 35.5309025]}, "properties": {"id": "PS_8A783B2B566A", "station_group_id": "SG_EB638982A4D9", "name_en": "土気", "name_ja": "土気", "label_rank": 72, "tags": ["tokyo", "v3"]}}, {"type": "Feature", "bbox": [140.14957, 35.58399, 140.14957, 35.58399], "geometry": {"type": "Point", "coordinates": [140.14957, 35.58399]}, "properties": {"id": "PS_7821CEF3DEC6", "station_group_id": "SG_FA6F9DA850AC", "name_en": "大森台", "name_ja": "大森台", "label_rank": 72, "tags": ["tokyo", "v3"]}}, {"type": "Feature", "bbox": [140.3111381818182, 35.52238818181818, 140.3111381818182, 35.52238818181818], "geometry": {"type": "Point", "coordinates": [140.3111381818182, 35.52238818181818]}, "properties": {"id": "PS_9EF5755F19DB", "station_group_id": "SG_D92B101E6997", "name_en": "大網", "name_ja": "大網", "label_rank": 72, "tags": ["tokyo", "v3"]}}, {"type": "Feature", "bbox": [140.3114775, 35.523015, 140.3114775, 35.523015], "geometry": {"type": "Point", "coordinates": [140.3114775, 35.523015]}, "properties": {"id": "PS_6BBE8E88E915", "station_group_id": "SG_D92B101E6997", "name_en": "大網", "name_ja": "大網", "label_rank": 72, "tags": ["tokyo", "v3"]}}, {"type": "Feature", "bbox": [140.15839499999998, 35.560455000000005, 140.15839499999998, 35.560455000000005], "geometry": {"type": "Point", "coordinates": [140.15839499999998, 35.560455000000005]}, "properties": {"id": "PS_2DCC9F73AEDB", "station_group_id": "SG_ADEDB510691F", "name_en": "学園前", "name_ja": "学園前", "label_rank": 72, "tags": ["tokyo", "v3"]}}, {"type": "Feature", "bbox": [140.41028, 35.608535, 140.41028, 35.608535], "geometry": {"type": "Point", "coordinates": [140.41028, 35.608535]}, "properties": {"id": "PS_03A22CC76962", "station_group_id": "SG_6AEBCE77ED59", "name_en": "成東", "name_ja": "成東", "label_rank": 72, "tags": ["tokyo", "v3"]}}, {"type": "Feature", "bbox": [140.299715, 35.44943, 140.299715, 35.44943], "geometry": {"type": "Point", "coordinates": [140.299715, 35.44943]}, "properties": {"id": "PS_0E569660B1E9", "station_group_id": "SG_63B897ED55F7", "name_en": "新茂原", "name_ja": "新茂原", "label_rank": 72, "tags": ["tokyo", "v3"]}}, {"type": "Feature", "bbox": [140.36243000000002, 35.628294999999994, 140.36243000000002, 35.628294999999994], "geometry": {"type": "Point", "coordinates": [140.36243000000002, 35.628294999999994]}, "properties": {"id": "PS_7D5EB1E2F511", "station_group_id": "SG_AC7DE16F81A8", "name_en": "日向", "name_ja": "日向", "label_rank": 72, "tags": ["tokyo", "v3"]}}, {"type": "Feature", "bbox": [140.30757, 35.48216, 140.30757, 35.48216], "geometry": {"type": "Point", "coordinates": [140.30757, 35.48216]}, "properties": {"id": "PS_660BFA78172A", "station_group_id": "SG_5C1943BF6666", "name_en": "本納", "name_ja": "本納", "label_rank": 72, "tags": ["tokyo", "v3"]}}, {"type": "Feature", "bbox": [140.3636, 35.560095000000004, 140.3636, 35.560095000000004], "geometry": {"type": "Point", "coordinates": [140.3636, 35.560095000000004]}, "properties": {"id": "PS_7FA04E668338", "station_group_id": "SG_9134DD218744", "name_en": "東金", "name_ja": "東金", "label_rank": 72, "tags": ["tokyo", "v3"]}}, {"type": "Feature", "bbox": [140.3112825, 35.5033425, 140.3112825, 35.5033425], "geometry": {"type": "Point", "coordinates": [140.3112825, 35.5033425]}, "properties": {"id": "PS_F5097AE255A2", "station_group_id": "SG_B25C84AEEBC5", "name_en": "永田", "name_ja": "永田", "label_rank": 72, "tags": ["tokyo", "v3"]}}, {"type": "Feature", "bbox": [140.396175, 35.579845, 140.396175, 35.579845], "geometry": {"type": "Point", "coordinates": [140.396175, 35.579845]}, "properties": {"id": "PS_2F7510190DA5", "station_group_id": "SG_78CD4BC995A2", "name_en": "求名", "name_ja": "求名", "label_rank": 72, "tags": ["tokyo", "v3"]}}, {"type": "Feature", "bbox": [140.34187500000002, 35.546165, 140.34187500000002, 35.546165], "geometry": {"type": "Point", "coordinates": [140.34187500000002, 35.546165]}, "properties": {"id": "PS_9C27CC8902C8", "station_group_id": "SG_DBF8EA54F20C", "name_en": "福俵", "name_ja": "福俵", "label_rank": 72, "tags": ["tokyo", "v3"]}}, {"type": "Feature", "bbox": [140.30407000000002, 35.42683, 140.30407000000002, 35.42683], "geometry": {"type": "Point", "coordinates": [140.30407000000002, 35.42683]}, "properties": {"id": "PS_F0264CAF3518", "station_group_id": "SG_340F7B107D09", "name_en": "茂原", "name_ja": "茂原", "label_rank": 72, "tags": ["tokyo", "v3"]}}, {"type": "Feature", "bbox": [140.213785, 35.547, 140.213785, 35.547], "geometry": {"type": "Point", "coordinates": [140.213785, 35.547]}, "properties": {"id": "PS_15BEA21CFC94", "station_group_id": "SG_D49C428F5984", "name_en": "誉田", "name_ja": "誉田", "label_rank": 72, "tags": ["tokyo", "v3"]}}, {"type": "Feature", "bbox": [140.149185, 35.63602, 140.149185, 35.63602], "geometry": {"type": "Point", "coordinates": [140.149185, 35.63602]}, "properties": {"id": "PS_461F349A1C77", "station_group_id": "SG_6E5BB6BBF2A0", "name_en": "都賀", "name_ja": "都賀", "label_rank": 72, "tags": ["tokyo", "v3"]}}, {"type": "Feature", "bbox": [140.178675, 35.5627125, 140.178675, 35.5627125], "geometry": {"type": "Point", "coordinates": [140.178675, 35.5627125]}, "properties": {"id": "PS_B0F43715BBFB", "station_group_id": "SG_89F21736CDF0", "name_en": "鎌取", "name_ja": "鎌取", "label_rank": 72, "tags": ["tokyo", "v3"]}}]}