{"type": "FeatureCollection", "features": [{"type": "Feature", "bbox": [140.365525, 35.374685, 140.365525, 35.374685], "geometry": {"type": "Point", "coordinates": [140.365525, 35.374685]}, "properties": {"id": "PS_72294C0A3928", "station_group_id": "SG_1ACC02DA7AEF", "name_en": "上総一ノ宮", "name_ja": "上総一ノ宮", "label_rank": 72, "tags": ["tokyo", "v3"]}}, {"type": "Feature", "bbox": [140.34535499999998, 35.403954999999996, 140.34535499999998, 35.403954999999996], "geometry": {"type": "Point", "coordinates": [140.34535499999998, 35.403954999999996]}, "properties": {"id": "PS_459713A087D2", "station_group_id": "SG_6643F56A4CED", "name_en": "八積", "name_ja": "八積", "label_rank": 72, "tags": ["tokyo", "v3"]}}]}