{"type": "FeatureCollection", "features": [{"type": "Feature", "bbox": [136.881105, 35.170514999999995, 136.881105, 35.170514999999995], "geometry": {"type": "Point", "coordinates": [136.881105, 35.170514999999995]}, "properties": {"id": "PS_68D6A2FB58ED", "station_group_id": "SG_FC499C231944", "operator_id": "jr_central", "operator_ids": "jr_central", "name_en": "名古屋", "name_ja": "名古屋", "label_rank": 92, "tags": ["tokyo", "v3"]}}, {"type": "Feature", "bbox": [136.88173999999998, 35.171260000000004, 136.88173999999998, 35.171260000000004], "geometry": {"type": "Point", "coordinates": [136.88173999999998, 35.171260000000004]}, "properties": {"id": "PS_59E5FC2616DE", "station_group_id": "SG_FC499C231944", "operator_id": "jr_central", "operator_ids": "jr_central", "name_en": "名古屋", "name_ja": "名古屋", "label_rank": 92, "tags": ["tokyo", "v3"]}}, {"type": "Feature", "bbox": [136.88137949999998, 35.171017, 136.88137949999998, 35.171017], "geometry": {"type": "Point", "coordinates": [136.88137949999998, 35.171017]}, "properties": {"id": "PS_787953F5664D", "station_group_id": "SG_FC499C231944", "operator_id": "jr_central", "operator_ids": "jr_central", "name_en": "名古屋", "name_ja": "名古屋", "label_rank": 92, "tags": ["tokyo", "v3"]}}, {"type": "Feature", "bbox": [136.882195, 35.171310000000005, 136.882195, 35.171310000000005], "geometry": {"type": "Point", "coordinates": [136.882195, 35.171310000000005]}, "properties": {"id": "PS_9D349856F2A8", "station_group_id": "SG_FC499C231944", "operator_id": "jr_central", "operator_ids": "jr_central", "name_en": "名古屋", "name_ja": "名古屋", "label_rank": 92, "tags": ["tokyo", "v3"]}}, {"type": "Feature", "bbox": [136.79737999999998, 35.302, 136.79737999999998, 35.302], "geometry": {"type": "Point", "coordinates": [136.79737999999998, 35.302]}, "properties": {"id": "PS_09EBAA190617", "station_group_id": "SG_B5FFCE266E59", "operator_id": "jr_central", "operator_ids": "jr_central", "name_en": "尾張一宮", "name_ja": "尾張一宮", "label_rank": 72, "tags": ["tokyo", "v3"]}}, {"type": "Feature", "bbox": [136.756525, 35.409535, 136.756525, 35.409535], "geometry": {"type": "Point", "coordinates": [136.756525, 35.409535]}, "properties": {"id": "PS_65A57B1C1A3F", "station_group_id": "SG_F71F9C2C93C3", "operator_id": "jr_central", "operator_ids": "jr_central", "name_en": "岐阜", "name_ja": "岐阜", "label_rank": 72, "tags": ["tokyo", "v3"]}}, {"type": "Feature", "bbox": [136.685755, 35.315740000000005, 136.685755, 35.315740000000005], "geometry": {"type": "Point", "coordinates": [136.685755, 35.315740000000005]}, "properties": {"id": "PS_D81791D5B7E7", "station_group_id": "SG_97FDC8E1993A", "operator_id": "jr_central", "operator_ids": "jr_central", "name_en": "岐阜羽島", "name_ja": "岐阜羽島", "label_rank": 72, "tags": ["tokyo", "v3"]}}, {"type": "Feature", "bbox": [136.78113000000002, 35.348065000000005, 136.78113000000002, 35.348065000000005], "geometry": {"type": "Point", "coordinates": [136.78113000000002, 35.348065000000005]}, "properties": {"id": "PS_4BC627391D69", "station_group_id": "SG_D581BCD12F50", "operator_id": "jr_central", "operator_ids": "jr_central", "name_en": "木曽川", "name_ja": "木曽川", "label_rank": 72, "tags": ["tokyo", "v3"]}}, {"type": "Feature", "bbox": [136.86133, 35.199635, 136.86133, 35.199635], "geometry": {"type": "Point", "coordinates": [136.86133, 35.199635]}, "properties": {"id": "PS_C0CE0A9307A9", "station_group_id": "SG_2B1EFC478E88", "operator_id": "jr_central", "operator_ids": "jr_central", "name_en": "枇杷島", "name_ja": "枇杷島", "label_rank": 72, "tags": ["tokyo", "v3"]}}, {"type": "Feature", "bbox": [136.83455, 35.22544, 136.83455, 35.22544], "geometry": {"type": "Point", "coordinates": [136.83455, 35.22544]}, "properties": {"id": "PS_D659153A1D87", "station_group_id": "SG_48D5FF41F0A5", "operator_id": "jr_central", "operator_ids": "jr_central", "name_en": "清洲", "name_ja": "清洲", "label_rank": 72, "tags": ["tokyo", "v3"]}}, {"type": "Feature", "bbox": [136.82096, 35.253035, 136.82096, 35.253035], "geometry": {"type": "Point", "coordinates": [136.82096, 35.253035]}, "properties": {"id": "PS_C22F1F3588CC", "station_group_id": "SG_FB975F8EC166", "operator_id": "jr_central", "operator_ids": "jr_central", "name_en": "稲沢", "name_ja": "稲沢", "label_rank": 72, "tags": ["tokyo", "v3"]}}, {"type": "Feature", "bbox": [136.693635, 35.396265, 136.693635, 35.396265], "geometry": {"type": "Point", "coordinates": [136.693635, 35.396265]}, "properties": {"id": "PS_7DC9A38A0D2A", "station_group_id": "SG_6F14F8DDB436", "operator_id": "jr_central", "operator_ids": "jr_central", "name_en": "穂積", "name_ja": "穂積", "label_rank": 72, "tags": ["tokyo", "v3"]}}, {"type": "Feature", "bbox": [136.72325999999998, 35.404525, 136.72325999999998, 35.404525], "geometry": {"type": "Point", "coordinates": [136.72325999999998, 35.404525]}, "properties": {"id": "PS_8854EE7BB72D", "station_group_id": "SG_4B51F844D16D", "operator_id": "jr_central", "operator_ids": "jr_central", "name_en": "西岐阜", "name_ja": "西岐阜", "label_rank": 72, "tags": ["tokyo", "v3"]}}]}