{"type": "FeatureCollection", "features": [{"type": "Feature", "bbox": [136.530955, 35.369585, 136.530955, 35.369585], "geometry": {"type": "Point", "coordinates": [136.530955, 35.369585]}, "properties": {"id": "PS_F3FE4DB509D5", "station_group_id": "SG_CE627C82C923", "name_en": "垂井", "name_ja": "垂井", "label_rank": 72, "tags": ["tokyo", "v3"]}}, {"type": "Feature", "bbox": [136.618265, 35.367104999999995, 136.618265, 35.367104999999995], "geometry": {"type": "Point", "coordinates": [136.618265, 35.367104999999995]}, "properties": {"id": "PS_BCCEB5BB2A8B", "station_group_id": "SG_3F823ED7169E", "name_en": "大垣", "name_ja": "大垣", "label_rank": 72, "tags": ["tokyo", "v3"]}}, {"type": "Feature", "bbox": [136.40232500000002, 35.344595, 136.40232500000002, 35.344595], "geometry": {"type": "Point", "coordinates": [136.40232500000002, 35.344595]}, "properties": {"id": "PS_A4D8E534BBA7", "station_group_id": "SG_273B8C3C9221", "name_en": "柏原", "name_ja": "柏原", "label_rank": 72, "tags": ["tokyo", "v3"]}}, {"type": "Feature", "bbox": [136.582195, 35.386605, 136.582195, 35.386605], "geometry": {"type": "Point", "coordinates": [136.582195, 35.386605]}, "properties": {"id": "PS_2F6DB75F4981", "station_group_id": "SG_2E001FD4ED8B", "name_en": "美濃赤坂", "name_ja": "美濃赤坂", "label_rank": 72, "tags": ["tokyo", "v3"]}}, {"type": "Feature", "bbox": [136.58337, 35.37346, 136.58337, 35.37346], "geometry": {"type": "Point", "coordinates": [136.58337, 35.37346]}, "properties": {"id": "PS_1903BBC6700A", "station_group_id": "SG_734744E7EEEF", "name_en": "荒尾", "name_ja": "荒尾", "label_rank": 72, "tags": ["tokyo", "v3"]}}, {"type": "Feature", "bbox": [136.47052000000002, 35.363755, 136.47052000000002, 35.363755], "geometry": {"type": "Point", "coordinates": [136.47052000000002, 35.363755]}, "properties": {"id": "PS_D31549430045", "station_group_id": "SG_0F15F093C131", "name_en": "関ヶ原", "name_ja": "関ヶ原", "label_rank": 72, "tags": ["tokyo", "v3"]}}]}