{"type": "FeatureCollection", "features": [{"type": "Feature", "bbox": [132.475215, 34.39843, 132.475215, 34.39843], "geometry": {"type": "Point", "coordinates": [132.475215, 34.39843]}, "properties": {"id": "PS_9AA66BD30390", "station_group_id": "SG_6600A62F1A19", "name_en": "広島", "name_ja": "広島", "label_rank": 72, "tags": ["tokyo", "v3"]}}, {"type": "Feature", "bbox": [132.149695, 34.16485, 132.149695, 34.16485], "geometry": {"type": "Point", "coordinates": [132.149695, 34.16485]}, "properties": {"id": "PS_51A160771A65", "station_group_id": "SG_EF63929DE087", "name_en": "新岩国", "name_ja": "新岩国", "label_rank": 72, "tags": ["tokyo", "v3"]}}]}