{"type": "FeatureCollection", "features": [{"type": "Feature", "bbox": [129.94587869836437, 32.93379646851332, 129.99895971448825, 33.105783910033665], "geometry": {"type": "LineString", "coordinates": [[129.9567052459421, 32.93379646851332], [129.95439716876626, 32.938055703714156], [129.95208909159032, 32.94224355508487], [129.94929084544708, 32.9473118070278], [129.94847706978317, 32.94911067954848], [129.94807732033394, 32.950110053171045], [129.94744914262856, 32.9518089883295], [129.94686379522102, 32.953550753785976], [129.94667819726237, 32.95435025268398], [129.94647832253793, 32.95537817983859], [129.9462356175153, 32.95673447261197], [129.94609284985495, 32.95780523006482], [129.94596435896062, 32.95911869254013], [129.9458929751304, 32.96030366412106], [129.94587869836437, 32.96158857306443], [129.94597863572676, 32.96345882941529], [129.94616423368518, 32.965329085765916], [129.94643549223986, 32.96692808356215], [129.94679241139067, 32.96859846518839], [129.94712077700956, 32.96981199030154], [129.94756335675686, 32.9712967739693], [129.94829147182463, 32.973124200022085], [129.94891964953024, 32.97460898368979], [129.94973342519438, 32.976179427953866], [129.95076135234888, 32.97797830047449], [129.9521319218884, 32.98033396687049], [129.9539450711751, 32.98336064127011], [129.95578677399374, 32.98647297626627], [129.95652916582765, 32.98782926903965], [129.95718589706541, 32.98909990121689], [129.95792828889932, 32.99077028284313], [129.95857074337096, 32.99246921800159], [129.95917036754452, 32.99426809052221], [129.9596557775899, 32.996323944831374], [129.96004125027264, 32.99830841531053], [129.96022684823117, 33.0001929484273], [129.96032678559357, 33.00193471388377], [129.9603410623596, 33.00324817635908], [129.96031250882743, 33.00434748734392], [129.96019829469913, 33.00564667305332], [129.95999841997457, 33.007245670849386], [129.9596700543558, 33.00898743630586], [129.95917036754452, 33.01110039767917], [129.95842797571072, 33.013641662033706], [129.95761420004658, 33.016268586984495], [129.95680042438244, 33.018981172531426], [129.9561579699108, 33.020994196542574], [129.95458752564696, 33.026133832315736], [129.95341683083188, 33.02998855914558], [129.95298852785072, 33.031815985198364], [129.9527458228281, 33.03295812648122], [129.95258877840172, 33.033857562741446], [129.95238890367716, 33.03525668581307], [129.95228896631488, 33.03674146948083], [129.95220330571863, 33.03809776225438], [129.9522461360168, 33.039553992390154], [129.95230324308102, 33.04088173163154], [129.95247456427342, 33.04282337181246], [129.9526316086998, 33.043908406031164], [129.95293142078663, 33.0456216179557], [129.95333117023563, 33.04719206221955], [129.95373091968463, 33.048619738823334], [129.95441620445433, 33.05048999517402], [129.9549587215638, 33.05180345764933], [129.9556440063335, 33.05325968778527], [129.9564435052315, 33.054830132049176], [129.9576284768125, 33.056800325762254], [129.9588705554578, 33.05861347504896], [129.96002697350673, 33.060083981950584], [129.9611976683218, 33.061468828256125], [129.96249685403097, 33.062839397795585], [129.96416723565721, 33.06448122588989], [129.96553780519673, 33.0656804742369], [129.9670511423966, 33.06687972258413], [129.96832177457384, 33.06785054267459], [129.97022058445668, 33.06923538898013], [129.9721051175735, 33.07059168175351], [129.97520317580347, 33.07286168755337], [129.97695921802608, 33.07416087326277], [129.98024287421447, 33.07657364672292], [129.98471150198384, 33.07985730291131], [129.98686729365534, 33.08159906836778], [129.98886604090046, 33.083426494420394], [129.98982258422495, 33.084482975107164], [129.991050386104, 33.085824991114634], [129.9920640364927, 33.08706706975971], [129.9928492586248, 33.08816638074455], [129.9935488201604, 33.089180031133026], [129.99441970288865, 33.090550600672714], [129.9952334785528, 33.09197827727627], [129.99607580774887, 33.09366293566865], [129.9968181995829, 33.0954189778912], [129.99738927022418, 33.096975145389024], [129.99791751056773, 33.09873118761158], [129.99821732265434, 33.099944712724664], [129.99848858120902, 33.101358112562366], [129.99867417916766, 33.1024859770792], [129.99883122359404, 33.103685225426204], [129.99890260742404, 33.10488447377321], [129.99895971448825, 33.105783910033665]]}, "properties": {"id": "GEOM_TOKYO_4138", "route_id": "R_04ADEAE1", "route_name": null, "route_color": "#7C4DFF", "route_text_color": null, "line_name": "西九州新幹線", "operator_id": "九州旅客鉄道", "representation": "service_path", "min_zoom": 0, "max_zoom": 24, "offset_rank": 0}}, {"type": "Feature", "bbox": [129.99894543772234, 33.105783910033665, 129.99895971448825, 33.107425738127915], "geometry": {"type": "LineString", "coordinates": [[129.99895971448825, 33.105783910033665], [129.99894543772234, 33.107425738127915]]}, "properties": {"id": "GEOM_TOKYO_4139", "route_id": "R_04ADEAE1", "route_name": null, "route_color": "#7C4DFF", "route_text_color": null, "line_name": "西九州新幹線", "operator_id": "九州旅客鉄道", "representation": "service_path", "min_zoom": 0, "max_zoom": 24, "offset_rank": 0}}, {"type": "Feature", "bbox": [129.99345983881472, 33.107425738127915, 130.0222417991415, 33.19574694693313], "geometry": {"type": "LineString", "coordinates": [[129.99894543772234, 33.107425738127915], [129.9989123737097, 33.108521855111405], [129.9988124363474, 33.10979248728847], [129.99871249898524, 33.11082041444291], [129.99854117779262, 33.11193400219361], [129.99808551101012, 33.11395059539609], [129.9970195124796, 33.118233625206756], [129.99578219275645, 33.12282122602596], [129.99524919349108, 33.12504840152741], [129.99483040835423, 33.12678064913962], [129.99458294440944, 33.12822736143124], [129.99435451615307, 33.129674073722754], [129.99418319496056, 33.1311969287666], [129.9940499451443, 33.132738819498286], [129.99395476670395, 33.133995174909444], [129.99368826707132, 33.139896238203846], [129.99357405294302, 33.14309423379575], [129.99345983881472, 33.1457211587462], [129.99345983881472, 33.14770087030303], [129.99345983881472, 33.14910951121857], [129.993535981567, 33.15087983020686], [129.99363116000723, 33.152402685250536], [129.99384055257576, 33.15419203992701], [129.99414512358453, 33.15626692992407], [129.9946210157857, 33.158456034049436], [129.99521112211517, 33.160816459367254], [129.99585833550861, 33.16285327798818], [129.99677204853492, 33.165270810370316], [129.99766672587305, 33.16738377174346], [129.99877079577982, 33.16966805430906], [130.00057918614425, 33.172961228341194], [130.00261600476517, 33.176673187510175], [130.00497643008316, 33.18086103888061], [130.00646121375064, 33.1835069995189], [130.007355891089, 33.1849156404345], [130.00823153273916, 33.18603874602934], [130.0096782450306, 33.18765677951325], [130.01074424356113, 33.1886847066678], [130.01192445622019, 33.18971263382224], [130.0135615253921, 33.190911882169246], [130.01506534474788, 33.19184463088345], [130.01997655226398, 33.19450962720998], [130.0222417991415, 33.19574694693313]]}, "properties": {"id": "GEOM_TOKYO_4140", "route_id": "R_04ADEAE1", "route_name": null, "route_color": "#7C4DFF", "route_text_color": null, "line_name": "西九州新幹線", "operator_id": "九州旅客鉄道", "representation": "service_path", "min_zoom": 0, "max_zoom": 24, "offset_rank": 0}}, {"type": "Feature", "bbox": [130.0222417991415, 33.19574694693313, 130.02391693968968, 33.196679695647276], "geometry": {"type": "LineString", "coordinates": [[130.0222417991415, 33.19574694693313], [130.02391693968968, 33.196679695647276]]}, "properties": {"id": "GEOM_TOKYO_4141", "route_id": "R_04ADEAE1", "route_name": null, "route_color": "#7C4DFF", "route_text_color": null, "line_name": "西九州新幹線", "operator_id": "九州旅客鉄道", "representation": "service_path", "min_zoom": 0, "max_zoom": 24, "offset_rank": 0}}]}