{"type": "FeatureCollection", "features": [{"type": "Feature", "bbox": [138.83881, 37.16949, 138.92387, 37.44585], "geometry": {"type": "LineString", "coordinates": [[138.92294, 37.16949], [138.92295, 37.16971], [138.9231, 37.17151], [138.92329, 37.17374], [138.92357, 37.17687], [138.92358, 37.17696], [138.92362, 37.17741], [138.92363, 37.17753], [138.92369, 37.1786], [138.92385, 37.18101], [138.92387, 37.18258], [138.92385, 37.18334], [138.92383, 37.18423], [138.92383, 37.18424], [138.92376, 37.18585], [138.92367, 37.18713], [138.92354, 37.18826], [138.92345, 37.18895], [138.92329, 37.18985], [138.92298, 37.19123], [138.92267, 37.19253], [138.92247, 37.19317], [138.92242, 37.19332], [138.92213, 37.19429], [138.92184, 37.19515], [138.92152, 37.19601], [138.92114, 37.1969], [138.9207, 37.19783], [138.92026, 37.19869], [138.91978, 37.19955], [138.91889, 37.20098], [138.91852, 37.20156], [138.91792, 37.20249], [138.91698, 37.20395], [138.916, 37.20548], [138.91413, 37.20834], [138.91253, 37.21086], [138.91184, 37.21194], [138.91057, 37.21392], [138.90922, 37.21603], [138.90769, 37.2184], [138.90671, 37.21993], [138.90563, 37.22161], [138.90538, 37.22198], [138.9046, 37.22319], [138.9035, 37.22492], [138.90154, 37.2279], [138.9011, 37.22864], [138.8997, 37.23085], [138.89945, 37.23124], [138.89928, 37.23145], [138.89885, 37.23216], [138.8986, 37.23255], [138.89775, 37.23384], [138.89716, 37.23479], [138.89671, 37.23548], [138.89582, 37.23684], [138.89432, 37.23918], [138.89344, 37.24053], [138.89318, 37.24093], [138.89213, 37.24255], [138.89131, 37.2438], [138.89029, 37.24542], [138.88952, 37.24655], [138.88871, 37.24788], [138.88829, 37.24851], [138.88803, 37.2489], [138.8869, 37.25063], [138.88533, 37.25303], [138.88334, 37.25607], [138.8825, 37.25739], [138.88242, 37.25752], [138.88116, 37.25943], [138.87867, 37.26328], [138.87813, 37.26409], [138.87809, 37.26417], [138.87633, 37.26685], [138.8752, 37.26864], [138.87344, 37.27133], [138.87291, 37.27214], [138.8718, 37.27386], [138.87117, 37.27485], [138.87023, 37.27637], [138.87015, 37.2765], [138.86913, 37.27806], [138.8682, 37.27952], [138.86718, 37.28108], [138.86617, 37.2826], [138.86516, 37.28412], [138.86503, 37.28433], [138.86487, 37.28458], [138.86399, 37.28592], [138.86291, 37.28761], [138.86183, 37.28927], [138.86085, 37.29077], [138.85986, 37.2923], [138.85879, 37.29393], [138.85773, 37.29557], [138.85693, 37.2968], [138.85651, 37.29745], [138.85556, 37.29891], [138.85486, 37.3], [138.85468, 37.30028], [138.85446, 37.30061], [138.85372, 37.30176], [138.85275, 37.30319], [138.85181, 37.30467], [138.85172, 37.30482], [138.85075, 37.30626], [138.84979, 37.30776], [138.84948, 37.30824], [138.84893, 37.3091], [138.84884, 37.30924], [138.8479, 37.31073], [138.84762, 37.31111], [138.84671, 37.31253], [138.84584, 37.31386], [138.84486, 37.31538], [138.84452, 37.31589], [138.84379, 37.31707], [138.84378, 37.31708], [138.84298, 37.31841], [138.84258, 37.31913], [138.84212, 37.32012], [138.84149, 37.3217], [138.84093, 37.32312], [138.84089, 37.32324], [138.84043, 37.3247], [138.84022, 37.32559], [138.84006, 37.32626], [138.83999, 37.32644], [138.83968, 37.32785], [138.83962, 37.328], [138.83932, 37.32944], [138.83914, 37.33095], [138.8391, 37.33131], [138.83896, 37.33244], [138.83884, 37.33404], [138.83883, 37.33451], [138.83881, 37.33495], [138.83884, 37.33636], [138.83885, 37.33671], [138.8389, 37.33698], [138.83903, 37.33809], [138.83916, 37.33918], [138.83923, 37.33972], [138.8393, 37.34027], [138.83936, 37.34077], [138.83943, 37.34136], [138.83956, 37.34247], [138.83971, 37.34356], [138.83988, 37.34463], [138.84002, 37.34573], [138.84017, 37.34683], [138.84031, 37.34793], [138.84045, 37.34904], [138.84053, 37.34973], [138.84057, 37.35011], [138.84072, 37.35126], [138.84086, 37.35236], [138.84099, 37.35347], [138.84114, 37.35457], [138.84127, 37.3557], [138.84133, 37.35608], [138.84143, 37.35679], [138.84144, 37.35687], [138.84159, 37.35789], [138.84172, 37.35894], [138.84185, 37.36001], [138.84198, 37.36105], [138.84212, 37.36209], [138.84226, 37.36313], [138.8424, 37.36417], [138.84251, 37.36504], [138.84254, 37.36521], [138.84267, 37.36625], [138.8428, 37.3673], [138.84294, 37.36836], [138.84307, 37.36941], [138.84321, 37.37045], [138.84335, 37.37151], [138.84349, 37.37256], [138.84367, 37.37401], [138.84401, 37.37654], [138.84419, 37.37794], [138.84442, 37.37968], [138.84458, 37.3809], [138.84472, 37.38201], [138.84486, 37.38313], [138.84495, 37.38375], [138.84502, 37.38424], [138.84516, 37.38535], [138.84529, 37.38646], [138.84544, 37.38758], [138.84559, 37.3887], [138.84574, 37.38982], [138.84587, 37.39091], [138.846, 37.39199], [138.84609, 37.39272], [138.84613, 37.3931], [138.84625, 37.39422], [138.84636, 37.39533], [138.84648, 37.39644], [138.84659, 37.39757], [138.8467, 37.39869], [138.84682, 37.39981], [138.84694, 37.40092], [138.84702, 37.4017], [138.84705, 37.40204], [138.84717, 37.40316], [138.84728, 37.40427], [138.84738, 37.40538], [138.84747, 37.40648], [138.84758, 37.40757], [138.84769, 37.40868], [138.84779, 37.40981], [138.84787, 37.41069], [138.84789, 37.41094], [138.848, 37.41206], [138.8481, 37.41318], [138.84821, 37.41429], [138.84831, 37.41541], [138.84841, 37.41653], [138.84853, 37.41768], [138.84858, 37.41817], [138.84861, 37.41885], [138.8487, 37.41968], [138.849, 37.42254], [138.84921, 37.42452], [138.84962, 37.42854], [138.84963, 37.42866], [138.84996, 37.43169], [138.85028, 37.43486], [138.85048, 37.43682], [138.8506, 37.43764], [138.85064, 37.43794], [138.85072, 37.43849], [138.85081, 37.43907], [138.85093, 37.43965], [138.85101, 37.43998], [138.85118, 37.44056], [138.85133, 37.44105], [138.85151, 37.44157], [138.85179, 37.44226], [138.85227, 37.44344], [138.85255, 37.44417], [138.85286, 37.44496], [138.85322, 37.44585]]}, "properties": {"id": "TRACK_TOKYO_2310", "line_name": "上越新幹線", "station_group_ids": [], "mode": "shinkansen", "operator_id": "jr_east", "line_color": "#E65045", "tags": ["tokyo", "track_centerline"]}}, {"type": "Feature", "bbox": [138.85472, 37.44968, 138.93767, 37.64588], "geometry": {"type": "LineString", "coordinates": [[138.85472, 37.44968], [138.85526, 37.45104], [138.85567, 37.45207], [138.85693, 37.45532], [138.8581, 37.45828], [138.85845, 37.45915], [138.85864, 37.45963], [138.85966, 37.46227], [138.86071, 37.46498], [138.86091, 37.46541], [138.86147, 37.46689], [138.86199, 37.46822], [138.86333, 37.47164], [138.86454, 37.47473], [138.86485, 37.47552], [138.86496, 37.4758], [138.86567, 37.4776], [138.8657, 37.47769], [138.86689, 37.48064], [138.86812, 37.48379], [138.86896, 37.48597], [138.86905, 37.48618], [138.86935, 37.48694], [138.87003, 37.4887], [138.87057, 37.49009], [138.87179, 37.49316], [138.87202, 37.49373], [138.87263, 37.49522], [138.87321, 37.49666], [138.87395, 37.49853], [138.87466, 37.5002], [138.87526, 37.50172], [138.87527, 37.50175], [138.87574, 37.503], [138.8761, 37.50394], [138.87643, 37.50477], [138.87655, 37.50507], [138.87696, 37.50612], [138.87741, 37.50728], [138.87772, 37.50811], [138.87827, 37.50949], [138.87851, 37.51011], [138.87929, 37.51212], [138.87978, 37.51337], [138.88007, 37.51412], [138.88085, 37.51613], [138.88163, 37.51813], [138.88184, 37.51868], [138.88233, 37.51994], [138.8824, 37.52014], [138.88277, 37.52106], [138.88319, 37.52214], [138.88397, 37.52413], [138.8846, 37.52554], [138.88507, 37.52662], [138.88571, 37.52812], [138.88634, 37.52959], [138.88657, 37.53014], [138.8874, 37.53209], [138.88827, 37.53411], [138.88913, 37.53613], [138.88997, 37.53811], [138.88999, 37.53815], [138.89084, 37.54016], [138.8917, 37.54218], [138.89248, 37.54398], [138.89257, 37.5442], [138.89288, 37.54493], [138.89343, 37.54622], [138.89429, 37.54824], [138.89516, 37.55026], [138.89602, 37.55227], [138.89652, 37.55345], [138.89688, 37.55429], [138.89774, 37.55631], [138.89859, 37.5583], [138.89944, 37.5603], [138.90015, 37.56197], [138.90029, 37.5623], [138.90114, 37.5643], [138.90198, 37.56631], [138.90284, 37.56832], [138.9037, 37.57033], [138.90377, 37.57049], [138.90442, 37.57202], [138.90456, 37.57235], [138.90542, 37.57436], [138.90628, 37.57638], [138.90713, 37.5784], [138.90799, 37.58041], [138.90804, 37.58054], [138.90885, 37.58243], [138.90971, 37.58446], [138.91051, 37.58633], [138.91241, 37.59067], [138.9126, 37.59112], [138.91383, 37.594], [138.91596, 37.5989], [138.91627, 37.59962], [138.91787, 37.60336], [138.91857, 37.60501], [138.91976, 37.60778], [138.91992, 37.60814], [138.92099, 37.61051], [138.92286, 37.61486], [138.92364, 37.61663], [138.92382, 37.61704], [138.92524, 37.62034], [138.92567, 37.62135], [138.92616, 37.62251], [138.92625, 37.62272], [138.9274, 37.62527], [138.92789, 37.62636], [138.92842, 37.62748], [138.93025, 37.63112], [138.93032, 37.63127], [138.93167, 37.63395], [138.93248, 37.63556], [138.93322, 37.63703], [138.93328, 37.63715], [138.93407, 37.63874], [138.93473, 37.64006], [138.93486, 37.64028], [138.93599, 37.64256], [138.93767, 37.64588]]}, "properties": {"id": "TRACK_TOKYO_2311", "line_name": "上越新幹線", "station_group_ids": [], "mode": "shinkansen", "operator_id": "jr_east", "line_color": "#E65045", "tags": ["tokyo", "track_centerline"]}}, {"type": "Feature", "bbox": [138.85322, 37.44585, 138.85472, 37.44968], "geometry": {"type": "LineString", "coordinates": [[138.85472, 37.44968], [138.85322, 37.44585]]}, "properties": {"id": "TRACK_TOKYO_2314", "line_name": "上越新幹線", "station_group_ids": [], "mode": "shinkansen", "operator_id": "jr_east", "line_color": "#E65045", "tags": ["tokyo", "track_centerline"]}}]}