{"type": "FeatureCollection", "features": [{"type": "Feature", "bbox": [138.83881, 37.16949, 138.92387, 37.44585], "geometry": {"type": "LineString", "coordinates": [[138.92294, 37.16949], [138.92295, 37.16971], [138.9231, 37.17151], [138.92329, 37.17374], [138.92357, 37.17687], [138.92358, 37.17696], [138.92362, 37.17741], [138.92363, 37.17753], [138.92369, 37.1786], [138.92385, 37.18101], [138.92387, 37.18258], [138.92385, 37.18334], [138.92383, 37.18423], [138.92383, 37.18424], [138.92376, 37.18585], [138.92367, 37.18713], [138.92354, 37.18826], [138.92345, 37.18895], [138.92329, 37.18985], [138.92298, 37.19123], [138.92267, 37.19253], [138.92247, 37.19317], [138.92242, 37.19332], [138.92213, 37.19429], [138.92184, 37.19515], [138.92152, 37.19601], [138.92114, 37.1969], [138.9207, 37.19783], [138.92026, 37.19869], [138.91978, 37.19955], [138.91889, 37.20098], [138.91852, 37.20156], [138.91792, 37.20249], [138.91698, 37.20395], [138.916, 37.20548], [138.91413, 37.20834], [138.91253, 37.21086], [138.91184, 37.21194], [138.91057, 37.21392], [138.90922, 37.21603], [138.90769, 37.2184], [138.90671, 37.21993], [138.90563, 37.22161], [138.90538, 37.22198], [138.9046, 37.22319], [138.9035, 37.22492], [138.90154, 37.2279], [138.9011, 37.22864], [138.8997, 37.23085], [138.89945, 37.23124], [138.89928, 37.23145], [138.89885, 37.23216], [138.8986, 37.23255], [138.89775, 37.23384], [138.89716, 37.23479], [138.89671, 37.23548], [138.89582, 37.23684], [138.89432, 37.23918], [138.89344, 37.24053], [138.89318, 37.24093], [138.89213, 37.24255], [138.89131, 37.2438], [138.89029, 37.24542], [138.88952, 37.24655], [138.88871, 37.24788], [138.88829, 37.24851], [138.88803, 37.2489], [138.8869, 37.25063], [138.88533, 37.25303], [138.88334, 37.25607], [138.8825, 37.25739], [138.88242, 37.25752], [138.88116, 37.25943], [138.87867, 37.26328], [138.87813, 37.26409], [138.87809, 37.26417], [138.87633, 37.26685], [138.8752, 37.26864], [138.87344, 37.27133], [138.87291, 37.27214], [138.8718, 37.27386], [138.87117, 37.27485], [138.87023, 37.27637], [138.87015, 37.2765], [138.86913, 37.27806], [138.8682, 37.27952], [138.86718, 37.28108], [138.86617, 37.2826], [138.86516, 37.28412], [138.86503, 37.28433], [138.86487, 37.28458], [138.86399, 37.28592], [138.86291, 37.28761], [138.86183, 37.28927], [138.86085, 37.29077], [138.85986, 37.2923], [138.85879, 37.29393], [138.85773, 37.29557], [138.85693, 37.2968], [138.85651, 37.29745], [138.85556, 37.29891], [138.85486, 37.3], [138.85468, 37.30028], [138.85446, 37.30061], [138.85372, 37.30176], [138.85275, 37.30319], [138.85181, 37.30467], [138.85172, 37.30482], [138.85075, 37.30626], [138.84979, 37.30776], [138.84948, 37.30824], [138.84893, 37.3091], [138.84884, 37.30924], [138.8479, 37.31073], [138.84762, 37.31111], [138.84671, 37.31253], [138.84584, 37.31386], [138.84486, 37.31538], [138.84452, 37.31589], [138.84379, 37.31707], [138.84378, 37.31708], [138.84298, 37.31841], [138.84258, 37.31913], [138.84212, 37.32012], [138.84149, 37.3217], [138.84093, 37.32312], [138.84089, 37.32324], [138.84043, 37.3247], [138.84022, 37.32559], [138.84006, 37.32626], [138.83999, 37.32644], [138.83968, 37.32785], [138.83962, 37.328], [138.83932, 37.32944], [138.83914, 37.33095], [138.8391, 37.33131], [138.83896, 37.33244], [138.83884, 37.33404], [138.83883, 37.33451], [138.83881, 37.33495], [138.83884, 37.33636], [138.83885, 37.33671], [138.8389, 37.33698], [138.83903, 37.33809], [138.83916, 37.33918], [138.83923, 37.33972], [138.8393, 37.34027], [138.83936, 37.34077], [138.83943, 37.34136], [138.83956, 37.34247], [138.83971, 37.34356], [138.83988, 37.34463], [138.84002, 37.34573], [138.84017, 37.34683], [138.84031, 37.34793], [138.84045, 37.34904], [138.84053, 37.34973], [138.84057, 37.35011], [138.84072, 37.35126], [138.84086, 37.35236], [138.84099, 37.35347], [138.84114, 37.35457], [138.84127, 37.3557], [138.84133, 37.35608], [138.84143, 37.35679], [138.84144, 37.35687], [138.84159, 37.35789], [138.84172, 37.35894], [138.84185, 37.36001], [138.84198, 37.36105], [138.84212, 37.36209], [138.84226, 37.36313], [138.8424, 37.36417], [138.84251, 37.36504], [138.84254, 37.36521], [138.84267, 37.36625], [138.8428, 37.3673], [138.84294, 37.36836], [138.84307, 37.36941], [138.84321, 37.37045], [138.84335, 37.37151], [138.84349, 37.37256], [138.84367, 37.37401], [138.84401, 37.37654], [138.84419, 37.37794], [138.84442, 37.37968], [138.84458, 37.3809], [138.84472, 37.38201], [138.84486, 37.38313], [138.84495, 37.38375], [138.84502, 37.38424], [138.84516, 37.38535], [138.84529, 37.38646], [138.84544, 37.38758], [138.84559, 37.3887], [138.84574, 37.38982], [138.84587, 37.39091], [138.846, 37.39199], [138.84609, 37.39272], [138.84613, 37.3931], [138.84625, 37.39422], [138.84636, 37.39533], [138.84648, 37.39644], [138.84659, 37.39757], [138.8467, 37.39869], [138.84682, 37.39981], [138.84694, 37.40092], [138.84702, 37.4017], [138.84705, 37.40204], [138.84717, 37.40316], [138.84728, 37.40427], [138.84738, 37.40538], [138.84747, 37.40648], [138.84758, 37.40757], [138.84769, 37.40868], [138.84779, 37.40981], [138.84787, 37.41069], [138.84789, 37.41094], [138.848, 37.41206], [138.8481, 37.41318], [138.84821, 37.41429], [138.84831, 37.41541], [138.84841, 37.41653], [138.84853, 37.41768], [138.84858, 37.41817], [138.84861, 37.41885], [138.8487, 37.41968], [138.849, 37.42254], [138.84921, 37.42452], [138.84962, 37.42854], [138.84963, 37.42866], [138.84996, 37.43169], [138.85028, 37.43486], [138.85048, 37.43682], [138.8506, 37.43764], [138.85064, 37.43794], [138.85072, 37.43849], [138.85081, 37.43907], [138.85093, 37.43965], [138.85101, 37.43998], [138.85118, 37.44056], [138.85133, 37.44105], [138.85151, 37.44157], [138.85179, 37.44226], [138.85227, 37.44344], [138.85255, 37.44417], [138.85286, 37.44496], [138.85322, 37.44585]]}, "properties": {"id": "TRACK_TOKYO_2398", "line_name": "上越新幹線", "station_group_ids": [], "mode": "shinkansen", "operator_id": "jr_east", "line_color": "#E65045", "tags": ["tokyo", "track_centerline"]}}, {"type": "Feature", "bbox": [138.92253, 37.16568, 138.92294, 37.16949], "geometry": {"type": "LineString", "coordinates": [[138.92253, 37.16568], [138.92266, 37.16719], [138.92281, 37.16852], [138.92294, 37.16949]]}, "properties": {"id": "TRACK_TOKYO_2401", "line_name": "上越新幹線", "station_group_ids": [], "mode": "shinkansen", "operator_id": "jr_east", "line_color": "#E65045", "tags": ["tokyo", "track_centerline"]}}, {"type": "Feature", "bbox": [138.78768, 36.93901, 138.92253, 37.16568], "geometry": {"type": "LineString", "coordinates": [[138.80646, 36.93901], [138.80587, 36.93969], [138.80557, 36.94001], [138.80546, 36.94015], [138.80472, 36.94101], [138.804, 36.94185], [138.80362, 36.94229], [138.80274, 36.9433], [138.80249, 36.94361], [138.8022, 36.94397], [138.80178, 36.94448], [138.80138, 36.94501], [138.80112, 36.94535], [138.80059, 36.94611], [138.80026, 36.9466], [138.79956, 36.94761], [138.79884, 36.94867], [138.79764, 36.95053], [138.79716, 36.95131], [138.79637, 36.95249], [138.79561, 36.95368], [138.79516, 36.95435], [138.7946, 36.95521], [138.79452, 36.95533], [138.79393, 36.95627], [138.79331, 36.95727], [138.79277, 36.95821], [138.79212, 36.95943], [138.79141, 36.96082], [138.79074, 36.96228], [138.79023, 36.96348], [138.79009, 36.96382], [138.78961, 36.96516], [138.78902, 36.96687], [138.78874, 36.96778], [138.78857, 36.96838], [138.78842, 36.96895], [138.78839, 36.96908], [138.78836, 36.9693], [138.78826, 36.96989], [138.78809, 36.97096], [138.788, 36.9716], [138.78788, 36.97237], [138.78779, 36.97317], [138.78772, 36.97383], [138.7877, 36.97422], [138.78768, 36.97477], [138.78768, 36.97525], [138.7877, 36.97582], [138.78774, 36.97658], [138.78779, 36.97731], [138.78785, 36.9778], [138.78788, 36.97806], [138.78794, 36.97842], [138.78807, 36.97922], [138.7882, 36.97984], [138.78836, 36.9805], [138.78851, 36.98111], [138.78866, 36.98169], [138.78888, 36.98244], [138.78928, 36.98356], [138.78946, 36.98401], [138.78982, 36.98485], [138.79006, 36.98539], [138.79025, 36.98578], [138.79044, 36.98613], [138.79068, 36.98665], [138.79071, 36.98674], [138.79142, 36.9881], [138.79173, 36.98866], [138.79239, 36.98979], [138.79304, 36.99083], [138.79358, 36.99161], [138.79385, 36.99201], [138.79417, 36.99253], [138.79464, 36.9932], [138.79493, 36.99367], [138.79502, 36.99377], [138.79564, 36.99472], [138.79599, 36.99532], [138.79659, 36.99618], [138.79733, 36.99733], [138.79812, 36.99849], [138.79942, 37.00049], [138.79998, 37.00133], [138.80083, 37.00262], [138.8011, 37.00306], [138.80136, 37.00346], [138.80166, 37.0039], [138.80204, 37.00448], [138.80213, 37.00462], [138.80335, 37.00649], [138.80362, 37.0069], [138.80417, 37.00772], [138.80466, 37.00847], [138.80495, 37.00891], [138.80522, 37.00931], [138.80546, 37.00968], [138.80548, 37.00971], [138.806, 37.0105], [138.8061, 37.01064], [138.80628, 37.01091], [138.80643, 37.01114], [138.80659, 37.01138], [138.80731, 37.01246], [138.80756, 37.01283], [138.80763, 37.01294], [138.80845, 37.01415], [138.809, 37.01499], [138.80959, 37.01585], [138.81011, 37.01661], [138.81092, 37.01785], [138.81177, 37.01911], [138.81287, 37.02075], [138.81325, 37.02134], [138.81359, 37.02186], [138.81435, 37.02298], [138.81458, 37.02331], [138.81545, 37.02461], [138.81567, 37.02494], [138.81677, 37.02657], [138.8172, 37.02721], [138.81728, 37.02738], [138.81797, 37.02837], [138.81823, 37.02879], [138.81839, 37.02904], [138.81879, 37.02967], [138.81963, 37.03088], [138.82145, 37.03364], [138.82192, 37.03433], [138.82233, 37.03493], [138.82279, 37.03563], [138.82323, 37.03629], [138.82359, 37.03683], [138.82391, 37.03731], [138.82443, 37.03807], [138.82487, 37.03875], [138.82548, 37.03966], [138.82605, 37.0405], [138.82621, 37.04074], [138.82687, 37.04173], [138.82788, 37.04323], [138.82796, 37.04334], [138.82827, 37.0438], [138.82879, 37.04458], [138.82963, 37.04585], [138.82992, 37.04628], [138.83007, 37.0465], [138.83057, 37.04724], [138.83076, 37.04752], [138.8315, 37.04864], [138.83193, 37.04925], [138.8326, 37.05023], [138.83313, 37.05103], [138.83363, 37.05176], [138.8339, 37.05216], [138.83434, 37.05282], [138.83474, 37.05343], [138.83556, 37.05465], [138.83611, 37.05545], [138.83636, 37.05584], [138.83688, 37.05662], [138.83739, 37.05738], [138.83765, 37.05777], [138.83782, 37.05801], [138.83874, 37.05938], [138.83879, 37.05946], [138.83897, 37.05974], [138.83985, 37.06104], [138.84034, 37.06177], [138.8409, 37.0626], [138.8412, 37.06304], [138.84198, 37.06421], [138.84255, 37.06504], [138.84312, 37.0659], [138.84391, 37.06707], [138.84411, 37.06737], [138.84491, 37.06854], [138.84512, 37.06886], [138.84604, 37.07021], [138.84664, 37.07111], [138.8468, 37.07136], [138.84715, 37.07188], [138.84739, 37.07224], [138.84784, 37.07292], [138.84801, 37.07319], [138.84839, 37.07377], [138.84872, 37.07424], [138.84929, 37.07509], [138.84939, 37.07523], [138.85002, 37.07617], [138.85049, 37.07687], [138.85101, 37.07765], [138.85157, 37.07849], [138.85202, 37.07915], [138.85264, 37.08006], [138.85362, 37.08151], [138.85396, 37.08204], [138.85462, 37.083], [138.85473, 37.08316], [138.85519, 37.08384], [138.85592, 37.0849], [138.85666, 37.086], [138.85692, 37.08639], [138.85804, 37.08801], [138.85866, 37.08887], [138.86014, 37.09086], [138.86169, 37.09281], [138.8628, 37.09402], [138.86325, 37.09451], [138.86422, 37.09553], [138.86567, 37.0969], [138.86778, 37.09891], [138.86998, 37.10088], [138.8718, 37.10252], [138.87205, 37.10276], [138.8728, 37.10347], [138.87457, 37.10502], [138.87504, 37.10545], [138.87661, 37.10687], [138.87846, 37.10852], [138.8795, 37.10943], [138.88019, 37.11003], [138.8819, 37.11162], [138.88372, 37.11323], [138.88553, 37.11484], [138.88693, 37.11611], [138.88737, 37.11651], [138.88922, 37.11816], [138.89104, 37.11978], [138.89285, 37.1214], [138.89439, 37.12279], [138.89461, 37.12299], [138.89637, 37.12462], [138.89835, 37.12633], [138.90005, 37.12786], [138.90136, 37.12904], [138.90184, 37.12946], [138.90258, 37.13011], [138.90406, 37.13143], [138.90481, 37.13209], [138.90517, 37.13243], [138.9068, 37.13388], [138.90823, 37.13511], [138.90853, 37.13537], [138.91023, 37.13693], [138.91053, 37.13721], [138.91227, 37.13881], [138.91396, 37.14052], [138.9152, 37.1419], [138.91531, 37.14203], [138.91536, 37.1421], [138.91588, 37.14269], [138.91654, 37.14358], [138.91764, 37.14514], [138.91782, 37.14546], [138.91876, 37.14708], [138.91952, 37.14872], [138.92007, 37.15009], [138.92008, 37.15013], [138.92027, 37.15068], [138.92063, 37.15187], [138.92078, 37.15241], [138.92108, 37.15364], [138.92137, 37.15496], [138.92141, 37.15517], [138.92148, 37.15554], [138.92157, 37.15635], [138.92164, 37.15707], [138.9218, 37.15845], [138.92187, 37.15901], [138.92193, 37.15992], [138.9221, 37.16132], [138.92212, 37.16174], [138.92227, 37.16305], [138.92235, 37.16399], [138.92251, 37.16553], [138.92253, 37.16568]]}, "properties": {"id": "TRACK_TOKYO_2406", "line_name": "上越新幹線", "station_group_ids": [], "mode": "shinkansen", "operator_id": "jr_east", "line_color": "#E65045", "tags": ["tokyo", "track_centerline"]}}, {"type": "Feature", "bbox": [138.92316, 37.16859, 138.9345, 37.19118], "geometry": {"type": "LineString", "coordinates": [[138.9345, 37.19118], [138.93366, 37.19031], [138.93319, 37.18981], [138.93293, 37.18953], [138.93245, 37.18892], [138.93173, 37.18793], [138.93099, 37.18693], [138.9301, 37.18571], [138.92926, 37.18453], [138.92782, 37.18254], [138.92639, 37.18053], [138.92537, 37.17916], [138.9246, 37.17809], [138.92416, 37.17743], [138.92403, 37.17723], [138.92397, 37.17707], [138.92393, 37.17687], [138.92391, 37.17662], [138.92389, 37.17644], [138.92364, 37.17372], [138.92351, 37.17242], [138.92326, 37.16971], [138.92321, 37.16923], [138.92317, 37.16874], [138.92316, 37.16859]]}, "properties": {"id": "TRACK_TOKYO_2417", "line_name": "上越線", "station_group_ids": [], "mode": "rail", "operator_id": "jr_east", "line_color": "#00A7E3", "tags": ["tokyo", "track_centerline"]}}, {"type": "Feature", "bbox": [138.9345, 37.19118, 138.93572, 37.19233], "geometry": {"type": "LineString", "coordinates": [[138.93572, 37.19233], [138.9345, 37.19118]]}, "properties": {"id": "TRACK_TOKYO_2419", "line_name": "上越線", "station_group_ids": [], "mode": "rail", "operator_id": "jr_east", "line_color": "#00A7E3", "tags": ["tokyo", "track_centerline"]}}, {"type": "Feature", "bbox": [138.9079, 37.11896, 138.90897, 37.12093], "geometry": {"type": "LineString", "coordinates": [[138.9079, 37.11896], [138.90839, 37.11983], [138.90877, 37.12056], [138.90897, 37.12093]]}, "properties": {"id": "TRACK_TOKYO_2420", "line_name": "上越線", "station_group_ids": [], "mode": "rail", "operator_id": "jr_east", "line_color": "#00A7E3", "tags": ["tokyo", "track_centerline"]}}, {"type": "Feature", "bbox": [138.8276, 37.02862, 138.82842, 37.02888], "geometry": {"type": "LineString", "coordinates": [[138.8276, 37.02862], [138.82775, 37.02867], [138.82806, 37.02877], [138.82842, 37.02888]]}, "properties": {"id": "TRACK_TOKYO_2423", "line_name": "上越線", "station_group_ids": [], "mode": "rail", "operator_id": "jr_east", "line_color": "#00A7E3", "tags": ["tokyo", "track_centerline"]}}, {"type": "Feature", "bbox": [138.84754, 37.04119, 138.84932, 37.04178], "geometry": {"type": "LineString", "coordinates": [[138.84754, 37.04119], [138.84932, 37.04178]]}, "properties": {"id": "TRACK_TOKYO_2424", "line_name": "上越線", "station_group_ids": [], "mode": "rail", "operator_id": "jr_east", "line_color": "#00A7E3", "tags": ["tokyo", "track_centerline"]}}, {"type": "Feature", "bbox": [138.92292, 37.16615, 138.92316, 37.16859], "geometry": {"type": "LineString", "coordinates": [[138.92292, 37.16615], [138.92305, 37.16753], [138.92316, 37.16859]]}, "properties": {"id": "TRACK_TOKYO_2428", "line_name": "上越線", "station_group_ids": [], "mode": "rail", "operator_id": "jr_east", "line_color": "#00A7E3", "tags": ["tokyo", "track_centerline"]}}, {"type": "Feature", "bbox": [138.93803, 37.1945, 138.95189, 37.20978], "geometry": {"type": "LineString", "coordinates": [[138.93803, 37.1945], [138.93842, 37.19483], [138.93973, 37.19602], [138.9401, 37.19637], [138.94042, 37.19666], [138.9419, 37.19802], [138.94198, 37.19812], [138.94276, 37.19891], [138.94315, 37.19931], [138.94548, 37.20165], [138.94653, 37.20271], [138.94726, 37.20345], [138.94862, 37.20483], [138.94918, 37.20543], [138.94978, 37.20616], [138.94998, 37.20641], [138.95087, 37.20749], [138.95104, 37.20772], [138.95108, 37.20779], [138.9512, 37.20798], [138.95137, 37.20823], [138.95154, 37.20856], [138.95164, 37.20882], [138.95174, 37.20921], [138.95182, 37.20951], [138.95186, 37.20966], [138.95189, 37.20978]]}, "properties": {"id": "TRACK_TOKYO_2431", "line_name": "上越線", "station_group_ids": [], "mode": "rail", "operator_id": "jr_east", "line_color": "#00A7E3", "tags": ["tokyo", "track_centerline"]}}, {"type": "Feature", "bbox": [138.87656, 37.06779, 138.9079, 37.11896], "geometry": {"type": "LineString", "coordinates": [[138.87656, 37.06779], [138.88113, 37.07259], [138.88144, 37.07289], [138.88322, 37.07476], [138.88486, 37.07646], [138.88544, 37.07704], [138.88701, 37.07867], [138.88828, 37.07998], [138.88842, 37.08012], [138.88958, 37.08132], [138.88966, 37.08144], [138.88993, 37.0817], [138.89056, 37.08234], [138.8908, 37.08259], [138.89109, 37.0829], [138.89137, 37.08317], [138.89148, 37.08329], [138.89157, 37.08337], [138.89163, 37.08345], [138.8917, 37.08354], [138.89181, 37.08371], [138.8919, 37.08382], [138.8921, 37.08418], [138.8922, 37.08442], [138.89231, 37.08471], [138.89238, 37.08491], [138.89247, 37.08519], [138.8926, 37.08564], [138.89268, 37.08594], [138.89275, 37.08622], [138.89279, 37.08639], [138.89288, 37.08677], [138.89293, 37.08697], [138.89298, 37.08724], [138.8932, 37.08827], [138.89336, 37.08924], [138.89359, 37.09023], [138.8939, 37.09122], [138.89414, 37.09191], [138.89437, 37.09237], [138.89466, 37.09296], [138.89493, 37.0934], [138.89554, 37.09436], [138.89589, 37.09484], [138.89607, 37.09509], [138.89623, 37.09533], [138.8964, 37.09558], [138.897, 37.09644], [138.898, 37.09783], [138.89807, 37.09794], [138.89823, 37.09816], [138.89851, 37.09858], [138.89859, 37.0987], [138.89876, 37.09896], [138.89886, 37.0991], [138.8989, 37.09917], [138.89893, 37.09923], [138.89904, 37.09953], [138.89905, 37.09958], [138.89917, 37.10006], [138.8992, 37.10024], [138.89923, 37.10064], [138.89924, 37.10167], [138.89924, 37.1027], [138.8993, 37.10376], [138.89931, 37.10389], [138.89934, 37.10421], [138.8994, 37.10458], [138.89942, 37.10464], [138.89946, 37.10481], [138.8995, 37.1049], [138.89951, 37.10494], [138.89996, 37.10597], [138.9004, 37.10695], [138.90081, 37.1079], [138.90096, 37.10815], [138.90129, 37.10876], [138.9014, 37.10898], [138.90152, 37.10915], [138.90172, 37.10945], [138.90214, 37.10996], [138.9023, 37.11016], [138.90268, 37.11058], [138.90299, 37.1109], [138.90323, 37.11116], [138.90333, 37.11127], [138.90349, 37.11147], [138.90397, 37.11211], [138.90409, 37.11228], [138.90424, 37.1125], [138.90463, 37.11318], [138.90521, 37.11419], [138.90587, 37.11537], [138.90646, 37.11637], [138.90698, 37.1173], [138.90727, 37.11784], [138.90776, 37.1187], [138.9079, 37.11896]]}, "properties": {"id": "TRACK_TOKYO_2432", "line_name": "上越線", "station_group_ids": [], "mode": "rail", "operator_id": "jr_east", "line_color": "#00A7E3", "tags": ["tokyo", "track_centerline"]}}, {"type": "Feature", "bbox": [138.95189, 37.20978, 138.95698, 37.23247], "geometry": {"type": "LineString", "coordinates": [[138.9546, 37.23247], [138.95499, 37.23198], [138.95512, 37.23183], [138.9558, 37.23107], [138.956, 37.23082], [138.95601, 37.23081], [138.9564, 37.23018], [138.95664, 37.22967], [138.95683, 37.2291], [138.95695, 37.22857], [138.95698, 37.2281], [138.95697, 37.22776], [138.95687, 37.22743], [138.95669, 37.2269], [138.95625, 37.22584], [138.95595, 37.22513], [138.95587, 37.22495], [138.95542, 37.2243], [138.9553, 37.22409], [138.95517, 37.22386], [138.95505, 37.22352], [138.95476, 37.22227], [138.95465, 37.22181], [138.95394, 37.21872], [138.95311, 37.21529], [138.9527, 37.21341], [138.95231, 37.2116], [138.95189, 37.20978]]}, "properties": {"id": "TRACK_TOKYO_2435", "line_name": "上越線", "station_group_ids": [], "mode": "rail", "operator_id": "jr_east", "line_color": "#00A7E3", "tags": ["tokyo", "track_centerline"]}}, {"type": "Feature", "bbox": [138.90897, 37.12093, 138.92292, 37.16615], "geometry": {"type": "LineString", "coordinates": [[138.90897, 37.12093], [138.90921, 37.12134], [138.90963, 37.12214], [138.91039, 37.1235], [138.91097, 37.12455], [138.91163, 37.12575], [138.91228, 37.12692], [138.91257, 37.12744], [138.91292, 37.12807], [138.91365, 37.12938], [138.91423, 37.13043], [138.91446, 37.13085], [138.91455, 37.13102], [138.91484, 37.13156], [138.91488, 37.13163], [138.91502, 37.13188], [138.91512, 37.13205], [138.91523, 37.13224], [138.91555, 37.13282], [138.91621, 37.13402], [138.91677, 37.13503], [138.91686, 37.13521], [138.91756, 37.13645], [138.91781, 37.13691], [138.91821, 37.13763], [138.9191, 37.13921], [138.9198, 37.14041], [138.92018, 37.14109], [138.92034, 37.14134], [138.92042, 37.14158], [138.92051, 37.14194], [138.92056, 37.14225], [138.92059, 37.14265], [138.92066, 37.14339], [138.9207, 37.14368], [138.92071, 37.14379], [138.92075, 37.14426], [138.92078, 37.14466], [138.92081, 37.14497], [138.92089, 37.14574], [138.92091, 37.14599], [138.92093, 37.14618], [138.92095, 37.14631], [138.92109, 37.14755], [138.92117, 37.14849], [138.92118, 37.14863], [138.92121, 37.14892], [138.9213, 37.14986], [138.92143, 37.15107], [138.92155, 37.1523], [138.92166, 37.15353], [138.92172, 37.15413], [138.92174, 37.15434], [138.92178, 37.15475], [138.9219, 37.15597], [138.92202, 37.1572], [138.92211, 37.15815], [138.92214, 37.15843], [138.92214, 37.15847], [138.92226, 37.15965], [138.92237, 37.16088], [138.92252, 37.16223], [138.92265, 37.16348], [138.92282, 37.16517], [138.9229, 37.16594], [138.92292, 37.16615]]}, "properties": {"id": "TRACK_TOKYO_2438", "line_name": "上越線", "station_group_ids": [], "mode": "rail", "operator_id": "jr_east", "line_color": "#00A7E3", "tags": ["tokyo", "track_centerline"]}}, {"type": "Feature", "bbox": [138.93572, 37.19233, 138.93803, 37.1945], "geometry": {"type": "LineString", "coordinates": [[138.93572, 37.19233], [138.93701, 37.19353], [138.93803, 37.1945]]}, "properties": {"id": "TRACK_TOKYO_2440", "line_name": "上越線", "station_group_ids": [], "mode": "rail", "operator_id": "jr_east", "line_color": "#00A7E3", "tags": ["tokyo", "track_centerline"]}}, {"type": "Feature", "bbox": [138.87477, 37.06556, 138.87656, 37.06779], "geometry": {"type": "LineString", "coordinates": [[138.87656, 37.06779], [138.87638, 37.06759], [138.87593, 37.06711], [138.87564, 37.0668], [138.8754, 37.06651], [138.87526, 37.06634], [138.87512, 37.06613], [138.87499, 37.06593], [138.8749, 37.06579], [138.87483, 37.06567], [138.87477, 37.06556]]}, "properties": {"id": "TRACK_TOKYO_2441", "line_name": "上越線", "station_group_ids": [], "mode": "rail", "operator_id": "jr_east", "line_color": "#00A7E3", "tags": ["tokyo", "track_centerline"]}}, {"type": "Feature", "bbox": [138.82842, 37.02888, 138.84754, 37.04119], "geometry": {"type": "LineString", "coordinates": [[138.82842, 37.02888], [138.82906, 37.02907], [138.82935, 37.02916], [138.82989, 37.02934], [138.83045, 37.02954], [138.8308, 37.02969], [138.83129, 37.02995], [138.83158, 37.03013], [138.83179, 37.03026], [138.83191, 37.03034], [138.83213, 37.03051], [138.83307, 37.0313], [138.83389, 37.03197], [138.8353, 37.03315], [138.83603, 37.03376], [138.83737, 37.0349], [138.83758, 37.03507], [138.83941, 37.03662], [138.84014, 37.03722], [138.84089, 37.03786], [138.84159, 37.03845], [138.84186, 37.03867], [138.84211, 37.03885], [138.84235, 37.03902], [138.84257, 37.03917], [138.84307, 37.03949], [138.84335, 37.03965], [138.84406, 37.03998], [138.84455, 37.04019], [138.84513, 37.04042], [138.84553, 37.04056], [138.84592, 37.0407], [138.84638, 37.04085], [138.84688, 37.041], [138.84754, 37.04119]]}, "properties": {"id": "TRACK_TOKYO_2444", "line_name": "上越線", "station_group_ids": [], "mode": "rail", "operator_id": "jr_east", "line_color": "#00A7E3", "tags": ["tokyo", "track_centerline"]}}, {"type": "Feature", "bbox": [138.84932, 37.04178, 138.87477, 37.06556], "geometry": {"type": "LineString", "coordinates": [[138.84932, 37.04178], [138.8494, 37.04183], [138.85083, 37.04224], [138.85148, 37.04248], [138.85192, 37.04265], [138.85236, 37.04282], [138.85259, 37.04293], [138.85283, 37.04303], [138.85306, 37.04316], [138.85326, 37.04327], [138.85367, 37.04348], [138.854, 37.04369], [138.85431, 37.04388], [138.85464, 37.04409], [138.85485, 37.04423], [138.85513, 37.04443], [138.85541, 37.04463], [138.85566, 37.04481], [138.85599, 37.04507], [138.85675, 37.04563], [138.85697, 37.04578], [138.85799, 37.04652], [138.85965, 37.04775], [138.86051, 37.04839], [138.86165, 37.04924], [138.86236, 37.04978], [138.86391, 37.05096], [138.86494, 37.05173], [138.86603, 37.05256], [138.8668, 37.05314], [138.86742, 37.05361], [138.86779, 37.05393], [138.86791, 37.05404], [138.86801, 37.05415], [138.86808, 37.05425], [138.86818, 37.05442], [138.86836, 37.0547], [138.86845, 37.05486], [138.86859, 37.0551], [138.86869, 37.05525], [138.8691, 37.05595], [138.87002, 37.05751], [138.8711, 37.05933], [138.8716, 37.06019], [138.8718, 37.06055], [138.87205, 37.06101], [138.87259, 37.06192], [138.87306, 37.0627], [138.87322, 37.06297], [138.87343, 37.0633], [138.8736, 37.0636], [138.87376, 37.06387], [138.87393, 37.06413], [138.87405, 37.06433], [138.87436, 37.06487], [138.87464, 37.0653], [138.87477, 37.06556]]}, "properties": {"id": "TRACK_TOKYO_2449", "line_name": "上越線", "station_group_ids": [], "mode": "rail", "operator_id": "jr_east", "line_color": "#00A7E3", "tags": ["tokyo", "track_centerline"]}}, {"type": "Feature", "bbox": [138.93803, 37.1945, 138.95189, 37.20978], "geometry": {"type": "LineString", "coordinates": [[138.93803, 37.1945], [138.93829, 37.19483], [138.93935, 37.19595], [138.93944, 37.19605], [138.9398, 37.19644], [138.94018, 37.19684], [138.94098, 37.19766], [138.94103, 37.19771], [138.94214, 37.19893], [138.94277, 37.19962], [138.94489, 37.20192], [138.94555, 37.20266], [138.94626, 37.20341], [138.94765, 37.20486], [138.94935, 37.20664], [138.94949, 37.20679], [138.95002, 37.20735], [138.95066, 37.20807], [138.95086, 37.20826], [138.95093, 37.20833], [138.95098, 37.2084], [138.95108, 37.20853], [138.9512, 37.20866], [138.95132, 37.20884], [138.95148, 37.20908], [138.9516, 37.20927], [138.95177, 37.20955], [138.95186, 37.20972], [138.95189, 37.20978]]}, "properties": {"id": "TRACK_TOKYO_2451", "line_name": "上越線", "station_group_ids": [], "mode": "rail", "operator_id": "jr_east", "line_color": "#00A7E3", "tags": ["tokyo", "track_centerline"]}}, {"type": "Feature", "bbox": [138.82163, 37.02177, 138.8276, 37.02862], "geometry": {"type": "LineString", "coordinates": [[138.82163, 37.02177], [138.82205, 37.02251], [138.82235, 37.02305], [138.8231, 37.02441], [138.82331, 37.02477], [138.82361, 37.02535], [138.82412, 37.02619], [138.82428, 37.02643], [138.82447, 37.02666], [138.82465, 37.02687], [138.82481, 37.02701], [138.82501, 37.02719], [138.82518, 37.02735], [138.82538, 37.0275], [138.82561, 37.02768], [138.82584, 37.02783], [138.82608, 37.02797], [138.82634, 37.02812], [138.82656, 37.02824], [138.82678, 37.02832], [138.82697, 37.0284], [138.82726, 37.02851], [138.82747, 37.02859], [138.8276, 37.02862]]}, "properties": {"id": "TRACK_TOKYO_2457", "line_name": "上越線", "station_group_ids": [], "mode": "rail", "operator_id": "jr_east", "line_color": "#00A7E3", "tags": ["tokyo", "track_centerline"]}}, {"type": "Feature", "bbox": [138.82103, 37.02069, 138.82163, 37.02177], "geometry": {"type": "LineString", "coordinates": [[138.82103, 37.02069], [138.82163, 37.02177]]}, "properties": {"id": "TRACK_TOKYO_2477", "line_name": "上越線", "station_group_ids": [], "mode": "rail", "operator_id": "jr_east", "line_color": "#00A7E3", "tags": ["tokyo", "track_centerline"]}}, {"type": "Feature", "bbox": [138.80428, 36.99008, 138.82103, 37.02069], "geometry": {"type": "LineString", "coordinates": [[138.80428, 36.99008], [138.8044, 36.99133], [138.80454, 36.99235], [138.80471, 36.9934], [138.80496, 36.99462], [138.80514, 36.99545], [138.80518, 36.99568], [138.80533, 36.99649], [138.80562, 36.99779], [138.80596, 36.99954], [138.80619, 37.00061], [138.80644, 37.00119], [138.80679, 37.00184], [138.80751, 37.00306], [138.80756, 37.00312], [138.80767, 37.00326], [138.80817, 37.00389], [138.80864, 37.00448], [138.80912, 37.00506], [138.80998, 37.00618], [138.81019, 37.00646], [138.81038, 37.00672], [138.81053, 37.00694], [138.8107, 37.0072], [138.81081, 37.00737], [138.81091, 37.00752], [138.81106, 37.00776], [138.81114, 37.00792], [138.81124, 37.00811], [138.81136, 37.00832], [138.81146, 37.00853], [138.81171, 37.00914], [138.81183, 37.00948], [138.81194, 37.0097], [138.81206, 37.00995], [138.81215, 37.01014], [138.81229, 37.01034], [138.81242, 37.01053], [138.81253, 37.0107], [138.81267, 37.01088], [138.81277, 37.01103], [138.81278, 37.01105], [138.81289, 37.01118], [138.81316, 37.01149], [138.8133, 37.01167], [138.81343, 37.01186], [138.81354, 37.01203], [138.81365, 37.01219], [138.81381, 37.01247], [138.81396, 37.01272], [138.81414, 37.01301], [138.81434, 37.01332], [138.81453, 37.01356], [138.81468, 37.01375], [138.81482, 37.01391], [138.81498, 37.0141], [138.81524, 37.01438], [138.81538, 37.01456], [138.81575, 37.01493], [138.81603, 37.01522], [138.81637, 37.01549], [138.81659, 37.01567], [138.81683, 37.01587], [138.81758, 37.01652], [138.81873, 37.01749], [138.81896, 37.0177], [138.81917, 37.0179], [138.81943, 37.01817], [138.81953, 37.01827], [138.81961, 37.01836], [138.81971, 37.01848], [138.81981, 37.0186], [138.81992, 37.01877], [138.82002, 37.0189], [138.82011, 37.01906], [138.82033, 37.01948], [138.82103, 37.02069]]}, "properties": {"id": "TRACK_TOKYO_2483", "line_name": "上越線", "station_group_ids": [], "mode": "rail", "operator_id": "jr_east", "line_color": "#00A7E3", "tags": ["tokyo", "track_centerline"]}}, {"type": "Feature", "bbox": [138.80408, 36.98777, 138.80428, 36.99008], "geometry": {"type": "LineString", "coordinates": [[138.80408, 36.98777], [138.80428, 36.99008]]}, "properties": {"id": "TRACK_TOKYO_2489", "line_name": "上越線", "station_group_ids": [], "mode": "rail", "operator_id": "jr_east", "line_color": "#00A7E3", "tags": ["tokyo", "track_centerline"]}}, {"type": "Feature", "bbox": [138.80038, 36.97909, 138.80408, 36.98777], "geometry": {"type": "LineString", "coordinates": [[138.80408, 36.98777], [138.80396, 36.98652], [138.80395, 36.9864], [138.80388, 36.98589], [138.80381, 36.98562], [138.80369, 36.98525], [138.80355, 36.98491], [138.80345, 36.9847], [138.80293, 36.98406], [138.80225, 36.98344], [138.80155, 36.9829], [138.80127, 36.98266], [138.80102, 36.98236], [138.80075, 36.9819], [138.80054, 36.98135], [138.80041, 36.98083], [138.80038, 36.98033], [138.80052, 36.97967], [138.80077, 36.97909]]}, "properties": {"id": "TRACK_TOKYO_2530", "line_name": "上越線", "station_group_ids": [], "mode": "rail", "operator_id": "jr_east", "line_color": "#00A7E3", "tags": ["tokyo", "track_centerline"]}}, {"type": "Feature", "bbox": [138.80077, 36.97473, 138.80111, 36.97909], "geometry": {"type": "LineString", "coordinates": [[138.80088, 36.97473], [138.80094, 36.97517], [138.801, 36.97557], [138.80107, 36.97612], [138.80111, 36.97637], [138.80111, 36.97654], [138.80111, 36.97686], [138.80092, 36.97818], [138.80084, 36.97858], [138.80077, 36.97909]]}, "properties": {"id": "TRACK_TOKYO_2531", "line_name": "上越線", "station_group_ids": [], "mode": "rail", "operator_id": "jr_east", "line_color": "#00A7E3", "tags": ["tokyo", "track_centerline"]}}, {"type": "Feature", "bbox": [138.80077, 36.97473, 138.80144, 36.97909], "geometry": {"type": "LineString", "coordinates": [[138.80077, 36.97909], [138.80095, 36.97864], [138.80126, 36.97794], [138.80135, 36.97754], [138.80139, 36.97716], [138.80144, 36.97672], [138.80144, 36.97653], [138.80135, 36.9761], [138.80096, 36.97504], [138.80088, 36.97473]]}, "properties": {"id": "TRACK_TOKYO_2532", "line_name": "上越線", "station_group_ids": [], "mode": "rail", "operator_id": "jr_east", "line_color": "#00A7E3", "tags": ["tokyo", "track_centerline"]}}, {"type": "Feature", "bbox": [138.79937, 36.93711, 138.80863, 36.97473], "geometry": {"type": "LineString", "coordinates": [[138.80088, 36.97473], [138.80083, 36.97452], [138.80077, 36.97422], [138.80076, 36.97399], [138.80081, 36.97362], [138.80089, 36.97335], [138.80117, 36.97277], [138.80168, 36.97204], [138.80191, 36.97176], [138.80235, 36.9712], [138.80268, 36.97071], [138.80293, 36.97008], [138.80301, 36.96968], [138.80305, 36.96902], [138.80295, 36.96854], [138.8027, 36.96782], [138.80236, 36.96691], [138.80226, 36.96649], [138.80228, 36.96609], [138.80242, 36.96533], [138.8026, 36.96444], [138.80265, 36.9642], [138.80271, 36.96369], [138.80256, 36.96298], [138.80248, 36.96278], [138.80234, 36.96245], [138.80213, 36.96212], [138.80185, 36.96171], [138.80163, 36.96139], [138.80147, 36.96116], [138.801, 36.96047], [138.80077, 36.9601], [138.8002, 36.95911], [138.80007, 36.95884], [138.7999, 36.95853], [138.79976, 36.95827], [138.79965, 36.95809], [138.79952, 36.95779], [138.79941, 36.95746], [138.79938, 36.95717], [138.79937, 36.95686], [138.7994, 36.95656], [138.79949, 36.95552], [138.79958, 36.95455], [138.79967, 36.95355], [138.79969, 36.9533], [138.79976, 36.9528], [138.79997, 36.95224], [138.80015, 36.95189], [138.8002, 36.9518], [138.8003, 36.95163], [138.80063, 36.95121], [138.80112, 36.95066], [138.80164, 36.94996], [138.80193, 36.94936], [138.80202, 36.94904], [138.80208, 36.94862], [138.80208, 36.94839], [138.802, 36.94789], [138.80182, 36.94697], [138.80175, 36.94653], [138.8017, 36.9462], [138.80175, 36.94567], [138.80184, 36.94516], [138.80187, 36.94502], [138.80197, 36.94474], [138.80213, 36.94448], [138.80231, 36.94425], [138.80256, 36.94398], [138.80301, 36.94355], [138.80373, 36.94285], [138.80469, 36.94191], [138.80505, 36.94156], [138.80543, 36.94114], [138.8058, 36.94067], [138.8062, 36.94001], [138.80656, 36.93948], [138.80682, 36.93912], [138.807, 36.93887], [138.80774, 36.93796], [138.80826, 36.93741], [138.80863, 36.93711]]}, "properties": {"id": "TRACK_TOKYO_2533", "line_name": "上越線", "station_group_ids": [], "mode": "rail", "operator_id": "jr_east", "line_color": "#00A7E3", "tags": ["tokyo", "track_centerline"]}}]}