{"type": "FeatureCollection", "features": [{"type": "Feature", "bbox": [138.96582, 36.3548, 138.99996, 36.6856], "geometry": {"type": "LineString", "coordinates": [[138.99996, 36.3548], [138.99878, 36.3564], [138.99827, 36.35718], [138.99794, 36.35774], [138.99785, 36.35787], [138.99757, 36.35832], [138.99728, 36.3588], [138.99681, 36.35957], [138.99667, 36.35976], [138.9966, 36.35989], [138.99648, 36.36008], [138.99637, 36.36031], [138.99626, 36.3605], [138.99617, 36.36069], [138.99604, 36.36093], [138.99587, 36.36129], [138.99573, 36.36159], [138.99564, 36.36178], [138.99558, 36.36192], [138.99541, 36.36229], [138.99533, 36.36247], [138.99527, 36.36265], [138.99518, 36.36286], [138.99513, 36.36298], [138.99499, 36.36332], [138.99483, 36.36375], [138.99475, 36.36397], [138.9946, 36.36439], [138.99451, 36.36465], [138.99435, 36.36509], [138.99423, 36.36547], [138.99408, 36.36597], [138.99398, 36.36631], [138.99388, 36.36667], [138.99373, 36.36727], [138.99364, 36.36769], [138.99355, 36.36812], [138.99347, 36.36853], [138.99339, 36.36895], [138.99325, 36.36974], [138.99312, 36.37047], [138.99304, 36.37097], [138.99295, 36.3716], [138.99294, 36.37167], [138.99289, 36.37197], [138.9928, 36.37255], [138.99276, 36.37282], [138.99269, 36.37333], [138.99262, 36.37369], [138.99256, 36.3741], [138.99249, 36.37456], [138.99242, 36.37507], [138.99233, 36.37558], [138.99227, 36.37598], [138.99217, 36.37668], [138.99206, 36.37745], [138.992, 36.37789], [138.9919, 36.37847], [138.99181, 36.37907], [138.99172, 36.37967], [138.99167, 36.38003], [138.99161, 36.38045], [138.99158, 36.38062], [138.99154, 36.38086], [138.99145, 36.38147], [138.99134, 36.38215], [138.99128, 36.38266], [138.99122, 36.3831], [138.99114, 36.38355], [138.99112, 36.38372], [138.99104, 36.38424], [138.991, 36.38452], [138.99094, 36.3849], [138.99089, 36.38519], [138.99083, 36.38558], [138.99079, 36.38585], [138.99074, 36.38622], [138.99067, 36.3866], [138.99064, 36.38679], [138.9906, 36.38711], [138.99049, 36.38778], [138.99043, 36.38816], [138.99033, 36.38894], [138.99019, 36.38977], [138.99013, 36.39015], [138.99003, 36.39088], [138.98997, 36.3913], [138.98979, 36.39247], [138.98975, 36.39274], [138.98972, 36.39294], [138.98968, 36.39322], [138.98948, 36.39457], [138.98942, 36.39494], [138.98937, 36.39522], [138.98931, 36.39556], [138.98924, 36.39606], [138.98917, 36.39658], [138.98905, 36.39734], [138.98895, 36.3978], [138.98889, 36.39834], [138.98884, 36.39872], [138.98871, 36.39963], [138.98864, 36.40005], [138.98857, 36.40051], [138.98825, 36.40261], [138.98797, 36.4044], [138.98774, 36.4059], [138.98762, 36.40676], [138.98756, 36.40712], [138.9875, 36.40757], [138.98749, 36.40767], [138.98745, 36.4079], [138.98733, 36.40859], [138.98709, 36.41025], [138.98701, 36.41077], [138.98694, 36.41122], [138.9869, 36.41152], [138.9868, 36.41211], [138.98673, 36.41252], [138.98652, 36.41392], [138.98645, 36.41438], [138.9864, 36.41474], [138.98632, 36.41522], [138.98611, 36.41656], [138.98611, 36.41661], [138.98608, 36.41679], [138.98602, 36.41726], [138.98593, 36.4178], [138.98585, 36.41827], [138.9858, 36.41858], [138.98568, 36.41932], [138.98564, 36.4198], [138.98547, 36.42092], [138.98535, 36.42181], [138.98508, 36.42359], [138.98493, 36.42435], [138.9848, 36.42528], [138.98476, 36.42556], [138.98468, 36.42609], [138.98467, 36.42613], [138.98462, 36.4265], [138.98443, 36.4279], [138.98431, 36.42864], [138.98417, 36.42963], [138.9841, 36.4301], [138.98381, 36.43184], [138.98354, 36.43369], [138.98343, 36.4344], [138.98314, 36.43636], [138.98295, 36.43758], [138.98279, 36.43858], [138.98275, 36.43887], [138.9826, 36.4398], [138.98235, 36.44147], [138.9822, 36.44243], [138.98195, 36.44429], [138.98189, 36.44464], [138.98151, 36.4473], [138.98148, 36.44753], [138.98133, 36.44847], [138.98107, 36.45004], [138.98098, 36.45066], [138.98066, 36.45269], [138.98054, 36.45349], [138.98027, 36.45534], [138.98015, 36.45628], [138.98011, 36.45647], [138.9799, 36.45775], [138.97984, 36.45828], [138.97952, 36.46028], [138.97942, 36.46106], [138.97912, 36.46292], [138.97899, 36.46382], [138.97879, 36.46518], [138.97867, 36.46597], [138.97856, 36.4667], [138.97847, 36.46733], [138.97815, 36.46946], [138.97812, 36.4697], [138.97772, 36.4722], [138.97765, 36.47265], [138.97732, 36.47485], [138.97729, 36.47506], [138.9771, 36.47628], [138.97704, 36.47667], [138.97697, 36.47718], [138.97681, 36.47821], [138.97674, 36.47869], [138.97646, 36.48038], [138.97635, 36.48116], [138.97619, 36.48228], [138.97605, 36.4832], [138.97593, 36.48386], [138.97575, 36.48521], [138.97574, 36.48523], [138.97568, 36.48556], [138.97563, 36.48587], [138.97545, 36.48713], [138.97526, 36.48834], [138.97508, 36.48959], [138.97502, 36.49003], [138.97485, 36.49104], [138.97465, 36.49247], [138.97439, 36.49414], [138.97439, 36.49418], [138.9742, 36.49538], [138.97402, 36.49657], [138.97379, 36.49817], [138.97359, 36.4995], [138.97334, 36.50093], [138.97314, 36.50224], [138.97302, 36.50312], [138.97292, 36.50362], [138.97279, 36.50453], [138.97271, 36.50507], [138.97258, 36.50588], [138.97248, 36.50655], [138.97239, 36.507], [138.97224, 36.50815], [138.97212, 36.50883], [138.97208, 36.50904], [138.97201, 36.50947], [138.97194, 36.51005], [138.97188, 36.51046], [138.97178, 36.51097], [138.97174, 36.51129], [138.9717, 36.5116], [138.97161, 36.51208], [138.97156, 36.51249], [138.9715, 36.51285], [138.97145, 36.5132], [138.97137, 36.51359], [138.9713, 36.51401], [138.97127, 36.51437], [138.97119, 36.51517], [138.97115, 36.51575], [138.9711, 36.51642], [138.97108, 36.51678], [138.97103, 36.51749], [138.97101, 36.51793], [138.97101, 36.51801], [138.97098, 36.51857], [138.97093, 36.51907], [138.97089, 36.51955], [138.97089, 36.52012], [138.97086, 36.52053], [138.9708, 36.52107], [138.97077, 36.52167], [138.97075, 36.52207], [138.97071, 36.5227], [138.97068, 36.52333], [138.97065, 36.52379], [138.97062, 36.52423], [138.9706, 36.52464], [138.97056, 36.52518], [138.97053, 36.52564], [138.97049, 36.52617], [138.97046, 36.52672], [138.97043, 36.52701], [138.9704, 36.52745], [138.97038, 36.52791], [138.97034, 36.52854], [138.97031, 36.52893], [138.97027, 36.52957], [138.97027, 36.52962], [138.97023, 36.53014], [138.97021, 36.5307], [138.97017, 36.53121], [138.97012, 36.53179], [138.97009, 36.53235], [138.97004, 36.53311], [138.97001, 36.53369], [138.96997, 36.53423], [138.96992, 36.53514], [138.96988, 36.53564], [138.96986, 36.53608], [138.9698, 36.53709], [138.96979, 36.53743], [138.96974, 36.53794], [138.96973, 36.53848], [138.96972, 36.53858], [138.9697, 36.53889], [138.96967, 36.53935], [138.96963, 36.5398], [138.96961, 36.54022], [138.96958, 36.54069], [138.96956, 36.54105], [138.96952, 36.54151], [138.96951, 36.54185], [138.96947, 36.54239], [138.96945, 36.5429], [138.96943, 36.54306], [138.96941, 36.54345], [138.9694, 36.54371], [138.96933, 36.54436], [138.9693, 36.54467], [138.9693, 36.54474], [138.9693, 36.54517], [138.96928, 36.54538], [138.96925, 36.54571], [138.96922, 36.54629], [138.96919, 36.54674], [138.96916, 36.54732], [138.96913, 36.54773], [138.96911, 36.54813], [138.96908, 36.54856], [138.96904, 36.5493], [138.969, 36.54963], [138.969, 36.54984], [138.96897, 36.55036], [138.96894, 36.55076], [138.96892, 36.55111], [138.96889, 36.55168], [138.96885, 36.55211], [138.96882, 36.55252], [138.9688, 36.55297], [138.96877, 36.55343], [138.96876, 36.55368], [138.96875, 36.55392], [138.96872, 36.55432], [138.96869, 36.55475], [138.96867, 36.55511], [138.96865, 36.55553], [138.96862, 36.55594], [138.96858, 36.55648], [138.96855, 36.55697], [138.96851, 36.5576], [138.96847, 36.55815], [138.96845, 36.55863], [138.9684, 36.55919], [138.96838, 36.55973], [138.96833, 36.5602], [138.9683, 36.56062], [138.96827, 36.56118], [138.96824, 36.5617], [138.96821, 36.56239], [138.96819, 36.56268], [138.96818, 36.56281], [138.96814, 36.56335], [138.96811, 36.56378], [138.96808, 36.56419], [138.96805, 36.56471], [138.96802, 36.56523], [138.96798, 36.56575], [138.96795, 36.56626], [138.96793, 36.56672], [138.96788, 36.56716], [138.96787, 36.56762], [138.96783, 36.568], [138.96781, 36.56846], [138.9678, 36.56881], [138.96776, 36.56927], [138.96773, 36.56968], [138.96771, 36.56998], [138.9677, 36.5703], [138.96767, 36.57063], [138.96765, 36.57096], [138.96764, 36.57124], [138.96761, 36.57157], [138.96761, 36.57168], [138.9676, 36.57189], [138.96756, 36.57232], [138.96754, 36.57271], [138.96754, 36.57304], [138.96749, 36.57352], [138.96747, 36.57381], [138.96745, 36.57434], [138.96743, 36.57471], [138.96743, 36.57495], [138.96742, 36.57546], [138.96742, 36.5759], [138.96742, 36.57634], [138.96742, 36.57688], [138.96744, 36.57752], [138.96743, 36.57792], [138.96746, 36.57834], [138.9675, 36.57873], [138.96751, 36.57905], [138.96754, 36.57952], [138.96757, 36.57986], [138.9676, 36.58024], [138.96761, 36.58053], [138.96764, 36.58069], [138.96768, 36.58092], [138.96775, 36.58152], [138.96783, 36.58224], [138.96789, 36.58265], [138.96797, 36.58314], [138.96803, 36.58354], [138.9681, 36.58401], [138.96817, 36.58442], [138.96823, 36.58482], [138.96827, 36.58513], [138.96833, 36.58556], [138.96838, 36.58594], [138.96843, 36.58627], [138.96846, 36.58645], [138.96849, 36.58682], [138.96851, 36.58737], [138.9685, 36.58778], [138.9684, 36.5891], [138.96828, 36.58969], [138.96801, 36.59058], [138.96753, 36.59182], [138.96701, 36.59331], [138.96671, 36.59439], [138.96664, 36.59462], [138.96629, 36.59596], [138.96614, 36.59707], [138.96598, 36.5986], [138.96592, 36.59956], [138.96589, 36.59999], [138.96586, 36.60046], [138.96585, 36.601], [138.96583, 36.60153], [138.96582, 36.60216], [138.96582, 36.60293], [138.96583, 36.60335], [138.96585, 36.60398], [138.96592, 36.60535], [138.96596, 36.60593], [138.96604, 36.6071], [138.96612, 36.60774], [138.96625, 36.60891], [138.96645, 36.61018], [138.96657, 36.61086], [138.96687, 36.61226], [138.96688, 36.61232], [138.96702, 36.61296], [138.96727, 36.61409], [138.96746, 36.61489], [138.96771, 36.61592], [138.9679, 36.61674], [138.96817, 36.61786], [138.96845, 36.61907], [138.96877, 36.62046], [138.96895, 36.62117], [138.96906, 36.62165], [138.96928, 36.62258], [138.96971, 36.6244], [138.97003, 36.62574], [138.97026, 36.62681], [138.97033, 36.62702], [138.97046, 36.62766], [138.97084, 36.62913], [138.97103, 36.63006], [138.97121, 36.63076], [138.97144, 36.63174], [138.97164, 36.6326], [138.97195, 36.63387], [138.97214, 36.63466], [138.97237, 36.6357], [138.97251, 36.63626], [138.97262, 36.63679], [138.97275, 36.6373], [138.9728, 36.63749], [138.97303, 36.63846], [138.97332, 36.63969], [138.97349, 36.64044], [138.97366, 36.64113], [138.97402, 36.64271], [138.97447, 36.64452], [138.97472, 36.64561], [138.97484, 36.64616], [138.97513, 36.64738], [138.97552, 36.64898], [138.97596, 36.65086], [138.97623, 36.65203], [138.97637, 36.65266], [138.97676, 36.65425], [138.97698, 36.65519], [138.97723, 36.65626], [138.97742, 36.65711], [138.97758, 36.65778], [138.97764, 36.65801], [138.97804, 36.65973], [138.97836, 36.66108], [138.97867, 36.66244], [138.97906, 36.66404], [138.97929, 36.66501], [138.97944, 36.66567], [138.97967, 36.66664], [138.97988, 36.66753], [138.97994, 36.66774], [138.98012, 36.66859], [138.98039, 36.66977], [138.9805, 36.67008], [138.98059, 36.6718], [138.98065, 36.67359], [138.98064, 36.67456], [138.98061, 36.67553], [138.98052, 36.67678], [138.98041, 36.67762], [138.98032, 36.67833], [138.98013, 36.67942], [138.97969, 36.6818], [138.97955, 36.68255], [138.97937, 36.68355], [138.97911, 36.68493], [138.97897, 36.6856]]}, "properties": {"id": "TRACK_TOKYO_2323", "line_name": "上越新幹線", "station_group_ids": [], "mode": "shinkansen", "operator_id": "jr_east", "line_color": "#E65045", "tags": ["tokyo", "track_centerline"]}}, {"type": "Feature", "bbox": [138.85084, 36.3548, 138.99996, 36.37982], "geometry": {"type": "LineString", "coordinates": [[138.85084, 36.36261], [138.85233, 36.36275], [138.85285, 36.36282], [138.8532, 36.36286], [138.85382, 36.36295], [138.85434, 36.36302], [138.85501, 36.36312], [138.8554, 36.36318], [138.85581, 36.36325], [138.85635, 36.36334], [138.85697, 36.36343], [138.85764, 36.36354], [138.85796, 36.3636], [138.85866, 36.36371], [138.85914, 36.36379], [138.85951, 36.36385], [138.85991, 36.36391], [138.86037, 36.36398], [138.86087, 36.36406], [138.8616, 36.36418], [138.86176, 36.3642], [138.86207, 36.36425], [138.86288, 36.36438], [138.86319, 36.36443], [138.86357, 36.36449], [138.86386, 36.36454], [138.86426, 36.3646], [138.8647, 36.36467], [138.865, 36.36472], [138.86519, 36.36475], [138.86548, 36.3648], [138.86577, 36.36484], [138.86618, 36.36491], [138.86672, 36.36499], [138.86705, 36.36504], [138.86731, 36.36508], [138.86771, 36.36515], [138.86816, 36.36522], [138.8682, 36.36523], [138.8685, 36.36527], [138.86892, 36.36534], [138.86914, 36.36537], [138.86958, 36.36544], [138.87002, 36.36551], [138.87032, 36.36555], [138.87064, 36.36561], [138.87094, 36.36565], [138.87133, 36.36572], [138.87183, 36.36579], [138.87421, 36.36617], [138.87716, 36.36664], [138.87989, 36.36706], [138.88121, 36.36727], [138.8815, 36.36731], [138.88217, 36.36742], [138.88345, 36.36761], [138.88469, 36.3678], [138.88632, 36.36806], [138.88754, 36.36826], [138.88798, 36.36833], [138.88857, 36.36845], [138.88885, 36.36849], [138.88922, 36.36858], [138.89078, 36.3689], [138.89116, 36.36896], [138.89156, 36.36905], [138.89216, 36.36919], [138.89306, 36.36938], [138.8938, 36.36954], [138.89497, 36.36978], [138.89511, 36.36981], [138.89605, 36.37002], [138.89846, 36.37056], [138.90097, 36.3711], [138.90173, 36.37126], [138.90361, 36.37167], [138.90618, 36.3722], [138.90838, 36.37267], [138.91014, 36.37304], [138.91142, 36.37332], [138.91246, 36.37354], [138.91297, 36.37364], [138.91438, 36.37395], [138.91453, 36.37398], [138.91558, 36.3742], [138.916, 36.3743], [138.91687, 36.37448], [138.91755, 36.37464], [138.91825, 36.37479], [138.91842, 36.37482], [138.91861, 36.37487], [138.92033, 36.37523], [138.92199, 36.37559], [138.92337, 36.37588], [138.92512, 36.37626], [138.92589, 36.37642], [138.92656, 36.37657], [138.92729, 36.37673], [138.92768, 36.3768], [138.93002, 36.3773], [138.93114, 36.37752], [138.93135, 36.37757], [138.93267, 36.37786], [138.93313, 36.37796], [138.93473, 36.3783], [138.93616, 36.37858], [138.93774, 36.37889], [138.93855, 36.37904], [138.93939, 36.37917], [138.93992, 36.37925], [138.94064, 36.37934], [138.94074, 36.37936], [138.94137, 36.37943], [138.94196, 36.37951], [138.942, 36.37951], [138.943, 36.3796], [138.94356, 36.37964], [138.94421, 36.37968], [138.94522, 36.37974], [138.94605, 36.3798], [138.94675, 36.37982], [138.94693, 36.37982], [138.94778, 36.37982], [138.94881, 36.37981], [138.94959, 36.37978], [138.94967, 36.37978], [138.95027, 36.37976], [138.95075, 36.37974], [138.95098, 36.37973], [138.95192, 36.37966], [138.95259, 36.37961], [138.95323, 36.37954], [138.95364, 36.37949], [138.95502, 36.37933], [138.95549, 36.37926], [138.95557, 36.37925], [138.95578, 36.37921], [138.95653, 36.3791], [138.9575, 36.37894], [138.95844, 36.37877], [138.95918, 36.3786], [138.96033, 36.3783], [138.96162, 36.37797], [138.96271, 36.37768], [138.96387, 36.37732], [138.96517, 36.37689], [138.96599, 36.37659], [138.96604, 36.37657], [138.96704, 36.3762], [138.96714, 36.37616], [138.96812, 36.37576], [138.96907, 36.37535], [138.9701, 36.37489], [138.97157, 36.3742], [138.97347, 36.37316], [138.9739, 36.37292], [138.97515, 36.37222], [138.97625, 36.3716], [138.9767, 36.37135], [138.97713, 36.3711], [138.98059, 36.36913], [138.98265, 36.36794], [138.98423, 36.36704], [138.98748, 36.36519], [138.98922, 36.36417], [138.98977, 36.36382], [138.99007, 36.36364], [138.99042, 36.36341], [138.99149, 36.36268], [138.99289, 36.36167], [138.99302, 36.36157], [138.99441, 36.36047], [138.99594, 36.35916], [138.99681, 36.35837], [138.998, 36.35704], [138.99996, 36.3548]]}, "properties": {"id": "TRACK_TOKYO_3468", "line_name": "北陸新幹線", "station_group_ids": [], "mode": "shinkansen", "operator_id": "jr_east", "line_color": "#2C62C9", "tags": ["tokyo", "track_centerline"]}}, {"type": "Feature", "bbox": [138.84756, 36.36247, 138.85084, 36.36261], "geometry": {"type": "LineString", "coordinates": [[138.85084, 36.36261], [138.8506, 36.36259], [138.85015, 36.36256], [138.8496, 36.36253], [138.84881, 36.3625], [138.84756, 36.36247]]}, "properties": {"id": "TRACK_TOKYO_3469", "line_name": "北陸新幹線", "station_group_ids": [], "mode": "shinkansen", "operator_id": "jr_east", "line_color": "#2C62C9", "tags": ["tokyo", "track_centerline"]}}, {"type": "Feature", "bbox": [138.63677, 36.34245, 138.84756, 36.39825], "geometry": {"type": "LineString", "coordinates": [[138.84756, 36.36247], [138.84691, 36.36247], [138.84565, 36.36251], [138.84453, 36.3626], [138.84346, 36.36268], [138.84291, 36.36274], [138.84226, 36.36281], [138.84192, 36.36285], [138.84005, 36.36311], [138.83914, 36.36326], [138.83868, 36.36334], [138.83798, 36.36349], [138.83721, 36.36365], [138.83673, 36.36378], [138.83608, 36.36395], [138.8356, 36.36407], [138.8345, 36.36442], [138.83367, 36.36468], [138.83267, 36.36502], [138.83169, 36.36541], [138.83111, 36.36565], [138.83006, 36.36612], [138.82963, 36.36632], [138.82925, 36.3665], [138.82866, 36.36679], [138.82865, 36.3668], [138.82786, 36.36721], [138.82692, 36.36773], [138.82642, 36.36803], [138.82595, 36.36833], [138.82551, 36.3686], [138.82513, 36.36886], [138.82467, 36.36917], [138.82424, 36.36947], [138.82395, 36.36969], [138.82344, 36.37007], [138.82309, 36.37036], [138.82274, 36.37064], [138.82232, 36.371], [138.82184, 36.37141], [138.82116, 36.37202], [138.82051, 36.37264], [138.82039, 36.37275], [138.82015, 36.37299], [138.81943, 36.3737], [138.81837, 36.37478], [138.81799, 36.37515], [138.81733, 36.37582], [138.81684, 36.37632], [138.81645, 36.37673], [138.81519, 36.37799], [138.81484, 36.37835], [138.81415, 36.37904], [138.81343, 36.37977], [138.8133, 36.3799], [138.8125, 36.38067], [138.81158, 36.38151], [138.81078, 36.3822], [138.81008, 36.38279], [138.80942, 36.38334], [138.80885, 36.38379], [138.80882, 36.3838], [138.80838, 36.38413], [138.80779, 36.38456], [138.80707, 36.38506], [138.80654, 36.38541], [138.80596, 36.38578], [138.80591, 36.38582], [138.80548, 36.38608], [138.80505, 36.38635], [138.8045, 36.38668], [138.80374, 36.38711], [138.80239, 36.38783], [138.80205, 36.38802], [138.80137, 36.38835], [138.80093, 36.38856], [138.8, 36.38897], [138.799, 36.3894], [138.79798, 36.38982], [138.79739, 36.39005], [138.79641, 36.39042], [138.79637, 36.39043], [138.79525, 36.39082], [138.79439, 36.3911], [138.79358, 36.39134], [138.79289, 36.39154], [138.79225, 36.39171], [138.79086, 36.39206], [138.78981, 36.39229], [138.78879, 36.3925], [138.78769, 36.3927], [138.78707, 36.3928], [138.78649, 36.39289], [138.78582, 36.393], [138.78578, 36.393], [138.78428, 36.39318], [138.78327, 36.39329], [138.78208, 36.3934], [138.77911, 36.39365], [138.77782, 36.39377], [138.77623, 36.39389], [138.7752, 36.39398], [138.77481, 36.39401], [138.77406, 36.39407], [138.77291, 36.39416], [138.77232, 36.39421], [138.77132, 36.39431], [138.77071, 36.39435], [138.76928, 36.39448], [138.76719, 36.39467], [138.76586, 36.39479], [138.76313, 36.39503], [138.76194, 36.39514], [138.76016, 36.3953], [138.75898, 36.3954], [138.75699, 36.39558], [138.75625, 36.39565], [138.75618, 36.39566], [138.75522, 36.39574], [138.75466, 36.39579], [138.75369, 36.39588], [138.75149, 36.39607], [138.74972, 36.39623], [138.74923, 36.39627], [138.74871, 36.39631], [138.74816, 36.39636], [138.74684, 36.39647], [138.74533, 36.3966], [138.74293, 36.3968], [138.74146, 36.39693], [138.73976, 36.39708], [138.73697, 36.39733], [138.73472, 36.39755], [138.7324, 36.39775], [138.73044, 36.39792], [138.73036, 36.39793], [138.72858, 36.39806], [138.72803, 36.3981], [138.72634, 36.3982], [138.72521, 36.39825], [138.72463, 36.39824], [138.72295, 36.39823], [138.72132, 36.39819], [138.7202, 36.39814], [138.71938, 36.39806], [138.7191, 36.39804], [138.71791, 36.39791], [138.7169, 36.39779], [138.71582, 36.39764], [138.71471, 36.39746], [138.71357, 36.39726], [138.71267, 36.39707], [138.71216, 36.39695], [138.71151, 36.39679], [138.71057, 36.39657], [138.71, 36.39643], [138.70861, 36.39603], [138.70847, 36.39599], [138.70746, 36.39566], [138.70594, 36.39512], [138.70444, 36.39457], [138.70244, 36.39371], [138.70144, 36.39328], [138.70013, 36.39272], [138.69922, 36.39233], [138.69865, 36.39209], [138.69845, 36.392], [138.69767, 36.39167], [138.69719, 36.39145], [138.69604, 36.39097], [138.69475, 36.39042], [138.69368, 36.38996], [138.69267, 36.38954], [138.69188, 36.38921], [138.69077, 36.38875], [138.68961, 36.38828], [138.68881, 36.38794], [138.68742, 36.38738], [138.68669, 36.38707], [138.68574, 36.38669], [138.68464, 36.38625], [138.68389, 36.38594], [138.68315, 36.38561], [138.68212, 36.38516], [138.6816, 36.38492], [138.68101, 36.38464], [138.6804, 36.38435], [138.67966, 36.38397], [138.67892, 36.38356], [138.67874, 36.38346], [138.67828, 36.38319], [138.67781, 36.38289], [138.67708, 36.38243], [138.67652, 36.38205], [138.67609, 36.38176], [138.67566, 36.38145], [138.67513, 36.38107], [138.67433, 36.38044], [138.67373, 36.37994], [138.67325, 36.37952], [138.67288, 36.37919], [138.67251, 36.37884], [138.67216, 36.3785], [138.67181, 36.37814], [138.67146, 36.37776], [138.67103, 36.37728], [138.67051, 36.3767], [138.6702, 36.37633], [138.66989, 36.37595], [138.66959, 36.37557], [138.66907, 36.37479], [138.66854, 36.374], [138.66801, 36.37317], [138.66753, 36.37242], [138.66694, 36.37149], [138.66628, 36.37043], [138.66604, 36.37005], [138.66565, 36.36942], [138.66555, 36.36926], [138.66478, 36.36803], [138.66408, 36.3669], [138.66327, 36.36561], [138.6625, 36.36439], [138.66144, 36.36266], [138.66067, 36.36136], [138.66047, 36.36102], [138.65975, 36.35984], [138.65901, 36.35864], [138.65826, 36.35744], [138.6577, 36.35653], [138.65704, 36.35545], [138.65644, 36.3545], [138.65597, 36.35373], [138.6557, 36.3533], [138.65556, 36.35307], [138.65508, 36.35227], [138.65457, 36.35144], [138.65382, 36.35022], [138.65332, 36.3494], [138.65308, 36.349], [138.65283, 36.3486], [138.65227, 36.3478], [138.65161, 36.34697], [138.65113, 36.34642], [138.65053, 36.34586], [138.65016, 36.34554], [138.64987, 36.3453], [138.64942, 36.34495], [138.64892, 36.3446], [138.64871, 36.34443], [138.64821, 36.34412], [138.64802, 36.34401], [138.6479, 36.34395], [138.64773, 36.34386], [138.64757, 36.34377], [138.64756, 36.34377], [138.64736, 36.34368], [138.64697, 36.34351], [138.64657, 36.34336], [138.6458, 36.34311], [138.64551, 36.34302], [138.64509, 36.3429], [138.64474, 36.3428], [138.6443, 36.3427], [138.64378, 36.34259], [138.64337, 36.34253], [138.64313, 36.3425], [138.64244, 36.34246], [138.64122, 36.34245], [138.64023, 36.34249], [138.63784, 36.34254], [138.6371, 36.34255], [138.63677, 36.34255]]}, "properties": {"id": "TRACK_TOKYO_3472", "line_name": "北陸新幹線", "station_group_ids": [], "mode": "shinkansen", "operator_id": "jr_east", "line_color": "#2C62C9", "tags": ["tokyo", "track_centerline"]}}]}