{"type": "FeatureCollection", "features": [{"type": "Feature", "bbox": [138.74322, 35.67086, 138.74344, 35.67162], "geometry": {"type": "LineString", "coordinates": [[138.74322, 35.67162], [138.74328, 35.67135], [138.74336, 35.67107], [138.74344, 35.67086]]}, "properties": {"id": "TRACK_TOKYO_2741", "line_name": "中央線", "station_group_ids": [], "mode": "rail", "operator_id": "jr_east", "line_color": "#F15A24", "tags": ["tokyo", "track_centerline"]}}, {"type": "Feature", "bbox": [138.74321, 35.67162, 138.74334, 35.67406], "geometry": {"type": "LineString", "coordinates": [[138.74322, 35.67162], [138.74321, 35.67222], [138.74323, 35.67288], [138.74325, 35.67309], [138.74327, 35.67338], [138.74327, 35.67344], [138.74334, 35.67406]]}, "properties": {"id": "TRACK_TOKYO_2745", "line_name": "中央線", "station_group_ids": [], "mode": "rail", "operator_id": "jr_east", "line_color": "#F15A24", "tags": ["tokyo", "track_centerline"]}}, {"type": "Feature", "bbox": [138.88231, 35.59429, 138.88516, 35.59445], "geometry": {"type": "LineString", "coordinates": [[138.88516, 35.5944], [138.88476, 35.59435], [138.88422, 35.59431], [138.88367, 35.59429], [138.883, 35.59433], [138.88285, 35.59434], [138.88231, 35.59445]]}, "properties": {"id": "TRACK_TOKYO_2765", "line_name": "中央線", "station_group_ids": [], "mode": "rail", "operator_id": "jr_east", "line_color": "#F15A24", "tags": ["tokyo", "track_centerline"]}}, {"type": "Feature", "bbox": [138.94406, 35.61143, 138.96693, 35.61542], "geometry": {"type": "LineString", "coordinates": [[138.96693, 35.61237], [138.96684, 35.61234], [138.96634, 35.61218], [138.96527, 35.61184], [138.96515, 35.6118], [138.96416, 35.6115], [138.96375, 35.61145], [138.96341, 35.61143], [138.96283, 35.61144], [138.96243, 35.61147], [138.96219, 35.61152], [138.96191, 35.61155], [138.96159, 35.61164], [138.96143, 35.61169], [138.95929, 35.61259], [138.9589, 35.61275], [138.95832, 35.61296], [138.95782, 35.61308], [138.95765, 35.61309], [138.95745, 35.6131], [138.95723, 35.61311], [138.95709, 35.61311], [138.9557, 35.61304], [138.95543, 35.61301], [138.95537, 35.61301], [138.95485, 35.61301], [138.95422, 35.6131], [138.9538, 35.61322], [138.95314, 35.61355], [138.9521, 35.61424], [138.95175, 35.61445], [138.95099, 35.61489], [138.95044, 35.61509], [138.95009, 35.61519], [138.9494, 35.61534], [138.94868, 35.61542], [138.94841, 35.61541], [138.948, 35.61534], [138.94732, 35.61517], [138.94666, 35.61495], [138.94542, 35.61447], [138.94534, 35.61443], [138.94489, 35.61422], [138.94472, 35.61415], [138.94406, 35.61387]]}, "properties": {"id": "TRACK_TOKYO_2770", "line_name": "中央線", "station_group_ids": [], "mode": "rail", "operator_id": "jr_east", "line_color": "#F15A24", "tags": ["tokyo", "track_centerline"]}}, {"type": "Feature", "bbox": [138.82386, 35.60377, 138.82687, 35.60421], "geometry": {"type": "LineString", "coordinates": [[138.82386, 35.60377], [138.82389, 35.60377], [138.82456, 35.60383], [138.8255, 35.60396], [138.82685, 35.6042], [138.82687, 35.60421]]}, "properties": {"id": "TRACK_TOKYO_2773", "line_name": "中央線", "station_group_ids": [], "mode": "rail", "operator_id": "jr_east", "line_color": "#F15A24", "tags": ["tokyo", "track_centerline"]}}, {"type": "Feature", "bbox": [138.77831, 35.63966, 138.78048, 35.64009], "geometry": {"type": "LineString", "coordinates": [[138.77831, 35.64009], [138.77845, 35.64006], [138.77923, 35.63989], [138.78023, 35.6397], [138.78048, 35.63966]]}, "properties": {"id": "TRACK_TOKYO_2776", "line_name": "中央線", "station_group_ids": [], "mode": "rail", "operator_id": "jr_east", "line_color": "#F15A24", "tags": ["tokyo", "track_centerline"]}}, {"type": "Feature", "bbox": [138.94107, 35.61264, 138.94406, 35.61387], "geometry": {"type": "LineString", "coordinates": [[138.94406, 35.61387], [138.94133, 35.61274], [138.94107, 35.61264]]}, "properties": {"id": "TRACK_TOKYO_2783", "line_name": "中央線", "station_group_ids": [], "mode": "rail", "operator_id": "jr_east", "line_color": "#F15A24", "tags": ["tokyo", "track_centerline"]}}, {"type": "Feature", "bbox": [138.78048, 35.63903, 138.78276, 35.63966], "geometry": {"type": "LineString", "coordinates": [[138.78048, 35.63966], [138.78077, 35.63961], [138.78138, 35.63948], [138.78187, 35.63934], [138.78276, 35.63903]]}, "properties": {"id": "TRACK_TOKYO_2789", "line_name": "中央線", "station_group_ids": [], "mode": "rail", "operator_id": "jr_east", "line_color": "#F15A24", "tags": ["tokyo", "track_centerline"]}}, {"type": "Feature", "bbox": [138.81989, 35.60376, 138.82386, 35.60415], "geometry": {"type": "LineString", "coordinates": [[138.81989, 35.60415], [138.82009, 35.60412], [138.82071, 35.60401], [138.82188, 35.60385], [138.82278, 35.60377], [138.82324, 35.60376], [138.82386, 35.60377]]}, "properties": {"id": "TRACK_TOKYO_2791", "line_name": "中央線", "station_group_ids": [], "mode": "rail", "operator_id": "jr_east", "line_color": "#F15A24", "tags": ["tokyo", "track_centerline"]}}, {"type": "Feature", "bbox": [138.82687, 35.59445, 138.88231, 35.60569], "geometry": {"type": "LineString", "coordinates": [[138.88231, 35.59445], [138.88226, 35.59447], [138.88174, 35.59465], [138.88111, 35.59486], [138.88086, 35.59493], [138.88077, 35.59495], [138.88042, 35.59503], [138.87997, 35.59509], [138.87917, 35.59512], [138.87751, 35.59511], [138.87705, 35.59511], [138.87498, 35.59509], [138.87463, 35.5951], [138.87446, 35.5951], [138.87377, 35.59517], [138.87318, 35.59531], [138.87284, 35.59546], [138.87232, 35.59574], [138.87209, 35.59589], [138.87185, 35.59604], [138.87161, 35.59622], [138.87135, 35.59645], [138.87117, 35.59664], [138.87088, 35.59695], [138.8704, 35.59741], [138.87013, 35.59765], [138.86983, 35.59788], [138.86954, 35.59811], [138.86924, 35.59829], [138.86856, 35.59863], [138.86764, 35.59901], [138.86743, 35.59913], [138.8674, 35.59914], [138.86686, 35.59951], [138.86617, 35.6], [138.86591, 35.60019], [138.86573, 35.6003], [138.86557, 35.6004], [138.86533, 35.60054], [138.86503, 35.60069], [138.86467, 35.60079], [138.86425, 35.60089], [138.86378, 35.60096], [138.86324, 35.60105], [138.86245, 35.60119], [138.86194, 35.6013], [138.86159, 35.60139], [138.86122, 35.60154], [138.86086, 35.6017], [138.86055, 35.60188], [138.86035, 35.60203], [138.86021, 35.60212], [138.85994, 35.60233], [138.85991, 35.60237], [138.85987, 35.60242], [138.85961, 35.60271], [138.85944, 35.60291], [138.85927, 35.60305], [138.85923, 35.60308], [138.85873, 35.60341], [138.85852, 35.60354], [138.85825, 35.60371], [138.85816, 35.60377], [138.85779, 35.60399], [138.85733, 35.60419], [138.8569, 35.60427], [138.8563, 35.60436], [138.85586, 35.60439], [138.85554, 35.60439], [138.85523, 35.60437], [138.85464, 35.60427], [138.85401, 35.60413], [138.85327, 35.60391], [138.85265, 35.60366], [138.85182, 35.60329], [138.85174, 35.60325], [138.85151, 35.60313], [138.85114, 35.6029], [138.85088, 35.60277], [138.85077, 35.60271], [138.85039, 35.60251], [138.8501, 35.60236], [138.84978, 35.60222], [138.8494, 35.60209], [138.84899, 35.60195], [138.84847, 35.60185], [138.84807, 35.60181], [138.84769, 35.60179], [138.84595, 35.60187], [138.84498, 35.60194], [138.84445, 35.602], [138.84399, 35.6021], [138.8436, 35.60225], [138.84334, 35.60235], [138.84292, 35.6026], [138.84238, 35.60306], [138.84138, 35.60404], [138.8411, 35.60427], [138.84107, 35.6043], [138.84081, 35.60449], [138.84021, 35.60492], [138.83994, 35.60507], [138.83962, 35.6052], [138.83926, 35.6053], [138.83911, 35.60533], [138.83885, 35.60538], [138.83643, 35.60564], [138.83583, 35.60569], [138.83544, 35.60569], [138.83475, 35.60558], [138.8341, 35.60546], [138.83359, 35.60538], [138.83322, 35.60535], [138.83312, 35.60534], [138.83251, 35.6053], [138.83179, 35.60534], [138.83111, 35.6054], [138.83065, 35.60542], [138.83041, 35.60543], [138.83006, 35.60539], [138.8297, 35.60534], [138.82919, 35.60522], [138.82858, 35.60501], [138.82826, 35.6049], [138.82814, 35.60486], [138.82753, 35.60458], [138.82721, 35.60439], [138.827, 35.60428], [138.82687, 35.60421]]}, "properties": {"id": "TRACK_TOKYO_2796", "line_name": "中央線", "station_group_ids": [], "mode": "rail", "operator_id": "jr_east", "line_color": "#F15A24", "tags": ["tokyo", "track_centerline"]}}, {"type": "Feature", "bbox": [138.88516, 35.5944, 138.94107, 35.61264], "geometry": {"type": "LineString", "coordinates": [[138.94107, 35.61264], [138.94044, 35.61239], [138.94018, 35.61229], [138.93969, 35.61209], [138.93954, 35.61203], [138.93913, 35.61186], [138.93891, 35.61175], [138.93857, 35.61156], [138.93837, 35.61145], [138.93808, 35.61128], [138.93792, 35.61118], [138.93777, 35.61108], [138.93771, 35.61104], [138.93749, 35.61086], [138.93718, 35.61054], [138.93699, 35.61031], [138.93678, 35.61007], [138.93644, 35.60952], [138.93603, 35.6089], [138.93574, 35.60843], [138.93562, 35.60817], [138.93555, 35.60806], [138.93532, 35.60766], [138.93513, 35.60742], [138.93505, 35.60732], [138.93477, 35.60705], [138.93429, 35.60663], [138.9339, 35.60632], [138.93331, 35.60599], [138.93286, 35.60577], [138.93272, 35.60573], [138.93237, 35.60562], [138.93199, 35.6055], [138.93108, 35.60521], [138.93068, 35.60509], [138.92948, 35.60474], [138.92938, 35.60471], [138.92706, 35.60407], [138.92685, 35.60401], [138.92645, 35.60389], [138.92638, 35.60387], [138.92581, 35.60363], [138.92514, 35.60325], [138.92349, 35.60228], [138.923, 35.602], [138.9226, 35.60179], [138.92162, 35.6014], [138.92114, 35.60118], [138.92061, 35.60094], [138.91989, 35.60054], [138.9196, 35.60037], [138.91772, 35.59925], [138.91718, 35.59904], [138.91715, 35.59903], [138.9169, 35.59894], [138.91657, 35.59885], [138.91614, 35.59877], [138.91584, 35.59874], [138.91525, 35.59871], [138.91516, 35.59871], [138.9144, 35.59868], [138.91345, 35.59864], [138.91332, 35.59863], [138.91226, 35.59858], [138.91192, 35.59859], [138.91148, 35.5986], [138.91117, 35.59866], [138.91088, 35.59874], [138.91058, 35.59885], [138.91013, 35.59913], [138.90974, 35.59933], [138.90948, 35.59944], [138.90919, 35.59955], [138.90853, 35.59973], [138.90848, 35.59974], [138.90821, 35.5998], [138.90754, 35.59995], [138.90647, 35.60017], [138.90639, 35.60018], [138.90603, 35.60026], [138.90595, 35.60028], [138.90564, 35.60034], [138.90458, 35.60053], [138.90449, 35.60055], [138.90414, 35.60062], [138.90378, 35.60069], [138.90215, 35.601], [138.90143, 35.60109], [138.90122, 35.6011], [138.90064, 35.60106], [138.90026, 35.60101], [138.90023, 35.60101], [138.89965, 35.60087], [138.89918, 35.60071], [138.89863, 35.60047], [138.89751, 35.59984], [138.89724, 35.59973], [138.89688, 35.59963], [138.89507, 35.59912], [138.89373, 35.59875], [138.89261, 35.59844], [138.89243, 35.59835], [138.89221, 35.59824], [138.89147, 35.59773], [138.89078, 35.59725], [138.88935, 35.59621], [138.88828, 35.59547], [138.88761, 35.59507], [138.88696, 35.59484], [138.88652, 35.59473], [138.88595, 35.59458], [138.88547, 35.59446], [138.88516, 35.5944]]}, "properties": {"id": "TRACK_TOKYO_2797", "line_name": "中央線", "station_group_ids": [], "mode": "rail", "operator_id": "jr_east", "line_color": "#F15A24", "tags": ["tokyo", "track_centerline"]}}, {"type": "Feature", "bbox": [138.96693, 35.61237, 138.96983, 35.61341], "geometry": {"type": "LineString", "coordinates": [[138.96983, 35.61341], [138.96701, 35.61239], [138.96693, 35.61237]]}, "properties": {"id": "TRACK_TOKYO_2801", "line_name": "中央線", "station_group_ids": [], "mode": "rail", "operator_id": "jr_east", "line_color": "#F15A24", "tags": ["tokyo", "track_centerline"]}}, {"type": "Feature", "bbox": [138.78276, 35.60415, 138.81989, 35.63903], "geometry": {"type": "LineString", "coordinates": [[138.81989, 35.60415], [138.81943, 35.60434], [138.81915, 35.60446], [138.81854, 35.60484], [138.8185, 35.60487], [138.81827, 35.60504], [138.81799, 35.60525], [138.8176, 35.60558], [138.81582, 35.60733], [138.81255, 35.61059], [138.81054, 35.61253], [138.80341, 35.61943], [138.80171, 35.62108], [138.80126, 35.62152], [138.79957, 35.62318], [138.79468, 35.62805], [138.79225, 35.63048], [138.79093, 35.63174], [138.78758, 35.63497], [138.78443, 35.63801], [138.78437, 35.63807], [138.78417, 35.63822], [138.78413, 35.63826], [138.78363, 35.63859], [138.78342, 35.63871], [138.78327, 35.63879], [138.78276, 35.63903]]}, "properties": {"id": "TRACK_TOKYO_2802", "line_name": "中央線", "station_group_ids": [], "mode": "rail", "operator_id": "jr_east", "line_color": "#F15A24", "tags": ["tokyo", "track_centerline"]}}, {"type": "Feature", "bbox": [138.78276, 35.60415, 138.81989, 35.63903], "geometry": {"type": "LineString", "coordinates": [[138.78276, 35.63903], [138.78293, 35.6389], [138.78329, 35.63864], [138.78367, 35.63833], [138.78393, 35.63809], [138.78403, 35.638], [138.78412, 35.63792], [138.78418, 35.63785], [138.78733, 35.6348], [138.79194, 35.63034], [138.79443, 35.62787], [138.80079, 35.62158], [138.80147, 35.62092], [138.80307, 35.61937], [138.81021, 35.61248], [138.81223, 35.61052], [138.81363, 35.60914], [138.81553, 35.60723], [138.81725, 35.60552], [138.81766, 35.60517], [138.81777, 35.60508], [138.8179, 35.60498], [138.81848, 35.60463], [138.81892, 35.60441], [138.8195, 35.60422], [138.81989, 35.60415]]}, "properties": {"id": "TRACK_TOKYO_2803", "line_name": "中央線", "station_group_ids": [], "mode": "rail", "operator_id": "jr_east", "line_color": "#F15A24", "tags": ["tokyo", "track_centerline"]}}, {"type": "Feature", "bbox": [138.96983, 35.60798, 139.00221, 35.61392], "geometry": {"type": "LineString", "coordinates": [[139.00221, 35.60798], [139.00154, 35.60798], [138.99871, 35.60811], [138.99748, 35.60819], [138.99684, 35.60823], [138.99659, 35.60824], [138.99311, 35.60843], [138.99277, 35.60844], [138.99157, 35.60849], [138.99026, 35.60855], [138.99015, 35.60856], [138.98803, 35.60869], [138.98762, 35.60871], [138.98654, 35.60881], [138.98611, 35.60887], [138.9855, 35.60907], [138.98436, 35.60959], [138.98409, 35.60973], [138.98338, 35.61012], [138.98261, 35.61057], [138.98161, 35.61116], [138.98077, 35.61167], [138.98025, 35.61198], [138.97988, 35.61219], [138.97939, 35.6125], [138.97917, 35.61262], [138.97883, 35.6128], [138.97853, 35.61292], [138.97803, 35.6131], [138.97705, 35.61333], [138.97661, 35.6134], [138.97631, 35.61344], [138.97453, 35.6137], [138.97399, 35.61379], [138.97347, 35.61384], [138.9732, 35.61386], [138.97302, 35.61388], [138.97269, 35.6139], [138.97233, 35.61392], [138.9719, 35.61392], [138.97154, 35.61389], [138.97132, 35.61385], [138.97104, 35.61381], [138.97061, 35.61368], [138.96989, 35.61343], [138.96983, 35.61341]]}, "properties": {"id": "TRACK_TOKYO_2807", "line_name": "中央線", "station_group_ids": [], "mode": "rail", "operator_id": "jr_east", "line_color": "#F15A24", "tags": ["tokyo", "track_centerline"]}}, {"type": "Feature", "bbox": [138.74344, 35.64009, 138.77831, 35.67086], "geometry": {"type": "LineString", "coordinates": [[138.74344, 35.67086], [138.74358, 35.67043], [138.74368, 35.67023], [138.74373, 35.67012], [138.74394, 35.66989], [138.74533, 35.66838], [138.74687, 35.66669], [138.74806, 35.66536], [138.74962, 35.66362], [138.75317, 35.65947], [138.75334, 35.65926], [138.75633, 35.65607], [138.75752, 35.65481], [138.75763, 35.65469], [138.76436, 35.64753], [138.76473, 35.64716], [138.76503, 35.64683], [138.76523, 35.64659], [138.76547, 35.64618], [138.76567, 35.64585], [138.76583, 35.64551], [138.76597, 35.6453], [138.76619, 35.64511], [138.76654, 35.64478], [138.76667, 35.64466], [138.76698, 35.64441], [138.76717, 35.64429], [138.7674, 35.64418], [138.76764, 35.6441], [138.76802, 35.64398], [138.76818, 35.64395], [138.76832, 35.64395], [138.76856, 35.64394], [138.76991, 35.64395], [138.77129, 35.64399], [138.77171, 35.64399], [138.77209, 35.64396], [138.77249, 35.64391], [138.77286, 35.64381], [138.77293, 35.64376], [138.77299, 35.64371], [138.77532, 35.64162], [138.77563, 35.64133], [138.77572, 35.64125], [138.77593, 35.64107], [138.77611, 35.64092], [138.77638, 35.64072], [138.77669, 35.64053], [138.77696, 35.6404], [138.77735, 35.64028], [138.77831, 35.64009]]}, "properties": {"id": "TRACK_TOKYO_2814", "line_name": "中央線", "station_group_ids": [], "mode": "rail", "operator_id": "jr_east", "line_color": "#F15A24", "tags": ["tokyo", "track_centerline"]}}, {"type": "Feature", "bbox": [138.74344, 35.64009, 138.77831, 35.67086], "geometry": {"type": "LineString", "coordinates": [[138.74344, 35.67086], [138.74365, 35.67057], [138.74397, 35.67017], [138.74425, 35.66989], [138.74544, 35.66857], [138.74687, 35.667], [138.74691, 35.66696], [138.7535, 35.65971], [138.75373, 35.65947], [138.75374, 35.65945], [138.75676, 35.65615], [138.75788, 35.65494], [138.75893, 35.65379], [138.7645, 35.64771], [138.76457, 35.64764], [138.76557, 35.64651], [138.76564, 35.64643], [138.7664, 35.64573], [138.76673, 35.64544], [138.76711, 35.64522], [138.76724, 35.64513], [138.76764, 35.64497], [138.76777, 35.64493], [138.76792, 35.64489], [138.76853, 35.64479], [138.77001, 35.64476], [138.7702, 35.64472], [138.77121, 35.64474], [138.77142, 35.6448], [138.77161, 35.6448], [138.77198, 35.64472], [138.77232, 35.64463], [138.77258, 35.64452], [138.77286, 35.64433], [138.77307, 35.64421], [138.77336, 35.644], [138.77369, 35.64367], [138.77565, 35.64184], [138.77674, 35.64083], [138.77769, 35.64039], [138.77831, 35.64009]]}, "properties": {"id": "TRACK_TOKYO_2815", "line_name": "中央線", "station_group_ids": [], "mode": "rail", "operator_id": "jr_east", "line_color": "#F15A24", "tags": ["tokyo", "track_centerline"]}}]}