{"type": "FeatureCollection", "features": [{"type": "Feature", "bbox": [129.9989525761053, 33.10660482408079, 129.9989525761053, 33.10660482408079], "geometry": {"type": "Point", "coordinates": [129.9989525761053, 33.10660482408079]}, "properties": {"id": "PS_977304512B8F", "station_group_id": "SG_026CE7BFA52D", "operator_id": "jr_kyushu", "operator_ids": "jr_kyushu", "name_en": "嬉野温泉", "name_ja": "嬉野温泉", "label_rank": 72, "tags": ["tokyo", "v3"]}}, {"type": "Feature", "bbox": [129.95713426276149, 32.93302921131192, 129.95713426276149, 32.93302921131192], "geometry": {"type": "Point", "coordinates": [129.95713426276149, 32.93302921131192]}, "properties": {"id": "PS_C59E18C73196", "station_group_id": "SG_AF1F26F543D8", "operator_id": "jr_kyushu", "operator_ids": "jr_kyushu", "name_en": "新大村", "name_ja": "新大村", "label_rank": 72, "tags": ["tokyo", "v3"]}}, {"type": "Feature", "bbox": [130.0230793694156, 33.1962133212902, 130.0230793694156, 33.1962133212902], "geometry": {"type": "Point", "coordinates": [130.0230793694156, 33.1962133212902]}, "properties": {"id": "PS_C7A647B66933", "station_group_id": "SG_BAD10B5F897A", "operator_id": "jr_kyushu", "operator_ids": "jr_kyushu", "name_en": "武雄温泉", "name_ja": "武雄温泉", "label_rank": 72, "tags": ["tokyo", "v3"]}}, {"type": "Feature", "bbox": [130.04087831517614, 32.8523734403949, 130.04087831517614, 32.8523734403949], "geometry": {"type": "Point", "coordinates": [130.04087831517614, 32.8523734403949]}, "properties": {"id": "PS_A8ABF8C5F4C8", "station_group_id": "SG_8834E838BBED", "operator_id": "jr_kyushu", "operator_ids": "jr_kyushu", "name_en": "諫早", "name_ja": "諫早", "label_rank": 72, "tags": ["tokyo", "v3"]}}, {"type": "Feature", "bbox": [129.86907862976415, 32.752442827978825, 129.86907862976415, 32.752442827978825], "geometry": {"type": "Point", "coordinates": [129.86907862976415, 32.752442827978825]}, "properties": {"id": "PS_0F811A197B62", "station_group_id": "SG_BF01D3950647", "operator_id": "jr_kyushu", "operator_ids": "jr_kyushu", "name_en": "長崎", "name_ja": "長崎", "label_rank": 72, "tags": ["tokyo", "v3"]}}]}