{"type": "FeatureCollection", "features": [{"type": "Feature", "bbox": [139.89857, 36.56066, 140.01076, 36.91821], "geometry": {"type": "LineString", "coordinates": [[139.89857, 36.56066], [139.89897, 36.56235], [139.89971, 36.56531], [139.89998, 36.56636], [139.9003, 36.56755], [139.90054, 36.56863], [139.90073, 36.56947], [139.90121, 36.57204], [139.90176, 36.57541], [139.90214, 36.57755], [139.90224, 36.57806], [139.90264, 36.58035], [139.90312, 36.58295], [139.90345, 36.58474], [139.90376, 36.58647], [139.90393, 36.58737], [139.904, 36.58777], [139.90409, 36.58832], [139.90429, 36.5894], [139.90435, 36.58971], [139.9044, 36.59008], [139.90442, 36.59017], [139.90452, 36.59076], [139.90463, 36.59138], [139.90465, 36.5915], [139.90493, 36.59305], [139.90501, 36.59356], [139.90503, 36.59364], [139.90511, 36.59415], [139.90517, 36.5945], [139.9053, 36.59521], [139.90534, 36.5955], [139.90537, 36.5956], [139.90551, 36.5964], [139.90558, 36.59682], [139.90567, 36.59736], [139.90573, 36.59773], [139.9059, 36.5991], [139.9059, 36.59917], [139.90595, 36.5995], [139.90604, 36.6003], [139.90614, 36.60116], [139.90616, 36.60132], [139.90624, 36.60204], [139.90635, 36.60312], [139.90637, 36.60322], [139.90641, 36.60359], [139.9065, 36.60443], [139.90655, 36.60476], [139.90661, 36.60533], [139.9067, 36.60603], [139.90671, 36.60617], [139.90689, 36.60768], [139.90692, 36.60795], [139.90694, 36.60808], [139.90694, 36.60813], [139.90701, 36.60875], [139.90703, 36.60892], [139.90708, 36.60929], [139.90713, 36.60979], [139.90719, 36.6103], [139.90725, 36.61083], [139.90734, 36.61164], [139.90736, 36.61169], [139.90736, 36.61182], [139.90753, 36.61327], [139.90754, 36.61336], [139.90761, 36.614], [139.90768, 36.6147], [139.90779, 36.61572], [139.90779, 36.61577], [139.90781, 36.61596], [139.90783, 36.61627], [139.90784, 36.61634], [139.90786, 36.61654], [139.90799, 36.61773], [139.90843, 36.62186], [139.90893, 36.62604], [139.909, 36.6267], [139.90937, 36.63014], [139.90949, 36.6311], [139.9097, 36.6327], [139.90982, 36.63364], [139.9099, 36.63419], [139.90992, 36.63442], [139.90999, 36.63486], [139.91, 36.63499], [139.91009, 36.63567], [139.91015, 36.63607], [139.91021, 36.63653], [139.91021, 36.63659], [139.91023, 36.6367], [139.91028, 36.63695], [139.91029, 36.63707], [139.91037, 36.63761], [139.91048, 36.63848], [139.91066, 36.63965], [139.91074, 36.64018], [139.91077, 36.64041], [139.91093, 36.6415], [139.91103, 36.64216], [139.91121, 36.64345], [139.91132, 36.64409], [139.91139, 36.64463], [139.91141, 36.64478], [139.91159, 36.64597], [139.91195, 36.64851], [139.91228, 36.65071], [139.91244, 36.65183], [139.91251, 36.65225], [139.91262, 36.65297], [139.91268, 36.65328], [139.91272, 36.65358], [139.91276, 36.65385], [139.91288, 36.65455], [139.91289, 36.65466], [139.91293, 36.65486], [139.91295, 36.65501], [139.91324, 36.65682], [139.91332, 36.65729], [139.91333, 36.65746], [139.91343, 36.65798], [139.9135, 36.65845], [139.9135, 36.6585], [139.91352, 36.65852], [139.91362, 36.65928], [139.91364, 36.65937], [139.91372, 36.65995], [139.91386, 36.66085], [139.91393, 36.66135], [139.91396, 36.66158], [139.91411, 36.66252], [139.91422, 36.66329], [139.9143, 36.66384], [139.91435, 36.66415], [139.9144, 36.66441], [139.91442, 36.66464], [139.91456, 36.6655], [139.91458, 36.66557], [139.91468, 36.66626], [139.91491, 36.66777], [139.91512, 36.66912], [139.91517, 36.66944], [139.91519, 36.66968], [139.91522, 36.66979], [139.91524, 36.66992], [139.91531, 36.67044], [139.91542, 36.67116], [139.9155, 36.67174], [139.91559, 36.67248], [139.91567, 36.67305], [139.91573, 36.67341], [139.91579, 36.67382], [139.91589, 36.67482], [139.9159, 36.67493], [139.91594, 36.67514], [139.91596, 36.67549], [139.91606, 36.67653], [139.91608, 36.6769], [139.91617, 36.67805], [139.91623, 36.67878], [139.91624, 36.67896], [139.91625, 36.67904], [139.91628, 36.67942], [139.91633, 36.67978], [139.91638, 36.6804], [139.91643, 36.68118], [139.91651, 36.68212], [139.91652, 36.68239], [139.91656, 36.68307], [139.91656, 36.68329], [139.91658, 36.68337], [139.91665, 36.68451], [139.91666, 36.68465], [139.91681, 36.68683], [139.91683, 36.687], [139.91686, 36.68727], [139.91688, 36.6878], [139.91693, 36.68832], [139.91693, 36.68853], [139.91701, 36.68964], [139.91706, 36.69063], [139.91709, 36.69085], [139.91713, 36.69139], [139.91715, 36.69162], [139.91719, 36.69185], [139.91727, 36.69256], [139.91734, 36.69303], [139.91737, 36.69326], [139.91749, 36.69405], [139.9176, 36.69465], [139.91767, 36.69506], [139.91782, 36.69577], [139.91797, 36.69641], [139.91807, 36.69677], [139.91817, 36.69721], [139.91828, 36.69764], [139.9183, 36.69766], [139.91842, 36.69811], [139.91846, 36.69828], [139.91848, 36.69834], [139.91867, 36.69899], [139.91893, 36.69983], [139.91906, 36.70026], [139.9191, 36.70038], [139.91949, 36.7015], [139.91966, 36.70196], [139.91979, 36.70232], [139.9203, 36.70361], [139.92048, 36.70409], [139.92053, 36.70421], [139.9207, 36.70465], [139.92083, 36.705], [139.92119, 36.70592], [139.92123, 36.70601], [139.92162, 36.70704], [139.92167, 36.70717], [139.92176, 36.70741], [139.92218, 36.70851], [139.92227, 36.70873], [139.9223, 36.7088], [139.92232, 36.70887], [139.92248, 36.70928], [139.92269, 36.70979], [139.92277, 36.71003], [139.92319, 36.71113], [139.92353, 36.71201], [139.92357, 36.71211], [139.92364, 36.71229], [139.92385, 36.71284], [139.92479, 36.71533], [139.92502, 36.71594], [139.92535, 36.71679], [139.92576, 36.71788], [139.92625, 36.71913], [139.92649, 36.71973], [139.9268, 36.72053], [139.92683, 36.72062], [139.92685, 36.72065], [139.92752, 36.72242], [139.92764, 36.72272], [139.92845, 36.72483], [139.92875, 36.7256], [139.92911, 36.72654], [139.92924, 36.72685], [139.92947, 36.72746], [139.92955, 36.72768], [139.92962, 36.72787], [139.9297, 36.72805], [139.92989, 36.72854], [139.93007, 36.72902], [139.93063, 36.73045], [139.93095, 36.73127], [139.93118, 36.73186], [139.93195, 36.73386], [139.93259, 36.73552], [139.93282, 36.73615], [139.93306, 36.73676], [139.93323, 36.7372], [139.93347, 36.73782], [139.93362, 36.73821], [139.93378, 36.73859], [139.93417, 36.73955], [139.93463, 36.74072], [139.93488, 36.7413], [139.935, 36.7416], [139.93514, 36.74197], [139.93521, 36.74211], [139.93537, 36.74245], [139.93569, 36.74317], [139.93623, 36.74437], [139.93664, 36.74536], [139.93701, 36.74615], [139.938, 36.74836], [139.93846, 36.7494], [139.9395, 36.75169], [139.93962, 36.75195], [139.94013, 36.75311], [139.94036, 36.75366], [139.94041, 36.75376], [139.94077, 36.75461], [139.94105, 36.75523], [139.94115, 36.75547], [139.94132, 36.75583], [139.94141, 36.75604], [139.94149, 36.75621], [139.94155, 36.75635], [139.94194, 36.75723], [139.94262, 36.75874], [139.94271, 36.75893], [139.94342, 36.76053], [139.9438, 36.76137], [139.94383, 36.76143], [139.94405, 36.76188], [139.94421, 36.76224], [139.94433, 36.76253], [139.94459, 36.76313], [139.94484, 36.7637], [139.94493, 36.76389], [139.94499, 36.76403], [139.94514, 36.76436], [139.94536, 36.76482], [139.94539, 36.7649], [139.94543, 36.76499], [139.94547, 36.76508], [139.94551, 36.76516], [139.9457, 36.76559], [139.9459, 36.76603], [139.94598, 36.76622], [139.9463, 36.76693], [139.94668, 36.76779], [139.9467, 36.7678], [139.94694, 36.76835], [139.94698, 36.76845], [139.94708, 36.76868], [139.94713, 36.76878], [139.94719, 36.7689], [139.94726, 36.76907], [139.9473, 36.76915], [139.94733, 36.76923], [139.94743, 36.76944], [139.9477, 36.77005], [139.94792, 36.77054], [139.94805, 36.77087], [139.94816, 36.77112], [139.94821, 36.77123], [139.94826, 36.77133], [139.94832, 36.77146], [139.94836, 36.77155], [139.9485, 36.77185], [139.94895, 36.77287], [139.94936, 36.77385], [139.94962, 36.77446], [139.95011, 36.77571], [139.95063, 36.77713], [139.95116, 36.77869], [139.95142, 36.77945], [139.95148, 36.77966], [139.95178, 36.78062], [139.95194, 36.78114], [139.95225, 36.7822], [139.9525, 36.78311], [139.95252, 36.78321], [139.95273, 36.78401], [139.95288, 36.78466], [139.95296, 36.78498], [139.95327, 36.7863], [139.95343, 36.78709], [139.95351, 36.78744], [139.95358, 36.78778], [139.95367, 36.78827], [139.95389, 36.78953], [139.95395, 36.78989], [139.95419, 36.79137], [139.95432, 36.79207], [139.95452, 36.7931], [139.95477, 36.79458], [139.9548, 36.79471], [139.95487, 36.7951], [139.95527, 36.79717], [139.95538, 36.79787], [139.95558, 36.79913], [139.95654, 36.80453], [139.95678, 36.80586], [139.95687, 36.80642], [139.95702, 36.80724], [139.9571, 36.8077], [139.9574, 36.80929], [139.9576, 36.81037], [139.95773, 36.81115], [139.95787, 36.81199], [139.95821, 36.8138], [139.95827, 36.81414], [139.95833, 36.81443], [139.95847, 36.81521], [139.95886, 36.81738], [139.95895, 36.81792], [139.95914, 36.81903], [139.95944, 36.8207], [139.95963, 36.82179], [139.9597, 36.82222], [139.95975, 36.82252], [139.95979, 36.82272], [139.95983, 36.82291], [139.96004, 36.82412], [139.9601, 36.82444], [139.96015, 36.82474], [139.96022, 36.82512], [139.96032, 36.82572], [139.96033, 36.82582], [139.96053, 36.82693], [139.96058, 36.82725], [139.9606, 36.82735], [139.96074, 36.8281], [139.9608, 36.82845], [139.961, 36.82957], [139.96107, 36.83002], [139.96121, 36.83076], [139.96143, 36.83197], [139.96149, 36.8323], [139.96154, 36.83262], [139.96165, 36.83326], [139.96174, 36.83378], [139.96179, 36.83406], [139.96184, 36.83435], [139.96186, 36.83449], [139.96193, 36.83491], [139.96198, 36.83517], [139.96203, 36.83544], [139.96207, 36.83563], [139.96212, 36.83593], [139.96216, 36.83616], [139.96221, 36.83644], [139.96248, 36.83797], [139.96309, 36.8414], [139.9633, 36.84255], [139.96374, 36.84498], [139.96392, 36.84596], [139.9644, 36.84835], [139.96456, 36.84914], [139.9649, 36.85058], [139.96519, 36.85165], [139.96583, 36.85344], [139.96635, 36.85471], [139.96742, 36.857], [139.9675, 36.85717], [139.9679, 36.8578], [139.96878, 36.85925], [139.96942, 36.86039], [139.9704, 36.86188], [139.9715, 36.86341], [139.9726, 36.86497], [139.97342, 36.86614], [139.97495, 36.8683], [139.97732, 36.87158], [139.97816, 36.87276], [139.97973, 36.87496], [139.98187, 36.87797], [139.98372, 36.88056], [139.98443, 36.88156], [139.98686, 36.88498], [139.98926, 36.88837], [139.98964, 36.88889], [139.99209, 36.89239], [139.99395, 36.89492], [139.99484, 36.89616], [139.99582, 36.89754], [139.9967, 36.89876], [139.9968, 36.89892], [139.99713, 36.8994], [139.99787, 36.90042], [139.9979, 36.90044], [139.99794, 36.90051], [139.99823, 36.90091], [139.99825, 36.90094], [139.99857, 36.90139], [139.99886, 36.90179], [139.99891, 36.90187], [139.99897, 36.90195], [140.00029, 36.90378], [140.00034, 36.90384], [140.001, 36.90475], [140.00125, 36.9051], [140.00221, 36.90642], [140.0033, 36.90792], [140.00338, 36.90804], [140.00343, 36.90811], [140.00378, 36.90859], [140.00381, 36.90862], [140.00427, 36.90927], [140.00439, 36.90943], [140.00495, 36.91021], [140.00521, 36.91057], [140.00544, 36.91087], [140.00545, 36.91089], [140.00554, 36.91101], [140.00575, 36.91131], [140.00577, 36.91134], [140.0058, 36.91138], [140.00592, 36.91155], [140.0065, 36.91235], [140.0066, 36.91248], [140.00686, 36.91283], [140.00687, 36.91285], [140.00729, 36.91344], [140.00755, 36.91378], [140.00758, 36.91384], [140.00778, 36.91411], [140.00794, 36.91433], [140.00886, 36.9156], [140.00903, 36.91584], [140.00911, 36.91594], [140.00919, 36.91605], [140.00925, 36.91612], [140.0097, 36.91675], [140.01005, 36.91723], [140.01052, 36.91788], [140.01072, 36.91815], [140.01076, 36.91821]]}, "properties": {"id": "TRACK_TOKYO_3010", "line_name": "東北新幹線", "station_group_ids": [], "mode": "shinkansen", "operator_id": "jr_east", "line_color": "#2D9C5B", "tags": ["tokyo", "track_centerline"]}}, {"type": "Feature", "bbox": [139.89761, 36.55688, 139.89857, 36.56066], "geometry": {"type": "LineString", "coordinates": [[139.89761, 36.55688], [139.89857, 36.56066]]}, "properties": {"id": "TRACK_TOKYO_3013", "line_name": "東北新幹線", "station_group_ids": [], "mode": "shinkansen", "operator_id": "jr_east", "line_color": "#2D9C5B", "tags": ["tokyo", "track_centerline"]}}, {"type": "Feature", "bbox": [139.80746, 36.3155, 139.89761, 36.55688], "geometry": {"type": "LineString", "coordinates": [[139.80746, 36.3155], [139.80838, 36.31707], [139.80849, 36.31725], [139.81094, 36.32143], [139.81117, 36.32184], [139.81197, 36.32324], [139.81341, 36.32564], [139.81416, 36.32693], [139.81504, 36.32851], [139.81671, 36.33139], [139.81966, 36.33649], [139.81968, 36.33653], [139.82142, 36.33954], [139.82309, 36.3424], [139.82441, 36.34468], [139.82453, 36.34488], [139.82554, 36.34662], [139.82917, 36.35282], [139.82974, 36.35379], [139.83197, 36.35757], [139.83395, 36.36095], [139.83405, 36.36112], [139.83561, 36.36381], [139.8375, 36.36703], [139.83872, 36.36909], [139.83924, 36.36997], [139.84071, 36.37247], [139.84157, 36.37393], [139.84264, 36.37571], [139.84276, 36.37593], [139.84351, 36.37722], [139.84456, 36.379], [139.84509, 36.37991], [139.84643, 36.38224], [139.8475, 36.38408], [139.84764, 36.38433], [139.84946, 36.38742], [139.85061, 36.3894], [139.85227, 36.39221], [139.85239, 36.39241], [139.85396, 36.39509], [139.8549, 36.39671], [139.85665, 36.39969], [139.85704, 36.40035], [139.85772, 36.40149], [139.85774, 36.40154], [139.85842, 36.40272], [139.85912, 36.40407], [139.86023, 36.40625], [139.86077, 36.40741], [139.86108, 36.40817], [139.86125, 36.40862], [139.86171, 36.40989], [139.86193, 36.4105], [139.86222, 36.41142], [139.8625, 36.4125], [139.86339, 36.41696], [139.86374, 36.41874], [139.86387, 36.41938], [139.86396, 36.41982], [139.86396, 36.41983], [139.86408, 36.42055], [139.86413, 36.4209], [139.86418, 36.4212], [139.86427, 36.42171], [139.86439, 36.42229], [139.86477, 36.4245], [139.86479, 36.42457], [139.86563, 36.42921], [139.86568, 36.42947], [139.86577, 36.42993], [139.86599, 36.43118], [139.8673, 36.43839], [139.86747, 36.43937], [139.86748, 36.4394], [139.86751, 36.4396], [139.86755, 36.43979], [139.86762, 36.4402], [139.86797, 36.44207], [139.86843, 36.4446], [139.86909, 36.44829], [139.86945, 36.45028], [139.86957, 36.45096], [139.86977, 36.45205], [139.8698, 36.45223], [139.86984, 36.45243], [139.87007, 36.4537], [139.87017, 36.45423], [139.87025, 36.45469], [139.87045, 36.45576], [139.87055, 36.45633], [139.87083, 36.4579], [139.87155, 36.46186], [139.8716, 36.46214], [139.87173, 36.46288], [139.87183, 36.46342], [139.8719, 36.46385], [139.87196, 36.46413], [139.87203, 36.46455], [139.87229, 36.46609], [139.87258, 36.4677], [139.8729, 36.46952], [139.87313, 36.47084], [139.87376, 36.47429], [139.87423, 36.47678], [139.87433, 36.4773], [139.87497, 36.48071], [139.87547, 36.48338], [139.87591, 36.48569], [139.87596, 36.48593], [139.87642, 36.48844], [139.87652, 36.48897], [139.87666, 36.48965], [139.87672, 36.48993], [139.87679, 36.49018], [139.87703, 36.49105], [139.8771, 36.49134], [139.87738, 36.49222], [139.87758, 36.49282], [139.87763, 36.49298], [139.87768, 36.49313], [139.87819, 36.4945], [139.87829, 36.49474], [139.8791, 36.49689], [139.87988, 36.49904], [139.88056, 36.50098], [139.88101, 36.50224], [139.88134, 36.50314], [139.8817, 36.50405], [139.88191, 36.50459], [139.88255, 36.50639], [139.88414, 36.51072], [139.88488, 36.51268], [139.88522, 36.51358], [139.88639, 36.51678], [139.8872, 36.51893], [139.88808, 36.52131], [139.8882, 36.52164], [139.88945, 36.52508], [139.89031, 36.52739], [139.89086, 36.52897], [139.89108, 36.52967], [139.89116, 36.52997], [139.89165, 36.53183], [139.8925, 36.53514], [139.89334, 36.53881], [139.89356, 36.53977], [139.8945, 36.54374], [139.89543, 36.54767], [139.89574, 36.549], [139.89651, 36.55218], [139.89753, 36.55652], [139.89761, 36.55688]]}, "properties": {"id": "TRACK_TOKYO_3015", "line_name": "東北新幹線", "station_group_ids": [], "mode": "shinkansen", "operator_id": "jr_east", "line_color": "#2D9C5B", "tags": ["tokyo", "track_centerline"]}}, {"type": "Feature", "bbox": [139.88527, 36.54257, 139.89807, 36.55697], "geometry": {"type": "LineString", "coordinates": [[139.88527, 36.54257], [139.88542, 36.54275], [139.88609, 36.54354], [139.88647, 36.54395], [139.88708, 36.54458], [139.88783, 36.54528], [139.88915, 36.54646], [139.89174, 36.54874], [139.89212, 36.54908], [139.89383, 36.55058], [139.8951, 36.55169], [139.89548, 36.55202], [139.89591, 36.5524], [139.89629, 36.5528], [139.89662, 36.55316], [139.89693, 36.55356], [139.8971, 36.55377], [139.89729, 36.55431], [139.89742, 36.55474], [139.89747, 36.55487], [139.89786, 36.55618], [139.89807, 36.55697]]}, "properties": {"id": "TRACK_TOKYO_3237", "line_name": "東北線", "station_group_ids": [], "mode": "rail", "operator_id": "jr_east", "line_color": "#3AA76D", "tags": ["tokyo", "track_centerline"]}}, {"type": "Feature", "bbox": [139.89807, 36.55697, 139.89938, 36.56253], "geometry": {"type": "LineString", "coordinates": [[139.89807, 36.55697], [139.89878, 36.55992], [139.89938, 36.56253]]}, "properties": {"id": "TRACK_TOKYO_3238", "line_name": "東北線", "station_group_ids": [], "mode": "rail", "operator_id": "jr_east", "line_color": "#3AA76D", "tags": ["tokyo", "track_centerline"]}}, {"type": "Feature", "bbox": [139.97935, 36.63078, 139.97969, 36.63247], "geometry": {"type": "LineString", "coordinates": [[139.97935, 36.63247], [139.97969, 36.63078]]}, "properties": {"id": "TRACK_TOKYO_3239", "line_name": "東北線", "station_group_ids": [], "mode": "rail", "operator_id": "jr_east", "line_color": "#3AA76D", "tags": ["tokyo", "track_centerline"]}}, {"type": "Feature", "bbox": [139.97851, 36.63247, 139.97935, 36.63663], "geometry": {"type": "LineString", "coordinates": [[139.97935, 36.63247], [139.97902, 36.63417], [139.97889, 36.63486], [139.97868, 36.63587], [139.97851, 36.63663]]}, "properties": {"id": "TRACK_TOKYO_3240", "line_name": "東北線", "station_group_ids": [], "mode": "rail", "operator_id": "jr_east", "line_color": "#3AA76D", "tags": ["tokyo", "track_centerline"]}}, {"type": "Feature", "bbox": [139.86674, 36.43743, 139.87679, 36.49235], "geometry": {"type": "LineString", "coordinates": [[139.86674, 36.43743], [139.8668, 36.43778], [139.86684, 36.43803], [139.86691, 36.43846], [139.86699, 36.43897], [139.8671, 36.43951], [139.86711, 36.43958], [139.86717, 36.43988], [139.86756, 36.44199], [139.86759, 36.44214], [139.8676, 36.44216], [139.86771, 36.44282], [139.86793, 36.44399], [139.86816, 36.44523], [139.86846, 36.44694], [139.86907, 36.45025], [139.86919, 36.4509], [139.86933, 36.45171], [139.86962, 36.45325], [139.86962, 36.45335], [139.8699, 36.45482], [139.86994, 36.45497], [139.86995, 36.45511], [139.87017, 36.45629], [139.87053, 36.45819], [139.87054, 36.45824], [139.87059, 36.45854], [139.87093, 36.46033], [139.87171, 36.46452], [139.87173, 36.46463], [139.87182, 36.46514], [139.87189, 36.46552], [139.87195, 36.46593], [139.87205, 36.46658], [139.87222, 36.46754], [139.87223, 36.46757], [139.8723, 36.46802], [139.87239, 36.46856], [139.8725, 36.46921], [139.87256, 36.46955], [139.87263, 36.46999], [139.87268, 36.47019], [139.87279, 36.47084], [139.87289, 36.47134], [139.87291, 36.47153], [139.87296, 36.47179], [139.87323, 36.47323], [139.87345, 36.47441], [139.87347, 36.47453], [139.87358, 36.47511], [139.87367, 36.47555], [139.87369, 36.47572], [139.87386, 36.47662], [139.87411, 36.4779], [139.87417, 36.47822], [139.87438, 36.47931], [139.87452, 36.48013], [139.87461, 36.4806], [139.87473, 36.4812], [139.87475, 36.48124], [139.87477, 36.48139], [139.87489, 36.48205], [139.87496, 36.48244], [139.87499, 36.48264], [139.875, 36.48267], [139.8751, 36.48323], [139.87514, 36.48344], [139.87529, 36.48427], [139.87548, 36.48528], [139.87568, 36.48637], [139.87569, 36.48644], [139.87575, 36.48673], [139.87606, 36.4884], [139.87621, 36.48924], [139.87631, 36.48977], [139.87632, 36.48979], [139.87637, 36.4901], [139.87652, 36.49088], [139.87662, 36.49151], [139.87677, 36.49229], [139.87679, 36.49235]]}, "properties": {"id": "TRACK_TOKYO_3243", "line_name": "東北線", "station_group_ids": [], "mode": "rail", "operator_id": "jr_east", "line_color": "#3AA76D", "tags": ["tokyo", "track_centerline"]}}, {"type": "Feature", "bbox": [139.87737, 36.49546, 139.88527, 36.54257], "geometry": {"type": "LineString", "coordinates": [[139.87737, 36.49546], [139.87746, 36.49597], [139.87756, 36.4966], [139.87758, 36.49662], [139.87759, 36.49671], [139.87765, 36.49707], [139.87783, 36.49804], [139.8779, 36.49856], [139.87792, 36.49871], [139.87811, 36.49989], [139.87818, 36.50032], [139.87824, 36.50067], [139.87836, 36.50137], [139.87846, 36.50202], [139.87854, 36.50249], [139.87859, 36.50277], [139.87865, 36.50314], [139.87881, 36.50403], [139.87936, 36.50714], [139.87937, 36.50718], [139.8797, 36.50899], [139.88005, 36.51092], [139.88015, 36.51177], [139.88023, 36.51256], [139.88041, 36.51456], [139.88052, 36.5161], [139.88067, 36.51829], [139.88093, 36.52203], [139.88116, 36.5251], [139.88118, 36.52535], [139.88139, 36.5282], [139.8815, 36.5297], [139.88162, 36.53122], [139.88183, 36.53384], [139.88185, 36.5341], [139.88195, 36.53506], [139.88205, 36.53568], [139.8822, 36.53621], [139.88249, 36.53736], [139.8827, 36.53806], [139.88294, 36.53871], [139.88329, 36.53946], [139.88364, 36.54015], [139.8838, 36.54046], [139.88404, 36.54087], [139.88461, 36.54172], [139.88507, 36.54232], [139.88527, 36.54257]]}, "properties": {"id": "TRACK_TOKYO_3250", "line_name": "東北線", "station_group_ids": [], "mode": "rail", "operator_id": "jr_east", "line_color": "#3AA76D", "tags": ["tokyo", "track_centerline"]}}, {"type": "Feature", "bbox": [139.89938, 36.56253, 139.94314, 36.59746], "geometry": {"type": "LineString", "coordinates": [[139.89938, 36.56253], [139.89948, 36.56297], [139.89954, 36.56321], [139.89962, 36.56356], [139.89967, 36.56378], [139.90007, 36.56546], [139.90053, 36.56697], [139.90075, 36.56748], [139.90086, 36.56773], [139.90105, 36.56806], [139.90136, 36.56847], [139.90175, 36.56891], [139.90178, 36.56894], [139.90205, 36.56919], [139.90255, 36.5696], [139.90424, 36.57075], [139.9081, 36.57338], [139.91018, 36.57481], [139.91157, 36.57576], [139.91548, 36.57847], [139.91848, 36.58053], [139.91863, 36.58064], [139.92229, 36.58315], [139.9238, 36.5842], [139.92608, 36.58576], [139.92709, 36.58647], [139.92868, 36.58754], [139.93347, 36.59083], [139.93557, 36.59227], [139.93939, 36.59489], [139.9395, 36.59496], [139.94314, 36.59746]]}, "properties": {"id": "TRACK_TOKYO_3251", "line_name": "東北線", "station_group_ids": [], "mode": "rail", "operator_id": "jr_east", "line_color": "#3AA76D", "tags": ["tokyo", "track_centerline"]}}, {"type": "Feature", "bbox": [139.96171, 36.68057, 139.96249, 36.68281], "geometry": {"type": "LineString", "coordinates": [[139.96249, 36.68057], [139.9622, 36.68144], [139.96171, 36.68281]]}, "properties": {"id": "TRACK_TOKYO_3257", "line_name": "東北線", "station_group_ids": [], "mode": "rail", "operator_id": "jr_east", "line_color": "#3AA76D", "tags": ["tokyo", "track_centerline"]}}, {"type": "Feature", "bbox": [139.95071, 36.68281, 139.96171, 36.7196], "geometry": {"type": "LineString", "coordinates": [[139.96171, 36.68281], [139.96157, 36.68315], [139.96124, 36.68408], [139.96096, 36.68482], [139.96073, 36.68548], [139.96031, 36.68664], [139.95996, 36.68749], [139.95973, 36.68798], [139.95969, 36.68806], [139.95937, 36.68885], [139.95918, 36.68928], [139.95901, 36.68968], [139.9588, 36.69019], [139.95875, 36.69029], [139.95857, 36.69071], [139.9584, 36.6911], [139.95815, 36.69168], [139.95761, 36.69295], [139.95747, 36.69327], [139.95741, 36.6934], [139.95734, 36.69361], [139.9573, 36.69373], [139.95704, 36.69474], [139.95689, 36.69539], [139.95682, 36.6956], [139.95673, 36.69602], [139.9566, 36.69651], [139.95619, 36.69812], [139.95586, 36.69943], [139.95569, 36.7001], [139.95563, 36.70033], [139.9556, 36.70045], [139.95557, 36.70052], [139.95513, 36.7023], [139.95503, 36.7027], [139.9548, 36.70361], [139.95475, 36.70379], [139.9546, 36.70439], [139.95448, 36.70487], [139.95444, 36.70502], [139.95419, 36.70599], [139.954, 36.70677], [139.95377, 36.70761], [139.95361, 36.70826], [139.95352, 36.70861], [139.95332, 36.7094], [139.95327, 36.70959], [139.95322, 36.70977], [139.95319, 36.7099], [139.95313, 36.71012], [139.95296, 36.71084], [139.95293, 36.71093], [139.9529, 36.71105], [139.95282, 36.71137], [139.9526, 36.71224], [139.95237, 36.71313], [139.95232, 36.71331], [139.95228, 36.71349], [139.95226, 36.71357], [139.95221, 36.71375], [139.9521, 36.71421], [139.952, 36.71452], [139.95189, 36.715], [139.95188, 36.71504], [139.95165, 36.71592], [139.95157, 36.71623], [139.95136, 36.71708], [139.95128, 36.71737], [139.95124, 36.71754], [139.95118, 36.71777], [139.95111, 36.71802], [139.95107, 36.71822], [139.951, 36.7185], [139.95096, 36.71869], [139.95087, 36.71899], [139.95071, 36.7196]]}, "properties": {"id": "TRACK_TOKYO_3258", "line_name": "東北線", "station_group_ids": [], "mode": "rail", "operator_id": "jr_east", "line_color": "#3AA76D", "tags": ["tokyo", "track_centerline"]}}, {"type": "Feature", "bbox": [139.94314, 36.59746, 139.94536, 36.59907], "geometry": {"type": "LineString", "coordinates": [[139.94536, 36.59907], [139.94314, 36.59746]]}, "properties": {"id": "TRACK_TOKYO_3259", "line_name": "東北線", "station_group_ids": [], "mode": "rail", "operator_id": "jr_east", "line_color": "#3AA76D", "tags": ["tokyo", "track_centerline"]}}, {"type": "Feature", "bbox": [139.87679, 36.49235, 139.87737, 36.49546], "geometry": {"type": "LineString", "coordinates": [[139.87679, 36.49235], [139.87691, 36.49298], [139.8771, 36.49411], [139.87737, 36.49546]]}, "properties": {"id": "TRACK_TOKYO_3266", "line_name": "東北線", "station_group_ids": [], "mode": "rail", "operator_id": "jr_east", "line_color": "#3AA76D", "tags": ["tokyo", "track_centerline"]}}, {"type": "Feature", "bbox": [139.96249, 36.63663, 139.97851, 36.68057], "geometry": {"type": "LineString", "coordinates": [[139.97851, 36.63663], [139.97821, 36.6383], [139.97813, 36.63867], [139.97792, 36.63971], [139.97766, 36.64095], [139.97746, 36.64175], [139.97722, 36.64244], [139.97705, 36.64282], [139.97701, 36.64293], [139.97678, 36.64337], [139.97656, 36.6438], [139.97637, 36.64417], [139.9761, 36.64467], [139.9756, 36.64553], [139.97488, 36.64667], [139.97435, 36.64747], [139.97376, 36.64838], [139.97317, 36.64927], [139.97258, 36.65018], [139.97188, 36.65126], [139.97155, 36.65184], [139.97131, 36.65227], [139.97078, 36.65341], [139.97039, 36.65469], [139.97018, 36.65551], [139.97014, 36.65566], [139.96988, 36.65671], [139.96953, 36.65816], [139.96923, 36.65929], [139.96893, 36.66044], [139.9687, 36.66134], [139.96867, 36.66145], [139.96836, 36.66272], [139.96806, 36.66388], [139.96791, 36.66449], [139.96766, 36.66555], [139.96741, 36.66667], [139.96708, 36.66776], [139.96671, 36.66869], [139.96639, 36.66979], [139.96637, 36.66984], [139.96634, 36.66994], [139.96633, 36.66995], [139.96628, 36.67008], [139.96592, 36.67107], [139.96538, 36.67248], [139.96531, 36.67268], [139.96501, 36.67354], [139.96461, 36.67461], [139.96424, 36.67567], [139.96402, 36.67627], [139.96395, 36.67647], [139.96391, 36.67661], [139.96387, 36.67671], [139.96382, 36.67685], [139.96375, 36.67705], [139.96358, 36.67755], [139.96345, 36.67786], [139.96327, 36.67841], [139.96315, 36.67875], [139.9631, 36.67889], [139.96303, 36.67908], [139.96289, 36.67946], [139.96282, 36.67968], [139.96255, 36.68045], [139.96249, 36.68057]]}, "properties": {"id": "TRACK_TOKYO_3269", "line_name": "東北線", "station_group_ids": [], "mode": "rail", "operator_id": "jr_east", "line_color": "#3AA76D", "tags": ["tokyo", "track_centerline"]}}, {"type": "Feature", "bbox": [139.94536, 36.59907, 139.98097, 36.63078], "geometry": {"type": "LineString", "coordinates": [[139.97969, 36.63078], [139.97969, 36.63073], [139.9798, 36.62991], [139.97987, 36.62945], [139.97991, 36.62922], [139.98, 36.62857], [139.98003, 36.62831], [139.98005, 36.62815], [139.98017, 36.62748], [139.98043, 36.6263], [139.98055, 36.62573], [139.98066, 36.62508], [139.98075, 36.62453], [139.9808, 36.62421], [139.98092, 36.62346], [139.98097, 36.62283], [139.98097, 36.62214], [139.98092, 36.62158], [139.98087, 36.62122], [139.9807, 36.6205], [139.98059, 36.62012], [139.98057, 36.62001], [139.98041, 36.61951], [139.98037, 36.6194], [139.97986, 36.61781], [139.9793, 36.61614], [139.97927, 36.61604], [139.97907, 36.61545], [139.97899, 36.61519], [139.97876, 36.61452], [139.9786, 36.61419], [139.97832, 36.61373], [139.978, 36.61328], [139.97773, 36.613], [139.97735, 36.61269], [139.97713, 36.61252], [139.97663, 36.61223], [139.9763, 36.61206], [139.97552, 36.61172], [139.97543, 36.61168], [139.97503, 36.61157], [139.97447, 36.61147], [139.97437, 36.61146], [139.97369, 36.61138], [139.9734, 36.61135], [139.97286, 36.61131], [139.97048, 36.61111], [139.96805, 36.6109], [139.96707, 36.61083], [139.96606, 36.61075], [139.9659, 36.61074], [139.96577, 36.61073], [139.96525, 36.61068], [139.96477, 36.61061], [139.96424, 36.61048], [139.96283, 36.6101], [139.96263, 36.61004], [139.96239, 36.60997], [139.96238, 36.60997], [139.96211, 36.60989], [139.96191, 36.60983], [139.96124, 36.60958], [139.961, 36.60948], [139.96069, 36.60935], [139.96038, 36.60921], [139.96006, 36.60903], [139.95997, 36.60898], [139.95981, 36.60888], [139.95967, 36.60879], [139.95929, 36.60854], [139.9589, 36.60828], [139.95809, 36.60773], [139.95673, 36.6068], [139.95659, 36.6067], [139.95633, 36.60653], [139.95387, 36.60485], [139.95063, 36.60263], [139.95004, 36.60224], [139.94536, 36.59907]]}, "properties": {"id": "TRACK_TOKYO_3272", "line_name": "東北線", "station_group_ids": [], "mode": "rail", "operator_id": "jr_east", "line_color": "#3AA76D", "tags": ["tokyo", "track_centerline"]}}, {"type": "Feature", "bbox": [139.86056, 36.53054, 139.86107, 36.53137], "geometry": {"type": "LineString", "coordinates": [[139.86107, 36.53137], [139.86056, 36.53054]]}, "properties": {"id": "TRACK_TOKYO_3599", "line_name": "宇都宮線", "station_group_ids": [], "mode": "private", "operator_id": "tobu", "line_color": "#1F78FF", "tags": ["tokyo", "track_centerline"]}}, {"type": "Feature", "bbox": [139.87253, 36.54402, 139.88212, 36.55849], "geometry": {"type": "LineString", "coordinates": [[139.87253, 36.54402], [139.87522, 36.54541], [139.87541, 36.54552], [139.87655, 36.54611], [139.8768, 36.54623], [139.87772, 36.54671], [139.87801, 36.54686], [139.87886, 36.5473], [139.87987, 36.54781], [139.88021, 36.54799], [139.88052, 36.54818], [139.88096, 36.54853], [139.88126, 36.54885], [139.88152, 36.54915], [139.88176, 36.54953], [139.88194, 36.54992], [139.88207, 36.55025], [139.88212, 36.5505], [139.88212, 36.55074], [139.88212, 36.55083], [139.88208, 36.55126], [139.88202, 36.5516], [139.88195, 36.55195], [139.88173, 36.55301], [139.8817, 36.55325], [139.88148, 36.55426], [139.88143, 36.55452], [139.8813, 36.55517], [139.88124, 36.55543], [139.8811, 36.55615], [139.88104, 36.55642], [139.88091, 36.55713], [139.88083, 36.55746], [139.88067, 36.55824], [139.88062, 36.55849]]}, "properties": {"id": "TRACK_TOKYO_3600", "line_name": "宇都宮線", "station_group_ids": [], "mode": "private", "operator_id": "tobu", "line_color": "#1F78FF", "tags": ["tokyo", "track_centerline"]}}, {"type": "Feature", "bbox": [139.8716, 36.54354, 139.87253, 36.54402], "geometry": {"type": "LineString", "coordinates": [[139.8716, 36.54354], [139.87173, 36.54359], [139.87253, 36.54402]]}, "properties": {"id": "TRACK_TOKYO_3603", "line_name": "宇都宮線", "station_group_ids": [], "mode": "private", "operator_id": "tobu", "line_color": "#1F78FF", "tags": ["tokyo", "track_centerline"]}}, {"type": "Feature", "bbox": [139.85057, 36.51466, 139.86056, 36.53054], "geometry": {"type": "LineString", "coordinates": [[139.86056, 36.53054], [139.85751, 36.52568], [139.85563, 36.52269], [139.85489, 36.52151], [139.85329, 36.51898], [139.85057, 36.51466]]}, "properties": {"id": "TRACK_TOKYO_3604", "line_name": "宇都宮線", "station_group_ids": [], "mode": "private", "operator_id": "tobu", "line_color": "#1F78FF", "tags": ["tokyo", "track_centerline"]}}, {"type": "Feature", "bbox": [139.88058, 36.55849, 139.88062, 36.55883], "geometry": {"type": "LineString", "coordinates": [[139.88062, 36.55849], [139.88058, 36.55883]]}, "properties": {"id": "TRACK_TOKYO_3606", "line_name": "宇都宮線", "station_group_ids": [], "mode": "private", "operator_id": "tobu", "line_color": "#1F78FF", "tags": ["tokyo", "track_centerline"]}}, {"type": "Feature", "bbox": [139.86107, 36.53137, 139.8716, 36.54354], "geometry": {"type": "LineString", "coordinates": [[139.8716, 36.54354], [139.86944, 36.54248], [139.86868, 36.54211], [139.86831, 36.54191], [139.86811, 36.54178], [139.86776, 36.5415], [139.86747, 36.54125], [139.86715, 36.54092], [139.86689, 36.5406], [139.86673, 36.54037], [139.86605, 36.53929], [139.86574, 36.53876], [139.86548, 36.53836], [139.86531, 36.5381], [139.8643, 36.53649], [139.86419, 36.53631], [139.86279, 36.53409], [139.86107, 36.53137]]}, "properties": {"id": "TRACK_TOKYO_3607", "line_name": "宇都宮線", "station_group_ids": [], "mode": "private", "operator_id": "tobu", "line_color": "#1F78FF", "tags": ["tokyo", "track_centerline"]}}]}