{"type": "FeatureCollection", "features": [{"type": "Feature", "bbox": [139.80746, 36.3155, 139.89761, 36.55688], "geometry": {"type": "LineString", "coordinates": [[139.80746, 36.3155], [139.80838, 36.31707], [139.80849, 36.31725], [139.81094, 36.32143], [139.81117, 36.32184], [139.81197, 36.32324], [139.81341, 36.32564], [139.81416, 36.32693], [139.81504, 36.32851], [139.81671, 36.33139], [139.81966, 36.33649], [139.81968, 36.33653], [139.82142, 36.33954], [139.82309, 36.3424], [139.82441, 36.34468], [139.82453, 36.34488], [139.82554, 36.34662], [139.82917, 36.35282], [139.82974, 36.35379], [139.83197, 36.35757], [139.83395, 36.36095], [139.83405, 36.36112], [139.83561, 36.36381], [139.8375, 36.36703], [139.83872, 36.36909], [139.83924, 36.36997], [139.84071, 36.37247], [139.84157, 36.37393], [139.84264, 36.37571], [139.84276, 36.37593], [139.84351, 36.37722], [139.84456, 36.379], [139.84509, 36.37991], [139.84643, 36.38224], [139.8475, 36.38408], [139.84764, 36.38433], [139.84946, 36.38742], [139.85061, 36.3894], [139.85227, 36.39221], [139.85239, 36.39241], [139.85396, 36.39509], [139.8549, 36.39671], [139.85665, 36.39969], [139.85704, 36.40035], [139.85772, 36.40149], [139.85774, 36.40154], [139.85842, 36.40272], [139.85912, 36.40407], [139.86023, 36.40625], [139.86077, 36.40741], [139.86108, 36.40817], [139.86125, 36.40862], [139.86171, 36.40989], [139.86193, 36.4105], [139.86222, 36.41142], [139.8625, 36.4125], [139.86339, 36.41696], [139.86374, 36.41874], [139.86387, 36.41938], [139.86396, 36.41982], [139.86396, 36.41983], [139.86408, 36.42055], [139.86413, 36.4209], [139.86418, 36.4212], [139.86427, 36.42171], [139.86439, 36.42229], [139.86477, 36.4245], [139.86479, 36.42457], [139.86563, 36.42921], [139.86568, 36.42947], [139.86577, 36.42993], [139.86599, 36.43118], [139.8673, 36.43839], [139.86747, 36.43937], [139.86748, 36.4394], [139.86751, 36.4396], [139.86755, 36.43979], [139.86762, 36.4402], [139.86797, 36.44207], [139.86843, 36.4446], [139.86909, 36.44829], [139.86945, 36.45028], [139.86957, 36.45096], [139.86977, 36.45205], [139.8698, 36.45223], [139.86984, 36.45243], [139.87007, 36.4537], [139.87017, 36.45423], [139.87025, 36.45469], [139.87045, 36.45576], [139.87055, 36.45633], [139.87083, 36.4579], [139.87155, 36.46186], [139.8716, 36.46214], [139.87173, 36.46288], [139.87183, 36.46342], [139.8719, 36.46385], [139.87196, 36.46413], [139.87203, 36.46455], [139.87229, 36.46609], [139.87258, 36.4677], [139.8729, 36.46952], [139.87313, 36.47084], [139.87376, 36.47429], [139.87423, 36.47678], [139.87433, 36.4773], [139.87497, 36.48071], [139.87547, 36.48338], [139.87591, 36.48569], [139.87596, 36.48593], [139.87642, 36.48844], [139.87652, 36.48897], [139.87666, 36.48965], [139.87672, 36.48993], [139.87679, 36.49018], [139.87703, 36.49105], [139.8771, 36.49134], [139.87738, 36.49222], [139.87758, 36.49282], [139.87763, 36.49298], [139.87768, 36.49313], [139.87819, 36.4945], [139.87829, 36.49474], [139.8791, 36.49689], [139.87988, 36.49904], [139.88056, 36.50098], [139.88101, 36.50224], [139.88134, 36.50314], [139.8817, 36.50405], [139.88191, 36.50459], [139.88255, 36.50639], [139.88414, 36.51072], [139.88488, 36.51268], [139.88522, 36.51358], [139.88639, 36.51678], [139.8872, 36.51893], [139.88808, 36.52131], [139.8882, 36.52164], [139.88945, 36.52508], [139.89031, 36.52739], [139.89086, 36.52897], [139.89108, 36.52967], [139.89116, 36.52997], [139.89165, 36.53183], [139.8925, 36.53514], [139.89334, 36.53881], [139.89356, 36.53977], [139.8945, 36.54374], [139.89543, 36.54767], [139.89574, 36.549], [139.89651, 36.55218], [139.89753, 36.55652], [139.89761, 36.55688]]}, "properties": {"id": "TRACK_TOKYO_3000", "line_name": "東北新幹線", "station_group_ids": [], "mode": "shinkansen", "operator_id": "jr_east", "line_color": "#2D9C5B", "tags": ["tokyo", "track_centerline"]}}, {"type": "Feature", "bbox": [139.86674, 36.43743, 139.87679, 36.49235], "geometry": {"type": "LineString", "coordinates": [[139.86674, 36.43743], [139.8668, 36.43778], [139.86684, 36.43803], [139.86691, 36.43846], [139.86699, 36.43897], [139.8671, 36.43951], [139.86711, 36.43958], [139.86717, 36.43988], [139.86756, 36.44199], [139.86759, 36.44214], [139.8676, 36.44216], [139.86771, 36.44282], [139.86793, 36.44399], [139.86816, 36.44523], [139.86846, 36.44694], [139.86907, 36.45025], [139.86919, 36.4509], [139.86933, 36.45171], [139.86962, 36.45325], [139.86962, 36.45335], [139.8699, 36.45482], [139.86994, 36.45497], [139.86995, 36.45511], [139.87017, 36.45629], [139.87053, 36.45819], [139.87054, 36.45824], [139.87059, 36.45854], [139.87093, 36.46033], [139.87171, 36.46452], [139.87173, 36.46463], [139.87182, 36.46514], [139.87189, 36.46552], [139.87195, 36.46593], [139.87205, 36.46658], [139.87222, 36.46754], [139.87223, 36.46757], [139.8723, 36.46802], [139.87239, 36.46856], [139.8725, 36.46921], [139.87256, 36.46955], [139.87263, 36.46999], [139.87268, 36.47019], [139.87279, 36.47084], [139.87289, 36.47134], [139.87291, 36.47153], [139.87296, 36.47179], [139.87323, 36.47323], [139.87345, 36.47441], [139.87347, 36.47453], [139.87358, 36.47511], [139.87367, 36.47555], [139.87369, 36.47572], [139.87386, 36.47662], [139.87411, 36.4779], [139.87417, 36.47822], [139.87438, 36.47931], [139.87452, 36.48013], [139.87461, 36.4806], [139.87473, 36.4812], [139.87475, 36.48124], [139.87477, 36.48139], [139.87489, 36.48205], [139.87496, 36.48244], [139.87499, 36.48264], [139.875, 36.48267], [139.8751, 36.48323], [139.87514, 36.48344], [139.87529, 36.48427], [139.87548, 36.48528], [139.87568, 36.48637], [139.87569, 36.48644], [139.87575, 36.48673], [139.87606, 36.4884], [139.87621, 36.48924], [139.87631, 36.48977], [139.87632, 36.48979], [139.87637, 36.4901], [139.87652, 36.49088], [139.87662, 36.49151], [139.87677, 36.49229], [139.87679, 36.49235]]}, "properties": {"id": "TRACK_TOKYO_3228", "line_name": "東北線", "station_group_ids": [], "mode": "rail", "operator_id": "jr_east", "line_color": "#3AA76D", "tags": ["tokyo", "track_centerline"]}}, {"type": "Feature", "bbox": [139.8553, 36.39672, 139.86628, 36.43505], "geometry": {"type": "LineString", "coordinates": [[139.8553, 36.39672], [139.85582, 36.39762], [139.85613, 36.39815], [139.8562, 36.39826], [139.857, 36.39963], [139.85766, 36.40076], [139.85779, 36.40098], [139.8585, 36.40214], [139.85977, 36.40456], [139.86039, 36.40597], [139.86124, 36.4092], [139.86125, 36.40925], [139.86132, 36.40963], [139.8616, 36.41065], [139.86203, 36.41221], [139.86246, 36.41412], [139.86294, 36.41667], [139.86312, 36.41762], [139.86321, 36.41812], [139.86352, 36.41982], [139.86362, 36.42036], [139.86371, 36.42088], [139.864, 36.42241], [139.8641, 36.42299], [139.86442, 36.42478], [139.86454, 36.42547], [139.86468, 36.42625], [139.8647, 36.42632], [139.86482, 36.42695], [139.86493, 36.42762], [139.86528, 36.42954], [139.86571, 36.43192], [139.86576, 36.43221], [139.8658, 36.43244], [139.86603, 36.43364], [139.86628, 36.43505]]}, "properties": {"id": "TRACK_TOKYO_3238", "line_name": "東北線", "station_group_ids": [], "mode": "rail", "operator_id": "jr_east", "line_color": "#3AA76D", "tags": ["tokyo", "track_centerline"]}}, {"type": "Feature", "bbox": [139.8431, 36.3759, 139.85373, 36.39404], "geometry": {"type": "LineString", "coordinates": [[139.8431, 36.3759], [139.84353, 36.37659], [139.84395, 36.37732], [139.8442, 36.37775], [139.84422, 36.37777], [139.84522, 36.37953], [139.84667, 36.38198], [139.84822, 36.38462], [139.84896, 36.3859], [139.84987, 36.38745], [139.85151, 36.39028], [139.85373, 36.39404]]}, "properties": {"id": "TRACK_TOKYO_3241", "line_name": "東北線", "station_group_ids": [], "mode": "rail", "operator_id": "jr_east", "line_color": "#3AA76D", "tags": ["tokyo", "track_centerline"]}}, {"type": "Feature", "bbox": [139.85373, 36.39404, 139.8553, 36.39672], "geometry": {"type": "LineString", "coordinates": [[139.85373, 36.39404], [139.8553, 36.39672]]}, "properties": {"id": "TRACK_TOKYO_3247", "line_name": "東北線", "station_group_ids": [], "mode": "rail", "operator_id": "jr_east", "line_color": "#3AA76D", "tags": ["tokyo", "track_centerline"]}}, {"type": "Feature", "bbox": [139.86628, 36.43505, 139.86674, 36.43743], "geometry": {"type": "LineString", "coordinates": [[139.86628, 36.43505], [139.86674, 36.43743]]}, "properties": {"id": "TRACK_TOKYO_3258", "line_name": "東北線", "station_group_ids": [], "mode": "rail", "operator_id": "jr_east", "line_color": "#3AA76D", "tags": ["tokyo", "track_centerline"]}}]}