{"type": "FeatureCollection", "features": [{"type": "Feature", "bbox": [140.10431, 35.10822, 140.15384, 35.12546], "geometry": {"type": "LineString", "coordinates": [[140.10431, 35.10822], [140.10571, 35.10964], [140.10601, 35.10996], [140.1064, 35.11037], [140.1067, 35.11067], [140.10705, 35.11103], [140.10743, 35.11141], [140.10754, 35.11152], [140.10837, 35.11238], [140.10884, 35.11285], [140.10904, 35.11305], [140.10965, 35.11368], [140.1097, 35.11372], [140.11011, 35.11415], [140.11024, 35.1143], [140.1103, 35.11435], [140.11084, 35.1149], [140.11113, 35.1152], [140.11196, 35.11598], [140.11237, 35.11635], [140.11283, 35.11677], [140.11312, 35.11702], [140.11381, 35.11759], [140.11422, 35.11789], [140.11495, 35.11843], [140.11582, 35.11893], [140.11594, 35.11901], [140.11619, 35.11916], [140.11681, 35.11952], [140.11741, 35.11986], [140.11751, 35.11992], [140.11776, 35.12006], [140.11802, 35.12021], [140.11896, 35.12075], [140.12024, 35.12149], [140.12136, 35.12216], [140.12175, 35.12237], [140.12184, 35.12242], [140.12245, 35.12278], [140.12268, 35.12292], [140.12324, 35.12326], [140.12342, 35.12336], [140.12362, 35.12347], [140.12368, 35.12351], [140.12404, 35.12372], [140.12436, 35.12387], [140.12443, 35.12389], [140.12485, 35.12406], [140.12538, 35.12424], [140.12577, 35.12436], [140.12582, 35.12437], [140.12637, 35.12448], [140.12682, 35.12453], [140.12711, 35.12455], [140.1286, 35.12454], [140.12913, 35.12452], [140.12941, 35.1245], [140.13018, 35.12441], [140.13057, 35.12434], [140.13079, 35.12429], [140.13236, 35.12381], [140.13402, 35.12328], [140.13414, 35.12324], [140.13432, 35.12319], [140.13504, 35.12297], [140.13533, 35.12287], [140.13645, 35.12252], [140.13937, 35.12163], [140.1394, 35.12161], [140.1398, 35.1215], [140.14021, 35.12141], [140.14077, 35.12132], [140.14104, 35.1213], [140.14143, 35.1213], [140.14179, 35.12132], [140.14214, 35.12137], [140.14238, 35.12143], [140.14267, 35.12149], [140.14331, 35.12173], [140.14362, 35.12184], [140.14386, 35.12193], [140.14475, 35.12224], [140.14478, 35.12225], [140.14529, 35.12243], [140.14536, 35.12246], [140.14544, 35.12248], [140.14609, 35.12271], [140.14631, 35.12279], [140.14639, 35.12282], [140.1469, 35.123], [140.14728, 35.12313], [140.14782, 35.12333], [140.14788, 35.12334], [140.14794, 35.12338], [140.14808, 35.12341], [140.14839, 35.12353], [140.1492, 35.12381], [140.14998, 35.12409], [140.15045, 35.12425], [140.15047, 35.12427], [140.15084, 35.1244], [140.15092, 35.12442], [140.15113, 35.1245], [140.15142, 35.1246], [140.15166, 35.12469], [140.15212, 35.12485], [140.15296, 35.12515], [140.15328, 35.12526], [140.15378, 35.12543], [140.15384, 35.12546]]}, "properties": {"id": "TRACK_TOKYO_2213", "line_name": "外房線", "station_group_ids": [], "mode": "rail", "operator_id": "jr_east", "line_color": "#D9352A", "tags": ["tokyo", "track_centerline"]}}, {"type": "Feature", "bbox": [140.10311, 35.10702, 140.10431, 35.10822], "geometry": {"type": "LineString", "coordinates": [[140.10311, 35.10702], [140.10431, 35.10822]]}, "properties": {"id": "TRACK_TOKYO_2214", "line_name": "外房線", "station_group_ids": [], "mode": "rail", "operator_id": "jr_east", "line_color": "#D9352A", "tags": ["tokyo", "track_centerline"]}}, {"type": "Feature", "bbox": [140.10311, 35.10702, 140.10431, 35.10822], "geometry": {"type": "LineString", "coordinates": [[140.10311, 35.10702], [140.10431, 35.10822]]}, "properties": {"id": "TRACK_TOKYO_3764", "line_name": "内房線", "station_group_ids": [], "mode": "rail", "operator_id": "jr_east", "line_color": "#00AFCC", "tags": ["tokyo", "track_centerline"]}}, {"type": "Feature", "bbox": [140.096, 35.08064, 140.09646, 35.08233], "geometry": {"type": "LineString", "coordinates": [[140.096, 35.08233], [140.09646, 35.08064]]}, "properties": {"id": "TRACK_TOKYO_3775", "line_name": "内房線", "station_group_ids": [], "mode": "rail", "operator_id": "jr_east", "line_color": "#00AFCC", "tags": ["tokyo", "track_centerline"]}}, {"type": "Feature", "bbox": [139.96595, 34.99043, 139.96661, 34.99227], "geometry": {"type": "LineString", "coordinates": [[139.96595, 34.99043], [139.96661, 34.99227]]}, "properties": {"id": "TRACK_TOKYO_3779", "line_name": "内房線", "station_group_ids": [], "mode": "rail", "operator_id": "jr_east", "line_color": "#00AFCC", "tags": ["tokyo", "track_centerline"]}}, {"type": "Feature", "bbox": [139.86186, 34.98731, 139.91023, 34.99893], "geometry": {"type": "LineString", "coordinates": [[139.86195, 34.995], [139.86192, 34.99416], [139.86187, 34.99342], [139.86187, 34.9933], [139.86186, 34.99301], [139.86186, 34.99271], [139.8619, 34.99249], [139.86192, 34.99231], [139.86195, 34.99219], [139.86202, 34.99189], [139.86209, 34.99169], [139.86215, 34.99153], [139.86231, 34.99121], [139.86242, 34.99105], [139.86254, 34.99089], [139.86275, 34.99064], [139.86286, 34.99052], [139.86295, 34.99042], [139.86307, 34.99031], [139.86338, 34.99004], [139.86356, 34.98991], [139.86399, 34.98962], [139.86427, 34.98949], [139.86452, 34.98937], [139.86475, 34.9893], [139.86488, 34.98925], [139.86493, 34.98923], [139.86509, 34.98918], [139.86527, 34.98913], [139.86666, 34.98869], [139.86701, 34.98858], [139.86798, 34.98831], [139.86808, 34.98829], [139.86816, 34.98827], [139.86944, 34.98788], [139.86992, 34.98774], [139.87018, 34.98766], [139.87034, 34.98761], [139.87049, 34.98757], [139.87121, 34.98742], [139.87177, 34.98732], [139.87254, 34.98731], [139.87262, 34.98731], [139.87335, 34.98734], [139.8736, 34.98736], [139.87393, 34.98736], [139.87414, 34.98738], [139.87426, 34.98739], [139.8744, 34.98741], [139.87458, 34.98741], [139.87487, 34.98743], [139.87591, 34.9875], [139.87642, 34.98754], [139.87674, 34.98756], [139.87748, 34.9876], [139.87831, 34.98765], [139.87924, 34.98771], [139.87948, 34.98773], [139.88069, 34.9878], [139.8829, 34.98794], [139.88316, 34.98796], [139.88371, 34.98799], [139.8844, 34.98809], [139.88492, 34.98819], [139.88512, 34.98823], [139.88524, 34.98826], [139.88568, 34.9884], [139.88609, 34.98853], [139.88662, 34.98874], [139.88701, 34.98894], [139.88731, 34.98911], [139.88766, 34.98932], [139.88826, 34.98975], [139.88856, 34.99003], [139.88878, 34.99026], [139.88889, 34.99038], [139.88896, 34.9905], [139.88898, 34.99053], [139.88901, 34.99057], [139.88905, 34.99062], [139.88909, 34.99068], [139.88915, 34.99077], [139.88933, 34.99111], [139.88945, 34.99135], [139.88951, 34.99149], [139.88953, 34.99155], [139.88983, 34.99225], [139.88995, 34.99258], [139.89035, 34.99352], [139.89059, 34.99412], [139.89076, 34.99453], [139.89114, 34.99546], [139.89125, 34.99569], [139.89145, 34.99605], [139.89164, 34.99635], [139.89169, 34.99645], [139.89183, 34.99662], [139.89206, 34.99692], [139.8923, 34.99715], [139.8927, 34.99747], [139.89319, 34.99776], [139.89375, 34.998], [139.89403, 34.9981], [139.89434, 34.99818], [139.89499, 34.99826], [139.89507, 34.99827], [139.89572, 34.99833], [139.89635, 34.99841], [139.89684, 34.99846], [139.89745, 34.99852], [139.89807, 34.99853], [139.89834, 34.99852], [139.8986, 34.99848], [139.8988, 34.99846], [139.89908, 34.99841], [139.89931, 34.99835], [139.89974, 34.99826], [139.90001, 34.99822], [139.90047, 34.99815], [139.90125, 34.99814], [139.90173, 34.99814], [139.90214, 34.9982], [139.90263, 34.99829], [139.90316, 34.99848], [139.9042, 34.99878], [139.90479, 34.99889], [139.90505, 34.99893], [139.90545, 34.99892], [139.90582, 34.99888], [139.90616, 34.99881], [139.90691, 34.99858], [139.90737, 34.9984], [139.90763, 34.99828], [139.90838, 34.99806], [139.9089, 34.99792], [139.90939, 34.99782], [139.90995, 34.99773], [139.91023, 34.9977]]}, "properties": {"id": "TRACK_TOKYO_3780", "line_name": "内房線", "station_group_ids": [], "mode": "rail", "operator_id": "jr_east", "line_color": "#00AFCC", "tags": ["tokyo", "track_centerline"]}}, {"type": "Feature", "bbox": [140.01986, 35.04211, 140.06007, 35.0624], "geometry": {"type": "LineString", "coordinates": [[140.06007, 35.0624], [140.05845, 35.06223], [140.05753, 35.06214], [140.05636, 35.06194], [140.05566, 35.06176], [140.05531, 35.06165], [140.05468, 35.06146], [140.05419, 35.06128], [140.05374, 35.06113], [140.05299, 35.06087], [140.05092, 35.06015], [140.04918, 35.05954], [140.04788, 35.05907], [140.04526, 35.05816], [140.04201, 35.05702], [140.04072, 35.0565], [140.04022, 35.05622], [140.0398, 35.05598], [140.03904, 35.05551], [140.03847, 35.05512], [140.03763, 35.05461], [140.03711, 35.05435], [140.03699, 35.0543], [140.03644, 35.05409], [140.03571, 35.05387], [140.03481, 35.05361], [140.03174, 35.05272], [140.03041, 35.05238], [140.02959, 35.05208], [140.02911, 35.05184], [140.0284, 35.05145], [140.02764, 35.05108], [140.02678, 35.05074], [140.02648, 35.05063], [140.02571, 35.05023], [140.0253, 35.04991], [140.02487, 35.04947], [140.02432, 35.04879], [140.02416, 35.0486], [140.02337, 35.04754], [140.02272, 35.0465], [140.02247, 35.0461], [140.02151, 35.04459], [140.02053, 35.0431], [140.01986, 35.04211]]}, "properties": {"id": "TRACK_TOKYO_3782", "line_name": "内房線", "station_group_ids": [], "mode": "rail", "operator_id": "jr_east", "line_color": "#00AFCC", "tags": ["tokyo", "track_centerline"]}}, {"type": "Feature", "bbox": [140.091, 35.08233, 140.10311, 35.10702], "geometry": {"type": "LineString", "coordinates": [[140.10311, 35.10702], [140.10264, 35.10653], [140.10237, 35.10627], [140.10134, 35.10523], [140.1006, 35.10448], [140.1001, 35.10409], [140.09992, 35.10399], [140.0996, 35.10381], [140.09934, 35.10367], [140.0987, 35.10333], [140.0982, 35.10307], [140.0977, 35.10275], [140.09741, 35.1025], [140.09706, 35.10215], [140.09686, 35.10187], [140.09668, 35.10161], [140.09648, 35.10124], [140.09645, 35.10118], [140.09634, 35.10097], [140.09627, 35.10081], [140.09612, 35.10049], [140.09581, 35.09982], [140.09571, 35.09962], [140.09557, 35.09932], [140.09507, 35.09823], [140.09505, 35.09821], [140.09421, 35.09645], [140.09373, 35.0954], [140.09108, 35.08985], [140.091, 35.08959], [140.09104, 35.08911], [140.09112, 35.08888], [140.09131, 35.08857], [140.09151, 35.08825], [140.09169, 35.08802], [140.0922, 35.08759], [140.09339, 35.08666], [140.09387, 35.0863], [140.09456, 35.08575], [140.09499, 35.08535], [140.09514, 35.08514], [140.0953, 35.0849], [140.09541, 35.08462], [140.09555, 35.08408], [140.0957, 35.08345], [140.096, 35.08233]]}, "properties": {"id": "TRACK_TOKYO_3786", "line_name": "内房線", "station_group_ids": [], "mode": "rail", "operator_id": "jr_east", "line_color": "#00AFCC", "tags": ["tokyo", "track_centerline"]}}, {"type": "Feature", "bbox": [139.95583, 34.97705, 139.96595, 34.99043], "geometry": {"type": "LineString", "coordinates": [[139.95583, 34.97705], [139.9569, 34.97747], [139.95693, 34.97749], [139.95716, 34.97762], [139.95751, 34.97782], [139.95809, 34.97823], [139.95816, 34.97829], [139.9588, 34.97884], [139.95908, 34.97913], [139.95913, 34.97918], [139.95927, 34.97932], [139.9593, 34.97936], [139.95946, 34.97953], [139.9603, 34.98043], [139.96056, 34.98072], [139.96078, 34.98097], [139.96154, 34.98181], [139.96167, 34.98195], [139.96214, 34.98244], [139.96271, 34.9831], [139.96308, 34.98359], [139.96336, 34.98399], [139.96355, 34.98427], [139.96381, 34.9847], [139.96388, 34.98483], [139.96397, 34.98501], [139.96418, 34.98547], [139.96469, 34.98688], [139.96479, 34.98717], [139.96501, 34.98779], [139.96502, 34.9878], [139.96508, 34.98797], [139.96524, 34.98842], [139.9655, 34.98915], [139.96556, 34.9893], [139.96558, 34.98937], [139.96568, 34.98967], [139.96571, 34.98973], [139.96577, 34.98992], [139.9658, 34.99002], [139.96595, 34.99043]]}, "properties": {"id": "TRACK_TOKYO_3787", "line_name": "内房線", "station_group_ids": [], "mode": "rail", "operator_id": "jr_east", "line_color": "#00AFCC", "tags": ["tokyo", "track_centerline"]}}, {"type": "Feature", "bbox": [140.01936, 35.04131, 140.01986, 35.04211], "geometry": {"type": "LineString", "coordinates": [[140.01986, 35.04211], [140.01936, 35.04131]]}, "properties": {"id": "TRACK_TOKYO_3794", "line_name": "内房線", "station_group_ids": [], "mode": "rail", "operator_id": "jr_east", "line_color": "#00AFCC", "tags": ["tokyo", "track_centerline"]}}, {"type": "Feature", "bbox": [139.91023, 34.99733, 139.91256, 34.9977], "geometry": {"type": "LineString", "coordinates": [[139.91023, 34.9977], [139.91256, 34.99733]]}, "properties": {"id": "TRACK_TOKYO_3804", "line_name": "内房線", "station_group_ids": [], "mode": "rail", "operator_id": "jr_east", "line_color": "#00AFCC", "tags": ["tokyo", "track_centerline"]}}, {"type": "Feature", "bbox": [139.85203, 34.99683, 139.8626, 35.02808], "geometry": {"type": "LineString", "coordinates": [[139.85203, 35.02808], [139.85214, 35.02792], [139.85224, 35.02778], [139.85251, 35.02735], [139.85267, 35.02711], [139.85282, 35.02686], [139.8529, 35.02675], [139.85315, 35.02635], [139.85326, 35.0262], [139.85337, 35.02603], [139.85347, 35.02587], [139.85357, 35.02572], [139.85391, 35.0252], [139.85417, 35.0248], [139.85441, 35.02441], [139.85455, 35.02423], [139.85471, 35.02398], [139.85483, 35.02378], [139.85502, 35.02349], [139.85513, 35.02334], [139.85535, 35.02299], [139.85547, 35.0228], [139.85553, 35.02271], [139.85561, 35.02258], [139.85575, 35.02238], [139.85605, 35.02191], [139.85617, 35.02171], [139.85622, 35.02164], [139.85636, 35.02142], [139.85668, 35.02092], [139.857, 35.02044], [139.85723, 35.02008], [139.85736, 35.01987], [139.85764, 35.01947], [139.85829, 35.01844], [139.8586, 35.01798], [139.85889, 35.01752], [139.85944, 35.01667], [139.85959, 35.01645], [139.85979, 35.01614], [139.85989, 35.016], [139.86023, 35.01548], [139.86059, 35.01492], [139.86081, 35.01459], [139.86108, 35.01416], [139.86145, 35.01344], [139.86153, 35.01324], [139.86163, 35.013], [139.86174, 35.01265], [139.86196, 35.01184], [139.86205, 35.01147], [139.86228, 35.01061], [139.86235, 35.01035], [139.86242, 35.01013], [139.86248, 35.00994], [139.86255, 35.00956], [139.86259, 35.00902], [139.8626, 35.00873], [139.86254, 35.00734], [139.86248, 35.00623], [139.86243, 35.0049], [139.86239, 35.00391], [139.86238, 35.00371], [139.86238, 35.00353], [139.86237, 35.00333], [139.86233, 35.00292], [139.86231, 35.00245], [139.86228, 35.00181], [139.86223, 35.00089], [139.86219, 35.00012], [139.86213, 34.999], [139.86213, 34.99876], [139.8621, 34.99811], [139.86206, 34.99729], [139.86203, 34.99683]]}, "properties": {"id": "TRACK_TOKYO_3806", "line_name": "内房線", "station_group_ids": [], "mode": "rail", "operator_id": "jr_east", "line_color": "#00AFCC", "tags": ["tokyo", "track_centerline"]}}, {"type": "Feature", "bbox": [139.85077, 35.02808, 139.85203, 35.03], "geometry": {"type": "LineString", "coordinates": [[139.85077, 35.03], [139.85203, 35.02808]]}, "properties": {"id": "TRACK_TOKYO_3807", "line_name": "内房線", "station_group_ids": [], "mode": "rail", "operator_id": "jr_east", "line_color": "#00AFCC", "tags": ["tokyo", "track_centerline"]}}, {"type": "Feature", "bbox": [139.98003, 35.02162, 140.01936, 35.04131], "geometry": {"type": "LineString", "coordinates": [[140.01936, 35.04131], [140.019, 35.04076], [140.0185, 35.04002], [140.01828, 35.03966], [140.01787, 35.03899], [140.01751, 35.03849], [140.0171, 35.03812], [140.01683, 35.0379], [140.01665, 35.03777], [140.01636, 35.03764], [140.016, 35.03754], [140.01559, 35.03751], [140.015, 35.0375], [140.01389, 35.0376], [140.0131, 35.03769], [140.0118, 35.03783], [140.01112, 35.03786], [140.01051, 35.03779], [140.01006, 35.03766], [140.00965, 35.03743], [140.00914, 35.03711], [140.00873, 35.03677], [140.00853, 35.03648], [140.00844, 35.03634], [140.00836, 35.03621], [140.00801, 35.0355], [140.00765, 35.03494], [140.00744, 35.03474], [140.00729, 35.03461], [140.0069, 35.0343], [140.00605, 35.03376], [140.00491, 35.03299], [140.00326, 35.03208], [140.00254, 35.03177], [139.99934, 35.03074], [139.9981, 35.03034], [139.99794, 35.03028], [139.99748, 35.03007], [139.99716, 35.02986], [139.99676, 35.02962], [139.99651, 35.0295], [139.99608, 35.02928], [139.99564, 35.02903], [139.99542, 35.02889], [139.99494, 35.02861], [139.99427, 35.02822], [139.99359, 35.02781], [139.99296, 35.0274], [139.99285, 35.02733], [139.99268, 35.02721], [139.99248, 35.02707], [139.99236, 35.027], [139.99197, 35.02673], [139.99184, 35.02665], [139.99126, 35.02629], [139.99084, 35.02606], [139.9902, 35.02575], [139.98977, 35.02557], [139.98834, 35.02503], [139.98769, 35.0248], [139.98689, 35.02451], [139.98672, 35.02446], [139.9856, 35.02405], [139.9846, 35.02364], [139.98415, 35.02343], [139.98405, 35.02339], [139.98362, 35.0232], [139.98353, 35.02315], [139.98344, 35.02312], [139.98331, 35.02306], [139.98238, 35.02264], [139.98179, 35.02237], [139.9815, 35.02225], [139.98136, 35.02219], [139.98129, 35.02216], [139.98073, 35.02192], [139.98017, 35.02168], [139.98003, 35.02162]]}, "properties": {"id": "TRACK_TOKYO_3808", "line_name": "内房線", "station_group_ids": [], "mode": "rail", "operator_id": "jr_east", "line_color": "#00AFCC", "tags": ["tokyo", "track_centerline"]}}, {"type": "Feature", "bbox": [140.06221, 35.06153, 140.0967, 35.08064], "geometry": {"type": "LineString", "coordinates": [[140.09646, 35.08064], [140.09658, 35.08016], [140.0967, 35.07944], [140.0967, 35.07931], [140.09668, 35.07885], [140.0966, 35.07855], [140.0965, 35.07829], [140.09631, 35.07799], [140.09607, 35.07774], [140.09571, 35.07744], [140.09521, 35.07714], [140.09435, 35.0767], [140.09333, 35.07622], [140.09237, 35.07571], [140.09217, 35.07562], [140.09169, 35.07549], [140.09115, 35.0754], [140.09044, 35.07534], [140.08928, 35.07523], [140.08721, 35.07501], [140.08688, 35.07498], [140.08584, 35.07485], [140.08548, 35.07476], [140.08499, 35.07457], [140.08438, 35.07433], [140.08387, 35.07403], [140.08348, 35.07369], [140.08311, 35.07323], [140.08294, 35.07292], [140.0828, 35.07242], [140.08257, 35.0712], [140.08241, 35.0708], [140.08225, 35.07053], [140.08198, 35.07024], [140.08148, 35.06987], [140.08051, 35.06929], [140.0801, 35.0691], [140.07929, 35.06873], [140.07909, 35.06859], [140.07866, 35.06832], [140.07828, 35.06795], [140.07807, 35.06767], [140.07781, 35.06718], [140.07778, 35.06712], [140.07763, 35.06678], [140.07738, 35.06614], [140.07722, 35.0658], [140.07704, 35.06554], [140.07663, 35.06512], [140.07606, 35.06473], [140.07548, 35.06447], [140.07478, 35.06428], [140.07423, 35.0641], [140.07374, 35.06386], [140.07335, 35.06361], [140.07308, 35.06335], [140.0722, 35.06249], [140.07161, 35.06196], [140.07135, 35.06181], [140.07099, 35.06168], [140.07059, 35.06162], [140.06954, 35.06153], [140.06898, 35.06156], [140.06849, 35.06165], [140.06805, 35.06181], [140.06719, 35.06219], [140.06658, 35.06239], [140.06588, 35.06255], [140.06516, 35.06268], [140.0647, 35.06272], [140.06438, 35.06273], [140.06405, 35.06273], [140.06328, 35.06269], [140.06221, 35.0626]]}, "properties": {"id": "TRACK_TOKYO_3810", "line_name": "内房線", "station_group_ids": [], "mode": "rail", "operator_id": "jr_east", "line_color": "#00AFCC", "tags": ["tokyo", "track_centerline"]}}, {"type": "Feature", "bbox": [139.95321, 34.97667, 139.95583, 34.97705], "geometry": {"type": "LineString", "coordinates": [[139.95321, 34.97671], [139.95412, 34.97667], [139.95496, 34.9768], [139.95583, 34.97705]]}, "properties": {"id": "TRACK_TOKYO_3812", "line_name": "内房線", "station_group_ids": [], "mode": "rail", "operator_id": "jr_east", "line_color": "#00AFCC", "tags": ["tokyo", "track_centerline"]}}, {"type": "Feature", "bbox": [139.86195, 34.995, 139.86203, 34.99683], "geometry": {"type": "LineString", "coordinates": [[139.86195, 34.995], [139.86203, 34.99683]]}, "properties": {"id": "TRACK_TOKYO_3813", "line_name": "内房線", "station_group_ids": [], "mode": "rail", "operator_id": "jr_east", "line_color": "#00AFCC", "tags": ["tokyo", "track_centerline"]}}, {"type": "Feature", "bbox": [139.91256, 34.97671, 139.95321, 34.99733], "geometry": {"type": "LineString", "coordinates": [[139.91256, 34.99733], [139.91398, 34.99712], [139.91434, 34.99706], [139.91469, 34.99701], [139.91506, 34.99694], [139.91568, 34.99685], [139.91597, 34.9968], [139.9166, 34.99672], [139.91714, 34.99658], [139.91741, 34.99652], [139.91756, 34.99646], [139.91776, 34.99639], [139.91796, 34.99625], [139.91833, 34.99592], [139.91874, 34.99542], [139.91945, 34.99448], [139.92039, 34.9932], [139.92053, 34.99301], [139.92094, 34.99251], [139.92134, 34.99213], [139.92183, 34.99182], [139.92225, 34.99158], [139.92288, 34.99131], [139.92352, 34.99104], [139.92373, 34.99094], [139.92407, 34.99078], [139.92452, 34.99058], [139.92477, 34.99047], [139.92546, 34.99019], [139.92586, 34.99], [139.92661, 34.98969], [139.92666, 34.98967], [139.9267, 34.98964], [139.92721, 34.98941], [139.92734, 34.98936], [139.92935, 34.98846], [139.93009, 34.98806], [139.93013, 34.98804], [139.93082, 34.98772], [139.93142, 34.98747], [139.93232, 34.98721], [139.93351, 34.98696], [139.93421, 34.98681], [139.93496, 34.98669], [139.93543, 34.98666], [139.93594, 34.98663], [139.93657, 34.98666], [139.93693, 34.98671], [139.93765, 34.98676], [139.93808, 34.98675], [139.93848, 34.98672], [139.93878, 34.98666], [139.93902, 34.98657], [139.93916, 34.98651], [139.93941, 34.9864], [139.93956, 34.98631], [139.9398, 34.98605], [139.94, 34.98585], [139.94045, 34.98533], [139.94054, 34.98522], [139.9407, 34.98503], [139.94109, 34.98452], [139.94145, 34.98404], [139.94145, 34.98402], [139.94187, 34.98337], [139.94225, 34.98295], [139.94256, 34.98267], [139.94273, 34.98252], [139.94282, 34.98245], [139.94301, 34.98231], [139.94353, 34.98194], [139.94398, 34.98164], [139.94575, 34.98048], [139.94799, 34.97897], [139.94805, 34.97892], [139.94814, 34.97887], [139.94918, 34.97817], [139.9497, 34.97782], [139.94993, 34.97769], [139.95048, 34.97741], [139.95112, 34.97711], [139.95161, 34.97694], [139.95167, 34.97692], [139.95235, 34.9768], [139.95289, 34.97672], [139.95321, 34.97671]]}, "properties": {"id": "TRACK_TOKYO_3814", "line_name": "内房線", "station_group_ids": [], "mode": "rail", "operator_id": "jr_east", "line_color": "#00AFCC", "tags": ["tokyo", "track_centerline"]}}, {"type": "Feature", "bbox": [139.96661, 34.99227, 139.97811, 35.02077], "geometry": {"type": "LineString", "coordinates": [[139.96661, 34.99227], [139.96667, 34.99244], [139.96669, 34.99253], [139.96677, 34.99274], [139.96691, 34.99312], [139.96698, 34.99333], [139.96707, 34.99358], [139.96737, 34.99442], [139.9677, 34.99535], [139.96776, 34.99553], [139.96786, 34.9958], [139.96811, 34.99649], [139.9682, 34.99674], [139.96845, 34.99746], [139.96849, 34.99757], [139.96891, 34.99874], [139.96903, 34.99909], [139.96923, 34.99962], [139.9696, 35.00066], [139.96981, 35.00126], [139.96985, 35.00134], [139.96993, 35.00157], [139.97029, 35.0026], [139.97037, 35.0028], [139.97052, 35.00323], [139.97057, 35.00333], [139.97076, 35.00385], [139.97104, 35.00477], [139.97115, 35.00528], [139.97116, 35.00532], [139.97118, 35.00539], [139.9712, 35.0055], [139.97126, 35.00602], [139.97126, 35.00604], [139.97127, 35.00607], [139.97129, 35.00663], [139.97129, 35.00716], [139.97128, 35.00762], [139.97124, 35.00825], [139.97118, 35.00881], [139.97111, 35.00936], [139.97109, 35.00956], [139.97102, 35.00994], [139.97097, 35.01027], [139.97092, 35.01056], [139.97088, 35.01097], [139.97089, 35.01126], [139.97098, 35.01157], [139.97106, 35.01191], [139.97109, 35.01202], [139.9712, 35.01243], [139.97131, 35.01262], [139.9714, 35.01282], [139.97155, 35.01322], [139.97193, 35.01396], [139.97198, 35.01407], [139.97222, 35.01462], [139.97249, 35.01517], [139.97314, 35.01643], [139.97318, 35.01651], [139.9732, 35.01655], [139.97326, 35.01669], [139.97345, 35.01709], [139.97359, 35.0174], [139.97379, 35.01778], [139.97394, 35.01806], [139.97397, 35.0181], [139.97404, 35.0182], [139.97412, 35.01831], [139.97429, 35.0185], [139.97446, 35.01868], [139.97476, 35.01896], [139.97515, 35.01926], [139.97555, 35.01953], [139.9758, 35.01969], [139.97626, 35.01994], [139.9765, 35.02007], [139.97698, 35.0203], [139.97781, 35.02065], [139.97787, 35.02068], [139.97809, 35.02076], [139.97811, 35.02077]]}, "properties": {"id": "TRACK_TOKYO_3815", "line_name": "内房線", "station_group_ids": [], "mode": "rail", "operator_id": "jr_east", "line_color": "#00AFCC", "tags": ["tokyo", "track_centerline"]}}, {"type": "Feature", "bbox": [139.97811, 35.02077, 139.98003, 35.02162], "geometry": {"type": "LineString", "coordinates": [[139.98003, 35.02162], [139.97811, 35.02077]]}, "properties": {"id": "TRACK_TOKYO_3816", "line_name": "内房線", "station_group_ids": [], "mode": "rail", "operator_id": "jr_east", "line_color": "#00AFCC", "tags": ["tokyo", "track_centerline"]}}, {"type": "Feature", "bbox": [140.06007, 35.0624, 140.06221, 35.0626], "geometry": {"type": "LineString", "coordinates": [[140.06221, 35.0626], [140.06007, 35.0624]]}, "properties": {"id": "TRACK_TOKYO_3818", "line_name": "内房線", "station_group_ids": [], "mode": "rail", "operator_id": "jr_east", "line_color": "#00AFCC", "tags": ["tokyo", "track_centerline"]}}]}