{"type": "FeatureCollection", "features": [{"type": "Feature", "bbox": [130.5010945, 33.3205875, 130.5010945, 33.3205875], "geometry": {"type": "Point", "coordinates": [130.5010945, 33.3205875]}, "properties": {"id": "PS_435871BFE411", "station_group_id": "SG_FCB073C83506", "operator_id": "jr_kyushu", "operator_ids": "jr_kyushu", "name_en": "久留米", "name_ja": "久留米", "label_rank": 72, "tags": ["tokyo", "v3"]}}, {"type": "Feature", "bbox": [130.358385, 32.08959, 130.358385, 32.08959], "geometry": {"type": "Point", "coordinates": [130.358385, 32.08959]}, "properties": {"id": "PS_29D17EE6DA8F", "station_group_id": "SG_8D75863A6C61", "operator_id": "jr_kyushu", "operator_ids": "jr_kyushu", "name_en": "出水", "name_ja": "出水", "label_rank": 72, "tags": ["tokyo", "v3"]}}, {"type": "Feature", "bbox": [130.421175, 33.589574999999996, 130.421175, 33.589574999999996], "geometry": {"type": "Point", "coordinates": [130.421175, 33.589574999999996]}, "properties": {"id": "PS_A8F93C50157E", "station_group_id": "SG_91C721B8DCF1", "operator_id": "jr_west", "operator_ids": "jr_west", "name_en": "博多", "name_ja": "博多", "label_rank": 72, "tags": ["tokyo", "v3"]}}, {"type": "Feature", "bbox": [130.421175, 33.589574999999996, 130.421175, 33.589574999999996], "geometry": {"type": "Point", "coordinates": [130.421175, 33.589574999999996]}, "properties": {"id": "PS_12A36A84944E", "station_group_id": "SG_91C721B8DCF1", "operator_id": "jr_kyushu", "operator_ids": "jr_kyushu", "name_en": "博多", "name_ja": "博多", "label_rank": 72, "tags": ["tokyo", "v3"]}}, {"type": "Feature", "bbox": [131.160145, 34.053115, 131.160145, 34.053115], "geometry": {"type": "Point", "coordinates": [131.160145, 34.053115]}, "properties": {"id": "PS_3C607EEB91B5", "station_group_id": "SG_8DBCDB48907A", "operator_id": "jr_west", "operator_ids": "jr_west", "name_en": "厚狭", "name_ja": "厚狭", "label_rank": 72, "tags": ["tokyo", "v3"]}}, {"type": "Feature", "bbox": [130.883155, 33.887115, 130.883155, 33.887115], "geometry": {"type": "Point", "coordinates": [130.883155, 33.887115]}, "properties": {"id": "PS_F9477C644AC9", "station_group_id": "SG_A2E83A698DEB", "operator_id": "jr_west", "operator_ids": "jr_west", "name_en": "小倉", "name_ja": "小倉", "label_rank": 72, "tags": ["tokyo", "v3"]}}, {"type": "Feature", "bbox": [131.802415, 34.05088000000001, 131.802415, 34.05088000000001], "geometry": {"type": "Point", "coordinates": [131.802415, 34.05088000000001]}, "properties": {"id": "PS_902C63146716", "station_group_id": "SG_52AEE6087522", "operator_id": "jr_west", "operator_ids": "jr_west", "name_en": "徳山", "name_ja": "徳山", "label_rank": 72, "tags": ["tokyo", "v3"]}}, {"type": "Feature", "bbox": [130.949115, 34.00707, 130.949115, 34.00707], "geometry": {"type": "Point", "coordinates": [130.949115, 34.00707]}, "properties": {"id": "PS_0D0A56FE2362", "station_group_id": "SG_82DEA8921D0E", "operator_id": "jr_west", "operator_ids": "jr_west", "name_en": "新下関", "name_ja": "新下関", "label_rank": 72, "tags": ["tokyo", "v3"]}}, {"type": "Feature", "bbox": [130.635033, 32.517586, 130.635033, 32.517586], "geometry": {"type": "Point", "coordinates": [130.635033, 32.517586]}, "properties": {"id": "PS_7ED308694562", "station_group_id": "SG_85E86529DBD0", "operator_id": "jr_kyushu", "operator_ids": "jr_kyushu", "name_en": "新八代", "name_ja": "新八代", "label_rank": 72, "tags": ["tokyo", "v3"]}}, {"type": "Feature", "bbox": [130.4887535, 33.071315999999996, 130.4887535, 33.071315999999996], "geometry": {"type": "Point", "coordinates": [130.4887535, 33.071315999999996]}, "properties": {"id": "PS_8B14AE274515", "station_group_id": "SG_AB868873FDE4", "operator_id": "jr_kyushu", "operator_ids": "jr_kyushu", "name_en": "新大牟田", "name_ja": "新大牟田", "label_rank": 72, "tags": ["tokyo", "v3"]}}, {"type": "Feature", "bbox": [131.397235, 34.0933, 131.397235, 34.0933], "geometry": {"type": "Point", "coordinates": [131.397235, 34.0933]}, "properties": {"id": "PS_8335DC5D5B05", "station_group_id": "SG_6AD2B2CBFA5F", "operator_id": "jr_west", "operator_ids": "jr_west", "name_en": "新山口", "name_ja": "新山口", "label_rank": 72, "tags": ["tokyo", "v3"]}}, {"type": "Feature", "bbox": [130.428765, 32.210645, 130.428765, 32.210645], "geometry": {"type": "Point", "coordinates": [130.428765, 32.210645]}, "properties": {"id": "PS_CFE8C9EBB2D1", "station_group_id": "SG_F8A4D643F288", "operator_id": "jr_kyushu", "operator_ids": "jr_kyushu", "name_en": "新水俣", "name_ja": "新水俣", "label_rank": 72, "tags": ["tokyo", "v3"]}}, {"type": "Feature", "bbox": [130.5735715, 32.9425915, 130.5735715, 32.9425915], "geometry": {"type": "Point", "coordinates": [130.5735715, 32.9425915]}, "properties": {"id": "PS_AD0766A3E5B4", "station_group_id": "SG_7312373B4CA6", "operator_id": "jr_kyushu", "operator_ids": "jr_kyushu", "name_en": "新玉名", "name_ja": "新玉名", "label_rank": 72, "tags": ["tokyo", "v3"]}}, {"type": "Feature", "bbox": [130.49109750000002, 33.3704365, 130.49109750000002, 33.3704365], "geometry": {"type": "Point", "coordinates": [130.49109750000002, 33.3704365]}, "properties": {"id": "PS_0A0BA8190E1E", "station_group_id": "SG_12178E5C8FDE", "operator_id": "jr_kyushu", "operator_ids": "jr_kyushu", "name_en": "新鳥栖", "name_ja": "新鳥栖", "label_rank": 72, "tags": ["tokyo", "v3"]}}, {"type": "Feature", "bbox": [130.688599, 32.7904015, 130.688599, 32.7904015], "geometry": {"type": "Point", "coordinates": [130.688599, 32.7904015]}, "properties": {"id": "PS_89C84DFB9AA0", "station_group_id": "SG_163790039015", "operator_id": "jr_kyushu", "operator_ids": "jr_kyushu", "name_en": "熊本", "name_ja": "熊本", "label_rank": 72, "tags": ["tokyo", "v3"]}}, {"type": "Feature", "bbox": [130.4923975, 33.177694, 130.4923975, 33.177694], "geometry": {"type": "Point", "coordinates": [130.4923975, 33.177694]}, "properties": {"id": "PS_844D5612F835", "station_group_id": "SG_92C95F7F2B5A", "operator_id": "jr_kyushu", "operator_ids": "jr_kyushu", "name_en": "筑後船小屋", "name_ja": "筑後船小屋", "label_rank": 72, "tags": ["tokyo", "v3"]}}]}