{"type": "FeatureCollection", "features": [{"type": "Feature", "bbox": [130.976095, 31.99072, 130.976095, 31.99072], "geometry": {"type": "Point", "coordinates": [130.976095, 31.99072]}, "properties": {"id": "PS_36DA370ECF21", "station_group_id": "SG_32522E1BA94F", "name_en": "小林", "name_ja": "小林", "label_rank": 72, "tags": ["tokyo", "v3"]}}, {"type": "Feature", "bbox": [130.54102999999998, 31.583775000000003, 130.54102999999998, 31.583775000000003], "geometry": {"type": "Point", "coordinates": [130.54102999999998, 31.583775000000003]}, "properties": {"id": "PS_EC8DE27573AC", "station_group_id": "SG_E5FDB2C0A0B4", "name_en": "鹿児島中央", "name_ja": "鹿児島中央", "label_rank": 72, "tags": ["tokyo", "v3"]}}]}