{"type": "FeatureCollection", "features": [{"type": "Feature", "bbox": [137.21489472, 36.69810703, 137.47997947, 36.87298002], "geometry": {"type": "LineString", "coordinates": [[137.47997947, 36.87298002], [137.47593365, 36.86925691], [137.47273327, 36.86629448], [137.4708535, 36.8644028], [137.46779589, 36.86102397], [137.46396496, 36.85662197], [137.45734609, 36.849041], [137.45546156, 36.84669961], [137.45435749, 36.84502447], [137.45123563, 36.83948509], [137.44794246, 36.83364113], [137.44306932, 36.82475147], [137.43709212, 36.81405341], [137.43467459, 36.8096752], [137.42671767, 36.7953794], [137.42447146, 36.79176262], [137.42277728, 36.78964966], [137.42138767, 36.78810777], [137.41872268, 36.78546181], [137.41660972, 36.78374859], [137.41415411, 36.78197828], [137.41034698, 36.77973206], [137.40052456, 36.77447821], [137.39058793, 36.76899594], [137.37730102, 36.76189562], [137.37349388, 36.75966845], [137.37124767, 36.75824077], [137.36898243, 36.75666081], [137.35145056, 36.74386883], [137.33332858, 36.73056288], [137.32156453, 36.72184454], [137.31830942, 36.71959833], [137.31613936, 36.71828486], [137.31356954, 36.7169714], [137.31130429, 36.71588637], [137.30791594, 36.71459194], [137.30450855, 36.71352594], [137.30062527, 36.7126503], [137.29700849, 36.71209826], [137.29348689, 36.71175562], [137.28929904, 36.71166044], [137.28591068, 36.7118508], [137.28343604, 36.71209826], [137.27921012, 36.71282162], [137.27228113, 36.71449676], [137.26276329, 36.71695237], [137.25922265, 36.71786608], [137.25735715, 36.71822776], [137.25551069, 36.71838004], [137.25309316, 36.71834197], [137.25113248, 36.71817065], [137.24890531, 36.71763765], [137.24736341, 36.71712369], [137.24509817, 36.71613383], [137.24367049, 36.71527722], [137.24224281, 36.71419219], [137.2404725, 36.71242187], [137.23957782, 36.71114648], [137.23803593, 36.70840534], [137.23586586, 36.7040652], [137.23512347, 36.70286596], [137.23424783, 36.70172381], [137.23272497, 36.70056264], [137.23143054, 36.69989639], [137.22979823, 36.6992349], [137.22835628, 36.69891367], [137.22292397, 36.69811417], [137.22263844, 36.69810703], [137.22205309, 36.69812488], [137.22152485, 36.69818199], [137.22098233, 36.69830334], [137.22005791, 36.69864598], [137.21644732, 36.70016289], [137.21489472, 36.70078155]]}, "properties": {"id": "GEOM_TOKYO_4087", "route_id": "R_CC6EF6BA", "route_name": null, "route_color": "#2C62C9", "route_text_color": null, "line_name": "北陸新幹線", "operator_id": "西日本旅客鉄道", "representation": "service_path", "min_zoom": 0, "max_zoom": 24, "offset_rank": 0}}, {"type": "Feature", "bbox": [137.21171814, 36.70078155, 137.21489472, 36.7020962], "geometry": {"type": "LineString", "coordinates": [[137.21489472, 36.70078155], [137.21171814, 36.7020962]]}, "properties": {"id": "GEOM_TOKYO_4088", "route_id": "R_CC6EF6BA", "route_name": null, "route_color": "#2C62C9", "route_text_color": null, "line_name": "北陸新幹線", "operator_id": "西日本旅客鉄道", "representation": "service_path", "min_zoom": 0, "max_zoom": 24, "offset_rank": 0}}, {"type": "Feature", "bbox": [137.01360775, 36.7020962, 137.21171814, 36.72845836], "geometry": {"type": "LineString", "coordinates": [[137.21171814, 36.7020962], [137.2035732, 36.70530978], [137.19862393, 36.70732042], [137.19699399, 36.70820082], [137.19521178, 36.70957377], [137.19231835, 36.71223877], [137.19056707, 36.71357127], [137.18944396, 36.71427559], [137.18773075, 36.71511316], [137.18641491, 36.71566043], [137.18050195, 36.71776626], [137.1771826, 36.71878942], [137.17512437, 36.71936049], [137.17185261, 36.72003864], [137.16896156, 36.72047884], [137.16604672, 36.72082386], [137.15500603, 36.72210877], [137.14392963, 36.72341153], [137.12727341, 36.7253151], [137.11940334, 36.72625498], [137.10976652, 36.72734954], [137.10255676, 36.72815855], [137.09878293, 36.72844409], [137.09508525, 36.72845836], [137.09078794, 36.72818711], [137.08634787, 36.72750182], [137.08317843, 36.72681654], [137.07918093, 36.72564584], [137.07315614, 36.72357571], [137.07107173, 36.72287615], [137.06803078, 36.7220481], [137.0659892, 36.72161979], [137.06307674, 36.72107728], [137.06062114, 36.72080602], [137.05872233, 36.72062042], [137.05613823, 36.72052048], [137.05383967, 36.72054904], [137.0509986, 36.72064897], [137.04775777, 36.72099162], [137.04501663, 36.7214342], [137.04006259, 36.72254778], [137.03453748, 36.72404684], [137.0320105, 36.72467502], [137.03018307, 36.72500339], [137.02784168, 36.72538886], [137.02430104, 36.72583144], [137.02074613, 36.72618836], [137.01360775, 36.72684509]]}, "properties": {"id": "GEOM_TOKYO_4089", "route_id": "R_CC6EF6BA", "route_name": null, "route_color": "#2C62C9", "route_text_color": null, "line_name": "北陸新幹線", "operator_id": "西日本旅客鉄道", "representation": "service_path", "min_zoom": 0, "max_zoom": 24, "offset_rank": 0}}, {"type": "Feature", "bbox": [136.64900591, 36.57917742, 137.01015277, 36.72708779], "geometry": {"type": "LineString", "coordinates": [[137.01015277, 36.72705924], [137.00846811, 36.72708779], [137.00598395, 36.72705924], [137.00230055, 36.72680226], [137.00010192, 36.726531], [136.99711808, 36.72598848], [136.99436266, 36.72537458], [136.99177857, 36.72460364], [136.98871858, 36.72357095], [136.98203706, 36.72117245], [136.96777278, 36.71601904], [136.96555988, 36.71518623], [136.96330416, 36.71424396], [136.96134824, 36.71323031], [136.95934949, 36.71218811], [136.95600873, 36.71026074], [136.94317391, 36.70276544], [136.92992508, 36.69508573], [136.92737905, 36.69356287], [136.92059759, 36.68897051], [136.91783741, 36.68697177], [136.91617179, 36.68580583], [136.90439346, 36.67752531], [136.90191882, 36.67588348], [136.90006284, 36.67488411], [136.89742164, 36.67352781], [136.89478044, 36.67243326], [136.89328138, 36.6718146], [136.88959321, 36.67069625], [136.88626197, 36.66986344], [136.88340661, 36.66933996], [136.87983742, 36.66891166], [136.87662515, 36.6687451], [136.87274663, 36.6687213], [136.86863016, 36.66907822], [136.86644106, 36.66938755], [136.86356191, 36.66988724], [136.85808915, 36.67124353], [136.83717369, 36.67681147], [136.82853624, 36.67916714], [136.82546674, 36.67983338], [136.82258759, 36.68040445], [136.8194467, 36.68097553], [136.80683556, 36.68256976], [136.79991133, 36.68337878], [136.79550932, 36.68375949], [136.79201152, 36.68371191], [136.78896581, 36.68361673], [136.78577733, 36.68321222], [136.78258885, 36.68280771], [136.77918622, 36.68190352], [136.77687814, 36.68123727], [136.77426074, 36.68030928], [136.771334, 36.67911955], [136.7669082, 36.67683526], [136.7646953, 36.67538379], [136.7616258, 36.67317089], [136.75938911, 36.67114835], [136.75705723, 36.66884027], [136.75443983, 36.66558041], [136.75201278, 36.66201122], [136.74937157, 36.65865618], [136.7466114, 36.65561047], [136.74282806, 36.65220784], [136.73409544, 36.6448791], [136.72869406, 36.64028674], [136.72462518, 36.63709826], [136.72155568, 36.63500434], [136.70932525, 36.62741386], [136.7029007, 36.62339257], [136.70075919, 36.6219173], [136.69957897, 36.62100359], [136.69067027, 36.6130086], [136.68041955, 36.60358594], [136.67945349, 36.60266746], [136.67699789, 36.60024993], [136.67559877, 36.59861286], [136.67360954, 36.59602401], [136.67057334, 36.59184568], [136.6696406, 36.59094148], [136.66840328, 36.59000873], [136.66719451, 36.58932345], [136.66440578, 36.58797191], [136.65741017, 36.58473585], [136.65514492, 36.58371744], [136.6531081, 36.58286083], [136.65193741, 36.58222313], [136.6509761, 36.5814046], [136.6501766, 36.58071932], [136.64900591, 36.57917742]]}, "properties": {"id": "GEOM_TOKYO_4091", "route_id": "R_CC6EF6BA", "route_name": null, "route_color": "#2C62C9", "route_text_color": null, "line_name": "北陸新幹線", "operator_id": "西日本旅客鉄道", "representation": "service_path", "min_zoom": 0, "max_zoom": 24, "offset_rank": 0}}]}