{"type": "FeatureCollection", "features": [{"type": "Feature", "bbox": [137.06199, 34.86244, 137.15871, 34.9672], "geometry": {"type": "LineString", "coordinates": [[137.15871, 34.86244], [137.15832, 34.86285], [137.15793, 34.86326], [137.15768, 34.86354], [137.15749, 34.86375], [137.15701, 34.86426], [137.15657, 34.86471], [137.15615, 34.86519], [137.15586, 34.86548], [137.15551, 34.86586], [137.15527, 34.86611], [137.1546, 34.8668], [137.15416, 34.86728], [137.15362, 34.86785], [137.15302, 34.86849], [137.15265, 34.86887], [137.1526, 34.86892], [137.15237, 34.86917], [137.15191, 34.86968], [137.15152, 34.87011], [137.15118, 34.87048], [137.15089, 34.8708], [137.15066, 34.87103], [137.15018, 34.87154], [137.14995, 34.87179], [137.14951, 34.87227], [137.14934, 34.87244], [137.14901, 34.87281], [137.14863, 34.87322], [137.14826, 34.87361], [137.14806, 34.87382], [137.1477, 34.8742], [137.1474, 34.87454], [137.14703, 34.87494], [137.14665, 34.87536], [137.14619, 34.87589], [137.14594, 34.87617], [137.14548, 34.87666], [137.1452, 34.87701], [137.14444, 34.8778], [137.14398, 34.87832], [137.14369, 34.87864], [137.14306, 34.87934], [137.14276, 34.87964], [137.14257, 34.87986], [137.14232, 34.88014], [137.14195, 34.88055], [137.14136, 34.8812], [137.14078, 34.88182], [137.14006, 34.88263], [137.13992, 34.8828], [137.13916, 34.88362], [137.1388, 34.88405], [137.13812, 34.88479], [137.13714, 34.88582], [137.13638, 34.88665], [137.13525, 34.88787], [137.13395, 34.88925], [137.13321, 34.89005], [137.13303, 34.89023], [137.13292, 34.89035], [137.13198, 34.89138], [137.13017, 34.89336], [137.12918, 34.89442], [137.12808, 34.89561], [137.12609, 34.89777], [137.12465, 34.89933], [137.12252, 34.90163], [137.12203, 34.90212], [137.12171, 34.90246], [137.12132, 34.90286], [137.12106, 34.90314], [137.12059, 34.90365], [137.12026, 34.904], [137.12003, 34.90425], [137.11973, 34.90459], [137.11944, 34.9049], [137.11928, 34.90507], [137.11904, 34.90535], [137.11877, 34.90564], [137.11868, 34.90574], [137.11843, 34.906], [137.11828, 34.90617], [137.11768, 34.90681], [137.1172, 34.90733], [137.1165, 34.9081], [137.11638, 34.90824], [137.11617, 34.90848], [137.11595, 34.90871], [137.11562, 34.90907], [137.11544, 34.90927], [137.11515, 34.90957], [137.11467, 34.9101], [137.11335, 34.9115], [137.11272, 34.91217], [137.11189, 34.91307], [137.11069, 34.91435], [137.11015, 34.91496], [137.10975, 34.91537], [137.10905, 34.91613], [137.10856, 34.91666], [137.10852, 34.9167], [137.10766, 34.91764], [137.10722, 34.9181], [137.10671, 34.91863], [137.10617, 34.91924], [137.10577, 34.91967], [137.10566, 34.91978], [137.10555, 34.91993], [137.10545, 34.92005], [137.10511, 34.92043], [137.10486, 34.92069], [137.10474, 34.92083], [137.10466, 34.92092], [137.10436, 34.92124], [137.10424, 34.92136], [137.10413, 34.92149], [137.10375, 34.9219], [137.10331, 34.92236], [137.1031, 34.9226], [137.10263, 34.92311], [137.10237, 34.9234], [137.10219, 34.9236], [137.10174, 34.92407], [137.10118, 34.92466], [137.10083, 34.92505], [137.10053, 34.92538], [137.10021, 34.92573], [137.09973, 34.92627], [137.09932, 34.92673], [137.09899, 34.9271], [137.09865, 34.92746], [137.09854, 34.92758], [137.09806, 34.92811], [137.09735, 34.92886], [137.09727, 34.92894], [137.09663, 34.92966], [137.0965, 34.92979], [137.09637, 34.92994], [137.09624, 34.93008], [137.09614, 34.93019], [137.09572, 34.93064], [137.09523, 34.93118], [137.09506, 34.93136], [137.09403, 34.93248], [137.09252, 34.93413], [137.09239, 34.93426], [137.09158, 34.93514], [137.0909, 34.9359], [137.09056, 34.93625], [137.09045, 34.93638], [137.09035, 34.93649], [137.09012, 34.93673], [137.08885, 34.93813], [137.08877, 34.9382], [137.08864, 34.93833], [137.08853, 34.93845], [137.08844, 34.93856], [137.08789, 34.93915], [137.08761, 34.93945], [137.08733, 34.93976], [137.08694, 34.94018], [137.08669, 34.94042], [137.0865, 34.94065], [137.0861, 34.94109], [137.08599, 34.9412], [137.08588, 34.94133], [137.0853, 34.94195], [137.08518, 34.94207], [137.08507, 34.94219], [137.08494, 34.94231], [137.08439, 34.94291], [137.08416, 34.94316], [137.08404, 34.9433], [137.08385, 34.94349], [137.08312, 34.94427], [137.08252, 34.94492], [137.08224, 34.94522], [137.08201, 34.94547], [137.08162, 34.9459], [137.08148, 34.94604], [137.08138, 34.94614], [137.08091, 34.94665], [137.08068, 34.94691], [137.08059, 34.94702], [137.08004, 34.94759], [137.07961, 34.94806], [137.07928, 34.94842], [137.07895, 34.94878], [137.07852, 34.94923], [137.07792, 34.94986], [137.07759, 34.95023], [137.07754, 34.95029], [137.07711, 34.95075], [137.07691, 34.95097], [137.07628, 34.95164], [137.07587, 34.9521], [137.07566, 34.95233], [137.07516, 34.95287], [137.07471, 34.95336], [137.07443, 34.95366], [137.07412, 34.95401], [137.07398, 34.95417], [137.07348, 34.9547], [137.07331, 34.95489], [137.07278, 34.95547], [137.07268, 34.95558], [137.07218, 34.95612], [137.07213, 34.95617], [137.07176, 34.95656], [137.07115, 34.95723], [137.07094, 34.95745], [137.07044, 34.95799], [137.07023, 34.95821], [137.06967, 34.95884], [137.06942, 34.95911], [137.06929, 34.95925], [137.06849, 34.9601], [137.06788, 34.9608], [137.06776, 34.96094], [137.06768, 34.96103], [137.06712, 34.96161], [137.06694, 34.9618], [137.06682, 34.96194], [137.0666, 34.96217], [137.06652, 34.96225], [137.06641, 34.96237], [137.06623, 34.96257], [137.06513, 34.96378], [137.06494, 34.964], [137.06432, 34.96467], [137.06422, 34.96477], [137.06408, 34.96493], [137.06381, 34.96521], [137.06355, 34.9655], [137.06338, 34.96568], [137.06199, 34.9672]]}, "properties": {"id": "GEOM_TOKYO_0976", "route_id": "R_3B2E9FFD", "route_name": null, "route_color": "#1F78FF", "route_text_color": null, "line_name": "東海道新幹線", "operator_id": "東海旅客鉄道", "representation": "service_path", "min_zoom": 0, "max_zoom": 24, "offset_rank": 0}}, {"type": "Feature", "bbox": [136.88194, 34.97087, 137.0586, 35.16874], "geometry": {"type": "LineString", "coordinates": [[137.0586, 34.97087], [137.05796, 34.97157], [137.05775, 34.9718], [137.05754, 34.97203], [137.05729, 34.97229], [137.05658, 34.97304], [137.05641, 34.97325], [137.05622, 34.97346], [137.05596, 34.97375], [137.0558, 34.97392], [137.05516, 34.9746], [137.05435, 34.97549], [137.05366, 34.97624], [137.05348, 34.97643], [137.05337, 34.97654], [137.05267, 34.97733], [137.05209, 34.97797], [137.05198, 34.97809], [137.05187, 34.97821], [137.05173, 34.97835], [137.0511, 34.97907], [137.05074, 34.97945], [137.05049, 34.97972], [137.04992, 34.98033], [137.04971, 34.98054], [137.0494, 34.98088], [137.0493, 34.98097], [137.0487, 34.9816], [137.04819, 34.98213], [137.04804, 34.98227], [137.04788, 34.98241], [137.04729, 34.98295], [137.04671, 34.98346], [137.0465, 34.98364], [137.04621, 34.98388], [137.04531, 34.98467], [137.04376, 34.98595], [137.04358, 34.9861], [137.04297, 34.9866], [137.04279, 34.98674], [137.04239, 34.98705], [137.04233, 34.9871], [137.04227, 34.98714], [137.04149, 34.98777], [137.04134, 34.98789], [137.04106, 34.98812], [137.04064, 34.98846], [137.04018, 34.9888], [137.03948, 34.9893], [137.03923, 34.98946], [137.03904, 34.98959], [137.03885, 34.98972], [137.03807, 34.99024], [137.03727, 34.99078], [137.03695, 34.99098], [137.03667, 34.99116], [137.03601, 34.99159], [137.03431, 34.99272], [137.03407, 34.99288], [137.03359, 34.99318], [137.03335, 34.99334], [137.0333, 34.99337], [137.03253, 34.99389], [137.03189, 34.99431], [137.03134, 34.99467], [137.03085, 34.99499], [137.0307, 34.99509], [137.03053, 34.99521], [137.0299, 34.99563], [137.0297, 34.99576], [137.02957, 34.99585], [137.0288, 34.99634], [137.02866, 34.99644], [137.02847, 34.99658], [137.02813, 34.99678], [137.02798, 34.99688], [137.02791, 34.99694], [137.02716, 34.99743], [137.02686, 34.99762], [137.02578, 34.99831], [137.02502, 34.99881], [137.02484, 34.99893], [137.02398, 34.99949], [137.02307, 35.00007], [137.02178, 35.00092], [137.02138, 35.00117], [137.02044, 35.00178], [137.02024, 35.00191], [137.02003, 35.00205], [137.01955, 35.00236], [137.0186, 35.00296], [137.01814, 35.00325], [137.0153, 35.00508], [137.01487, 35.00538], [137.01406, 35.00591], [137.01358, 35.00622], [137.0116, 35.00751], [137.00695, 35.01057], [137.00637, 35.01095], [137.00546, 35.01153], [137.00507, 35.01179], [137.00427, 35.01233], [136.99807, 35.01638], [136.99704, 35.01704], [136.99406, 35.01895], [136.99301, 35.01963], [136.99295, 35.01967], [136.99263, 35.01987], [136.9907, 35.02112], [136.99059, 35.0212], [136.9901, 35.02151], [136.98953, 35.02188], [136.98849, 35.02255], [136.9865, 35.02384], [136.98088, 35.02746], [136.98023, 35.02788], [136.97945, 35.02839], [136.97913, 35.0286], [136.97769, 35.02954], [136.97725, 35.02983], [136.97561, 35.0309], [136.97371, 35.03211], [136.97098, 35.03386], [136.9708, 35.03398], [136.97012, 35.03442], [136.96872, 35.03534], [136.96854, 35.03545], [136.96846, 35.03551], [136.96829, 35.03562], [136.96811, 35.03574], [136.96788, 35.03589], [136.96722, 35.03633], [136.96589, 35.03722], [136.9651, 35.03776], [136.965, 35.03782], [136.96409, 35.03844], [136.96336, 35.03893], [136.96297, 35.03919], [136.96226, 35.03973], [136.96215, 35.03981], [136.96168, 35.04017], [136.96127, 35.04049], [136.96115, 35.04058], [136.9607, 35.04094], [136.96031, 35.04128], [136.96018, 35.04136], [136.95992, 35.04159], [136.95968, 35.04179], [136.959, 35.04237], [136.95841, 35.04292], [136.95819, 35.04312], [136.95786, 35.04343], [136.95673, 35.04463], [136.95611, 35.04528], [136.95515, 35.04636], [136.95487, 35.0467], [136.95457, 35.04706], [136.95358, 35.04834], [136.95328, 35.04877], [136.95299, 35.04919], [136.95278, 35.04949], [136.95231, 35.05017], [136.94977, 35.0541], [136.94832, 35.0564], [136.94786, 35.05712], [136.94771, 35.05737], [136.94721, 35.05816], [136.94694, 35.05859], [136.9468, 35.05882], [136.94529, 35.06119], [136.94514, 35.06144], [136.945, 35.06164], [136.94415, 35.06298], [136.94345, 35.06404], [136.94287, 35.06496], [136.94226, 35.06604], [136.94157, 35.06724], [136.94153, 35.0673], [136.94139, 35.06756], [136.94038, 35.0694], [136.93989, 35.07031], [136.93982, 35.07045], [136.93964, 35.07078], [136.93958, 35.07088], [136.9394, 35.07122], [136.93938, 35.07127], [136.93929, 35.07143], [136.93926, 35.07148], [136.93909, 35.0718], [136.9388, 35.07234], [136.93867, 35.07259], [136.93845, 35.07299], [136.93839, 35.0731], [136.93789, 35.07402], [136.93729, 35.07513], [136.93703, 35.0756], [136.93661, 35.07637], [136.93602, 35.07747], [136.93585, 35.07777], [136.93582, 35.07783], [136.93567, 35.0781], [136.93564, 35.07815], [136.93529, 35.07881], [136.93523, 35.07891], [136.93504, 35.07927], [136.93499, 35.07936], [136.9345, 35.08026], [136.93438, 35.08048], [136.93433, 35.08057], [136.93427, 35.08068], [136.93374, 35.08167], [136.93361, 35.08191], [136.93349, 35.08213], [136.93342, 35.08228], [136.93297, 35.08312], [136.93291, 35.08323], [136.93269, 35.08364], [136.93244, 35.08409], [136.93242, 35.08413], [136.93221, 35.08454], [136.93163, 35.08564], [136.93114, 35.08657], [136.93055, 35.08774], [136.92992, 35.08898], [136.92951, 35.08978], [136.92934, 35.09014], [136.9292, 35.09041], [136.92896, 35.09091], [136.92857, 35.09164], [136.92812, 35.09257], [136.92785, 35.09309], [136.92763, 35.09349], [136.92727, 35.09417], [136.92688, 35.09492], [136.92657, 35.09548], [136.92624, 35.09612], [136.92565, 35.09715], [136.92523, 35.09785], [136.92479, 35.09859], [136.92456, 35.09895], [136.92429, 35.0993], [136.92393, 35.09974], [136.92345, 35.10029], [136.92305, 35.10071], [136.92261, 35.10122], [136.92223, 35.1016], [136.92204, 35.10178], [136.92145, 35.10235], [136.92094, 35.10281], [136.9206, 35.10309], [136.91955, 35.10389], [136.91858, 35.1046], [136.91813, 35.10489], [136.91712, 35.10554], [136.91656, 35.1059], [136.91615, 35.10612], [136.91552, 35.10646], [136.91452, 35.10695], [136.91351, 35.10745], [136.91262, 35.10788], [136.91173, 35.10829], [136.91125, 35.1085], [136.91069, 35.10875], [136.90963, 35.10924], [136.90865, 35.1097], [136.90857, 35.10974], [136.90662, 35.11064], [136.90534, 35.11123], [136.90393, 35.11188], [136.90325, 35.11221], [136.90178, 35.11286], [136.9016, 35.11294], [136.90087, 35.11326], [136.89986, 35.11373], [136.89891, 35.11419], [136.89758, 35.11488], [136.89701, 35.1152], [136.89654, 35.11549], [136.89592, 35.11587], [136.89581, 35.11594], [136.89541, 35.11621], [136.89488, 35.11657], [136.89448, 35.11686], [136.89427, 35.11703], [136.89386, 35.11734], [136.89349, 35.11763], [136.89306, 35.118], [136.89278, 35.11823], [136.89254, 35.11846], [136.89232, 35.11867], [136.89171, 35.11926], [136.89118, 35.11978], [136.89088, 35.1201], [136.89045, 35.12057], [136.89005, 35.12108], [136.88966, 35.12157], [136.88946, 35.12184], [136.88924, 35.12215], [136.88904, 35.12244], [136.88876, 35.12282], [136.8886, 35.12306], [136.8884, 35.12339], [136.88821, 35.12369], [136.88806, 35.124], [136.88793, 35.12423], [136.88773, 35.12459], [136.88745, 35.12507], [136.88722, 35.12549], [136.88709, 35.12579], [136.88689, 35.12625], [136.88668, 35.12674], [136.88651, 35.12724], [136.88637, 35.12771], [136.88617, 35.1284], [136.88595, 35.12916], [136.88581, 35.12994], [136.88571, 35.1307], [136.88556, 35.13204], [136.88553, 35.13265], [136.88552, 35.13296], [136.88552, 35.13309], [136.88552, 35.13342], [136.88556, 35.13383], [136.88565, 35.13454], [136.88581, 35.13564], [136.88591, 35.13624], [136.88594, 35.13641], [136.88596, 35.13653], [136.88599, 35.13671], [136.88601, 35.1368], [136.88615, 35.13761], [136.88649, 35.13962], [136.88662, 35.14044], [136.88664, 35.14053], [136.88664, 35.14058], [136.88669, 35.14086], [136.88671, 35.14095], [136.88681, 35.14166], [136.88736, 35.14443], [136.88737, 35.14451], [136.88742, 35.14478], [136.88744, 35.14487], [136.88764, 35.14593], [136.88766, 35.14607], [136.88768, 35.14616], [136.88771, 35.14631], [136.88772, 35.14641], [136.88798, 35.14788], [136.88816, 35.14912], [136.88814, 35.15021], [136.88812, 35.15049], [136.88811, 35.15057], [136.88809, 35.15076], [136.88809, 35.15083], [136.88804, 35.15127], [136.88787, 35.15242], [136.88779, 35.15296], [136.88766, 35.15362], [136.8875, 35.15428], [136.88745, 35.15449], [136.88724, 35.15527], [136.88673, 35.15745], [136.88639, 35.15879], [136.8863, 35.15915], [136.88615, 35.15973], [136.8858, 35.16111], [136.8857, 35.16151], [136.88529, 35.16306], [136.88522, 35.16329], [136.88514, 35.16365], [136.88502, 35.16395], [136.88494, 35.16417], [136.88474, 35.16459], [136.88451, 35.16511], [136.88443, 35.16528], [136.88432, 35.16542], [136.88417, 35.16565], [136.88398, 35.16592], [136.88384, 35.1661], [136.88358, 35.16645], [136.88339, 35.16673], [136.88295, 35.16731], [136.88264, 35.16773], [136.88242, 35.16802], [136.88194, 35.16874]]}, "properties": {"id": "GEOM_TOKYO_0977", "route_id": "R_3B2E9FFD", "route_name": null, "route_color": "#1F78FF", "route_text_color": null, "line_name": "東海道新幹線", "operator_id": "東海旅客鉄道", "representation": "service_path", "min_zoom": 0, "max_zoom": 24, "offset_rank": 0}}, {"type": "Feature", "bbox": [137.0586, 34.9672, 137.06199, 34.97087], "geometry": {"type": "LineString", "coordinates": [[137.06199, 34.9672], [137.06032, 34.96901], [137.0586, 34.97087]]}, "properties": {"id": "GEOM_TOKYO_0978", "route_id": "R_3B2E9FFD", "route_name": null, "route_color": "#1F78FF", "route_text_color": null, "line_name": "東海道新幹線", "operator_id": "東海旅客鉄道", "representation": "service_path", "min_zoom": 0, "max_zoom": 24, "offset_rank": 0}}, {"type": "Feature", "bbox": [136.96415, 35.00117, 136.97127, 35.00535], "geometry": {"type": "LineString", "coordinates": [[136.96415, 35.00535], [136.96516, 35.0045], [136.96558, 35.00415], [136.96601, 35.00382], [136.96656, 35.00347], [136.96697, 35.00325], [136.96746, 35.00293], [136.96776, 35.00279], [136.96877, 35.00225], [136.97077, 35.00137], [136.97127, 35.00117]]}, "properties": {"id": "GEOM_TOKYO_1055", "route_id": "R_A38B6B65", "route_name": null, "route_color": "#F28E1C", "route_text_color": null, "line_name": "東海道線", "operator_id": "東海旅客鉄道", "representation": "service_path", "min_zoom": 0, "max_zoom": 24, "offset_rank": 0}}, {"type": "Feature", "bbox": [136.98991, 34.99806, 136.99117, 34.99841], "geometry": {"type": "LineString", "coordinates": [[136.98991, 34.99841], [136.99117, 34.99806]]}, "properties": {"id": "GEOM_TOKYO_1056", "route_id": "R_A38B6B65", "route_name": null, "route_color": "#F28E1C", "route_text_color": null, "line_name": "東海道線", "operator_id": "東海旅客鉄道", "representation": "service_path", "min_zoom": 0, "max_zoom": 24, "offset_rank": 0}}, {"type": "Feature", "bbox": [136.97127, 34.99937, 136.97643, 35.00117], "geometry": {"type": "LineString", "coordinates": [[136.97127, 35.00117], [136.9714, 35.00114], [136.97152, 35.00112], [136.97163, 35.0011], [136.97176, 35.00108], [136.97187, 35.00106], [136.97197, 35.00103], [136.97257, 35.00092], [136.97284, 35.00085], [136.97332, 35.00071], [136.97379, 35.00052], [136.97433, 35.00028], [136.97483, 35.00006], [136.97583, 34.99967], [136.97643, 34.99937]]}, "properties": {"id": "GEOM_TOKYO_1057", "route_id": "R_A38B6B65", "route_name": null, "route_color": "#F28E1C", "route_text_color": null, "line_name": "東海道線", "operator_id": "東海旅客鉄道", "representation": "service_path", "min_zoom": 0, "max_zoom": 24, "offset_rank": 0}}, {"type": "Feature", "bbox": [136.96388, 35.00117, 136.97127, 35.00526], "geometry": {"type": "LineString", "coordinates": [[136.96388, 35.00526], [136.96467, 35.00433], [136.96502, 35.00393], [136.96518, 35.00377], [136.96549, 35.00355], [136.96569, 35.00344], [136.96603, 35.00325], [136.96718, 35.0026], [136.96751, 35.00243], [136.96884, 35.00181], [136.96943, 35.00161], [136.97037, 35.00135], [136.97047, 35.00133], [136.9706, 35.0013], [136.97071, 35.00127], [136.97082, 35.00125], [136.97092, 35.00123], [136.97103, 35.00121], [136.97117, 35.00119], [136.97127, 35.00117]]}, "properties": {"id": "GEOM_TOKYO_1058", "route_id": "R_A38B6B65", "route_name": null, "route_color": "#F28E1C", "route_text_color": null, "line_name": "東海道線", "operator_id": "東海旅客鉄道", "representation": "service_path", "min_zoom": 0, "max_zoom": 24, "offset_rank": 0}}, {"type": "Feature", "bbox": [136.99117, 34.99153, 137.00787, 34.99806], "geometry": {"type": "LineString", "coordinates": [[136.99117, 34.99806], [136.99153, 34.99795], [136.99181, 34.99786], [136.99704, 34.99579], [136.99984, 34.99467], [137.00236, 34.99367], [137.00406, 34.993], [137.00416, 34.99296], [137.00426, 34.99292], [137.00439, 34.99287], [137.00568, 34.99237], [137.00666, 34.99199], [137.00743, 34.99169], [137.00787, 34.99153]]}, "properties": {"id": "GEOM_TOKYO_1059", "route_id": "R_A38B6B65", "route_name": null, "route_color": "#F28E1C", "route_text_color": null, "line_name": "東海道線", "operator_id": "東海旅客鉄道", "representation": "service_path", "min_zoom": 0, "max_zoom": 24, "offset_rank": 0}}, {"type": "Feature", "bbox": [136.97127, 34.99937, 136.97643, 35.00117], "geometry": {"type": "LineString", "coordinates": [[136.97127, 35.00117], [136.97243, 35.00069], [136.9735, 35.00028], [136.97412, 35.00006], [136.97478, 34.99981], [136.97643, 34.99937]]}, "properties": {"id": "GEOM_TOKYO_1060", "route_id": "R_A38B6B65", "route_name": null, "route_color": "#F28E1C", "route_text_color": null, "line_name": "東海道線", "operator_id": "東海旅客鉄道", "representation": "service_path", "min_zoom": 0, "max_zoom": 24, "offset_rank": 0}}, {"type": "Feature", "bbox": [137.04228, 34.97683, 137.04499, 34.97788], "geometry": {"type": "LineString", "coordinates": [[137.04499, 34.97683], [137.04228, 34.97788]]}, "properties": {"id": "GEOM_TOKYO_1061", "route_id": "R_A38B6B65", "route_name": null, "route_color": "#F28E1C", "route_text_color": null, "line_name": "東海道線", "operator_id": "東海旅客鉄道", "representation": "service_path", "min_zoom": 0, "max_zoom": 24, "offset_rank": 0}}, {"type": "Feature", "bbox": [136.97643, 34.99841, 136.98991, 34.99937], "geometry": {"type": "LineString", "coordinates": [[136.97643, 34.99937], [136.97717, 34.99919], [136.9778, 34.99905], [136.97858, 34.9989], [136.97898, 34.99885], [136.97944, 34.99882], [136.98015, 34.99881], [136.98128, 34.99885], [136.98174, 34.99886], [136.98302, 34.9989], [136.98393, 34.99893], [136.98528, 34.99895], [136.98584, 34.99893], [136.98711, 34.99888], [136.98799, 34.9988], [136.98848, 34.99871], [136.98991, 34.99841]]}, "properties": {"id": "GEOM_TOKYO_1062", "route_id": "R_A38B6B65", "route_name": null, "route_color": "#F28E1C", "route_text_color": null, "line_name": "東海道線", "operator_id": "東海旅客鉄道", "representation": "service_path", "min_zoom": 0, "max_zoom": 24, "offset_rank": 0}}, {"type": "Feature", "bbox": [137.00787, 34.99008, 137.01155, 34.99153], "geometry": {"type": "LineString", "coordinates": [[137.01155, 34.99008], [137.00787, 34.99153]]}, "properties": {"id": "GEOM_TOKYO_1063", "route_id": "R_A38B6B65", "route_name": null, "route_color": "#F28E1C", "route_text_color": null, "line_name": "東海道線", "operator_id": "東海旅客鉄道", "representation": "service_path", "min_zoom": 0, "max_zoom": 24, "offset_rank": 0}}, {"type": "Feature", "bbox": [136.96298, 35.00526, 136.96388, 35.00688], "geometry": {"type": "LineString", "coordinates": [[136.96298, 35.00688], [136.96354, 35.00582], [136.9636, 35.00571], [136.96388, 35.00526]]}, "properties": {"id": "GEOM_TOKYO_1064", "route_id": "R_A38B6B65", "route_name": null, "route_color": "#F28E1C", "route_text_color": null, "line_name": "東海道線", "operator_id": "東海旅客鉄道", "representation": "service_path", "min_zoom": 0, "max_zoom": 24, "offset_rank": 0}}, {"type": "Feature", "bbox": [136.96141, 35.00801, 136.9622, 35.00938], "geometry": {"type": "LineString", "coordinates": [[136.9622, 35.00801], [136.96141, 35.00938]]}, "properties": {"id": "GEOM_TOKYO_1065", "route_id": "R_A38B6B65", "route_name": null, "route_color": "#F28E1C", "route_text_color": null, "line_name": "東海道線", "operator_id": "東海旅客鉄道", "representation": "service_path", "min_zoom": 0, "max_zoom": 24, "offset_rank": 0}}, {"type": "Feature", "bbox": [136.9622, 35.00688, 136.96298, 35.00801], "geometry": {"type": "LineString", "coordinates": [[136.9622, 35.00801], [136.96295, 35.00692], [136.96298, 35.00688]]}, "properties": {"id": "GEOM_TOKYO_1066", "route_id": "R_A38B6B65", "route_name": null, "route_color": "#F28E1C", "route_text_color": null, "line_name": "東海道線", "operator_id": "東海旅客鉄道", "representation": "service_path", "min_zoom": 0, "max_zoom": 24, "offset_rank": 0}}, {"type": "Feature", "bbox": [136.96298, 35.00535, 136.96415, 35.00688], "geometry": {"type": "LineString", "coordinates": [[136.96298, 35.00688], [136.9635, 35.00614], [136.96371, 35.00587], [136.96395, 35.00558], [136.96415, 35.00535]]}, "properties": {"id": "GEOM_TOKYO_1067", "route_id": "R_A38B6B65", "route_name": null, "route_color": "#F28E1C", "route_text_color": null, "line_name": "東海道線", "operator_id": "東海旅客鉄道", "representation": "service_path", "min_zoom": 0, "max_zoom": 24, "offset_rank": 0}}, {"type": "Feature", "bbox": [136.95465, 35.00938, 136.96141, 35.03497], "geometry": {"type": "LineString", "coordinates": [[136.96141, 35.00938], [136.96057, 35.01085], [136.96011, 35.01167], [136.95964, 35.01252], [136.95932, 35.01323], [136.9591, 35.01371], [136.95905, 35.01384], [136.95892, 35.01417], [136.95882, 35.01442], [136.95873, 35.0147], [136.95862, 35.01512], [136.95842, 35.01606], [136.9582, 35.01717], [136.95796, 35.01837], [136.95723, 35.02208], [136.95661, 35.0251], [136.95642, 35.02607], [136.95617, 35.02735], [136.95581, 35.02915], [136.95549, 35.03075], [136.95529, 35.03171], [136.95487, 35.03385], [136.95465, 35.03497]]}, "properties": {"id": "GEOM_TOKYO_1088", "route_id": "R_A38B6B65", "route_name": null, "route_color": "#F28E1C", "route_text_color": null, "line_name": "東海道線", "operator_id": "東海旅客鉄道", "representation": "service_path", "min_zoom": 0, "max_zoom": 24, "offset_rank": 0}}, {"type": "Feature", "bbox": [137.08492, 34.95991, 137.08777, 34.96102], "geometry": {"type": "LineString", "coordinates": [[137.08777, 34.95991], [137.08708, 34.96019], [137.08641, 34.96045], [137.08592, 34.96063], [137.08492, 34.96102]]}, "properties": {"id": "GEOM_TOKYO_1149", "route_id": "R_A38B6B65", "route_name": null, "route_color": "#F28E1C", "route_text_color": null, "line_name": "東海道線", "operator_id": "東海旅客鉄道", "representation": "service_path", "min_zoom": 0, "max_zoom": 24, "offset_rank": 0}}, {"type": "Feature", "bbox": [137.15017, 34.93131, 137.15654, 34.93816], "geometry": {"type": "LineString", "coordinates": [[137.15654, 34.93131], [137.15653, 34.93164], [137.15651, 34.93177], [137.15646, 34.93212], [137.15645, 34.93217], [137.15637, 34.9326], [137.1562, 34.93334], [137.15609, 34.93361], [137.15576, 34.93425], [137.15554, 34.93458], [137.15507, 34.93516], [137.15492, 34.93531], [137.1547, 34.93552], [137.15424, 34.93594], [137.1538, 34.9363], [137.15351, 34.93652], [137.15311, 34.93677], [137.15207, 34.93737], [137.15095, 34.93789], [137.15017, 34.93816]]}, "properties": {"id": "GEOM_TOKYO_1151", "route_id": "R_A38B6B65", "route_name": null, "route_color": "#F28E1C", "route_text_color": null, "line_name": "東海道線", "operator_id": "東海旅客鉄道", "representation": "service_path", "min_zoom": 0, "max_zoom": 24, "offset_rank": 0}}, {"type": "Feature", "bbox": [137.12402, 34.93816, 137.15017, 34.94636], "geometry": {"type": "LineString", "coordinates": [[137.12402, 34.94636], [137.12531, 34.94598], [137.12605, 34.94576], [137.1271, 34.94542], [137.12824, 34.94506], [137.12898, 34.94483], [137.12938, 34.9447], [137.12964, 34.94462], [137.12972, 34.9446], [137.13032, 34.9444], [137.1312, 34.94412], [137.1321, 34.94385], [137.1327, 34.94365], [137.13331, 34.94347], [137.13405, 34.94324], [137.13486, 34.94298], [137.13647, 34.94247], [137.13807, 34.94196], [137.1383, 34.9419], [137.139, 34.9417], [137.14016, 34.94139], [137.14033, 34.94134], [137.14054, 34.94128], [137.14128, 34.94106], [137.14172, 34.94093], [137.14334, 34.94047], [137.14464, 34.94008], [137.14588, 34.93972], [137.14651, 34.93953], [137.14689, 34.93942], [137.1479, 34.93911], [137.14839, 34.93894], [137.14898, 34.9387], [137.14904, 34.93868], [137.14929, 34.93857], [137.14952, 34.93847], [137.15017, 34.93816]]}, "properties": {"id": "GEOM_TOKYO_1152", "route_id": "R_A38B6B65", "route_name": null, "route_color": "#F28E1C", "route_text_color": null, "line_name": "東海道線", "operator_id": "東海旅客鉄道", "representation": "service_path", "min_zoom": 0, "max_zoom": 24, "offset_rank": 0}}, {"type": "Feature", "bbox": [137.08777, 34.94688, 137.12229, 34.95991], "geometry": {"type": "LineString", "coordinates": [[137.12229, 34.94688], [137.12203, 34.94697], [137.12197, 34.94699], [137.12181, 34.94703], [137.12163, 34.94708], [137.12141, 34.94714], [137.12123, 34.94719], [137.12111, 34.94723], [137.12031, 34.94747], [137.12023, 34.9475], [137.12001, 34.94757], [137.11974, 34.94765], [137.11903, 34.94787], [137.11879, 34.94794], [137.11852, 34.94802], [137.11774, 34.94826], [137.11725, 34.94841], [137.11655, 34.94863], [137.11623, 34.94873], [137.11614, 34.94876], [137.11563, 34.94893], [137.11447, 34.94936], [137.11374, 34.94966], [137.11255, 34.95012], [137.11163, 34.95048], [137.11121, 34.95064], [137.11096, 34.95073], [137.10974, 34.95121], [137.10964, 34.95125], [137.1084, 34.95174], [137.1079, 34.95193], [137.10661, 34.95245], [137.10633, 34.95256], [137.10589, 34.95273], [137.10428, 34.95336], [137.10358, 34.95364], [137.10228, 34.95415], [137.10126, 34.95456], [137.10119, 34.95458], [137.09967, 34.9552], [137.09946, 34.95528], [137.09924, 34.95536], [137.09904, 34.95545], [137.09886, 34.95552], [137.09831, 34.95574], [137.09774, 34.95597], [137.0973, 34.95615], [137.0963, 34.95653], [137.09576, 34.95675], [137.0952, 34.95699], [137.09363, 34.95759], [137.09328, 34.95773], [137.09244, 34.95805], [137.09181, 34.95829], [137.09173, 34.95832], [137.08999, 34.95901], [137.08954, 34.9592], [137.0888, 34.9595], [137.08858, 34.95958], [137.0878, 34.9599], [137.08777, 34.95991]]}, "properties": {"id": "GEOM_TOKYO_1156", "route_id": "R_A38B6B65", "route_name": null, "route_color": "#F28E1C", "route_text_color": null, "line_name": "東海道線", "operator_id": "東海旅客鉄道", "representation": "service_path", "min_zoom": 0, "max_zoom": 24, "offset_rank": 0}}, {"type": "Feature", "bbox": [137.12229, 34.94636, 137.12402, 34.94688], "geometry": {"type": "LineString", "coordinates": [[137.12402, 34.94636], [137.12229, 34.94688]]}, "properties": {"id": "GEOM_TOKYO_1160", "route_id": "R_A38B6B65", "route_name": null, "route_color": "#F28E1C", "route_text_color": null, "line_name": "東海道線", "operator_id": "東海旅客鉄道", "representation": "service_path", "min_zoom": 0, "max_zoom": 24, "offset_rank": 0}}, {"type": "Feature", "bbox": [137.15017, 34.93229, 137.15613, 34.93816], "geometry": {"type": "LineString", "coordinates": [[137.15613, 34.93229], [137.15577, 34.93301], [137.15527, 34.93384], [137.15493, 34.93433], [137.15451, 34.93485], [137.15417, 34.93525], [137.15365, 34.93577], [137.15328, 34.93613], [137.15286, 34.93649], [137.15229, 34.93692], [137.15166, 34.93733], [137.15118, 34.93763], [137.15033, 34.93808], [137.15017, 34.93816]]}, "properties": {"id": "GEOM_TOKYO_1162", "route_id": "R_A38B6B65", "route_name": null, "route_color": "#F28E1C", "route_text_color": null, "line_name": "東海道線", "operator_id": "東海旅客鉄道", "representation": "service_path", "min_zoom": 0, "max_zoom": 24, "offset_rank": 0}}, {"type": "Feature", "bbox": [137.15613, 34.93131, 137.15654, 34.93229], "geometry": {"type": "LineString", "coordinates": [[137.15654, 34.93131], [137.15638, 34.93171], [137.15625, 34.93201], [137.15613, 34.93229]]}, "properties": {"id": "GEOM_TOKYO_1165", "route_id": "R_A38B6B65", "route_name": null, "route_color": "#F28E1C", "route_text_color": null, "line_name": "東海道線", "operator_id": "東海旅客鉄道", "representation": "service_path", "min_zoom": 0, "max_zoom": 24, "offset_rank": 0}}, {"type": "Feature", "bbox": [137.15715, 34.9239, 137.15739, 34.92679], "geometry": {"type": "LineString", "coordinates": [[137.15739, 34.9239], [137.15716, 34.92666], [137.15715, 34.92679]]}, "properties": {"id": "GEOM_TOKYO_1166", "route_id": "R_A38B6B65", "route_name": null, "route_color": "#F28E1C", "route_text_color": null, "line_name": "東海道線", "operator_id": "東海旅客鉄道", "representation": "service_path", "min_zoom": 0, "max_zoom": 24, "offset_rank": 0}}, {"type": "Feature", "bbox": [137.15654, 34.92679, 137.15715, 34.93131], "geometry": {"type": "LineString", "coordinates": [[137.15715, 34.92679], [137.15709, 34.92777], [137.15706, 34.92819], [137.15697, 34.92906], [137.15694, 34.92937], [137.15691, 34.92957], [137.15685, 34.93017], [137.15683, 34.93024], [137.15677, 34.93049], [137.15665, 34.93101], [137.15654, 34.93131]]}, "properties": {"id": "GEOM_TOKYO_1167", "route_id": "R_A38B6B65", "route_name": null, "route_color": "#F28E1C", "route_text_color": null, "line_name": "東海道線", "operator_id": "東海旅客鉄道", "representation": "service_path", "min_zoom": 0, "max_zoom": 24, "offset_rank": 0}}, {"type": "Feature", "bbox": [137.06298, 34.96102, 137.08492, 34.96967], "geometry": {"type": "LineString", "coordinates": [[137.08492, 34.96102], [137.08367, 34.9615], [137.08338, 34.96163], [137.08324, 34.96168], [137.08245, 34.96197], [137.08205, 34.96213], [137.08116, 34.96249], [137.08037, 34.9628], [137.08024, 34.96285], [137.07953, 34.96312], [137.07846, 34.96354], [137.07777, 34.96381], [137.07693, 34.96415], [137.07639, 34.96437], [137.07623, 34.96443], [137.07529, 34.96479], [137.07518, 34.96483], [137.07466, 34.96504], [137.07363, 34.96546], [137.07262, 34.96585], [137.07236, 34.96596], [137.07129, 34.96639], [137.07082, 34.96657], [137.07, 34.96689], [137.06953, 34.96707], [137.06847, 34.96749], [137.06782, 34.96774], [137.06693, 34.9681], [137.06641, 34.96832], [137.06626, 34.96838], [137.06607, 34.96845], [137.06587, 34.96853], [137.06584, 34.96854], [137.06549, 34.96868], [137.06482, 34.96893], [137.06407, 34.96924], [137.06298, 34.96967]]}, "properties": {"id": "GEOM_TOKYO_1170", "route_id": "R_A38B6B65", "route_name": null, "route_color": "#F28E1C", "route_text_color": null, "line_name": "東海道線", "operator_id": "東海旅客鉄道", "representation": "service_path", "min_zoom": 0, "max_zoom": 24, "offset_rank": 0}}, {"type": "Feature", "bbox": [137.04499, 34.97091, 137.05986, 34.97683], "geometry": {"type": "LineString", "coordinates": [[137.05986, 34.97091], [137.05863, 34.9714], [137.05783, 34.97171], [137.05658, 34.97219], [137.05642, 34.97226], [137.05505, 34.97281], [137.05442, 34.97306], [137.05375, 34.97332], [137.05305, 34.97361], [137.0527, 34.97374], [137.05092, 34.97447], [137.05046, 34.97465], [137.04869, 34.97536], [137.04818, 34.97556], [137.04759, 34.97579], [137.04647, 34.97624], [137.04499, 34.97683]]}, "properties": {"id": "GEOM_TOKYO_1171", "route_id": "R_A38B6B65", "route_name": null, "route_color": "#F28E1C", "route_text_color": null, "line_name": "東海道線", "operator_id": "東海旅客鉄道", "representation": "service_path", "min_zoom": 0, "max_zoom": 24, "offset_rank": 0}}, {"type": "Feature", "bbox": [137.05986, 34.96967, 137.06298, 34.97091], "geometry": {"type": "LineString", "coordinates": [[137.06298, 34.96967], [137.0613, 34.97033], [137.06069, 34.97058], [137.0605, 34.97065], [137.06037, 34.97071], [137.05986, 34.97091]]}, "properties": {"id": "GEOM_TOKYO_1172", "route_id": "R_A38B6B65", "route_name": null, "route_color": "#F28E1C", "route_text_color": null, "line_name": "東海道線", "operator_id": "東海旅客鉄道", "representation": "service_path", "min_zoom": 0, "max_zoom": 24, "offset_rank": 0}}, {"type": "Feature", "bbox": [137.01155, 34.98374, 137.02756, 34.99008], "geometry": {"type": "LineString", "coordinates": [[137.02756, 34.98374], [137.02674, 34.98406], [137.02618, 34.98429], [137.02503, 34.98475], [137.02467, 34.98488], [137.024, 34.98514], [137.02347, 34.98536], [137.02235, 34.9858], [137.0218, 34.98602], [137.02092, 34.98638], [137.02083, 34.98641], [137.02025, 34.98664], [137.01979, 34.98683], [137.01962, 34.9869], [137.01803, 34.98751], [137.01619, 34.98826], [137.01597, 34.98834], [137.01569, 34.98845], [137.01537, 34.98857], [137.01438, 34.98896], [137.01324, 34.98941], [137.01252, 34.9897], [137.01155, 34.99008]]}, "properties": {"id": "GEOM_TOKYO_3960", "route_id": "R_A38B6B65", "route_name": null, "route_color": "#F28E1C", "route_text_color": null, "line_name": "東海道線", "operator_id": "東海旅客鉄道", "representation": "service_path", "min_zoom": 0, "max_zoom": 24, "offset_rank": 0}}, {"type": "Feature", "bbox": [137.02876, 34.97788, 137.04228, 34.98327], "geometry": {"type": "LineString", "coordinates": [[137.04228, 34.97788], [137.04181, 34.97807], [137.0409, 34.97844], [137.0407, 34.97852], [137.0399, 34.97883], [137.03868, 34.97931], [137.03801, 34.97958], [137.03771, 34.9797], [137.03746, 34.9798], [137.0372, 34.9799], [137.03708, 34.97995], [137.03587, 34.98044], [137.03565, 34.98052], [137.0354, 34.98062], [137.0352, 34.98069], [137.03448, 34.98098], [137.03337, 34.98143], [137.03238, 34.98182], [137.03107, 34.98235], [137.03079, 34.98246], [137.03027, 34.98266], [137.02981, 34.98285], [137.02908, 34.98315], [137.02876, 34.98327]]}, "properties": {"id": "GEOM_TOKYO_3961", "route_id": "R_A38B6B65", "route_name": null, "route_color": "#F28E1C", "route_text_color": null, "line_name": "東海道線", "operator_id": "東海旅客鉄道", "representation": "service_path", "min_zoom": 0, "max_zoom": 24, "offset_rank": 0}}, {"type": "Feature", "bbox": [137.02756, 34.98327, 137.02876, 34.98374], "geometry": {"type": "LineString", "coordinates": [[137.02876, 34.98327], [137.02821, 34.98349], [137.02756, 34.98374]]}, "properties": {"id": "GEOM_TOKYO_3962", "route_id": "R_A38B6B65", "route_name": null, "route_color": "#F28E1C", "route_text_color": null, "line_name": "東海道線", "operator_id": "東海旅客鉄道", "representation": "service_path", "min_zoom": 0, "max_zoom": 24, "offset_rank": 0}}, {"type": "Feature", "bbox": [137.15739, 34.888989, 137.160193, 34.9239], "geometry": {"type": "LineString", "coordinates": [[137.15739, 34.9239], [137.15749, 34.92287], [137.15759, 34.92163], [137.1576, 34.92154], [137.15768, 34.92066], [137.15772, 34.92031], [137.15774, 34.91993], [137.1579, 34.91807], [137.15809, 34.9155], [137.15819, 34.91423], [137.1582, 34.91401], [137.15823, 34.91364], [137.15825, 34.91345], [137.15832, 34.91266], [137.15858, 34.90928], [137.15879, 34.90662], [137.15891, 34.90483], [137.15896, 34.90417], [137.15922, 34.90097], [137.1594, 34.89863], [137.15959, 34.89645], [137.15964, 34.89584], [137.15977, 34.89409], [137.15978, 34.89393], [137.15987, 34.89288], [137.15993, 34.89223], [137.15994, 34.89202], [137.15997, 34.89162], [137.16017, 34.88923], [137.160193, 34.888989]]}, "properties": {"id": "GEOM_TOKYO_4060", "route_id": "R_A38B6B65", "route_name": null, "route_color": "#F28E1C", "route_text_color": null, "line_name": "東海道線", "operator_id": "東海旅客鉄道", "representation": "service_path", "min_zoom": 0, "max_zoom": 24, "offset_rank": 0}}]}