{"type": "FeatureCollection", "features": [{"type": "Feature", "bbox": [136.84975, 35.17912, 136.86954, 35.18701], "geometry": {"type": "LineString", "coordinates": [[136.84975, 35.17912], [136.85322, 35.1817], [136.85342, 35.18185], [136.85406, 35.18233], [136.85487, 35.18296], [136.85502, 35.18307], [136.85537, 35.18328], [136.85663, 35.18406], [136.85983, 35.18605], [136.86073, 35.18663], [136.86102, 35.18673], [136.86157, 35.18683], [136.86227, 35.18694], [136.86505, 35.187], [136.86643, 35.18701], [136.86738, 35.18698], [136.8678, 35.18692], [136.86838, 35.18677], [136.86873, 35.18665], [136.86888, 35.18659], [136.86907, 35.1865], [136.86954, 35.18628]]}, "properties": {"id": "TRACK_TOKYO_0965", "line_name": "東海道新幹線", "station_group_ids": [], "mode": "shinkansen", "operator_id": "東海旅客鉄道", "tags": ["tokyo", "track_centerline"]}}, {"type": "Feature", "bbox": [136.86954, 35.17229, 136.88027, 35.18628], "geometry": {"type": "LineString", "coordinates": [[136.88027, 35.17229], [136.88023, 35.17244], [136.87983, 35.1737], [136.87981, 35.17378], [136.87978, 35.17386], [136.87964, 35.17423], [136.87959, 35.17434], [136.87938, 35.17487], [136.87934, 35.17497], [136.87809, 35.1775], [136.87747, 35.17852], [136.87706, 35.17906], [136.87628, 35.17995], [136.87495, 35.18128], [136.87371, 35.18252], [136.87364, 35.18259], [136.87338, 35.18285], [136.87328, 35.18294], [136.87275, 35.18346], [136.87205, 35.18405], [136.86954, 35.18628]]}, "properties": {"id": "TRACK_TOKYO_0966", "line_name": "東海道新幹線", "station_group_ids": [], "mode": "shinkansen", "operator_id": "東海旅客鉄道", "tags": ["tokyo", "track_centerline"]}}, {"type": "Feature", "bbox": [136.88027, 35.16874, 136.88194, 35.17229], "geometry": {"type": "LineString", "coordinates": [[136.88194, 35.16874], [136.88129, 35.16989], [136.88033, 35.17208], [136.88027, 35.17229]]}, "properties": {"id": "TRACK_TOKYO_0967", "line_name": "東海道新幹線", "station_group_ids": [], "mode": "shinkansen", "operator_id": "東海旅客鉄道", "tags": ["tokyo", "track_centerline"]}}, {"type": "Feature", "bbox": [136.68425, 35.31447, 136.68726, 35.31701], "geometry": {"type": "LineString", "coordinates": [[136.68425, 35.31701], [136.68726, 35.31447]]}, "properties": {"id": "TRACK_TOKYO_0968", "line_name": "東海道新幹線", "station_group_ids": [], "mode": "shinkansen", "operator_id": "東海旅客鉄道", "tags": ["tokyo", "track_centerline"]}}, {"type": "Feature", "bbox": [136.68726, 35.18628, 136.86954, 35.31447], "geometry": {"type": "LineString", "coordinates": [[136.68726, 35.31447], [136.6884, 35.31346], [136.68941, 35.31258], [136.69029, 35.31181], [136.69057, 35.31156], [136.69126, 35.31097], [136.69164, 35.31064], [136.69226, 35.3101], [136.69289, 35.30962], [136.69353, 35.30914], [136.69457, 35.30843], [136.69532, 35.30792], [136.69587, 35.30756], [136.69639, 35.30724], [136.69701, 35.30687], [136.69726, 35.30673], [136.69753, 35.30657], [136.69787, 35.3064], [136.69849, 35.30609], [136.69921, 35.30573], [136.69971, 35.30549], [136.69992, 35.30539], [136.70037, 35.30518], [136.701, 35.30491], [136.70157, 35.30469], [136.70216, 35.30449], [136.70297, 35.30419], [136.70411, 35.30376], [136.70535, 35.30331], [136.70661, 35.30283], [136.70777, 35.30239], [136.7089, 35.30194], [136.70964, 35.30164], [136.71008, 35.30146], [136.71057, 35.30127], [136.71081, 35.30116], [136.71103, 35.30106], [136.71178, 35.30072], [136.71362, 35.29995], [136.71495, 35.29938], [136.7162, 35.29883], [136.71802, 35.29806], [136.71977, 35.29732], [136.72045, 35.29702], [136.722, 35.29634], [136.7234, 35.29575], [136.72522, 35.29498], [136.72551, 35.29485], [136.72673, 35.29432], [136.72792, 35.29381], [136.7294, 35.29317], [136.73164, 35.29221], [136.73267, 35.29177], [136.73375, 35.29131], [136.7347, 35.2909], [136.73559, 35.29052], [136.73639, 35.29014], [136.73769, 35.28949], [136.73805, 35.28932], [136.73855, 35.28904], [136.73885, 35.28886], [136.73968, 35.28836], [136.7401, 35.2881], [136.74032, 35.28793], [136.74092, 35.28754], [136.74149, 35.28715], [136.74189, 35.28684], [136.7424, 35.28643], [136.74324, 35.28572], [136.74409, 35.28493], [136.74456, 35.28444], [136.74484, 35.28413], [136.74529, 35.28365], [136.74579, 35.28308], [136.7464, 35.28229], [136.74694, 35.28154], [136.74706, 35.28138], [136.74755, 35.28068], [136.74841, 35.27938], [136.74851, 35.27924], [136.74934, 35.27804], [136.74979, 35.27739], [136.75059, 35.27622], [136.75116, 35.2754], [136.75127, 35.27525], [136.75136, 35.27514], [136.75241, 35.27361], [136.75346, 35.27209], [136.75365, 35.27182], [136.7544, 35.27078], [136.75506, 35.26981], [136.75613, 35.26827], [136.75637, 35.26791], [136.75656, 35.26765], [136.75702, 35.26699], [136.75716, 35.26678], [136.75746, 35.26633], [136.75766, 35.26604], [136.75846, 35.26488], [136.75874, 35.26447], [136.75895, 35.26416], [136.75948, 35.26338], [136.7596, 35.26321], [136.75973, 35.26301], [136.76015, 35.26239], [136.76041, 35.26201], [136.76089, 35.2613], [136.7611, 35.26103], [136.76229, 35.25932], [136.76258, 35.2589], [136.76291, 35.25844], [136.76356, 35.25751], [136.76412, 35.25671], [136.76484, 35.25567], [136.76564, 35.25453], [136.76628, 35.25366], [136.76655, 35.25325], [136.76658, 35.25321], [136.76672, 35.25295], [136.76685, 35.25272], [136.7669, 35.25264], [136.76698, 35.25253], [136.76774, 35.2514], [136.76787, 35.25122], [136.76833, 35.2506], [136.76846, 35.25041], [136.769, 35.24967], [136.76915, 35.24946], [136.76964, 35.24878], [136.76977, 35.24861], [136.77032, 35.24787], [136.77059, 35.24753], [136.77074, 35.24733], [136.77129, 35.24666], [136.77143, 35.24649], [136.77254, 35.24524], [136.77337, 35.2444], [136.77423, 35.24363], [136.77521, 35.24283], [136.77638, 35.24196], [136.7775, 35.24116], [136.77828, 35.24067], [136.77913, 35.24018], [136.78065, 35.23937], [136.7808, 35.2393], [136.78122, 35.23908], [136.78199, 35.23872], [136.78308, 35.23821], [136.78542, 35.23707], [136.78555, 35.237], [136.78706, 35.23629], [136.7895, 35.23511], [136.78987, 35.23495], [136.79019, 35.23478], [136.79064, 35.23457], [136.79097, 35.23443], [136.79136, 35.23423], [136.79169, 35.23406], [136.79279, 35.23356], [136.79304, 35.23343], [136.79396, 35.23297], [136.79411, 35.23291], [136.79428, 35.23284], [136.79529, 35.23235], [136.7955, 35.23224], [136.79644, 35.23179], [136.79687, 35.2316], [136.79726, 35.2314], [136.80221, 35.22907], [136.80268, 35.22887], [136.80362, 35.2285], [136.80452, 35.22818], [136.80543, 35.22787], [136.80626, 35.2276], [136.80683, 35.22741], [136.80726, 35.22729], [136.80802, 35.22707], [136.80878, 35.22689], [136.81037, 35.22659], [136.81187, 35.22634], [136.81297, 35.22618], [136.81529, 35.22592], [136.81619, 35.22582], [136.81644, 35.2258], [136.81754, 35.22567], [136.82002, 35.22541], [136.82131, 35.22529], [136.82239, 35.22516], [136.8227, 35.22513], [136.82358, 35.22501], [136.82395, 35.22497], [136.82494, 35.22482], [136.82526, 35.22478], [136.82622, 35.22463], [136.82652, 35.22458], [136.82748, 35.22437], [136.82778, 35.2243], [136.8287, 35.22405], [136.82906, 35.22395], [136.8302, 35.22363], [136.83128, 35.22329], [136.83209, 35.22298], [136.83336, 35.22243], [136.83414, 35.22205], [136.83466, 35.22179], [136.83502, 35.22161], [136.83527, 35.22147], [136.837, 35.22054], [136.83779, 35.22004], [136.83875, 35.2193], [136.83937, 35.21884], [136.84008, 35.21821], [136.84094, 35.21739], [136.84161, 35.21667], [136.84224, 35.21595], [136.84308, 35.21504], [136.84338, 35.21469], [136.84551, 35.21225], [136.84582, 35.21189], [136.8477, 35.20969], [136.84786, 35.2095], [136.84884, 35.20835], [136.84945, 35.20769], [136.84964, 35.2075], [136.8503, 35.20685], [136.85103, 35.20619], [136.85126, 35.20601], [136.85191, 35.20548], [136.85246, 35.20506], [136.85365, 35.20422], [136.85488, 35.20345], [136.85544, 35.20312], [136.85604, 35.20278], [136.85651, 35.20252], [136.85738, 35.20204], [136.85793, 35.2017], [136.85811, 35.20158], [136.85831, 35.20147], [136.85942, 35.20072], [136.85999, 35.20029], [136.86041, 35.19996], [136.8609, 35.1995], [136.86154, 35.19887], [136.862, 35.19834], [136.86253, 35.19767], [136.86299, 35.19701], [136.86358, 35.1961], [136.86412, 35.19517], [136.86457, 35.1943], [136.86497, 35.19339], [136.8651, 35.1931], [136.86542, 35.19233], [136.86574, 35.1916], [136.86597, 35.19106], [136.86627, 35.19034], [136.86661, 35.18964], [136.86702, 35.189], [136.86756, 35.18831], [136.86848, 35.18731], [136.86903, 35.18677], [136.86954, 35.18628]]}, "properties": {"id": "TRACK_TOKYO_0969", "line_name": "東海道新幹線", "station_group_ids": [], "mode": "shinkansen", "operator_id": "東海旅客鉄道", "tags": ["tokyo", "track_centerline"]}}, {"type": "Feature", "bbox": [136.88194, 34.97087, 137.0586, 35.16874], "geometry": {"type": "LineString", "coordinates": [[137.0586, 34.97087], [137.05796, 34.97157], [137.05775, 34.9718], [137.05754, 34.97203], [137.05729, 34.97229], [137.05658, 34.97304], [137.05641, 34.97325], [137.05622, 34.97346], [137.05596, 34.97375], [137.0558, 34.97392], [137.05516, 34.9746], [137.05435, 34.97549], [137.05366, 34.97624], [137.05348, 34.97643], [137.05337, 34.97654], [137.05267, 34.97733], [137.05209, 34.97797], [137.05198, 34.97809], [137.05187, 34.97821], [137.05173, 34.97835], [137.0511, 34.97907], [137.05074, 34.97945], [137.05049, 34.97972], [137.04992, 34.98033], [137.04971, 34.98054], [137.0494, 34.98088], [137.0493, 34.98097], [137.0487, 34.9816], [137.04819, 34.98213], [137.04804, 34.98227], [137.04788, 34.98241], [137.04729, 34.98295], [137.04671, 34.98346], [137.0465, 34.98364], [137.04621, 34.98388], [137.04531, 34.98467], [137.04376, 34.98595], [137.04358, 34.9861], [137.04297, 34.9866], [137.04279, 34.98674], [137.04239, 34.98705], [137.04233, 34.9871], [137.04227, 34.98714], [137.04149, 34.98777], [137.04134, 34.98789], [137.04106, 34.98812], [137.04064, 34.98846], [137.04018, 34.9888], [137.03948, 34.9893], [137.03923, 34.98946], [137.03904, 34.98959], [137.03885, 34.98972], [137.03807, 34.99024], [137.03727, 34.99078], [137.03695, 34.99098], [137.03667, 34.99116], [137.03601, 34.99159], [137.03431, 34.99272], [137.03407, 34.99288], [137.03359, 34.99318], [137.03335, 34.99334], [137.0333, 34.99337], [137.03253, 34.99389], [137.03189, 34.99431], [137.03134, 34.99467], [137.03085, 34.99499], [137.0307, 34.99509], [137.03053, 34.99521], [137.0299, 34.99563], [137.0297, 34.99576], [137.02957, 34.99585], [137.0288, 34.99634], [137.02866, 34.99644], [137.02847, 34.99658], [137.02813, 34.99678], [137.02798, 34.99688], [137.02791, 34.99694], [137.02716, 34.99743], [137.02686, 34.99762], [137.02578, 34.99831], [137.02502, 34.99881], [137.02484, 34.99893], [137.02398, 34.99949], [137.02307, 35.00007], [137.02178, 35.00092], [137.02138, 35.00117], [137.02044, 35.00178], [137.02024, 35.00191], [137.02003, 35.00205], [137.01955, 35.00236], [137.0186, 35.00296], [137.01814, 35.00325], [137.0153, 35.00508], [137.01487, 35.00538], [137.01406, 35.00591], [137.01358, 35.00622], [137.0116, 35.00751], [137.00695, 35.01057], [137.00637, 35.01095], [137.00546, 35.01153], [137.00507, 35.01179], [137.00427, 35.01233], [136.99807, 35.01638], [136.99704, 35.01704], [136.99406, 35.01895], [136.99301, 35.01963], [136.99295, 35.01967], [136.99263, 35.01987], [136.9907, 35.02112], [136.99059, 35.0212], [136.9901, 35.02151], [136.98953, 35.02188], [136.98849, 35.02255], [136.9865, 35.02384], [136.98088, 35.02746], [136.98023, 35.02788], [136.97945, 35.02839], [136.97913, 35.0286], [136.97769, 35.02954], [136.97725, 35.02983], [136.97561, 35.0309], [136.97371, 35.03211], [136.97098, 35.03386], [136.9708, 35.03398], [136.97012, 35.03442], [136.96872, 35.03534], [136.96854, 35.03545], [136.96846, 35.03551], [136.96829, 35.03562], [136.96811, 35.03574], [136.96788, 35.03589], [136.96722, 35.03633], [136.96589, 35.03722], [136.9651, 35.03776], [136.965, 35.03782], [136.96409, 35.03844], [136.96336, 35.03893], [136.96297, 35.03919], [136.96226, 35.03973], [136.96215, 35.03981], [136.96168, 35.04017], [136.96127, 35.04049], [136.96115, 35.04058], [136.9607, 35.04094], [136.96031, 35.04128], [136.96018, 35.04136], [136.95992, 35.04159], [136.95968, 35.04179], [136.959, 35.04237], [136.95841, 35.04292], [136.95819, 35.04312], [136.95786, 35.04343], [136.95673, 35.04463], [136.95611, 35.04528], [136.95515, 35.04636], [136.95487, 35.0467], [136.95457, 35.04706], [136.95358, 35.04834], [136.95328, 35.04877], [136.95299, 35.04919], [136.95278, 35.04949], [136.95231, 35.05017], [136.94977, 35.0541], [136.94832, 35.0564], [136.94786, 35.05712], [136.94771, 35.05737], [136.94721, 35.05816], [136.94694, 35.05859], [136.9468, 35.05882], [136.94529, 35.06119], [136.94514, 35.06144], [136.945, 35.06164], [136.94415, 35.06298], [136.94345, 35.06404], [136.94287, 35.06496], [136.94226, 35.06604], [136.94157, 35.06724], [136.94153, 35.0673], [136.94139, 35.06756], [136.94038, 35.0694], [136.93989, 35.07031], [136.93982, 35.07045], [136.93964, 35.07078], [136.93958, 35.07088], [136.9394, 35.07122], [136.93938, 35.07127], [136.93929, 35.07143], [136.93926, 35.07148], [136.93909, 35.0718], [136.9388, 35.07234], [136.93867, 35.07259], [136.93845, 35.07299], [136.93839, 35.0731], [136.93789, 35.07402], [136.93729, 35.07513], [136.93703, 35.0756], [136.93661, 35.07637], [136.93602, 35.07747], [136.93585, 35.07777], [136.93582, 35.07783], [136.93567, 35.0781], [136.93564, 35.07815], [136.93529, 35.07881], [136.93523, 35.07891], [136.93504, 35.07927], [136.93499, 35.07936], [136.9345, 35.08026], [136.93438, 35.08048], [136.93433, 35.08057], [136.93427, 35.08068], [136.93374, 35.08167], [136.93361, 35.08191], [136.93349, 35.08213], [136.93342, 35.08228], [136.93297, 35.08312], [136.93291, 35.08323], [136.93269, 35.08364], [136.93244, 35.08409], [136.93242, 35.08413], [136.93221, 35.08454], [136.93163, 35.08564], [136.93114, 35.08657], [136.93055, 35.08774], [136.92992, 35.08898], [136.92951, 35.08978], [136.92934, 35.09014], [136.9292, 35.09041], [136.92896, 35.09091], [136.92857, 35.09164], [136.92812, 35.09257], [136.92785, 35.09309], [136.92763, 35.09349], [136.92727, 35.09417], [136.92688, 35.09492], [136.92657, 35.09548], [136.92624, 35.09612], [136.92565, 35.09715], [136.92523, 35.09785], [136.92479, 35.09859], [136.92456, 35.09895], [136.92429, 35.0993], [136.92393, 35.09974], [136.92345, 35.10029], [136.92305, 35.10071], [136.92261, 35.10122], [136.92223, 35.1016], [136.92204, 35.10178], [136.92145, 35.10235], [136.92094, 35.10281], [136.9206, 35.10309], [136.91955, 35.10389], [136.91858, 35.1046], [136.91813, 35.10489], [136.91712, 35.10554], [136.91656, 35.1059], [136.91615, 35.10612], [136.91552, 35.10646], [136.91452, 35.10695], [136.91351, 35.10745], [136.91262, 35.10788], [136.91173, 35.10829], [136.91125, 35.1085], [136.91069, 35.10875], [136.90963, 35.10924], [136.90865, 35.1097], [136.90857, 35.10974], [136.90662, 35.11064], [136.90534, 35.11123], [136.90393, 35.11188], [136.90325, 35.11221], [136.90178, 35.11286], [136.9016, 35.11294], [136.90087, 35.11326], [136.89986, 35.11373], [136.89891, 35.11419], [136.89758, 35.11488], [136.89701, 35.1152], [136.89654, 35.11549], [136.89592, 35.11587], [136.89581, 35.11594], [136.89541, 35.11621], [136.89488, 35.11657], [136.89448, 35.11686], [136.89427, 35.11703], [136.89386, 35.11734], [136.89349, 35.11763], [136.89306, 35.118], [136.89278, 35.11823], [136.89254, 35.11846], [136.89232, 35.11867], [136.89171, 35.11926], [136.89118, 35.11978], [136.89088, 35.1201], [136.89045, 35.12057], [136.89005, 35.12108], [136.88966, 35.12157], [136.88946, 35.12184], [136.88924, 35.12215], [136.88904, 35.12244], [136.88876, 35.12282], [136.8886, 35.12306], [136.8884, 35.12339], [136.88821, 35.12369], [136.88806, 35.124], [136.88793, 35.12423], [136.88773, 35.12459], [136.88745, 35.12507], [136.88722, 35.12549], [136.88709, 35.12579], [136.88689, 35.12625], [136.88668, 35.12674], [136.88651, 35.12724], [136.88637, 35.12771], [136.88617, 35.1284], [136.88595, 35.12916], [136.88581, 35.12994], [136.88571, 35.1307], [136.88556, 35.13204], [136.88553, 35.13265], [136.88552, 35.13296], [136.88552, 35.13309], [136.88552, 35.13342], [136.88556, 35.13383], [136.88565, 35.13454], [136.88581, 35.13564], [136.88591, 35.13624], [136.88594, 35.13641], [136.88596, 35.13653], [136.88599, 35.13671], [136.88601, 35.1368], [136.88615, 35.13761], [136.88649, 35.13962], [136.88662, 35.14044], [136.88664, 35.14053], [136.88664, 35.14058], [136.88669, 35.14086], [136.88671, 35.14095], [136.88681, 35.14166], [136.88736, 35.14443], [136.88737, 35.14451], [136.88742, 35.14478], [136.88744, 35.14487], [136.88764, 35.14593], [136.88766, 35.14607], [136.88768, 35.14616], [136.88771, 35.14631], [136.88772, 35.14641], [136.88798, 35.14788], [136.88816, 35.14912], [136.88814, 35.15021], [136.88812, 35.15049], [136.88811, 35.15057], [136.88809, 35.15076], [136.88809, 35.15083], [136.88804, 35.15127], [136.88787, 35.15242], [136.88779, 35.15296], [136.88766, 35.15362], [136.8875, 35.15428], [136.88745, 35.15449], [136.88724, 35.15527], [136.88673, 35.15745], [136.88639, 35.15879], [136.8863, 35.15915], [136.88615, 35.15973], [136.8858, 35.16111], [136.8857, 35.16151], [136.88529, 35.16306], [136.88522, 35.16329], [136.88514, 35.16365], [136.88502, 35.16395], [136.88494, 35.16417], [136.88474, 35.16459], [136.88451, 35.16511], [136.88443, 35.16528], [136.88432, 35.16542], [136.88417, 35.16565], [136.88398, 35.16592], [136.88384, 35.1661], [136.88358, 35.16645], [136.88339, 35.16673], [136.88295, 35.16731], [136.88264, 35.16773], [136.88242, 35.16802], [136.88194, 35.16874]]}, "properties": {"id": "TRACK_TOKYO_0977", "line_name": "東海道新幹線", "station_group_ids": [], "mode": "shinkansen", "operator_id": "東海旅客鉄道", "tags": ["tokyo", "track_centerline"]}}, {"type": "Feature", "bbox": [136.29005, 35.31672, 136.68425, 35.3694], "geometry": {"type": "LineString", "coordinates": [[136.29005, 35.31672], [136.2904, 35.31829], [136.29073, 35.31972], [136.29129, 35.3222], [136.29186, 35.32458], [136.29281, 35.32876], [136.29338, 35.33072], [136.29385, 35.33202], [136.29416, 35.33274], [136.29432, 35.33306], [136.29465, 35.33376], [136.29472, 35.33389], [136.29526, 35.33491], [136.29552, 35.33536], [136.29602, 35.33611], [136.29632, 35.33653], [136.29673, 35.33716], [136.297, 35.33751], [136.29821, 35.33899], [136.29918, 35.34008], [136.29993, 35.34092], [136.30021, 35.34124], [136.30085, 35.34196], [136.30154, 35.34272], [136.30315, 35.34444], [136.30357, 35.34489], [136.30438, 35.34577], [136.30549, 35.34694], [136.30631, 35.34779], [136.30714, 35.34865], [136.30727, 35.34878], [136.30763, 35.3491], [136.30796, 35.34939], [136.30818, 35.34955], [136.30867, 35.34994], [136.30964, 35.35069], [136.31034, 35.35117], [136.31075, 35.35145], [136.31107, 35.35166], [136.31123, 35.35176], [136.31215, 35.35232], [136.3128, 35.35266], [136.31328, 35.35292], [136.31442, 35.35349], [136.3152, 35.35385], [136.31617, 35.35424], [136.31668, 35.35442], [136.31714, 35.35458], [136.31784, 35.35482], [136.31855, 35.35503], [136.31935, 35.35525], [136.31983, 35.35539], [136.32179, 35.35584], [136.32308, 35.35614], [136.32461, 35.35649], [136.32621, 35.35686], [136.32651, 35.35693], [136.32786, 35.35725], [136.32983, 35.35771], [136.33151, 35.35809], [136.33375, 35.35861], [136.33595, 35.35911], [136.33708, 35.35941], [136.33719, 35.35944], [136.3373, 35.35947], [136.33759, 35.35954], [136.33779, 35.35961], [136.3382, 35.35972], [136.33882, 35.35995], [136.34018, 35.3604], [136.34072, 35.36057], [136.34249, 35.36117], [136.34308, 35.36136], [136.34341, 35.36148], [136.34477, 35.36193], [136.34652, 35.36252], [136.34674, 35.36259], [136.34764, 35.36289], [136.34834, 35.36312], [136.34897, 35.36334], [136.34923, 35.36343], [136.34961, 35.36356], [136.34992, 35.36366], [136.35169, 35.36425], [136.35385, 35.36496], [136.35471, 35.36525], [136.35514, 35.36537], [136.35709, 35.36592], [136.35856, 35.36627], [136.35916, 35.36641], [136.35952, 35.36648], [136.3601, 35.36657], [136.36034, 35.36658], [136.36059, 35.36664], [136.36102, 35.36671], [136.36156, 35.36681], [136.36239, 35.36692], [136.36354, 35.36703], [136.36411, 35.36707], [136.36466, 35.3671], [136.36581, 35.36713], [136.36741, 35.36713], [136.36833, 35.36714], [136.36875, 35.36715], [136.36908, 35.36715], [136.36928, 35.36715], [136.37121, 35.3671], [136.37179, 35.3671], [136.3721, 35.36709], [136.37424, 35.36704], [136.3756, 35.36694], [136.3769, 35.3668], [136.37807, 35.36665], [136.37898, 35.3665], [136.37961, 35.36639], [136.37995, 35.36632], [136.38105, 35.36609], [136.38276, 35.36569], [136.38426, 35.36536], [136.38649, 35.36484], [136.38791, 35.36451], [136.38998, 35.36403], [136.39123, 35.36374], [136.39238, 35.36346], [136.39304, 35.36331], [136.39369, 35.36315], [136.39537, 35.36276], [136.3968, 35.36244], [136.39779, 35.36226], [136.39888, 35.36208], [136.39954, 35.36199], [136.40056, 35.36187], [136.40125, 35.36182], [136.40164, 35.36179], [136.40265, 35.36173], [136.40316, 35.3617], [136.40373, 35.36166], [136.40407, 35.36164], [136.40509, 35.3616], [136.40542, 35.36155], [136.40634, 35.36149], [136.40835, 35.36136], [136.41262, 35.36108], [136.41339, 35.36103], [136.41502, 35.36092], [136.41741, 35.36076], [136.42093, 35.36052], [136.42572, 35.36019], [136.42606, 35.36017], [136.42688, 35.36011], [136.42924, 35.35993], [136.4335, 35.35965], [136.43558, 35.35951], [136.43711, 35.3594], [136.43779, 35.35935], [136.4384, 35.3593], [136.43855, 35.35929], [136.4411, 35.35902], [136.44225, 35.35889], [136.4436, 35.35868], [136.44384, 35.35864], [136.44517, 35.35838], [136.44573, 35.35828], [136.44696, 35.35804], [136.44759, 35.35792], [136.44953, 35.35754], [136.45001, 35.35745], [136.45078, 35.3573], [136.45143, 35.35719], [136.45355, 35.35679], [136.45431, 35.35669], [136.45487, 35.3566], [136.45518, 35.35657], [136.45562, 35.35651], [136.45649, 35.35644], [136.45704, 35.35641], [136.45803, 35.35634], [136.45833, 35.35633], [136.45942, 35.35634], [136.46039, 35.35638], [136.46184, 35.35649], [136.46224, 35.35652], [136.46274, 35.35657], [136.46311, 35.35662], [136.46416, 35.35677], [136.46516, 35.35691], [136.46548, 35.35697], [136.46647, 35.35716], [136.46801, 35.35744], [136.47011, 35.35784], [136.47113, 35.35804], [136.47205, 35.35828], [136.47306, 35.35857], [136.47373, 35.35875], [136.47491, 35.35913], [136.47631, 35.35965], [136.47959, 35.36096], [136.4808, 35.36144], [136.48445, 35.36292], [136.48482, 35.36307], [136.48669, 35.36381], [136.48682, 35.36387], [136.48741, 35.36411], [136.48769, 35.36422], [136.48857, 35.36457], [136.48873, 35.36464], [136.48888, 35.3647], [136.49001, 35.36517], [136.49187, 35.36591], [136.49361, 35.36661], [136.49538, 35.36729], [136.49663, 35.36772], [136.49708, 35.36788], [136.49805, 35.36812], [136.49931, 35.36844], [136.50044, 35.36872], [136.50212, 35.36904], [136.50315, 35.36918], [136.50441, 35.36929], [136.50454, 35.3693], [136.50456, 35.3693], [136.50485, 35.36931], [136.50674, 35.3694], [136.50843, 35.36939], [136.50913, 35.36935], [136.50933, 35.36934], [136.50958, 35.36932], [136.51075, 35.36921], [136.51106, 35.36918], [136.51124, 35.36917], [136.51254, 35.36901], [136.51322, 35.36891], [136.51351, 35.36887], [136.51571, 35.36853], [136.5166, 35.3684], [136.51698, 35.36834], [136.51972, 35.36793], [136.51987, 35.3679], [136.52003, 35.36788], [136.52016, 35.36785], [136.52072, 35.36776], [136.52094, 35.36773], [136.52144, 35.36764], [136.52188, 35.36757], [136.52224, 35.36751], [136.52232, 35.36749], [136.52258, 35.36744], [136.52281, 35.36739], [136.52294, 35.36736], [136.52305, 35.36733], [136.52362, 35.36721], [136.52382, 35.36713], [136.52486, 35.36678], [136.52611, 35.36629], [136.52736, 35.3658], [136.5282, 35.36547], [136.52865, 35.3653], [136.53025, 35.36459], [136.5304, 35.36452], [136.53045, 35.3645], [136.53056, 35.36444], [136.53194, 35.36367], [136.53303, 35.36299], [136.53343, 35.36273], [136.53362, 35.36262], [136.53378, 35.36252], [136.53452, 35.36205], [136.53526, 35.36159], [136.5355, 35.36143], [136.53616, 35.36101], [136.53691, 35.36053], [136.53843, 35.35957], [136.53851, 35.35952], [136.53897, 35.35923], [136.53957, 35.35884], [136.54182, 35.35741], [136.5428, 35.35679], [136.54362, 35.35628], [136.54586, 35.35489], [136.54798, 35.35367], [136.54888, 35.35324], [136.55049, 35.3525], [136.55062, 35.35244], [136.55167, 35.35201], [136.55256, 35.35172], [136.55339, 35.35144], [136.55448, 35.35111], [136.55467, 35.35106], [136.55719, 35.35046], [136.55745, 35.3504], [136.55774, 35.35034], [136.5583, 35.35024], [136.55941, 35.35003], [136.56011, 35.34993], [136.56039, 35.3499], [136.5612, 35.34978], [136.56138, 35.34977], [136.56251, 35.34964], [136.56252, 35.34964], [136.56374, 35.34957], [136.56376, 35.34957], [136.5643, 35.34955], [136.56578, 35.34951], [136.56875, 35.34941], [136.57104, 35.34934], [136.57721, 35.34911], [136.57896, 35.34906], [136.58326, 35.34893], [136.58339, 35.34893], [136.58451, 35.34889], [136.58635, 35.34883], [136.58668, 35.34882], [136.5885, 35.34875], [136.58881, 35.34874], [136.5898, 35.34871], [136.59029, 35.3487], [136.59431, 35.34856], [136.59495, 35.34853], [136.59627, 35.34849], [136.60206, 35.34803], [136.6041, 35.34786], [136.60598, 35.34771], [136.60816, 35.34752], [136.61436, 35.34704], [136.61701, 35.34682], [136.61973, 35.3466], [136.62207, 35.34641], [136.62637, 35.34604], [136.62828, 35.3459], [136.62883, 35.34585], [136.63103, 35.34568], [136.63184, 35.34561], [136.63215, 35.34559], [136.63261, 35.34555], [136.63342, 35.34549], [136.63414, 35.34544], [136.63441, 35.34541], [136.63509, 35.34536], [136.63545, 35.34531], [136.63608, 35.34523], [136.63642, 35.34519], [136.63756, 35.34499], [136.63892, 35.34467], [136.64033, 35.3443], [136.6415, 35.34397], [136.64176, 35.34389], [136.64285, 35.34351], [136.64316, 35.34341], [136.64469, 35.34284], [136.64658, 35.34205], [136.64877, 35.34114], [136.65086, 35.34031], [136.652, 35.33985], [136.65234, 35.33972], [136.6527, 35.33956], [136.65507, 35.3386], [136.65525, 35.33852], [136.6556, 35.33838], [136.65614, 35.33815], [136.6564, 35.33805], [136.65797, 35.33738], [136.65834, 35.33724], [136.65904, 35.33695], [136.65993, 35.33654], [136.66119, 35.3359], [136.66234, 35.33526], [136.6631, 35.33481], [136.66387, 35.3343], [136.66419, 35.33408], [136.66457, 35.33381], [136.66489, 35.33356], [136.66573, 35.33285], [136.66696, 35.3318], [136.66856, 35.33044], [136.67006, 35.32918], [136.67199, 35.32752], [136.67381, 35.32598], [136.67403, 35.32579], [136.67419, 35.32565], [136.67478, 35.32514], [136.67617, 35.32395], [136.67725, 35.32303], [136.67856, 35.32191], [136.68078, 35.32], [136.68238, 35.31863], [136.68271, 35.31831], [136.68313, 35.31795], [136.68425, 35.31701]]}, "properties": {"id": "TRACK_TOKYO_0979", "line_name": "東海道新幹線", "station_group_ids": [], "mode": "shinkansen", "operator_id": "東海旅客鉄道", "tags": ["tokyo", "track_centerline"]}}, {"type": "Feature", "bbox": [136.69282, 35.39593, 136.69445, 35.3966], "geometry": {"type": "LineString", "coordinates": [[136.69282, 35.39593], [136.69445, 35.3966]]}, "properties": {"id": "TRACK_TOKYO_1068", "line_name": "東海道線", "station_group_ids": [], "mode": "rail", "operator_id": "東海旅客鉄道", "tags": ["tokyo", "track_centerline"]}}, {"type": "Feature", "bbox": [136.69445, 35.3966, 136.72265, 35.40436], "geometry": {"type": "LineString", "coordinates": [[136.69445, 35.3966], [136.6957, 35.39708], [136.69696, 35.39749], [136.69773, 35.39773], [136.69982, 35.39828], [136.70177, 35.3988], [136.70445, 35.39952], [136.70805, 35.40047], [136.70843, 35.40059], [136.71098, 35.40127], [136.71286, 35.40176], [136.71662, 35.40276], [136.71835, 35.40321], [136.71865, 35.40329], [136.71892, 35.40337], [136.72002, 35.40366], [136.72265, 35.40436]]}, "properties": {"id": "TRACK_TOKYO_1069", "line_name": "東海道線", "station_group_ids": [], "mode": "rail", "operator_id": "東海旅客鉄道", "tags": ["tokyo", "track_centerline"]}}, {"type": "Feature", "bbox": [136.72265, 35.40436, 136.72387, 35.40469], "geometry": {"type": "LineString", "coordinates": [[136.72265, 35.40436], [136.72387, 35.40469]]}, "properties": {"id": "TRACK_TOKYO_1070", "line_name": "東海道線", "station_group_ids": [], "mode": "rail", "operator_id": "東海旅客鉄道", "tags": ["tokyo", "track_centerline"]}}, {"type": "Feature", "bbox": [136.78097, 35.34714, 136.78129, 35.34899], "geometry": {"type": "LineString", "coordinates": [[136.78129, 35.34714], [136.78125, 35.3476], [136.78114, 35.34824], [136.78097, 35.34899]]}, "properties": {"id": "TRACK_TOKYO_1071", "line_name": "東海道線", "station_group_ids": [], "mode": "rail", "operator_id": "東海旅客鉄道", "tags": ["tokyo", "track_centerline"]}}, {"type": "Feature", "bbox": [136.72387, 35.40469, 136.75464, 35.41046], "geometry": {"type": "LineString", "coordinates": [[136.72387, 35.40469], [136.72631, 35.40535], [136.72707, 35.40555], [136.72778, 35.40574], [136.72854, 35.40595], [136.72984, 35.40629], [136.73121, 35.40666], [136.73133, 35.40669], [136.73367, 35.40731], [136.73372, 35.40733], [136.73385, 35.40736], [136.73608, 35.40796], [136.73774, 35.4084], [136.73799, 35.40847], [136.73904, 35.40875], [136.73951, 35.40888], [136.73977, 35.40895], [136.74159, 35.40944], [136.7438, 35.41004], [136.74477, 35.41023], [136.74604, 35.41038], [136.74705, 35.41046], [136.74762, 35.41045], [136.7487, 35.41041], [136.74917, 35.41037], [136.75011, 35.41025], [136.75175, 35.41005], [136.7518, 35.41004], [136.75464, 35.40974]]}, "properties": {"id": "TRACK_TOKYO_1072", "line_name": "東海道線", "station_group_ids": [], "mode": "rail", "operator_id": "東海旅客鉄道", "tags": ["tokyo", "track_centerline"]}}, {"type": "Feature", "bbox": [136.75464, 35.40933, 136.75841, 35.40974], "geometry": {"type": "LineString", "coordinates": [[136.75464, 35.40974], [136.75546, 35.40965], [136.75773, 35.40941], [136.75841, 35.40933]]}, "properties": {"id": "TRACK_TOKYO_1073", "line_name": "東海道線", "station_group_ids": [], "mode": "rail", "operator_id": "東海旅客鉄道", "tags": ["tokyo", "track_centerline"]}}, {"type": "Feature", "bbox": [136.75841, 35.40812, 136.76701, 35.40933], "geometry": {"type": "LineString", "coordinates": [[136.75841, 35.40933], [136.7591, 35.40926], [136.76002, 35.40916], [136.76133, 35.40902], [136.76476, 35.40864], [136.76561, 35.4085], [136.76606, 35.4084], [136.76701, 35.40812]]}, "properties": {"id": "TRACK_TOKYO_1074", "line_name": "東海道線", "station_group_ids": [], "mode": "rail", "operator_id": "東海旅客鉄道", "tags": ["tokyo", "track_centerline"]}}, {"type": "Feature", "bbox": [136.76701, 35.34899, 136.78134, 35.40812], "geometry": {"type": "LineString", "coordinates": [[136.76701, 35.40812], [136.76766, 35.40777], [136.76777, 35.40768], [136.76864, 35.40705], [136.76911, 35.40659], [136.76951, 35.40609], [136.76991, 35.40545], [136.77017, 35.4049], [136.77145, 35.40195], [136.77241, 35.39964], [136.77253, 35.39935], [136.77317, 35.39769], [136.77338, 35.39721], [136.77363, 35.3966], [136.77367, 35.3965], [136.77394, 35.3959], [136.77407, 35.39556], [136.77768, 35.38704], [136.77773, 35.38691], [136.78016, 35.3811], [136.78022, 35.38096], [136.78061, 35.38002], [136.78067, 35.37989], [136.78072, 35.37977], [136.78088, 35.37942], [136.78103, 35.37894], [136.78111, 35.37862], [136.78123, 35.37806], [136.78123, 35.37804], [136.78124, 35.37787], [136.78131, 35.37719], [136.78134, 35.37642], [136.78132, 35.37614], [136.78131, 35.37586], [136.78126, 35.37513], [136.78123, 35.37494], [136.7812, 35.37466], [136.78097, 35.373], [136.78047, 35.36927], [136.78036, 35.36845], [136.78018, 35.36718], [136.77955, 35.36249], [136.77954, 35.3624], [136.77952, 35.36218], [136.77939, 35.36057], [136.77932, 35.35914], [136.77932, 35.35777], [136.77937, 35.35657], [136.77945, 35.35578], [136.7797, 35.35457], [136.78001, 35.35322], [136.78035, 35.35173], [136.78041, 35.35146], [136.78097, 35.34899]]}, "properties": {"id": "TRACK_TOKYO_1075", "line_name": "東海道線", "station_group_ids": [], "mode": "rail", "operator_id": "東海旅客鉄道", "tags": ["tokyo", "track_centerline"]}}, {"type": "Feature", "bbox": [136.88108, 35.16994, 136.8824, 35.17258], "geometry": {"type": "LineString", "coordinates": [[136.8824, 35.16994], [136.8818, 35.17112], [136.88137, 35.17197], [136.88108, 35.17258]]}, "properties": {"id": "TRACK_TOKYO_1076", "line_name": "東海道線", "station_group_ids": [], "mode": "rail", "operator_id": "東海旅客鉄道", "tags": ["tokyo", "track_centerline"]}}, {"type": "Feature", "bbox": [136.88005, 35.17257, 136.88155, 35.1743], "geometry": {"type": "LineString", "coordinates": [[136.88155, 35.17257], [136.88085, 35.17344], [136.88056, 35.17375], [136.8802, 35.17414], [136.88005, 35.1743]]}, "properties": {"id": "TRACK_TOKYO_1077", "line_name": "東海道線", "station_group_ids": [], "mode": "rail", "operator_id": "東海旅客鉄道", "tags": ["tokyo", "track_centerline"]}}, {"type": "Feature", "bbox": [136.88155, 35.17005, 136.88284, 35.17257], "geometry": {"type": "LineString", "coordinates": [[136.88284, 35.17005], [136.88204, 35.17163], [136.88165, 35.17239], [136.88155, 35.17257]]}, "properties": {"id": "TRACK_TOKYO_1079", "line_name": "東海道線", "station_group_ids": [], "mode": "rail", "operator_id": "東海旅客鉄道", "tags": ["tokyo", "track_centerline"]}}, {"type": "Feature", "bbox": [136.82149, 35.22656, 136.83383, 35.25199], "geometry": {"type": "LineString", "coordinates": [[136.82149, 35.25199], [136.8237, 35.24742], [136.82454, 35.24565], [136.82569, 35.24323], [136.82607, 35.24243], [136.82767, 35.23904], [136.8297, 35.23482], [136.83009, 35.23403], [136.83183, 35.23051], [136.83383, 35.22656]]}, "properties": {"id": "TRACK_TOKYO_1080", "line_name": "東海道線", "station_group_ids": [], "mode": "rail", "operator_id": "東海旅客鉄道", "tags": ["tokyo", "track_centerline"]}}, {"type": "Feature", "bbox": [136.84723, 35.20675, 136.85142, 35.21117], "geometry": {"type": "LineString", "coordinates": [[136.84723, 35.21117], [136.84731, 35.21096], [136.84743, 35.21069], [136.8475, 35.21053], [136.84765, 35.21028], [136.84801, 35.20989], [136.84816, 35.20974], [136.85057, 35.20753], [136.85142, 35.20675]]}, "properties": {"id": "TRACK_TOKYO_1081", "line_name": "東海道線", "station_group_ids": [], "mode": "rail", "operator_id": "東海旅客鉄道", "tags": ["tokyo", "track_centerline"]}}, {"type": "Feature", "bbox": [136.84723, 35.20675, 136.85142, 35.21117], "geometry": {"type": "LineString", "coordinates": [[136.84723, 35.21117], [136.84758, 35.2108], [136.84968, 35.20859], [136.85142, 35.20675]]}, "properties": {"id": "TRACK_TOKYO_1084", "line_name": "東海道線", "station_group_ids": [], "mode": "rail", "operator_id": "東海旅客鉄道", "tags": ["tokyo", "track_centerline"]}}, {"type": "Feature", "bbox": [136.88023, 35.17258, 136.88108, 35.17377], "geometry": {"type": "LineString", "coordinates": [[136.88108, 35.17258], [136.88023, 35.17377]]}, "properties": {"id": "TRACK_TOKYO_1085", "line_name": "東海道線", "station_group_ids": [], "mode": "rail", "operator_id": "東海旅客鉄道", "tags": ["tokyo", "track_centerline"]}}, {"type": "Feature", "bbox": [136.88005, 35.17377, 136.88023, 35.1743], "geometry": {"type": "LineString", "coordinates": [[136.88005, 35.1743], [136.88023, 35.17377]]}, "properties": {"id": "TRACK_TOKYO_1089", "line_name": "東海道線", "station_group_ids": [], "mode": "rail", "operator_id": "東海旅客鉄道", "tags": ["tokyo", "track_centerline"]}}, {"type": "Feature", "bbox": [136.83383, 35.22432, 136.83527, 35.22656], "geometry": {"type": "LineString", "coordinates": [[136.83383, 35.22656], [136.83443, 35.22555], [136.83527, 35.22432]]}, "properties": {"id": "TRACK_TOKYO_1090", "line_name": "東海道線", "station_group_ids": [], "mode": "rail", "operator_id": "東海旅客鉄道", "tags": ["tokyo", "track_centerline"]}}, {"type": "Feature", "bbox": [136.84405, 35.21117, 136.84723, 35.21451], "geometry": {"type": "LineString", "coordinates": [[136.84405, 35.21451], [136.8456, 35.21289], [136.84643, 35.21202], [136.84723, 35.21117]]}, "properties": {"id": "TRACK_TOKYO_1092", "line_name": "東海道線", "station_group_ids": [], "mode": "rail", "operator_id": "東海旅客鉄道", "tags": ["tokyo", "track_centerline"]}}, {"type": "Feature", "bbox": [136.79795, 35.25408, 136.82043, 35.30086], "geometry": {"type": "LineString", "coordinates": [[136.82043, 35.25408], [136.81956, 35.25586], [136.81923, 35.25655], [136.81874, 35.25753], [136.8182, 35.25863], [136.81796, 35.25913], [136.81753, 35.26003], [136.81747, 35.26015], [136.81737, 35.26036], [136.81717, 35.2608], [136.81712, 35.26094], [136.81704, 35.26107], [136.81677, 35.26161], [136.81658, 35.26201], [136.8161, 35.26304], [136.81589, 35.26348], [136.81573, 35.26382], [136.81564, 35.264], [136.81546, 35.26435], [136.81514, 35.26504], [136.81479, 35.26578], [136.81406, 35.26729], [136.81359, 35.26819], [136.81308, 35.26924], [136.81261, 35.27029], [136.81237, 35.27076], [136.81206, 35.27138], [136.81179, 35.27191], [136.81166, 35.27221], [136.81144, 35.27266], [136.81138, 35.2728], [136.81097, 35.27361], [136.81068, 35.27421], [136.80999, 35.27565], [136.80999, 35.27566], [136.80987, 35.27591], [136.80986, 35.27592], [136.80984, 35.27595], [136.80953, 35.27661], [136.80908, 35.27756], [136.80862, 35.27853], [136.80857, 35.27861], [136.80817, 35.27946], [136.80784, 35.28015], [136.80776, 35.28031], [136.80706, 35.28173], [136.80693, 35.282], [136.80687, 35.28213], [136.8065, 35.2829], [136.80596, 35.28402], [136.80552, 35.28494], [136.80509, 35.28584], [136.80391, 35.2882], [136.80377, 35.28848], [136.80323, 35.28956], [136.80323, 35.28957], [136.80321, 35.28961], [136.8028, 35.29048], [136.80277, 35.29056], [136.80243, 35.29129], [136.80154, 35.29316], [136.80135, 35.29358], [136.80093, 35.29451], [136.80086, 35.29465], [136.80082, 35.29473], [136.80081, 35.29476], [136.80059, 35.29519], [136.80038, 35.29562], [136.8001, 35.29621], [136.79999, 35.29644], [136.79988, 35.29665], [136.79977, 35.29687], [136.79949, 35.29745], [136.79925, 35.29797], [136.79795, 35.30086]]}, "properties": {"id": "TRACK_TOKYO_1093", "line_name": "東海道線", "station_group_ids": [], "mode": "rail", "operator_id": "東海旅客鉄道", "tags": ["tokyo", "track_centerline"]}}, {"type": "Feature", "bbox": [136.88284, 35.14773, 136.89029, 35.17005], "geometry": {"type": "LineString", "coordinates": [[136.89029, 35.14773], [136.88998, 35.14816], [136.88978, 35.14846], [136.88961, 35.14874], [136.88935, 35.14923], [136.88915, 35.14968], [136.88884, 35.15053], [136.88877, 35.1508], [136.88842, 35.15216], [136.88835, 35.1525], [136.8881, 35.15345], [136.88807, 35.15361], [136.88802, 35.15383], [136.88788, 35.15434], [136.88769, 35.15505], [136.8875, 35.15582], [136.88733, 35.15655], [136.88715, 35.15732], [136.88701, 35.15796], [136.8868, 35.15883], [136.88671, 35.15919], [136.88654, 35.15983], [136.88635, 35.16077], [136.88624, 35.16109], [136.88621, 35.16122], [136.88598, 35.16211], [136.88588, 35.16254], [136.88572, 35.16309], [136.88556, 35.16368], [136.88547, 35.16405], [136.88525, 35.16465], [136.885, 35.1653], [136.88477, 35.16584], [136.88444, 35.16653], [136.88437, 35.16667], [136.88411, 35.16724], [136.88384, 35.16784], [136.88366, 35.16824], [136.8835, 35.16862], [136.88332, 35.16903], [136.88314, 35.16944], [136.88293, 35.16989], [136.88284, 35.17005]]}, "properties": {"id": "TRACK_TOKYO_1095", "line_name": "東海道線", "station_group_ids": [], "mode": "rail", "operator_id": "東海旅客鉄道", "tags": ["tokyo", "track_centerline"]}}, {"type": "Feature", "bbox": [136.78129, 35.30314, 136.79681, 35.34714], "geometry": {"type": "LineString", "coordinates": [[136.79681, 35.30314], [136.79588, 35.30497], [136.79517, 35.30643], [136.7951, 35.30656], [136.79509, 35.3066], [136.79469, 35.30743], [136.79464, 35.30754], [136.79408, 35.30867], [136.79396, 35.30891], [136.79391, 35.309], [136.79362, 35.30964], [136.79346, 35.30999], [136.79325, 35.31042], [136.79316, 35.31063], [136.79298, 35.31101], [136.79291, 35.31115], [136.79267, 35.3117], [136.79265, 35.31174], [136.79233, 35.31239], [136.7922, 35.31266], [136.79203, 35.31302], [136.79192, 35.31323], [136.79148, 35.31413], [136.79137, 35.31435], [136.79118, 35.31474], [136.79115, 35.31482], [136.79094, 35.31523], [136.79078, 35.31554], [136.79047, 35.31617], [136.78992, 35.31731], [136.78984, 35.31745], [136.78962, 35.31789], [136.78953, 35.31809], [136.78915, 35.31887], [136.78882, 35.31955], [136.78874, 35.31973], [136.78858, 35.32006], [136.78833, 35.32057], [136.7883, 35.32063], [136.78746, 35.32237], [136.78733, 35.32264], [136.78714, 35.32301], [136.78707, 35.32317], [136.78646, 35.32445], [136.78634, 35.32468], [136.7863, 35.32477], [136.78611, 35.32515], [136.78584, 35.32569], [136.78578, 35.32582], [136.78574, 35.3259], [136.78531, 35.32679], [136.78525, 35.32692], [136.78453, 35.32839], [136.78438, 35.3287], [136.78424, 35.32904], [136.78407, 35.32941], [136.78386, 35.32989], [136.78372, 35.33021], [136.78347, 35.33086], [136.78337, 35.33114], [136.78332, 35.33127], [136.78297, 35.33227], [136.78277, 35.33286], [136.78253, 35.3337], [136.78247, 35.33391], [136.78238, 35.3342], [136.78235, 35.33432], [136.78233, 35.33442], [136.7822, 35.33489], [136.78174, 35.33654], [136.78164, 35.33711], [136.7816, 35.33762], [136.78162, 35.33813], [136.78167, 35.33977], [136.78141, 35.34558], [136.78129, 35.34714]]}, "properties": {"id": "TRACK_TOKYO_1096", "line_name": "東海道線", "station_group_ids": [], "mode": "rail", "operator_id": "東海旅客鉄道", "tags": ["tokyo", "track_centerline"]}}, {"type": "Feature", "bbox": [136.86042, 35.19879, 136.86224, 35.20048], "geometry": {"type": "LineString", "coordinates": [[136.86224, 35.19879], [136.86173, 35.19932], [136.86042, 35.20048]]}, "properties": {"id": "TRACK_TOKYO_1097", "line_name": "東海道線", "station_group_ids": [], "mode": "rail", "operator_id": "東海旅客鉄道", "tags": ["tokyo", "track_centerline"]}}, {"type": "Feature", "bbox": [136.86224, 35.1743, 136.88005, 35.19879], "geometry": {"type": "LineString", "coordinates": [[136.86224, 35.19879], [136.86282, 35.19805], [136.86333, 35.19731], [136.86378, 35.19659], [136.86432, 35.19565], [136.8646, 35.19513], [136.86466, 35.19502], [136.86471, 35.19491], [136.86501, 35.19432], [136.86532, 35.19363], [136.86575, 35.1926], [136.86613, 35.19173], [136.8666, 35.19064], [136.86703, 35.18967], [136.86748, 35.18893], [136.86794, 35.18833], [136.8685, 35.18772], [136.86875, 35.18747], [136.86962, 35.18661], [136.87205, 35.18445], [136.87349, 35.1831], [136.87374, 35.18285], [136.87517, 35.18152], [136.87557, 35.18112], [136.87593, 35.18076], [136.8761, 35.18058], [136.87697, 35.17965], [136.87773, 35.17869], [136.87836, 35.17763], [136.87854, 35.17733], [136.87867, 35.17712], [136.87913, 35.1762], [136.87917, 35.17613], [136.87926, 35.17595], [136.8797, 35.17507], [136.87992, 35.1746], [136.87999, 35.17443], [136.88005, 35.1743]]}, "properties": {"id": "TRACK_TOKYO_1098", "line_name": "東海道線", "station_group_ids": [], "mode": "rail", "operator_id": "東海旅客鉄道", "tags": ["tokyo", "track_centerline"]}}, {"type": "Feature", "bbox": [136.84405, 35.21117, 136.84723, 35.21451], "geometry": {"type": "LineString", "coordinates": [[136.84405, 35.21451], [136.84472, 35.214], [136.8457, 35.21333], [136.84571, 35.21332], [136.84622, 35.21296], [136.84649, 35.21269], [136.84666, 35.21248], [136.84682, 35.21222], [136.84694, 35.21197], [136.84699, 35.21184], [136.84713, 35.21144], [136.84723, 35.21117]]}, "properties": {"id": "TRACK_TOKYO_1102", "line_name": "東海道線", "station_group_ids": [], "mode": "rail", "operator_id": "東海旅客鉄道", "tags": ["tokyo", "track_centerline"]}}, {"type": "Feature", "bbox": [136.88071, 35.169764, 136.882049, 35.17227], "geometry": {"type": "LineString", "coordinates": [[136.882049, 35.169764], [136.88197, 35.16989], [136.8813, 35.17113], [136.88084, 35.17199], [136.88071, 35.17227]]}, "properties": {"id": "TRACK_TOKYO_1103", "line_name": "東海道線", "station_group_ids": [], "mode": "rail", "operator_id": "東海旅客鉄道", "tags": ["tokyo", "track_centerline"]}}, {"type": "Feature", "bbox": [136.83527, 35.21451, 136.84405, 35.22432], "geometry": {"type": "LineString", "coordinates": [[136.83527, 35.22432], [136.83546, 35.22408], [136.83565, 35.22384], [136.83703, 35.22211], [136.83863, 35.22029], [136.84003, 35.21881], [136.84019, 35.21864], [136.84187, 35.21688], [136.8425, 35.21617], [136.8434, 35.21521], [136.84371, 35.21489], [136.84405, 35.21451]]}, "properties": {"id": "TRACK_TOKYO_1104", "line_name": "東海道線", "station_group_ids": [], "mode": "rail", "operator_id": "東海旅客鉄道", "tags": ["tokyo", "track_centerline"]}}, {"type": "Feature", "bbox": [136.79681, 35.30086, 136.79795, 35.30314], "geometry": {"type": "LineString", "coordinates": [[136.79681, 35.30314], [136.79795, 35.30086]]}, "properties": {"id": "TRACK_TOKYO_1105", "line_name": "東海道線", "station_group_ids": [], "mode": "rail", "operator_id": "東海旅客鉄道", "tags": ["tokyo", "track_centerline"]}}, {"type": "Feature", "bbox": [136.88023, 35.17227, 136.88071, 35.17377], "geometry": {"type": "LineString", "coordinates": [[136.88071, 35.17227], [136.88023, 35.17377]]}, "properties": {"id": "TRACK_TOKYO_1107", "line_name": "東海道線", "station_group_ids": [], "mode": "rail", "operator_id": "東海旅客鉄道", "tags": ["tokyo", "track_centerline"]}}, {"type": "Feature", "bbox": [136.85142, 35.20048, 136.86042, 35.20675], "geometry": {"type": "LineString", "coordinates": [[136.85142, 35.20675], [136.85213, 35.20604], [136.8526, 35.20557], [136.85308, 35.20515], [136.8534, 35.2049], [136.85385, 35.20459], [136.85443, 35.20424], [136.85578, 35.20359], [136.85637, 35.20325], [136.85691, 35.20294], [136.85749, 35.20259], [136.85829, 35.20205], [136.85847, 35.20191], [136.85967, 35.20104], [136.85987, 35.20089], [136.86042, 35.20048]]}, "properties": {"id": "TRACK_TOKYO_1108", "line_name": "東海道線", "station_group_ids": [], "mode": "rail", "operator_id": "東海旅客鉄道", "tags": ["tokyo", "track_centerline"]}}, {"type": "Feature", "bbox": [136.82043, 35.25199, 136.82149, 35.25408], "geometry": {"type": "LineString", "coordinates": [[136.82043, 35.25408], [136.82087, 35.25322], [136.82149, 35.25199]]}, "properties": {"id": "TRACK_TOKYO_1109", "line_name": "東海道線", "station_group_ids": [], "mode": "rail", "operator_id": "東海旅客鉄道", "tags": ["tokyo", "track_centerline"]}}, {"type": "Feature", "bbox": [136.6449, 35.3741, 136.69282, 35.39593], "geometry": {"type": "LineString", "coordinates": [[136.6449, 35.3741], [136.64744, 35.37524], [136.65078, 35.37656], [136.65102, 35.37666], [136.65252, 35.37724], [136.65422, 35.37799], [136.65551, 35.37857], [136.65753, 35.37949], [136.65898, 35.38017], [136.65922, 35.38029], [136.661, 35.38126], [136.66197, 35.3818], [136.66323, 35.3824], [136.66346, 35.38251], [136.6642, 35.38285], [136.66637, 35.38385], [136.66651, 35.38391], [136.66673, 35.38401], [136.66697, 35.38412], [136.66719, 35.38423], [136.66828, 35.38475], [136.67135, 35.38616], [136.67171, 35.38633], [136.67375, 35.38727], [136.67396, 35.38737], [136.67426, 35.38751], [136.67454, 35.38763], [136.67587, 35.38825], [136.67902, 35.38971], [136.67934, 35.38987], [136.68091, 35.39059], [136.68358, 35.39182], [136.68523, 35.39262], [136.68666, 35.39329], [136.68695, 35.39342], [136.68825, 35.39402], [136.6894, 35.39452], [136.68974, 35.39466], [136.69079, 35.39511], [136.69282, 35.39593]]}, "properties": {"id": "TRACK_TOKYO_1195", "line_name": "東海道線", "station_group_ids": [], "mode": "rail", "operator_id": "東海旅客鉄道", "tags": ["tokyo", "track_centerline"]}}]}