{"type": "FeatureCollection", "features": [{"type": "Feature", "bbox": [137.15871, 34.76445, 137.38034, 34.86244], "geometry": {"type": "LineString", "coordinates": [[137.38034, 34.76445], [137.38018, 34.76476], [137.37977, 34.7655], [137.37935, 34.76626], [137.37888, 34.7671], [137.37849, 34.76781], [137.37808, 34.76852], [137.37801, 34.76864], [137.37787, 34.76888], [137.37773, 34.76911], [137.37736, 34.76974], [137.37707, 34.77019], [137.37679, 34.77062], [137.37648, 34.77106], [137.37632, 34.77129], [137.37614, 34.77153], [137.3759, 34.77184], [137.37576, 34.77201], [137.37561, 34.77219], [137.37532, 34.77254], [137.37479, 34.77312], [137.37437, 34.77359], [137.37402, 34.77396], [137.37362, 34.77438], [137.37322, 34.77475], [137.373, 34.77497], [137.37258, 34.77534], [137.37224, 34.7756], [137.37215, 34.77568], [137.37206, 34.77575], [137.37201, 34.77579], [137.37149, 34.77622], [137.3709, 34.77673], [137.37079, 34.77682], [137.37073, 34.77687], [137.37041, 34.77714], [137.36999, 34.77751], [137.36855, 34.77876], [137.36717, 34.77996], [137.36675, 34.78033], [137.36639, 34.78064], [137.36631, 34.78071], [137.36618, 34.78083], [137.36566, 34.78128], [137.36492, 34.78189], [137.36428, 34.78238], [137.3634, 34.78304], [137.36319, 34.7832], [137.3631, 34.78326], [137.36265, 34.78358], [137.36238, 34.78376], [137.3622, 34.78388], [137.3619, 34.78405], [137.36151, 34.78427], [137.36131, 34.78438], [137.36113, 34.78447], [137.36096, 34.78455], [137.36054, 34.78478], [137.35966, 34.78521], [137.35936, 34.78536], [137.35908, 34.7855], [137.35837, 34.78581], [137.35737, 34.78624], [137.35707, 34.78637], [137.35651, 34.78659], [137.35618, 34.78673], [137.35599, 34.78681], [137.35581, 34.78688], [137.35532, 34.78708], [137.35492, 34.78725], [137.35456, 34.7874], [137.35381, 34.78773], [137.35334, 34.78792], [137.353, 34.78807], [137.35249, 34.78826], [137.3517, 34.78859], [137.35085, 34.78894], [137.35028, 34.78917], [137.35013, 34.78923], [137.34992, 34.78932], [137.34965, 34.78944], [137.34941, 34.78953], [137.34932, 34.78957], [137.34918, 34.78962], [137.34883, 34.78977], [137.34841, 34.78995], [137.34822, 34.79003], [137.34772, 34.79023], [137.34739, 34.79037], [137.34691, 34.79057], [137.34685, 34.79059], [137.34673, 34.79064], [137.3465, 34.79073], [137.34608, 34.79091], [137.34591, 34.79098], [137.34516, 34.79127], [137.34476, 34.79144], [137.3446, 34.7915], [137.34415, 34.79169], [137.34349, 34.79197], [137.34294, 34.79219], [137.34281, 34.79224], [137.34256, 34.79234], [137.34231, 34.79245], [137.34214, 34.79252], [137.34187, 34.79263], [137.34164, 34.79272], [137.34134, 34.79284], [137.34115, 34.79293], [137.34086, 34.79306], [137.34052, 34.79318], [137.34002, 34.79338], [137.33956, 34.79358], [137.33935, 34.79366], [137.33909, 34.79377], [137.33877, 34.7939], [137.33853, 34.79401], [137.3381, 34.79417], [137.3372, 34.79455], [137.33655, 34.79481], [137.33595, 34.79507], [137.33522, 34.79537], [137.33461, 34.7956], [137.33409, 34.79582], [137.33371, 34.79599], [137.33341, 34.79611], [137.33314, 34.79621], [137.33295, 34.79629], [137.33282, 34.79634], [137.33264, 34.79642], [137.33225, 34.79657], [137.33175, 34.79677], [137.33141, 34.79692], [137.33095, 34.79711], [137.33073, 34.7972], [137.33057, 34.79727], [137.33037, 34.79735], [137.33023, 34.79741], [137.32996, 34.79751], [137.32958, 34.79767], [137.32928, 34.79779], [137.32919, 34.79783], [137.32913, 34.79786], [137.32906, 34.7979], [137.32868, 34.79804], [137.32832, 34.79819], [137.32813, 34.79828], [137.32803, 34.79832], [137.3279, 34.79837], [137.32741, 34.79858], [137.32699, 34.79875], [137.32679, 34.79884], [137.32666, 34.79888], [137.32634, 34.79902], [137.32592, 34.79919], [137.32565, 34.79931], [137.32549, 34.79937], [137.32518, 34.7995], [137.32473, 34.79969], [137.32447, 34.7998], [137.32435, 34.79985], [137.32401, 34.79999], [137.32354, 34.80019], [137.32325, 34.80031], [137.32311, 34.80037], [137.32276, 34.80051], [137.32246, 34.80063], [137.32216, 34.80076], [137.32161, 34.80103], [137.32133, 34.80116], [137.32103, 34.80131], [137.32069, 34.8015], [137.32049, 34.80161], [137.32006, 34.80185], [137.31985, 34.80197], [137.31972, 34.80204], [137.31957, 34.80213], [137.31926, 34.8023], [137.31865, 34.80264], [137.31852, 34.80271], [137.3183, 34.80283], [137.3179, 34.80305], [137.31757, 34.80324], [137.31744, 34.80331], [137.31714, 34.80348], [137.31673, 34.80371], [137.31658, 34.80379], [137.31609, 34.80407], [137.31492, 34.80472], [137.31441, 34.805], [137.31403, 34.80522], [137.31368, 34.80541], [137.31325, 34.80565], [137.31257, 34.80604], [137.31205, 34.80632], [137.3118, 34.80646], [137.31147, 34.80665], [137.3111, 34.80685], [137.31089, 34.80698], [137.3108, 34.80703], [137.31057, 34.80715], [137.3103, 34.8073], [137.30983, 34.80756], [137.30941, 34.8078], [137.3093, 34.80786], [137.30922, 34.8079], [137.30917, 34.80793], [137.30899, 34.80803], [137.30872, 34.80818], [137.30836, 34.80838], [137.30806, 34.80855], [137.30782, 34.80869], [137.30751, 34.80884], [137.30724, 34.809], [137.30692, 34.80918], [137.30678, 34.80926], [137.30652, 34.8094], [137.30612, 34.80962], [137.3056, 34.80991], [137.30528, 34.81009], [137.30507, 34.81021], [137.30486, 34.81033], [137.30416, 34.81072], [137.30362, 34.81101], [137.30297, 34.81136], [137.3026, 34.81154], [137.30229, 34.81168], [137.30182, 34.81189], [137.30138, 34.81209], [137.30117, 34.81219], [137.30101, 34.81226], [137.30082, 34.81234], [137.30062, 34.81243], [137.30049, 34.81249], [137.30033, 34.81255], [137.29983, 34.81275], [137.29953, 34.81287], [137.29926, 34.81296], [137.29909, 34.81302], [137.299, 34.81305], [137.2988, 34.81312], [137.29863, 34.81319], [137.29823, 34.81333], [137.29795, 34.81343], [137.29786, 34.81345], [137.29777, 34.81348], [137.2976, 34.81353], [137.29732, 34.81362], [137.29723, 34.81364], [137.29714, 34.81367], [137.29682, 34.81374], [137.29645, 34.81382], [137.29616, 34.81387], [137.29608, 34.81389], [137.29597, 34.81391], [137.29579, 34.81395], [137.29545, 34.81402], [137.2948, 34.81412], [137.29448, 34.81419], [137.29409, 34.81425], [137.29381, 34.81429], [137.29367, 34.81431], [137.29349, 34.81434], [137.29324, 34.81437], [137.29302, 34.81439], [137.29293, 34.81441], [137.29274, 34.81443], [137.29251, 34.81446], [137.29228, 34.81449], [137.29218, 34.8145], [137.29207, 34.81451], [137.29169, 34.81455], [137.29142, 34.81458], [137.29126, 34.8146], [137.29107, 34.81462], [137.29086, 34.81464], [137.29054, 34.81468], [137.29004, 34.81472], [137.28921, 34.81474], [137.28896, 34.81475], [137.28873, 34.81475], [137.28785, 34.81477], [137.28708, 34.81479], [137.28682, 34.8148], [137.2863, 34.81481], [137.28527, 34.81485], [137.28437, 34.81487], [137.28296, 34.8149], [137.28282, 34.81491], [137.28213, 34.81493], [137.28117, 34.81497], [137.28017, 34.81499], [137.27904, 34.81503], [137.27764, 34.81505], [137.2767, 34.81507], [137.2764, 34.81508], [137.27615, 34.81509], [137.27557, 34.8151], [137.27487, 34.81512], [137.27375, 34.81516], [137.27308, 34.81517], [137.27227, 34.81519], [137.27165, 34.8152], [137.27139, 34.81521], [137.27117, 34.81522], [137.27068, 34.81523], [137.27003, 34.81523], [137.2693, 34.81526], [137.26871, 34.81527], [137.26847, 34.81528], [137.26811, 34.81531], [137.26766, 34.81535], [137.26708, 34.81541], [137.26654, 34.81546], [137.26625, 34.81548], [137.266, 34.81551], [137.2657, 34.81556], [137.26554, 34.81558], [137.26544, 34.81558], [137.26517, 34.81562], [137.26488, 34.81566], [137.2646, 34.81571], [137.26414, 34.81578], [137.26395, 34.81581], [137.26348, 34.81593], [137.26315, 34.816], [137.26257, 34.81614], [137.26173, 34.81635], [137.26154, 34.8164], [137.26116, 34.8165], [137.26043, 34.81668], [137.25965, 34.81691], [137.25895, 34.8171], [137.25848, 34.81724], [137.25827, 34.8173], [137.2576, 34.81752], [137.25738, 34.81759], [137.25673, 34.81779], [137.25625, 34.81795], [137.25584, 34.8181], [137.25569, 34.81815], [137.25557, 34.8182], [137.25547, 34.81824], [137.25505, 34.81839], [137.25416, 34.81875], [137.25374, 34.81892], [137.25358, 34.81898], [137.25309, 34.81919], [137.25257, 34.8194], [137.25251, 34.81943], [137.25236, 34.8195], [137.25212, 34.8196], [137.25187, 34.81972], [137.2516, 34.81985], [137.25116, 34.82005], [137.25072, 34.82028], [137.25058, 34.82035], [137.25035, 34.82047], [137.25029, 34.8205], [137.25026, 34.82052], [137.2502, 34.82055], [137.24961, 34.82087], [137.24853, 34.82148], [137.24809, 34.82173], [137.24768, 34.82194], [137.24755, 34.82201], [137.24727, 34.82215], [137.24702, 34.82227], [137.2468, 34.8224], [137.24628, 34.82273], [137.24606, 34.82287], [137.24542, 34.8233], [137.24471, 34.82377], [137.24423, 34.82409], [137.24363, 34.8245], [137.24231, 34.82538], [137.24194, 34.82563], [137.24139, 34.82601], [137.24049, 34.8266], [137.23983, 34.82704], [137.23951, 34.82726], [137.23896, 34.82762], [137.2386, 34.82787], [137.23792, 34.82832], [137.23762, 34.82852], [137.2365, 34.82927], [137.23567, 34.82982], [137.2339, 34.83098], [137.23291, 34.83156], [137.2323, 34.83191], [137.23159, 34.83226], [137.23068, 34.83272], [137.22993, 34.83305], [137.22924, 34.83332], [137.2283, 34.83372], [137.22728, 34.83414], [137.2269, 34.8343], [137.22523, 34.83497], [137.22475, 34.83517], [137.2242, 34.83538], [137.22353, 34.83564], [137.22329, 34.83574], [137.22117, 34.83661], [137.2204, 34.83693], [137.22022, 34.837], [137.21892, 34.83752], [137.21786, 34.83793], [137.21731, 34.83816], [137.21629, 34.83855], [137.21605, 34.83865], [137.2153, 34.83894], [137.21422, 34.83937], [137.2135, 34.83967], [137.213, 34.83986], [137.21226, 34.84017], [137.21174, 34.84038], [137.21117, 34.84062], [137.21049, 34.84089], [137.21028, 34.84098], [137.20941, 34.84134], [137.20919, 34.84144], [137.20884, 34.84157], [137.20832, 34.84179], [137.20803, 34.8419], [137.20777, 34.84199], [137.20663, 34.8424], [137.20253, 34.84388], [137.19992, 34.84482], [137.19917, 34.84508], [137.19832, 34.8454], [137.1976, 34.84567], [137.19693, 34.84592], [137.19637, 34.84613], [137.19543, 34.84646], [137.19481, 34.84669], [137.19391, 34.84701], [137.19388, 34.84703], [137.19319, 34.84728], [137.19268, 34.84746], [137.19141, 34.84792], [137.19012, 34.84838], [137.18954, 34.84859], [137.18834, 34.84902], [137.18778, 34.84921], [137.18659, 34.84964], [137.18599, 34.84986], [137.18468, 34.85033], [137.18412, 34.85052], [137.18376, 34.85064], [137.18359, 34.8507], [137.18275, 34.85102], [137.18236, 34.85115], [137.18213, 34.85124], [137.18121, 34.85156], [137.18058, 34.85179], [137.18005, 34.85197], [137.17881, 34.85244], [137.17833, 34.85258], [137.17774, 34.85282], [137.17645, 34.85327], [137.17543, 34.85364], [137.17437, 34.85402], [137.17332, 34.8544], [137.17253, 34.85466], [137.1719, 34.85487], [137.17146, 34.85504], [137.17094, 34.85522], [137.17069, 34.85532], [137.16972, 34.85567], [137.16959, 34.85571], [137.16927, 34.85583], [137.16877, 34.85601], [137.16831, 34.85621], [137.16785, 34.85644], [137.16753, 34.85658], [137.16711, 34.85679], [137.16669, 34.85698], [137.16659, 34.85703], [137.16588, 34.85735], [137.1647, 34.85791], [137.16406, 34.85824], [137.16376, 34.8584], [137.16331, 34.85865], [137.1629, 34.85891], [137.16275, 34.85899], [137.16267, 34.85905], [137.16225, 34.85934], [137.16201, 34.85951], [137.16191, 34.85958], [137.16167, 34.85975], [137.16086, 34.86036], [137.16063, 34.86053], [137.16042, 34.86072], [137.16022, 34.86089], [137.16006, 34.86103], [137.16001, 34.86108], [137.15962, 34.86145], [137.15888, 34.86226], [137.15871, 34.86244]]}, "properties": {"id": "TRACK_TOKYO_0990", "line_name": "東海道新幹線", "station_group_ids": [], "mode": "shinkansen", "operator_id": "東海旅客鉄道", "line_color": "#1F78FF", "tags": ["tokyo", "track_centerline"]}}, {"type": "Feature", "bbox": [137.06199, 34.86244, 137.15871, 34.9672], "geometry": {"type": "LineString", "coordinates": [[137.15871, 34.86244], [137.15832, 34.86285], [137.15793, 34.86326], [137.15768, 34.86354], [137.15749, 34.86375], [137.15701, 34.86426], [137.15657, 34.86471], [137.15615, 34.86519], [137.15586, 34.86548], [137.15551, 34.86586], [137.15527, 34.86611], [137.1546, 34.8668], [137.15416, 34.86728], [137.15362, 34.86785], [137.15302, 34.86849], [137.15265, 34.86887], [137.1526, 34.86892], [137.15237, 34.86917], [137.15191, 34.86968], [137.15152, 34.87011], [137.15118, 34.87048], [137.15089, 34.8708], [137.15066, 34.87103], [137.15018, 34.87154], [137.14995, 34.87179], [137.14951, 34.87227], [137.14934, 34.87244], [137.14901, 34.87281], [137.14863, 34.87322], [137.14826, 34.87361], [137.14806, 34.87382], [137.1477, 34.8742], [137.1474, 34.87454], [137.14703, 34.87494], [137.14665, 34.87536], [137.14619, 34.87589], [137.14594, 34.87617], [137.14548, 34.87666], [137.1452, 34.87701], [137.14444, 34.8778], [137.14398, 34.87832], [137.14369, 34.87864], [137.14306, 34.87934], [137.14276, 34.87964], [137.14257, 34.87986], [137.14232, 34.88014], [137.14195, 34.88055], [137.14136, 34.8812], [137.14078, 34.88182], [137.14006, 34.88263], [137.13992, 34.8828], [137.13916, 34.88362], [137.1388, 34.88405], [137.13812, 34.88479], [137.13714, 34.88582], [137.13638, 34.88665], [137.13525, 34.88787], [137.13395, 34.88925], [137.13321, 34.89005], [137.13303, 34.89023], [137.13292, 34.89035], [137.13198, 34.89138], [137.13017, 34.89336], [137.12918, 34.89442], [137.12808, 34.89561], [137.12609, 34.89777], [137.12465, 34.89933], [137.12252, 34.90163], [137.12203, 34.90212], [137.12171, 34.90246], [137.12132, 34.90286], [137.12106, 34.90314], [137.12059, 34.90365], [137.12026, 34.904], [137.12003, 34.90425], [137.11973, 34.90459], [137.11944, 34.9049], [137.11928, 34.90507], [137.11904, 34.90535], [137.11877, 34.90564], [137.11868, 34.90574], [137.11843, 34.906], [137.11828, 34.90617], [137.11768, 34.90681], [137.1172, 34.90733], [137.1165, 34.9081], [137.11638, 34.90824], [137.11617, 34.90848], [137.11595, 34.90871], [137.11562, 34.90907], [137.11544, 34.90927], [137.11515, 34.90957], [137.11467, 34.9101], [137.11335, 34.9115], [137.11272, 34.91217], [137.11189, 34.91307], [137.11069, 34.91435], [137.11015, 34.91496], [137.10975, 34.91537], [137.10905, 34.91613], [137.10856, 34.91666], [137.10852, 34.9167], [137.10766, 34.91764], [137.10722, 34.9181], [137.10671, 34.91863], [137.10617, 34.91924], [137.10577, 34.91967], [137.10566, 34.91978], [137.10555, 34.91993], [137.10545, 34.92005], [137.10511, 34.92043], [137.10486, 34.92069], [137.10474, 34.92083], [137.10466, 34.92092], [137.10436, 34.92124], [137.10424, 34.92136], [137.10413, 34.92149], [137.10375, 34.9219], [137.10331, 34.92236], [137.1031, 34.9226], [137.10263, 34.92311], [137.10237, 34.9234], [137.10219, 34.9236], [137.10174, 34.92407], [137.10118, 34.92466], [137.10083, 34.92505], [137.10053, 34.92538], [137.10021, 34.92573], [137.09973, 34.92627], [137.09932, 34.92673], [137.09899, 34.9271], [137.09865, 34.92746], [137.09854, 34.92758], [137.09806, 34.92811], [137.09735, 34.92886], [137.09727, 34.92894], [137.09663, 34.92966], [137.0965, 34.92979], [137.09637, 34.92994], [137.09624, 34.93008], [137.09614, 34.93019], [137.09572, 34.93064], [137.09523, 34.93118], [137.09506, 34.93136], [137.09403, 34.93248], [137.09252, 34.93413], [137.09239, 34.93426], [137.09158, 34.93514], [137.0909, 34.9359], [137.09056, 34.93625], [137.09045, 34.93638], [137.09035, 34.93649], [137.09012, 34.93673], [137.08885, 34.93813], [137.08877, 34.9382], [137.08864, 34.93833], [137.08853, 34.93845], [137.08844, 34.93856], [137.08789, 34.93915], [137.08761, 34.93945], [137.08733, 34.93976], [137.08694, 34.94018], [137.08669, 34.94042], [137.0865, 34.94065], [137.0861, 34.94109], [137.08599, 34.9412], [137.08588, 34.94133], [137.0853, 34.94195], [137.08518, 34.94207], [137.08507, 34.94219], [137.08494, 34.94231], [137.08439, 34.94291], [137.08416, 34.94316], [137.08404, 34.9433], [137.08385, 34.94349], [137.08312, 34.94427], [137.08252, 34.94492], [137.08224, 34.94522], [137.08201, 34.94547], [137.08162, 34.9459], [137.08148, 34.94604], [137.08138, 34.94614], [137.08091, 34.94665], [137.08068, 34.94691], [137.08059, 34.94702], [137.08004, 34.94759], [137.07961, 34.94806], [137.07928, 34.94842], [137.07895, 34.94878], [137.07852, 34.94923], [137.07792, 34.94986], [137.07759, 34.95023], [137.07754, 34.95029], [137.07711, 34.95075], [137.07691, 34.95097], [137.07628, 34.95164], [137.07587, 34.9521], [137.07566, 34.95233], [137.07516, 34.95287], [137.07471, 34.95336], [137.07443, 34.95366], [137.07412, 34.95401], [137.07398, 34.95417], [137.07348, 34.9547], [137.07331, 34.95489], [137.07278, 34.95547], [137.07268, 34.95558], [137.07218, 34.95612], [137.07213, 34.95617], [137.07176, 34.95656], [137.07115, 34.95723], [137.07094, 34.95745], [137.07044, 34.95799], [137.07023, 34.95821], [137.06967, 34.95884], [137.06942, 34.95911], [137.06929, 34.95925], [137.06849, 34.9601], [137.06788, 34.9608], [137.06776, 34.96094], [137.06768, 34.96103], [137.06712, 34.96161], [137.06694, 34.9618], [137.06682, 34.96194], [137.0666, 34.96217], [137.06652, 34.96225], [137.06641, 34.96237], [137.06623, 34.96257], [137.06513, 34.96378], [137.06494, 34.964], [137.06432, 34.96467], [137.06422, 34.96477], [137.06408, 34.96493], [137.06381, 34.96521], [137.06355, 34.9655], [137.06338, 34.96568], [137.06199, 34.9672]]}, "properties": {"id": "TRACK_TOKYO_0991", "line_name": "東海道新幹線", "station_group_ids": [], "mode": "shinkansen", "operator_id": "東海旅客鉄道", "line_color": "#1F78FF", "tags": ["tokyo", "track_centerline"]}}, {"type": "Feature", "bbox": [136.88194, 34.97087, 137.0586, 35.16874], "geometry": {"type": "LineString", "coordinates": [[137.0586, 34.97087], [137.05796, 34.97157], [137.05775, 34.9718], [137.05754, 34.97203], [137.05729, 34.97229], [137.05658, 34.97304], [137.05641, 34.97325], [137.05622, 34.97346], [137.05596, 34.97375], [137.0558, 34.97392], [137.05516, 34.9746], [137.05435, 34.97549], [137.05366, 34.97624], [137.05348, 34.97643], [137.05337, 34.97654], [137.05267, 34.97733], [137.05209, 34.97797], [137.05198, 34.97809], [137.05187, 34.97821], [137.05173, 34.97835], [137.0511, 34.97907], [137.05074, 34.97945], [137.05049, 34.97972], [137.04992, 34.98033], [137.04971, 34.98054], [137.0494, 34.98088], [137.0493, 34.98097], [137.0487, 34.9816], [137.04819, 34.98213], [137.04804, 34.98227], [137.04788, 34.98241], [137.04729, 34.98295], [137.04671, 34.98346], [137.0465, 34.98364], [137.04621, 34.98388], [137.04531, 34.98467], [137.04376, 34.98595], [137.04358, 34.9861], [137.04297, 34.9866], [137.04279, 34.98674], [137.04239, 34.98705], [137.04233, 34.9871], [137.04227, 34.98714], [137.04149, 34.98777], [137.04134, 34.98789], [137.04106, 34.98812], [137.04064, 34.98846], [137.04018, 34.9888], [137.03948, 34.9893], [137.03923, 34.98946], [137.03904, 34.98959], [137.03885, 34.98972], [137.03807, 34.99024], [137.03727, 34.99078], [137.03695, 34.99098], [137.03667, 34.99116], [137.03601, 34.99159], [137.03431, 34.99272], [137.03407, 34.99288], [137.03359, 34.99318], [137.03335, 34.99334], [137.0333, 34.99337], [137.03253, 34.99389], [137.03189, 34.99431], [137.03134, 34.99467], [137.03085, 34.99499], [137.0307, 34.99509], [137.03053, 34.99521], [137.0299, 34.99563], [137.0297, 34.99576], [137.02957, 34.99585], [137.0288, 34.99634], [137.02866, 34.99644], [137.02847, 34.99658], [137.02813, 34.99678], [137.02798, 34.99688], [137.02791, 34.99694], [137.02716, 34.99743], [137.02686, 34.99762], [137.02578, 34.99831], [137.02502, 34.99881], [137.02484, 34.99893], [137.02398, 34.99949], [137.02307, 35.00007], [137.02178, 35.00092], [137.02138, 35.00117], [137.02044, 35.00178], [137.02024, 35.00191], [137.02003, 35.00205], [137.01955, 35.00236], [137.0186, 35.00296], [137.01814, 35.00325], [137.0153, 35.00508], [137.01487, 35.00538], [137.01406, 35.00591], [137.01358, 35.00622], [137.0116, 35.00751], [137.00695, 35.01057], [137.00637, 35.01095], [137.00546, 35.01153], [137.00507, 35.01179], [137.00427, 35.01233], [136.99807, 35.01638], [136.99704, 35.01704], [136.99406, 35.01895], [136.99301, 35.01963], [136.99295, 35.01967], [136.99263, 35.01987], [136.9907, 35.02112], [136.99059, 35.0212], [136.9901, 35.02151], [136.98953, 35.02188], [136.98849, 35.02255], [136.9865, 35.02384], [136.98088, 35.02746], [136.98023, 35.02788], [136.97945, 35.02839], [136.97913, 35.0286], [136.97769, 35.02954], [136.97725, 35.02983], [136.97561, 35.0309], [136.97371, 35.03211], [136.97098, 35.03386], [136.9708, 35.03398], [136.97012, 35.03442], [136.96872, 35.03534], [136.96854, 35.03545], [136.96846, 35.03551], [136.96829, 35.03562], [136.96811, 35.03574], [136.96788, 35.03589], [136.96722, 35.03633], [136.96589, 35.03722], [136.9651, 35.03776], [136.965, 35.03782], [136.96409, 35.03844], [136.96336, 35.03893], [136.96297, 35.03919], [136.96226, 35.03973], [136.96215, 35.03981], [136.96168, 35.04017], [136.96127, 35.04049], [136.96115, 35.04058], [136.9607, 35.04094], [136.96031, 35.04128], [136.96018, 35.04136], [136.95992, 35.04159], [136.95968, 35.04179], [136.959, 35.04237], [136.95841, 35.04292], [136.95819, 35.04312], [136.95786, 35.04343], [136.95673, 35.04463], [136.95611, 35.04528], [136.95515, 35.04636], [136.95487, 35.0467], [136.95457, 35.04706], [136.95358, 35.04834], [136.95328, 35.04877], [136.95299, 35.04919], [136.95278, 35.04949], [136.95231, 35.05017], [136.94977, 35.0541], [136.94832, 35.0564], [136.94786, 35.05712], [136.94771, 35.05737], [136.94721, 35.05816], [136.94694, 35.05859], [136.9468, 35.05882], [136.94529, 35.06119], [136.94514, 35.06144], [136.945, 35.06164], [136.94415, 35.06298], [136.94345, 35.06404], [136.94287, 35.06496], [136.94226, 35.06604], [136.94157, 35.06724], [136.94153, 35.0673], [136.94139, 35.06756], [136.94038, 35.0694], [136.93989, 35.07031], [136.93982, 35.07045], [136.93964, 35.07078], [136.93958, 35.07088], [136.9394, 35.07122], [136.93938, 35.07127], [136.93929, 35.07143], [136.93926, 35.07148], [136.93909, 35.0718], [136.9388, 35.07234], [136.93867, 35.07259], [136.93845, 35.07299], [136.93839, 35.0731], [136.93789, 35.07402], [136.93729, 35.07513], [136.93703, 35.0756], [136.93661, 35.07637], [136.93602, 35.07747], [136.93585, 35.07777], [136.93582, 35.07783], [136.93567, 35.0781], [136.93564, 35.07815], [136.93529, 35.07881], [136.93523, 35.07891], [136.93504, 35.07927], [136.93499, 35.07936], [136.9345, 35.08026], [136.93438, 35.08048], [136.93433, 35.08057], [136.93427, 35.08068], [136.93374, 35.08167], [136.93361, 35.08191], [136.93349, 35.08213], [136.93342, 35.08228], [136.93297, 35.08312], [136.93291, 35.08323], [136.93269, 35.08364], [136.93244, 35.08409], [136.93242, 35.08413], [136.93221, 35.08454], [136.93163, 35.08564], [136.93114, 35.08657], [136.93055, 35.08774], [136.92992, 35.08898], [136.92951, 35.08978], [136.92934, 35.09014], [136.9292, 35.09041], [136.92896, 35.09091], [136.92857, 35.09164], [136.92812, 35.09257], [136.92785, 35.09309], [136.92763, 35.09349], [136.92727, 35.09417], [136.92688, 35.09492], [136.92657, 35.09548], [136.92624, 35.09612], [136.92565, 35.09715], [136.92523, 35.09785], [136.92479, 35.09859], [136.92456, 35.09895], [136.92429, 35.0993], [136.92393, 35.09974], [136.92345, 35.10029], [136.92305, 35.10071], [136.92261, 35.10122], [136.92223, 35.1016], [136.92204, 35.10178], [136.92145, 35.10235], [136.92094, 35.10281], [136.9206, 35.10309], [136.91955, 35.10389], [136.91858, 35.1046], [136.91813, 35.10489], [136.91712, 35.10554], [136.91656, 35.1059], [136.91615, 35.10612], [136.91552, 35.10646], [136.91452, 35.10695], [136.91351, 35.10745], [136.91262, 35.10788], [136.91173, 35.10829], [136.91125, 35.1085], [136.91069, 35.10875], [136.90963, 35.10924], [136.90865, 35.1097], [136.90857, 35.10974], [136.90662, 35.11064], [136.90534, 35.11123], [136.90393, 35.11188], [136.90325, 35.11221], [136.90178, 35.11286], [136.9016, 35.11294], [136.90087, 35.11326], [136.89986, 35.11373], [136.89891, 35.11419], [136.89758, 35.11488], [136.89701, 35.1152], [136.89654, 35.11549], [136.89592, 35.11587], [136.89581, 35.11594], [136.89541, 35.11621], [136.89488, 35.11657], [136.89448, 35.11686], [136.89427, 35.11703], [136.89386, 35.11734], [136.89349, 35.11763], [136.89306, 35.118], [136.89278, 35.11823], [136.89254, 35.11846], [136.89232, 35.11867], [136.89171, 35.11926], [136.89118, 35.11978], [136.89088, 35.1201], [136.89045, 35.12057], [136.89005, 35.12108], [136.88966, 35.12157], [136.88946, 35.12184], [136.88924, 35.12215], [136.88904, 35.12244], [136.88876, 35.12282], [136.8886, 35.12306], [136.8884, 35.12339], [136.88821, 35.12369], [136.88806, 35.124], [136.88793, 35.12423], [136.88773, 35.12459], [136.88745, 35.12507], [136.88722, 35.12549], [136.88709, 35.12579], [136.88689, 35.12625], [136.88668, 35.12674], [136.88651, 35.12724], [136.88637, 35.12771], [136.88617, 35.1284], [136.88595, 35.12916], [136.88581, 35.12994], [136.88571, 35.1307], [136.88556, 35.13204], [136.88553, 35.13265], [136.88552, 35.13296], [136.88552, 35.13309], [136.88552, 35.13342], [136.88556, 35.13383], [136.88565, 35.13454], [136.88581, 35.13564], [136.88591, 35.13624], [136.88594, 35.13641], [136.88596, 35.13653], [136.88599, 35.13671], [136.88601, 35.1368], [136.88615, 35.13761], [136.88649, 35.13962], [136.88662, 35.14044], [136.88664, 35.14053], [136.88664, 35.14058], [136.88669, 35.14086], [136.88671, 35.14095], [136.88681, 35.14166], [136.88736, 35.14443], [136.88737, 35.14451], [136.88742, 35.14478], [136.88744, 35.14487], [136.88764, 35.14593], [136.88766, 35.14607], [136.88768, 35.14616], [136.88771, 35.14631], [136.88772, 35.14641], [136.88798, 35.14788], [136.88816, 35.14912], [136.88814, 35.15021], [136.88812, 35.15049], [136.88811, 35.15057], [136.88809, 35.15076], [136.88809, 35.15083], [136.88804, 35.15127], [136.88787, 35.15242], [136.88779, 35.15296], [136.88766, 35.15362], [136.8875, 35.15428], [136.88745, 35.15449], [136.88724, 35.15527], [136.88673, 35.15745], [136.88639, 35.15879], [136.8863, 35.15915], [136.88615, 35.15973], [136.8858, 35.16111], [136.8857, 35.16151], [136.88529, 35.16306], [136.88522, 35.16329], [136.88514, 35.16365], [136.88502, 35.16395], [136.88494, 35.16417], [136.88474, 35.16459], [136.88451, 35.16511], [136.88443, 35.16528], [136.88432, 35.16542], [136.88417, 35.16565], [136.88398, 35.16592], [136.88384, 35.1661], [136.88358, 35.16645], [136.88339, 35.16673], [136.88295, 35.16731], [136.88264, 35.16773], [136.88242, 35.16802], [136.88194, 35.16874]]}, "properties": {"id": "TRACK_TOKYO_0992", "line_name": "東海道新幹線", "station_group_ids": [], "mode": "shinkansen", "operator_id": "東海旅客鉄道", "line_color": "#1F78FF", "tags": ["tokyo", "track_centerline"]}}, {"type": "Feature", "bbox": [137.0586, 34.9672, 137.06199, 34.97087], "geometry": {"type": "LineString", "coordinates": [[137.06199, 34.9672], [137.06032, 34.96901], [137.0586, 34.97087]]}, "properties": {"id": "TRACK_TOKYO_0993", "line_name": "東海道新幹線", "station_group_ids": [], "mode": "shinkansen", "operator_id": "東海旅客鉄道", "line_color": "#1F78FF", "tags": ["tokyo", "track_centerline"]}}, {"type": "Feature", "bbox": [136.96415, 35.00117, 136.97127, 35.00535], "geometry": {"type": "LineString", "coordinates": [[136.96415, 35.00535], [136.96516, 35.0045], [136.96558, 35.00415], [136.96601, 35.00382], [136.96656, 35.00347], [136.96697, 35.00325], [136.96746, 35.00293], [136.96776, 35.00279], [136.96877, 35.00225], [136.97077, 35.00137], [136.97127, 35.00117]]}, "properties": {"id": "TRACK_TOKYO_1070", "line_name": "東海道線", "station_group_ids": [], "mode": "rail", "operator_id": "東海旅客鉄道", "line_color": "#F28E1C", "tags": ["tokyo", "track_centerline"]}}, {"type": "Feature", "bbox": [136.98991, 34.99806, 136.99117, 34.99841], "geometry": {"type": "LineString", "coordinates": [[136.98991, 34.99841], [136.99117, 34.99806]]}, "properties": {"id": "TRACK_TOKYO_1071", "line_name": "東海道線", "station_group_ids": [], "mode": "rail", "operator_id": "東海旅客鉄道", "line_color": "#F28E1C", "tags": ["tokyo", "track_centerline"]}}, {"type": "Feature", "bbox": [136.97127, 34.99937, 136.97643, 35.00117], "geometry": {"type": "LineString", "coordinates": [[136.97127, 35.00117], [136.9714, 35.00114], [136.97152, 35.00112], [136.97163, 35.0011], [136.97176, 35.00108], [136.97187, 35.00106], [136.97197, 35.00103], [136.97257, 35.00092], [136.97284, 35.00085], [136.97332, 35.00071], [136.97379, 35.00052], [136.97433, 35.00028], [136.97483, 35.00006], [136.97583, 34.99967], [136.97643, 34.99937]]}, "properties": {"id": "TRACK_TOKYO_1072", "line_name": "東海道線", "station_group_ids": [], "mode": "rail", "operator_id": "東海旅客鉄道", "line_color": "#F28E1C", "tags": ["tokyo", "track_centerline"]}}, {"type": "Feature", "bbox": [136.96388, 35.00117, 136.97127, 35.00526], "geometry": {"type": "LineString", "coordinates": [[136.96388, 35.00526], [136.96467, 35.00433], [136.96502, 35.00393], [136.96518, 35.00377], [136.96549, 35.00355], [136.96569, 35.00344], [136.96603, 35.00325], [136.96718, 35.0026], [136.96751, 35.00243], [136.96884, 35.00181], [136.96943, 35.00161], [136.97037, 35.00135], [136.97047, 35.00133], [136.9706, 35.0013], [136.97071, 35.00127], [136.97082, 35.00125], [136.97092, 35.00123], [136.97103, 35.00121], [136.97117, 35.00119], [136.97127, 35.00117]]}, "properties": {"id": "TRACK_TOKYO_1073", "line_name": "東海道線", "station_group_ids": [], "mode": "rail", "operator_id": "東海旅客鉄道", "line_color": "#F28E1C", "tags": ["tokyo", "track_centerline"]}}, {"type": "Feature", "bbox": [136.99117, 34.99153, 137.00787, 34.99806], "geometry": {"type": "LineString", "coordinates": [[136.99117, 34.99806], [136.99153, 34.99795], [136.99181, 34.99786], [136.99704, 34.99579], [136.99984, 34.99467], [137.00236, 34.99367], [137.00406, 34.993], [137.00416, 34.99296], [137.00426, 34.99292], [137.00439, 34.99287], [137.00568, 34.99237], [137.00666, 34.99199], [137.00743, 34.99169], [137.00787, 34.99153]]}, "properties": {"id": "TRACK_TOKYO_1074", "line_name": "東海道線", "station_group_ids": [], "mode": "rail", "operator_id": "東海旅客鉄道", "line_color": "#F28E1C", "tags": ["tokyo", "track_centerline"]}}, {"type": "Feature", "bbox": [136.97127, 34.99937, 136.97643, 35.00117], "geometry": {"type": "LineString", "coordinates": [[136.97127, 35.00117], [136.97243, 35.00069], [136.9735, 35.00028], [136.97412, 35.00006], [136.97478, 34.99981], [136.97643, 34.99937]]}, "properties": {"id": "TRACK_TOKYO_1075", "line_name": "東海道線", "station_group_ids": [], "mode": "rail", "operator_id": "東海旅客鉄道", "line_color": "#F28E1C", "tags": ["tokyo", "track_centerline"]}}, {"type": "Feature", "bbox": [137.04228, 34.97683, 137.04499, 34.97788], "geometry": {"type": "LineString", "coordinates": [[137.04499, 34.97683], [137.04228, 34.97788]]}, "properties": {"id": "TRACK_TOKYO_1076", "line_name": "東海道線", "station_group_ids": [], "mode": "rail", "operator_id": "東海旅客鉄道", "line_color": "#F28E1C", "tags": ["tokyo", "track_centerline"]}}, {"type": "Feature", "bbox": [136.97643, 34.99841, 136.98991, 34.99937], "geometry": {"type": "LineString", "coordinates": [[136.97643, 34.99937], [136.97717, 34.99919], [136.9778, 34.99905], [136.97858, 34.9989], [136.97898, 34.99885], [136.97944, 34.99882], [136.98015, 34.99881], [136.98128, 34.99885], [136.98174, 34.99886], [136.98302, 34.9989], [136.98393, 34.99893], [136.98528, 34.99895], [136.98584, 34.99893], [136.98711, 34.99888], [136.98799, 34.9988], [136.98848, 34.99871], [136.98991, 34.99841]]}, "properties": {"id": "TRACK_TOKYO_1077", "line_name": "東海道線", "station_group_ids": [], "mode": "rail", "operator_id": "東海旅客鉄道", "line_color": "#F28E1C", "tags": ["tokyo", "track_centerline"]}}, {"type": "Feature", "bbox": [137.00787, 34.99008, 137.01155, 34.99153], "geometry": {"type": "LineString", "coordinates": [[137.01155, 34.99008], [137.00787, 34.99153]]}, "properties": {"id": "TRACK_TOKYO_1078", "line_name": "東海道線", "station_group_ids": [], "mode": "rail", "operator_id": "東海旅客鉄道", "line_color": "#F28E1C", "tags": ["tokyo", "track_centerline"]}}, {"type": "Feature", "bbox": [136.96298, 35.00526, 136.96388, 35.00688], "geometry": {"type": "LineString", "coordinates": [[136.96298, 35.00688], [136.96354, 35.00582], [136.9636, 35.00571], [136.96388, 35.00526]]}, "properties": {"id": "TRACK_TOKYO_1079", "line_name": "東海道線", "station_group_ids": [], "mode": "rail", "operator_id": "東海旅客鉄道", "line_color": "#F28E1C", "tags": ["tokyo", "track_centerline"]}}, {"type": "Feature", "bbox": [136.96141, 35.00801, 136.9622, 35.00938], "geometry": {"type": "LineString", "coordinates": [[136.9622, 35.00801], [136.96141, 35.00938]]}, "properties": {"id": "TRACK_TOKYO_1080", "line_name": "東海道線", "station_group_ids": [], "mode": "rail", "operator_id": "東海旅客鉄道", "line_color": "#F28E1C", "tags": ["tokyo", "track_centerline"]}}, {"type": "Feature", "bbox": [136.9622, 35.00688, 136.96298, 35.00801], "geometry": {"type": "LineString", "coordinates": [[136.9622, 35.00801], [136.96295, 35.00692], [136.96298, 35.00688]]}, "properties": {"id": "TRACK_TOKYO_1081", "line_name": "東海道線", "station_group_ids": [], "mode": "rail", "operator_id": "東海旅客鉄道", "line_color": "#F28E1C", "tags": ["tokyo", "track_centerline"]}}, {"type": "Feature", "bbox": [136.96298, 35.00535, 136.96415, 35.00688], "geometry": {"type": "LineString", "coordinates": [[136.96298, 35.00688], [136.9635, 35.00614], [136.96371, 35.00587], [136.96395, 35.00558], [136.96415, 35.00535]]}, "properties": {"id": "TRACK_TOKYO_1082", "line_name": "東海道線", "station_group_ids": [], "mode": "rail", "operator_id": "東海旅客鉄道", "line_color": "#F28E1C", "tags": ["tokyo", "track_centerline"]}}, {"type": "Feature", "bbox": [136.91111, 35.09624, 136.92572, 35.12871], "geometry": {"type": "LineString", "coordinates": [[136.92572, 35.09624], [136.92559, 35.09651], [136.9248, 35.09804], [136.92426, 35.09911], [136.92379, 35.09993], [136.92361, 35.10027], [136.92339, 35.10071], [136.92327, 35.10098], [136.92305, 35.10141], [136.92267, 35.10211], [136.92232, 35.10277], [136.92216, 35.10308], [136.92184, 35.1037], [136.92153, 35.10426], [136.9213, 35.10472], [136.92129, 35.10475], [136.92109, 35.10513], [136.92098, 35.10532], [136.92078, 35.1057], [136.92033, 35.10653], [136.92013, 35.10691], [136.91982, 35.10749], [136.91938, 35.10835], [136.91913, 35.10881], [136.91881, 35.10944], [136.91867, 35.10971], [136.91831, 35.11039], [136.9181, 35.11079], [136.91798, 35.11105], [136.9176, 35.1119], [136.91759, 35.11191], [136.91749, 35.11215], [136.91739, 35.11243], [136.91694, 35.11354], [136.91664, 35.11434], [136.91658, 35.11447], [136.91654, 35.11458], [136.91583, 35.11639], [136.91568, 35.11678], [136.91558, 35.11705], [136.91543, 35.11747], [136.91541, 35.11752], [136.91524, 35.11798], [136.91504, 35.11852], [136.91473, 35.1193], [136.91462, 35.11959], [136.91447, 35.11997], [136.91414, 35.12082], [136.91398, 35.12124], [136.91346, 35.12255], [136.91305, 35.12367], [136.91291, 35.12399], [136.91253, 35.12502], [136.91215, 35.126], [136.91204, 35.12628], [136.912, 35.12637], [136.91186, 35.12675], [136.91155, 35.12756], [136.91137, 35.12804], [136.91111, 35.12871]]}, "properties": {"id": "TRACK_TOKYO_1093", "line_name": "東海道線", "station_group_ids": [], "mode": "rail", "operator_id": "東海旅客鉄道", "line_color": "#F28E1C", "tags": ["tokyo", "track_centerline"]}}, {"type": "Feature", "bbox": [136.949005, 35.03576, 136.95451, 35.053952], "geometry": {"type": "LineString", "coordinates": [[136.95451, 35.03576], [136.95449, 35.03586], [136.95423, 35.03713], [136.95357, 35.0404], [136.95276, 35.04434], [136.95268, 35.04475], [136.95229, 35.04686], [136.95219, 35.04739], [136.95207, 35.04787], [136.95199, 35.04816], [136.95179, 35.04871], [136.95148, 35.04954], [136.95136, 35.04982], [136.9512, 35.05015], [136.95113, 35.0503], [136.95092, 35.0507], [136.95041, 35.05158], [136.949005, 35.053952]]}, "properties": {"id": "TRACK_TOKYO_1097", "line_name": "東海道線", "station_group_ids": [], "mode": "rail", "operator_id": "東海旅客鉄道", "line_color": "#F28E1C", "tags": ["tokyo", "track_centerline"]}}, {"type": "Feature", "bbox": [136.89029, 35.14644, 136.89177, 35.14773], "geometry": {"type": "LineString", "coordinates": [[136.89177, 35.14644], [136.89148, 35.14665], [136.89115, 35.14689], [136.89086, 35.14714], [136.89055, 35.14744], [136.89029, 35.14773]]}, "properties": {"id": "TRACK_TOKYO_1098", "line_name": "東海道線", "station_group_ids": [], "mode": "rail", "operator_id": "東海旅客鉄道", "line_color": "#F28E1C", "tags": ["tokyo", "track_centerline"]}}, {"type": "Feature", "bbox": [136.95451, 35.03497, 136.95465, 35.03576], "geometry": {"type": "LineString", "coordinates": [[136.95465, 35.03497], [136.95451, 35.03576]]}, "properties": {"id": "TRACK_TOKYO_1101", "line_name": "東海道線", "station_group_ids": [], "mode": "rail", "operator_id": "東海旅客鉄道", "line_color": "#F28E1C", "tags": ["tokyo", "track_centerline"]}}, {"type": "Feature", "bbox": [136.89964, 35.14241, 136.90183, 35.14326], "geometry": {"type": "LineString", "coordinates": [[136.90183, 35.14241], [136.90122, 35.14265], [136.89964, 35.14326]]}, "properties": {"id": "TRACK_TOKYO_1102", "line_name": "東海道線", "station_group_ids": [], "mode": "rail", "operator_id": "東海旅客鉄道", "line_color": "#F28E1C", "tags": ["tokyo", "track_centerline"]}}, {"type": "Feature", "bbox": [136.95465, 35.00938, 136.96141, 35.03497], "geometry": {"type": "LineString", "coordinates": [[136.96141, 35.00938], [136.96057, 35.01085], [136.96011, 35.01167], [136.95964, 35.01252], [136.95932, 35.01323], [136.9591, 35.01371], [136.95905, 35.01384], [136.95892, 35.01417], [136.95882, 35.01442], [136.95873, 35.0147], [136.95862, 35.01512], [136.95842, 35.01606], [136.9582, 35.01717], [136.95796, 35.01837], [136.95723, 35.02208], [136.95661, 35.0251], [136.95642, 35.02607], [136.95617, 35.02735], [136.95581, 35.02915], [136.95549, 35.03075], [136.95529, 35.03171], [136.95487, 35.03385], [136.95465, 35.03497]]}, "properties": {"id": "TRACK_TOKYO_1103", "line_name": "東海道線", "station_group_ids": [], "mode": "rail", "operator_id": "東海旅客鉄道", "line_color": "#F28E1C", "tags": ["tokyo", "track_centerline"]}}, {"type": "Feature", "bbox": [136.93976, 35.06814, 136.9408, 35.07006], "geometry": {"type": "LineString", "coordinates": [[136.9408, 35.06814], [136.93976, 35.07006]]}, "properties": {"id": "TRACK_TOKYO_1106", "line_name": "東海道線", "station_group_ids": [], "mode": "rail", "operator_id": "東海旅客鉄道", "line_color": "#F28E1C", "tags": ["tokyo", "track_centerline"]}}, {"type": "Feature", "bbox": [136.92697, 35.07006, 136.93976, 35.09397], "geometry": {"type": "LineString", "coordinates": [[136.93976, 35.07006], [136.93966, 35.07025], [136.93947, 35.07059], [136.93944, 35.07064], [136.9392, 35.07109], [136.93916, 35.07116], [136.93908, 35.07132], [136.93904, 35.0714], [136.93882, 35.0718], [136.93848, 35.07242], [136.93845, 35.07248], [136.93824, 35.07285], [136.93816, 35.073], [136.93768, 35.0739], [136.93711, 35.07495], [136.93688, 35.07537], [136.93667, 35.07575], [136.93597, 35.07705], [136.93566, 35.07762], [136.9356, 35.07772], [136.93549, 35.07793], [136.93543, 35.07805], [136.93509, 35.07867], [136.93504, 35.07877], [136.93491, 35.079], [136.93482, 35.07917], [136.93426, 35.0802], [136.93421, 35.0803], [136.93409, 35.08051], [136.93402, 35.08063], [136.93387, 35.08092], [136.93353, 35.08155], [136.93344, 35.08172], [136.93334, 35.08191], [136.93322, 35.08214], [136.93304, 35.08248], [136.93277, 35.08299], [136.93273, 35.08306], [136.93247, 35.08351], [136.93199, 35.08443], [136.93082, 35.08657], [136.93049, 35.08721], [136.92986, 35.08841], [136.92952, 35.08907], [136.92902, 35.09002], [136.92888, 35.09029], [136.92882, 35.09042], [136.92849, 35.09108], [136.92801, 35.09194], [136.92765, 35.09266], [136.92697, 35.09397]]}, "properties": {"id": "TRACK_TOKYO_1109", "line_name": "東海道線", "station_group_ids": [], "mode": "rail", "operator_id": "東海旅客鉄道", "line_color": "#F28E1C", "tags": ["tokyo", "track_centerline"]}}, {"type": "Feature", "bbox": [136.88284, 35.14773, 136.89029, 35.17005], "geometry": {"type": "LineString", "coordinates": [[136.89029, 35.14773], [136.88998, 35.14816], [136.88978, 35.14846], [136.88961, 35.14874], [136.88935, 35.14923], [136.88915, 35.14968], [136.88884, 35.15053], [136.88877, 35.1508], [136.88842, 35.15216], [136.88835, 35.1525], [136.8881, 35.15345], [136.88807, 35.15361], [136.88802, 35.15383], [136.88788, 35.15434], [136.88769, 35.15505], [136.8875, 35.15582], [136.88733, 35.15655], [136.88715, 35.15732], [136.88701, 35.15796], [136.8868, 35.15883], [136.88671, 35.15919], [136.88654, 35.15983], [136.88635, 35.16077], [136.88624, 35.16109], [136.88621, 35.16122], [136.88598, 35.16211], [136.88588, 35.16254], [136.88572, 35.16309], [136.88556, 35.16368], [136.88547, 35.16405], [136.88525, 35.16465], [136.885, 35.1653], [136.88477, 35.16584], [136.88444, 35.16653], [136.88437, 35.16667], [136.88411, 35.16724], [136.88384, 35.16784], [136.88366, 35.16824], [136.8835, 35.16862], [136.88332, 35.16903], [136.88314, 35.16944], [136.88293, 35.16989], [136.88284, 35.17005]]}, "properties": {"id": "TRACK_TOKYO_1110", "line_name": "東海道線", "station_group_ids": [], "mode": "rail", "operator_id": "東海旅客鉄道", "line_color": "#F28E1C", "tags": ["tokyo", "track_centerline"]}}, {"type": "Feature", "bbox": [136.91015, 35.12871, 136.91111, 35.13111], "geometry": {"type": "LineString", "coordinates": [[136.91111, 35.12871], [136.91091, 35.12921], [136.91053, 35.13018], [136.91015, 35.13111]]}, "properties": {"id": "TRACK_TOKYO_1114", "line_name": "東海道線", "station_group_ids": [], "mode": "rail", "operator_id": "東海旅客鉄道", "line_color": "#F28E1C", "tags": ["tokyo", "track_centerline"]}}, {"type": "Feature", "bbox": [136.90183, 35.13111, 136.91015, 35.14241], "geometry": {"type": "LineString", "coordinates": [[136.91015, 35.13111], [136.91009, 35.13126], [136.90974, 35.13216], [136.90955, 35.13265], [136.90946, 35.13288], [136.90908, 35.13381], [136.90895, 35.13411], [136.90887, 35.1343], [136.90862, 35.13496], [136.90842, 35.13539], [136.90839, 35.13545], [136.90827, 35.13571], [136.90815, 35.13597], [136.90777, 35.13675], [136.90755, 35.13712], [136.90746, 35.13729], [136.90731, 35.1375], [136.90712, 35.13782], [136.90696, 35.13807], [136.90672, 35.13836], [136.90654, 35.1386], [136.90629, 35.1389], [136.90599, 35.13923], [136.90571, 35.13953], [136.9055, 35.13978], [136.90507, 35.14016], [136.90494, 35.14025], [136.9046, 35.14055], [136.9042, 35.14085], [136.90377, 35.14116], [136.90348, 35.14139], [136.90318, 35.14158], [136.90266, 35.14193], [136.90217, 35.14225], [136.90183, 35.14241]]}, "properties": {"id": "TRACK_TOKYO_1115", "line_name": "東海道線", "station_group_ids": [], "mode": "rail", "operator_id": "東海旅客鉄道", "line_color": "#F28E1C", "tags": ["tokyo", "track_centerline"]}}, {"type": "Feature", "bbox": [136.92572, 35.09397, 136.92697, 35.09624], "geometry": {"type": "LineString", "coordinates": [[136.92697, 35.09397], [136.92599, 35.09574], [136.92572, 35.09624]]}, "properties": {"id": "TRACK_TOKYO_1116", "line_name": "東海道線", "station_group_ids": [], "mode": "rail", "operator_id": "東海旅客鉄道", "line_color": "#F28E1C", "tags": ["tokyo", "track_centerline"]}}, {"type": "Feature", "bbox": [136.89177, 35.14326, 136.89964, 35.14644], "geometry": {"type": "LineString", "coordinates": [[136.89964, 35.14326], [136.8988, 35.14356], [136.89808, 35.14381], [136.89712, 35.14414], [136.89626, 35.14447], [136.89545, 35.14477], [136.89485, 35.14499], [136.89449, 35.14513], [136.8942, 35.14523], [136.89377, 35.1454], [136.89341, 35.14556], [136.89264, 35.14593], [136.89235, 35.14608], [136.89204, 35.14625], [136.89177, 35.14644]]}, "properties": {"id": "TRACK_TOKYO_1121", "line_name": "東海道線", "station_group_ids": [], "mode": "rail", "operator_id": "東海旅客鉄道", "line_color": "#F28E1C", "tags": ["tokyo", "track_centerline"]}}, {"type": "Feature", "bbox": [137.1648, 34.83748, 137.1754, 34.85853], "geometry": {"type": "LineString", "coordinates": [[137.1648, 34.85853], [137.16506, 34.85756], [137.16515, 34.85722], [137.16519, 34.85708], [137.16546, 34.85612], [137.16563, 34.85551], [137.16571, 34.85523], [137.16578, 34.85497], [137.16615, 34.85362], [137.16622, 34.85335], [137.16652, 34.8523], [137.1669, 34.8509], [137.16736, 34.8493], [137.16767, 34.84819], [137.16774, 34.84793], [137.16786, 34.84759], [137.16796, 34.84734], [137.16812, 34.84702], [137.16835, 34.84663], [137.16869, 34.84612], [137.16917, 34.84541], [137.16943, 34.84507], [137.16972, 34.84467], [137.1701, 34.8442], [137.17112, 34.84286], [137.17228, 34.84134], [137.17323, 34.8401], [137.1745, 34.83852], [137.1754, 34.83748]]}, "properties": {"id": "TRACK_TOKYO_1158", "line_name": "東海道線", "station_group_ids": [], "mode": "rail", "operator_id": "東海旅客鉄道", "line_color": "#F28E1C", "tags": ["tokyo", "track_centerline"]}}, {"type": "Feature", "bbox": [137.17798, 34.82475, 137.20071, 34.83518], "geometry": {"type": "LineString", "coordinates": [[137.20071, 34.82507], [137.20007, 34.82489], [137.19945, 34.82481], [137.19867, 34.82475], [137.19782, 34.82479], [137.19735, 34.82482], [137.19711, 34.82484], [137.1967, 34.82492], [137.19628, 34.82502], [137.19566, 34.82523], [137.19563, 34.82524], [137.19457, 34.82562], [137.19373, 34.82593], [137.19216, 34.82652], [137.19099, 34.82694], [137.18977, 34.82739], [137.18871, 34.82779], [137.18811, 34.82802], [137.18767, 34.8282], [137.18706, 34.82848], [137.18674, 34.82864], [137.18605, 34.82902], [137.18535, 34.82941], [137.1848, 34.82975], [137.18393, 34.83035], [137.18317, 34.8309], [137.18093, 34.83273], [137.17949, 34.83391], [137.17798, 34.83518]]}, "properties": {"id": "TRACK_TOKYO_1159", "line_name": "東海道線", "station_group_ids": [], "mode": "rail", "operator_id": "東海旅客鉄道", "line_color": "#F28E1C", "tags": ["tokyo", "track_centerline"]}}, {"type": "Feature", "bbox": [137.22557, 34.82235, 137.2292, 34.82314], "geometry": {"type": "LineString", "coordinates": [[137.2292, 34.82235], [137.22864, 34.82246], [137.22716, 34.82278], [137.22632, 34.82295], [137.22557, 34.82314]]}, "properties": {"id": "TRACK_TOKYO_1161", "line_name": "東海道線", "station_group_ids": [], "mode": "rail", "operator_id": "東海旅客鉄道", "line_color": "#F28E1C", "tags": ["tokyo", "track_centerline"]}}, {"type": "Feature", "bbox": [137.16411, 34.85853, 137.1648, 34.8608], "geometry": {"type": "LineString", "coordinates": [[137.16411, 34.8608], [137.16448, 34.85963], [137.1648, 34.85853]]}, "properties": {"id": "TRACK_TOKYO_1162", "line_name": "東海道線", "station_group_ids": [], "mode": "rail", "operator_id": "東海旅客鉄道", "line_color": "#F28E1C", "tags": ["tokyo", "track_centerline"]}}, {"type": "Feature", "bbox": [137.08492, 34.95991, 137.08777, 34.96102], "geometry": {"type": "LineString", "coordinates": [[137.08777, 34.95991], [137.08708, 34.96019], [137.08641, 34.96045], [137.08592, 34.96063], [137.08492, 34.96102]]}, "properties": {"id": "TRACK_TOKYO_1164", "line_name": "東海道線", "station_group_ids": [], "mode": "rail", "operator_id": "東海旅客鉄道", "line_color": "#F28E1C", "tags": ["tokyo", "track_centerline"]}}, {"type": "Feature", "bbox": [137.15017, 34.93131, 137.15654, 34.93816], "geometry": {"type": "LineString", "coordinates": [[137.15654, 34.93131], [137.15653, 34.93164], [137.15651, 34.93177], [137.15646, 34.93212], [137.15645, 34.93217], [137.15637, 34.9326], [137.1562, 34.93334], [137.15609, 34.93361], [137.15576, 34.93425], [137.15554, 34.93458], [137.15507, 34.93516], [137.15492, 34.93531], [137.1547, 34.93552], [137.15424, 34.93594], [137.1538, 34.9363], [137.15351, 34.93652], [137.15311, 34.93677], [137.15207, 34.93737], [137.15095, 34.93789], [137.15017, 34.93816]]}, "properties": {"id": "TRACK_TOKYO_1166", "line_name": "東海道線", "station_group_ids": [], "mode": "rail", "operator_id": "東海旅客鉄道", "line_color": "#F28E1C", "tags": ["tokyo", "track_centerline"]}}, {"type": "Feature", "bbox": [137.12402, 34.93816, 137.15017, 34.94636], "geometry": {"type": "LineString", "coordinates": [[137.12402, 34.94636], [137.12531, 34.94598], [137.12605, 34.94576], [137.1271, 34.94542], [137.12824, 34.94506], [137.12898, 34.94483], [137.12938, 34.9447], [137.12964, 34.94462], [137.12972, 34.9446], [137.13032, 34.9444], [137.1312, 34.94412], [137.1321, 34.94385], [137.1327, 34.94365], [137.13331, 34.94347], [137.13405, 34.94324], [137.13486, 34.94298], [137.13647, 34.94247], [137.13807, 34.94196], [137.1383, 34.9419], [137.139, 34.9417], [137.14016, 34.94139], [137.14033, 34.94134], [137.14054, 34.94128], [137.14128, 34.94106], [137.14172, 34.94093], [137.14334, 34.94047], [137.14464, 34.94008], [137.14588, 34.93972], [137.14651, 34.93953], [137.14689, 34.93942], [137.1479, 34.93911], [137.14839, 34.93894], [137.14898, 34.9387], [137.14904, 34.93868], [137.14929, 34.93857], [137.14952, 34.93847], [137.15017, 34.93816]]}, "properties": {"id": "TRACK_TOKYO_1167", "line_name": "東海道線", "station_group_ids": [], "mode": "rail", "operator_id": "東海旅客鉄道", "line_color": "#F28E1C", "tags": ["tokyo", "track_centerline"]}}, {"type": "Feature", "bbox": [137.24951, 34.81365, 137.28213, 34.81825], "geometry": {"type": "LineString", "coordinates": [[137.24951, 34.81825], [137.25003, 34.81816], [137.25038, 34.81809], [137.25104, 34.81796], [137.25162, 34.81785], [137.25243, 34.81769], [137.25291, 34.81761], [137.25337, 34.81752], [137.25376, 34.81744], [137.25414, 34.81737], [137.25451, 34.81729], [137.25476, 34.81724], [137.25492, 34.81722], [137.25509, 34.81719], [137.2553, 34.81715], [137.25567, 34.81708], [137.25633, 34.81699], [137.2568, 34.81692], [137.25708, 34.81687], [137.25741, 34.81683], [137.25783, 34.81678], [137.25818, 34.81673], [137.25873, 34.81667], [137.25942, 34.81658], [137.25991, 34.81651], [137.26048, 34.81642], [137.26108, 34.81633], [137.26114, 34.81631], [137.26138, 34.81626], [137.26173, 34.81618], [137.26205, 34.81609], [137.26225, 34.81603], [137.26272, 34.81587], [137.26306, 34.81578], [137.26336, 34.81567], [137.26362, 34.81559], [137.2638, 34.81553], [137.26389, 34.81549], [137.26415, 34.81541], [137.2644, 34.81532], [137.26466, 34.81523], [137.26491, 34.81515], [137.26516, 34.81505], [137.2654, 34.81496], [137.26564, 34.81487], [137.26591, 34.81478], [137.26662, 34.81451], [137.26687, 34.81442], [137.26705, 34.81436], [137.26725, 34.8143], [137.2677, 34.81416], [137.26814, 34.81401], [137.26851, 34.8139], [137.26898, 34.81378], [137.26921, 34.81374], [137.26944, 34.81369], [137.26971, 34.81367], [137.27001, 34.81366], [137.27037, 34.81365], [137.27101, 34.81366], [137.27156, 34.81368], [137.27192, 34.8137], [137.27215, 34.81372], [137.27262, 34.81377], [137.2732, 34.81382], [137.27388, 34.81389], [137.27466, 34.81396], [137.27521, 34.81401], [137.27567, 34.81406], [137.27586, 34.81408], [137.27618, 34.81411], [137.27652, 34.81415], [137.27663, 34.81415], [137.27692, 34.81418], [137.27702, 34.81419], [137.27712, 34.8142], [137.2776, 34.81426], [137.27804, 34.81435], [137.2784, 34.81441], [137.27907, 34.81453], [137.27962, 34.81465], [137.27983, 34.81471], [137.28024, 34.81483], [137.28041, 34.81489], [137.28087, 34.81505], [137.28173, 34.81534], [137.28213, 34.81548]]}, "properties": {"id": "TRACK_TOKYO_1168", "line_name": "東海道線", "station_group_ids": [], "mode": "rail", "operator_id": "東海旅客鉄道", "line_color": "#F28E1C", "tags": ["tokyo", "track_centerline"]}}, {"type": "Feature", "bbox": [137.20224, 34.82314, 137.22557, 34.82705], "geometry": {"type": "LineString", "coordinates": [[137.22557, 34.82314], [137.22474, 34.82333], [137.22336, 34.82363], [137.22174, 34.82398], [137.22049, 34.82425], [137.21894, 34.82458], [137.21746, 34.8249], [137.21615, 34.82518], [137.21597, 34.82522], [137.21563, 34.8253], [137.21455, 34.82554], [137.21319, 34.82582], [137.21206, 34.82607], [137.21098, 34.8263], [137.20974, 34.82658], [137.209, 34.82675], [137.20833, 34.82688], [137.20819, 34.82691], [137.20787, 34.82696], [137.2074, 34.82703], [137.20716, 34.82704], [137.20659, 34.82705], [137.2062, 34.82703], [137.20597, 34.827], [137.20509, 34.82684], [137.20469, 34.82675], [137.20429, 34.82663], [137.20406, 34.82655], [137.20288, 34.82605], [137.20224, 34.82577]]}, "properties": {"id": "TRACK_TOKYO_1170", "line_name": "東海道線", "station_group_ids": [], "mode": "rail", "operator_id": "東海旅客鉄道", "line_color": "#F28E1C", "tags": ["tokyo", "track_centerline"]}}, {"type": "Feature", "bbox": [137.08777, 34.94688, 137.12229, 34.95991], "geometry": {"type": "LineString", "coordinates": [[137.12229, 34.94688], [137.12203, 34.94697], [137.12197, 34.94699], [137.12181, 34.94703], [137.12163, 34.94708], [137.12141, 34.94714], [137.12123, 34.94719], [137.12111, 34.94723], [137.12031, 34.94747], [137.12023, 34.9475], [137.12001, 34.94757], [137.11974, 34.94765], [137.11903, 34.94787], [137.11879, 34.94794], [137.11852, 34.94802], [137.11774, 34.94826], [137.11725, 34.94841], [137.11655, 34.94863], [137.11623, 34.94873], [137.11614, 34.94876], [137.11563, 34.94893], [137.11447, 34.94936], [137.11374, 34.94966], [137.11255, 34.95012], [137.11163, 34.95048], [137.11121, 34.95064], [137.11096, 34.95073], [137.10974, 34.95121], [137.10964, 34.95125], [137.1084, 34.95174], [137.1079, 34.95193], [137.10661, 34.95245], [137.10633, 34.95256], [137.10589, 34.95273], [137.10428, 34.95336], [137.10358, 34.95364], [137.10228, 34.95415], [137.10126, 34.95456], [137.10119, 34.95458], [137.09967, 34.9552], [137.09946, 34.95528], [137.09924, 34.95536], [137.09904, 34.95545], [137.09886, 34.95552], [137.09831, 34.95574], [137.09774, 34.95597], [137.0973, 34.95615], [137.0963, 34.95653], [137.09576, 34.95675], [137.0952, 34.95699], [137.09363, 34.95759], [137.09328, 34.95773], [137.09244, 34.95805], [137.09181, 34.95829], [137.09173, 34.95832], [137.08999, 34.95901], [137.08954, 34.9592], [137.0888, 34.9595], [137.08858, 34.95958], [137.0878, 34.9599], [137.08777, 34.95991]]}, "properties": {"id": "TRACK_TOKYO_1171", "line_name": "東海道線", "station_group_ids": [], "mode": "rail", "operator_id": "東海旅客鉄道", "line_color": "#F28E1C", "tags": ["tokyo", "track_centerline"]}}, {"type": "Feature", "bbox": [137.1754, 34.83518, 137.17798, 34.83748], "geometry": {"type": "LineString", "coordinates": [[137.1754, 34.83748], [137.17632, 34.83661], [137.17649, 34.83646], [137.17798, 34.83518]]}, "properties": {"id": "TRACK_TOKYO_1172", "line_name": "東海道線", "station_group_ids": [], "mode": "rail", "operator_id": "東海旅客鉄道", "line_color": "#F28E1C", "tags": ["tokyo", "track_centerline"]}}, {"type": "Feature", "bbox": [137.24656, 34.81825, 137.24951, 34.81879], "geometry": {"type": "LineString", "coordinates": [[137.24656, 34.81879], [137.24671, 34.81877], [137.24702, 34.8187], [137.24788, 34.81854], [137.24884, 34.81836], [137.24951, 34.81825]]}, "properties": {"id": "TRACK_TOKYO_1173", "line_name": "東海道線", "station_group_ids": [], "mode": "rail", "operator_id": "東海旅客鉄道", "line_color": "#F28E1C", "tags": ["tokyo", "track_centerline"]}}, {"type": "Feature", "bbox": [137.2292, 34.81879, 137.24656, 34.82235], "geometry": {"type": "LineString", "coordinates": [[137.24656, 34.81879], [137.24611, 34.81887], [137.24586, 34.81892], [137.24551, 34.81898], [137.24423, 34.81925], [137.24324, 34.81944], [137.24313, 34.81946], [137.24294, 34.8195], [137.24254, 34.81958], [137.24128, 34.81984], [137.24012, 34.82006], [137.23958, 34.82018], [137.23919, 34.82025], [137.23891, 34.82031], [137.23836, 34.82042], [137.23718, 34.82065], [137.23708, 34.82067], [137.23682, 34.82073], [137.23598, 34.8209], [137.23424, 34.82126], [137.2326, 34.82162], [137.23114, 34.82193], [137.22978, 34.82223], [137.2292, 34.82235]]}, "properties": {"id": "TRACK_TOKYO_1174", "line_name": "東海道線", "station_group_ids": [], "mode": "rail", "operator_id": "東海旅客鉄道", "line_color": "#F28E1C", "tags": ["tokyo", "track_centerline"]}}, {"type": "Feature", "bbox": [137.12229, 34.94636, 137.12402, 34.94688], "geometry": {"type": "LineString", "coordinates": [[137.12402, 34.94636], [137.12229, 34.94688]]}, "properties": {"id": "TRACK_TOKYO_1175", "line_name": "東海道線", "station_group_ids": [], "mode": "rail", "operator_id": "東海旅客鉄道", "line_color": "#F28E1C", "tags": ["tokyo", "track_centerline"]}}, {"type": "Feature", "bbox": [137.20071, 34.82507, 137.20224, 34.82577], "geometry": {"type": "LineString", "coordinates": [[137.20224, 34.82577], [137.20156, 34.82544], [137.20071, 34.82507]]}, "properties": {"id": "TRACK_TOKYO_1176", "line_name": "東海道線", "station_group_ids": [], "mode": "rail", "operator_id": "東海旅客鉄道", "line_color": "#F28E1C", "tags": ["tokyo", "track_centerline"]}}, {"type": "Feature", "bbox": [137.15017, 34.93229, 137.15613, 34.93816], "geometry": {"type": "LineString", "coordinates": [[137.15613, 34.93229], [137.15577, 34.93301], [137.15527, 34.93384], [137.15493, 34.93433], [137.15451, 34.93485], [137.15417, 34.93525], [137.15365, 34.93577], [137.15328, 34.93613], [137.15286, 34.93649], [137.15229, 34.93692], [137.15166, 34.93733], [137.15118, 34.93763], [137.15033, 34.93808], [137.15017, 34.93816]]}, "properties": {"id": "TRACK_TOKYO_1177", "line_name": "東海道線", "station_group_ids": [], "mode": "rail", "operator_id": "東海旅客鉄道", "line_color": "#F28E1C", "tags": ["tokyo", "track_centerline"]}}, {"type": "Feature", "bbox": [137.15613, 34.93131, 137.15654, 34.93229], "geometry": {"type": "LineString", "coordinates": [[137.15654, 34.93131], [137.15638, 34.93171], [137.15625, 34.93201], [137.15613, 34.93229]]}, "properties": {"id": "TRACK_TOKYO_1180", "line_name": "東海道線", "station_group_ids": [], "mode": "rail", "operator_id": "東海旅客鉄道", "line_color": "#F28E1C", "tags": ["tokyo", "track_centerline"]}}, {"type": "Feature", "bbox": [137.15715, 34.9239, 137.15739, 34.92679], "geometry": {"type": "LineString", "coordinates": [[137.15739, 34.9239], [137.15716, 34.92666], [137.15715, 34.92679]]}, "properties": {"id": "TRACK_TOKYO_1181", "line_name": "東海道線", "station_group_ids": [], "mode": "rail", "operator_id": "東海旅客鉄道", "line_color": "#F28E1C", "tags": ["tokyo", "track_centerline"]}}, {"type": "Feature", "bbox": [137.15654, 34.92679, 137.15715, 34.93131], "geometry": {"type": "LineString", "coordinates": [[137.15715, 34.92679], [137.15709, 34.92777], [137.15706, 34.92819], [137.15697, 34.92906], [137.15694, 34.92937], [137.15691, 34.92957], [137.15685, 34.93017], [137.15683, 34.93024], [137.15677, 34.93049], [137.15665, 34.93101], [137.15654, 34.93131]]}, "properties": {"id": "TRACK_TOKYO_1182", "line_name": "東海道線", "station_group_ids": [], "mode": "rail", "operator_id": "東海旅客鉄道", "line_color": "#F28E1C", "tags": ["tokyo", "track_centerline"]}}, {"type": "Feature", "bbox": [137.06298, 34.96102, 137.08492, 34.96967], "geometry": {"type": "LineString", "coordinates": [[137.08492, 34.96102], [137.08367, 34.9615], [137.08338, 34.96163], [137.08324, 34.96168], [137.08245, 34.96197], [137.08205, 34.96213], [137.08116, 34.96249], [137.08037, 34.9628], [137.08024, 34.96285], [137.07953, 34.96312], [137.07846, 34.96354], [137.07777, 34.96381], [137.07693, 34.96415], [137.07639, 34.96437], [137.07623, 34.96443], [137.07529, 34.96479], [137.07518, 34.96483], [137.07466, 34.96504], [137.07363, 34.96546], [137.07262, 34.96585], [137.07236, 34.96596], [137.07129, 34.96639], [137.07082, 34.96657], [137.07, 34.96689], [137.06953, 34.96707], [137.06847, 34.96749], [137.06782, 34.96774], [137.06693, 34.9681], [137.06641, 34.96832], [137.06626, 34.96838], [137.06607, 34.96845], [137.06587, 34.96853], [137.06584, 34.96854], [137.06549, 34.96868], [137.06482, 34.96893], [137.06407, 34.96924], [137.06298, 34.96967]]}, "properties": {"id": "TRACK_TOKYO_1185", "line_name": "東海道線", "station_group_ids": [], "mode": "rail", "operator_id": "東海旅客鉄道", "line_color": "#F28E1C", "tags": ["tokyo", "track_centerline"]}}, {"type": "Feature", "bbox": [137.04499, 34.97091, 137.05986, 34.97683], "geometry": {"type": "LineString", "coordinates": [[137.05986, 34.97091], [137.05863, 34.9714], [137.05783, 34.97171], [137.05658, 34.97219], [137.05642, 34.97226], [137.05505, 34.97281], [137.05442, 34.97306], [137.05375, 34.97332], [137.05305, 34.97361], [137.0527, 34.97374], [137.05092, 34.97447], [137.05046, 34.97465], [137.04869, 34.97536], [137.04818, 34.97556], [137.04759, 34.97579], [137.04647, 34.97624], [137.04499, 34.97683]]}, "properties": {"id": "TRACK_TOKYO_1186", "line_name": "東海道線", "station_group_ids": [], "mode": "rail", "operator_id": "東海旅客鉄道", "line_color": "#F28E1C", "tags": ["tokyo", "track_centerline"]}}, {"type": "Feature", "bbox": [137.05986, 34.96967, 137.06298, 34.97091], "geometry": {"type": "LineString", "coordinates": [[137.06298, 34.96967], [137.0613, 34.97033], [137.06069, 34.97058], [137.0605, 34.97065], [137.06037, 34.97071], [137.05986, 34.97091]]}, "properties": {"id": "TRACK_TOKYO_1187", "line_name": "東海道線", "station_group_ids": [], "mode": "rail", "operator_id": "東海旅客鉄道", "line_color": "#F28E1C", "tags": ["tokyo", "track_centerline"]}}, {"type": "Feature", "bbox": [137.01155, 34.98374, 137.02756, 34.99008], "geometry": {"type": "LineString", "coordinates": [[137.02756, 34.98374], [137.02674, 34.98406], [137.02618, 34.98429], [137.02503, 34.98475], [137.02467, 34.98488], [137.024, 34.98514], [137.02347, 34.98536], [137.02235, 34.9858], [137.0218, 34.98602], [137.02092, 34.98638], [137.02083, 34.98641], [137.02025, 34.98664], [137.01979, 34.98683], [137.01962, 34.9869], [137.01803, 34.98751], [137.01619, 34.98826], [137.01597, 34.98834], [137.01569, 34.98845], [137.01537, 34.98857], [137.01438, 34.98896], [137.01324, 34.98941], [137.01252, 34.9897], [137.01155, 34.99008]]}, "properties": {"id": "TRACK_TOKYO_4039", "line_name": "東海道線", "station_group_ids": [], "mode": "rail", "operator_id": "東海旅客鉄道", "line_color": "#F28E1C", "tags": ["tokyo", "track_centerline"]}}, {"type": "Feature", "bbox": [137.02876, 34.97788, 137.04228, 34.98327], "geometry": {"type": "LineString", "coordinates": [[137.04228, 34.97788], [137.04181, 34.97807], [137.0409, 34.97844], [137.0407, 34.97852], [137.0399, 34.97883], [137.03868, 34.97931], [137.03801, 34.97958], [137.03771, 34.9797], [137.03746, 34.9798], [137.0372, 34.9799], [137.03708, 34.97995], [137.03587, 34.98044], [137.03565, 34.98052], [137.0354, 34.98062], [137.0352, 34.98069], [137.03448, 34.98098], [137.03337, 34.98143], [137.03238, 34.98182], [137.03107, 34.98235], [137.03079, 34.98246], [137.03027, 34.98266], [137.02981, 34.98285], [137.02908, 34.98315], [137.02876, 34.98327]]}, "properties": {"id": "TRACK_TOKYO_4040", "line_name": "東海道線", "station_group_ids": [], "mode": "rail", "operator_id": "東海旅客鉄道", "line_color": "#F28E1C", "tags": ["tokyo", "track_centerline"]}}, {"type": "Feature", "bbox": [137.02756, 34.98327, 137.02876, 34.98374], "geometry": {"type": "LineString", "coordinates": [[137.02876, 34.98327], [137.02821, 34.98349], [137.02756, 34.98374]]}, "properties": {"id": "TRACK_TOKYO_4041", "line_name": "東海道線", "station_group_ids": [], "mode": "rail", "operator_id": "東海旅客鉄道", "line_color": "#F28E1C", "tags": ["tokyo", "track_centerline"]}}, {"type": "Feature", "bbox": [136.9408, 35.054962, 136.948415, 35.06814], "geometry": {"type": "LineString", "coordinates": [[136.948415, 35.054962], [136.94719, 35.05711], [136.94649, 35.05831], [136.94639, 35.05848], [136.94535, 35.06018], [136.94355, 35.06321], [136.94282, 35.06444], [136.94278, 35.06452], [136.9426, 35.06482], [136.94232, 35.06529], [136.94223, 35.06545], [136.94185, 35.06618], [136.94131, 35.06718], [136.9413, 35.06722], [136.94118, 35.06742], [136.94114, 35.06751], [136.9408, 35.06814]]}, "properties": {"id": "TRACK_TOKYO_4082", "line_name": "東海道線", "station_group_ids": [], "mode": "rail", "operator_id": "東海旅客鉄道", "line_color": "#F28E1C", "tags": ["tokyo", "track_centerline"]}}, {"type": "Feature", "bbox": [136.948415, 35.053952, 136.949005, 35.054962], "geometry": {"type": "LineString", "coordinates": [[136.949005, 35.053952], [136.94874, 35.05443], [136.948415, 35.054962]]}, "properties": {"id": "TRACK_TOKYO_4083", "line_name": "東海道線", "station_group_ids": [], "mode": "rail", "operator_id": "東海旅客鉄道", "line_color": "#F28E1C", "tags": ["tokyo", "track_centerline"]}}, {"type": "Feature", "bbox": [137.15739, 34.888989, 137.160193, 34.9239], "geometry": {"type": "LineString", "coordinates": [[137.15739, 34.9239], [137.15749, 34.92287], [137.15759, 34.92163], [137.1576, 34.92154], [137.15768, 34.92066], [137.15772, 34.92031], [137.15774, 34.91993], [137.1579, 34.91807], [137.15809, 34.9155], [137.15819, 34.91423], [137.1582, 34.91401], [137.15823, 34.91364], [137.15825, 34.91345], [137.15832, 34.91266], [137.15858, 34.90928], [137.15879, 34.90662], [137.15891, 34.90483], [137.15896, 34.90417], [137.15922, 34.90097], [137.1594, 34.89863], [137.15959, 34.89645], [137.15964, 34.89584], [137.15977, 34.89409], [137.15978, 34.89393], [137.15987, 34.89288], [137.15993, 34.89223], [137.15994, 34.89202], [137.15997, 34.89162], [137.16017, 34.88923], [137.160193, 34.888989]]}, "properties": {"id": "TRACK_TOKYO_4139", "line_name": "東海道線", "station_group_ids": [], "mode": "rail", "operator_id": "東海旅客鉄道", "line_color": "#F28E1C", "tags": ["tokyo", "track_centerline"]}}, {"type": "Feature", "bbox": [137.160193, 34.887096, 137.160349, 34.888989], "geometry": {"type": "LineString", "coordinates": [[137.160193, 34.888989], [137.160349, 34.887096]]}, "properties": {"id": "TRACK_TOKYO_4140", "line_name": "東海道線", "station_group_ids": [], "mode": "rail", "operator_id": "東海旅客鉄道", "line_color": "#F28E1C", "tags": ["tokyo", "track_centerline"]}}, {"type": "Feature", "bbox": [137.160349, 34.8608, 137.16411, 34.887096], "geometry": {"type": "LineString", "coordinates": [[137.160349, 34.887096], [137.16038, 34.88669], [137.16043, 34.88608], [137.16046, 34.88577], [137.16051, 34.88513], [137.16069, 34.88299], [137.16088, 34.88094], [137.16102, 34.87911], [137.16114, 34.87797], [137.16118, 34.87757], [137.16122, 34.87707], [137.16141, 34.87529], [137.16152, 34.87421], [137.16157, 34.87376], [137.16169, 34.87241], [137.1618, 34.87093], [137.16185, 34.87047], [137.16196, 34.86911], [137.16206, 34.86869], [137.16245, 34.86701], [137.16289, 34.86528], [137.16292, 34.86517], [137.16296, 34.86502], [137.16337, 34.8634], [137.16376, 34.86199], [137.16411, 34.8608]]}, "properties": {"id": "TRACK_TOKYO_4141", "line_name": "東海道線", "station_group_ids": [], "mode": "rail", "operator_id": "東海旅客鉄道", "line_color": "#F28E1C", "tags": ["tokyo", "track_centerline"]}}]}