{"type": "FeatureCollection", "features": [{"type": "Feature", "bbox": [138.63319, 36.34255, 138.63677, 36.34264], "geometry": {"type": "LineString", "coordinates": [[138.63677, 36.34255], [138.63567, 36.34258], [138.63404, 36.34262], [138.63319, 36.34264]]}, "properties": {"id": "GEOM_TOKYO_3455", "route_id": "R_F3B5B6DF", "route_name": null, "route_color": "#2C62C9", "route_text_color": null, "line_name": "北陸新幹線", "operator_id": "jr_east", "representation": "service_path", "min_zoom": 0, "max_zoom": 24, "offset_rank": 0}}, {"type": "Feature", "bbox": [138.63677, 36.34245, 138.84756, 36.39825], "geometry": {"type": "LineString", "coordinates": [[138.84756, 36.36247], [138.84691, 36.36247], [138.84565, 36.36251], [138.84453, 36.3626], [138.84346, 36.36268], [138.84291, 36.36274], [138.84226, 36.36281], [138.84192, 36.36285], [138.84005, 36.36311], [138.83914, 36.36326], [138.83868, 36.36334], [138.83798, 36.36349], [138.83721, 36.36365], [138.83673, 36.36378], [138.83608, 36.36395], [138.8356, 36.36407], [138.8345, 36.36442], [138.83367, 36.36468], [138.83267, 36.36502], [138.83169, 36.36541], [138.83111, 36.36565], [138.83006, 36.36612], [138.82963, 36.36632], [138.82925, 36.3665], [138.82866, 36.36679], [138.82865, 36.3668], [138.82786, 36.36721], [138.82692, 36.36773], [138.82642, 36.36803], [138.82595, 36.36833], [138.82551, 36.3686], [138.82513, 36.36886], [138.82467, 36.36917], [138.82424, 36.36947], [138.82395, 36.36969], [138.82344, 36.37007], [138.82309, 36.37036], [138.82274, 36.37064], [138.82232, 36.371], [138.82184, 36.37141], [138.82116, 36.37202], [138.82051, 36.37264], [138.82039, 36.37275], [138.82015, 36.37299], [138.81943, 36.3737], [138.81837, 36.37478], [138.81799, 36.37515], [138.81733, 36.37582], [138.81684, 36.37632], [138.81645, 36.37673], [138.81519, 36.37799], [138.81484, 36.37835], [138.81415, 36.37904], [138.81343, 36.37977], [138.8133, 36.3799], [138.8125, 36.38067], [138.81158, 36.38151], [138.81078, 36.3822], [138.81008, 36.38279], [138.80942, 36.38334], [138.80885, 36.38379], [138.80882, 36.3838], [138.80838, 36.38413], [138.80779, 36.38456], [138.80707, 36.38506], [138.80654, 36.38541], [138.80596, 36.38578], [138.80591, 36.38582], [138.80548, 36.38608], [138.80505, 36.38635], [138.8045, 36.38668], [138.80374, 36.38711], [138.80239, 36.38783], [138.80205, 36.38802], [138.80137, 36.38835], [138.80093, 36.38856], [138.8, 36.38897], [138.799, 36.3894], [138.79798, 36.38982], [138.79739, 36.39005], [138.79641, 36.39042], [138.79637, 36.39043], [138.79525, 36.39082], [138.79439, 36.3911], [138.79358, 36.39134], [138.79289, 36.39154], [138.79225, 36.39171], [138.79086, 36.39206], [138.78981, 36.39229], [138.78879, 36.3925], [138.78769, 36.3927], [138.78707, 36.3928], [138.78649, 36.39289], [138.78582, 36.393], [138.78578, 36.393], [138.78428, 36.39318], [138.78327, 36.39329], [138.78208, 36.3934], [138.77911, 36.39365], [138.77782, 36.39377], [138.77623, 36.39389], [138.7752, 36.39398], [138.77481, 36.39401], [138.77406, 36.39407], [138.77291, 36.39416], [138.77232, 36.39421], [138.77132, 36.39431], [138.77071, 36.39435], [138.76928, 36.39448], [138.76719, 36.39467], [138.76586, 36.39479], [138.76313, 36.39503], [138.76194, 36.39514], [138.76016, 36.3953], [138.75898, 36.3954], [138.75699, 36.39558], [138.75625, 36.39565], [138.75618, 36.39566], [138.75522, 36.39574], [138.75466, 36.39579], [138.75369, 36.39588], [138.75149, 36.39607], [138.74972, 36.39623], [138.74923, 36.39627], [138.74871, 36.39631], [138.74816, 36.39636], [138.74684, 36.39647], [138.74533, 36.3966], [138.74293, 36.3968], [138.74146, 36.39693], [138.73976, 36.39708], [138.73697, 36.39733], [138.73472, 36.39755], [138.7324, 36.39775], [138.73044, 36.39792], [138.73036, 36.39793], [138.72858, 36.39806], [138.72803, 36.3981], [138.72634, 36.3982], [138.72521, 36.39825], [138.72463, 36.39824], [138.72295, 36.39823], [138.72132, 36.39819], [138.7202, 36.39814], [138.71938, 36.39806], [138.7191, 36.39804], [138.71791, 36.39791], [138.7169, 36.39779], [138.71582, 36.39764], [138.71471, 36.39746], [138.71357, 36.39726], [138.71267, 36.39707], [138.71216, 36.39695], [138.71151, 36.39679], [138.71057, 36.39657], [138.71, 36.39643], [138.70861, 36.39603], [138.70847, 36.39599], [138.70746, 36.39566], [138.70594, 36.39512], [138.70444, 36.39457], [138.70244, 36.39371], [138.70144, 36.39328], [138.70013, 36.39272], [138.69922, 36.39233], [138.69865, 36.39209], [138.69845, 36.392], [138.69767, 36.39167], [138.69719, 36.39145], [138.69604, 36.39097], [138.69475, 36.39042], [138.69368, 36.38996], [138.69267, 36.38954], [138.69188, 36.38921], [138.69077, 36.38875], [138.68961, 36.38828], [138.68881, 36.38794], [138.68742, 36.38738], [138.68669, 36.38707], [138.68574, 36.38669], [138.68464, 36.38625], [138.68389, 36.38594], [138.68315, 36.38561], [138.68212, 36.38516], [138.6816, 36.38492], [138.68101, 36.38464], [138.6804, 36.38435], [138.67966, 36.38397], [138.67892, 36.38356], [138.67874, 36.38346], [138.67828, 36.38319], [138.67781, 36.38289], [138.67708, 36.38243], [138.67652, 36.38205], [138.67609, 36.38176], [138.67566, 36.38145], [138.67513, 36.38107], [138.67433, 36.38044], [138.67373, 36.37994], [138.67325, 36.37952], [138.67288, 36.37919], [138.67251, 36.37884], [138.67216, 36.3785], [138.67181, 36.37814], [138.67146, 36.37776], [138.67103, 36.37728], [138.67051, 36.3767], [138.6702, 36.37633], [138.66989, 36.37595], [138.66959, 36.37557], [138.66907, 36.37479], [138.66854, 36.374], [138.66801, 36.37317], [138.66753, 36.37242], [138.66694, 36.37149], [138.66628, 36.37043], [138.66604, 36.37005], [138.66565, 36.36942], [138.66555, 36.36926], [138.66478, 36.36803], [138.66408, 36.3669], [138.66327, 36.36561], [138.6625, 36.36439], [138.66144, 36.36266], [138.66067, 36.36136], [138.66047, 36.36102], [138.65975, 36.35984], [138.65901, 36.35864], [138.65826, 36.35744], [138.6577, 36.35653], [138.65704, 36.35545], [138.65644, 36.3545], [138.65597, 36.35373], [138.6557, 36.3533], [138.65556, 36.35307], [138.65508, 36.35227], [138.65457, 36.35144], [138.65382, 36.35022], [138.65332, 36.3494], [138.65308, 36.349], [138.65283, 36.3486], [138.65227, 36.3478], [138.65161, 36.34697], [138.65113, 36.34642], [138.65053, 36.34586], [138.65016, 36.34554], [138.64987, 36.3453], [138.64942, 36.34495], [138.64892, 36.3446], [138.64871, 36.34443], [138.64821, 36.34412], [138.64802, 36.34401], [138.6479, 36.34395], [138.64773, 36.34386], [138.64757, 36.34377], [138.64756, 36.34377], [138.64736, 36.34368], [138.64697, 36.34351], [138.64657, 36.34336], [138.6458, 36.34311], [138.64551, 36.34302], [138.64509, 36.3429], [138.64474, 36.3428], [138.6443, 36.3427], [138.64378, 36.34259], [138.64337, 36.34253], [138.64313, 36.3425], [138.64244, 36.34246], [138.64122, 36.34245], [138.64023, 36.34249], [138.63784, 36.34254], [138.6371, 36.34255], [138.63677, 36.34255]]}, "properties": {"id": "GEOM_TOKYO_3457", "route_id": "R_F3B5B6DF", "route_name": null, "route_color": "#2C62C9", "route_text_color": null, "line_name": "北陸新幹線", "operator_id": "jr_east", "representation": "service_path", "min_zoom": 0, "max_zoom": 24, "offset_rank": 0}}, {"type": "Feature", "bbox": [138.46347, 36.27763, 138.46582, 36.27867], "geometry": {"type": "LineString", "coordinates": [[138.46582, 36.27867], [138.46499, 36.2783], [138.46347, 36.27763]]}, "properties": {"id": "GEOM_TOKYO_3459", "route_id": "R_F3B5B6DF", "route_name": null, "route_color": "#2C62C9", "route_text_color": null, "line_name": "北陸新幹線", "operator_id": "jr_east", "representation": "service_path", "min_zoom": 0, "max_zoom": 24, "offset_rank": 0}}, {"type": "Feature", "bbox": [138.25133, 36.27169, 138.46347, 36.39518], "geometry": {"type": "LineString", "coordinates": [[138.46347, 36.27763], [138.46265, 36.27725], [138.46253, 36.2772], [138.46188, 36.27691], [138.46153, 36.27675], [138.46025, 36.2762], [138.45872, 36.27553], [138.45859, 36.27548], [138.45681, 36.27476], [138.45554, 36.27428], [138.45421, 36.27383], [138.45308, 36.27349], [138.45148, 36.27308], [138.45032, 36.2728], [138.44882, 36.2725], [138.44821, 36.2724], [138.44697, 36.27219], [138.44589, 36.27204], [138.44444, 36.27187], [138.44359, 36.2718], [138.44285, 36.27174], [138.44222, 36.27171], [138.44165, 36.2717], [138.4406, 36.27169], [138.43888, 36.27172], [138.4372, 36.27178], [138.43718, 36.27178], [138.43632, 36.27181], [138.43617, 36.27183], [138.43558, 36.27188], [138.43488, 36.27196], [138.43384, 36.27208], [138.43371, 36.2721], [138.43314, 36.27218], [138.43301, 36.2722], [138.43224, 36.27233], [138.43086, 36.27259], [138.43031, 36.27271], [138.43013, 36.27275], [138.42969, 36.27285], [138.42774, 36.27335], [138.4267, 36.27364], [138.42503, 36.27416], [138.42418, 36.27445], [138.4233, 36.27478], [138.42254, 36.27509], [138.42126, 36.27565], [138.41996, 36.27626], [138.41941, 36.27652], [138.41885, 36.27682], [138.41779, 36.27738], [138.41686, 36.27791], [138.41673, 36.27799], [138.41524, 36.27887], [138.4131, 36.28015], [138.4113, 36.28125], [138.40953, 36.28234], [138.40798, 36.2833], [138.40747, 36.28361], [138.40638, 36.28428], [138.40593, 36.28454], [138.40415, 36.28564], [138.40355, 36.28601], [138.40234, 36.28674], [138.40055, 36.28783], [138.39922, 36.28866], [138.3969, 36.29006], [138.39511, 36.29116], [138.39469, 36.29142], [138.3933, 36.29227], [138.39152, 36.29335], [138.38583, 36.29684], [138.38568, 36.29693], [138.38515, 36.29725], [138.38392, 36.29801], [138.38212, 36.2991], [138.38122, 36.29965], [138.38074, 36.29994], [138.38032, 36.3002], [138.37897, 36.30102], [138.3775, 36.30192], [138.37676, 36.30237], [138.3754, 36.3032], [138.37361, 36.3043], [138.37187, 36.30535], [138.37154, 36.30555], [138.37107, 36.30581], [138.37074, 36.306], [138.37019, 36.30631], [138.36921, 36.30688], [138.36792, 36.30766], [138.36699, 36.30823], [138.36607, 36.30878], [138.36481, 36.30955], [138.36395, 36.31008], [138.36304, 36.31062], [138.36183, 36.31136], [138.36173, 36.31142], [138.36084, 36.31198], [138.35994, 36.31252], [138.35906, 36.31305], [138.35817, 36.3136], [138.35729, 36.31413], [138.3564, 36.31469], [138.35551, 36.31522], [138.35417, 36.31604], [138.35297, 36.31677], [138.35238, 36.31713], [138.35107, 36.31792], [138.35019, 36.31845], [138.34886, 36.31925], [138.3471, 36.32029], [138.34524, 36.32137], [138.344, 36.32207], [138.34161, 36.32339], [138.34031, 36.32412], [138.33891, 36.32491], [138.33845, 36.32516], [138.33661, 36.32619], [138.33526, 36.32694], [138.33433, 36.32746], [138.33389, 36.3277], [138.33341, 36.32798], [138.3325, 36.32848], [138.33248, 36.32849], [138.33169, 36.32893], [138.32976, 36.33], [138.32839, 36.33078], [138.32755, 36.33125], [138.32607, 36.33207], [138.32379, 36.33334], [138.32334, 36.33359], [138.3224, 36.33411], [138.32102, 36.33487], [138.32054, 36.33513], [138.3192, 36.33587], [138.31909, 36.33593], [138.31848, 36.33626], [138.31811, 36.33646], [138.31715, 36.33698], [138.31642, 36.33739], [138.31588, 36.33769], [138.31486, 36.33827], [138.31348, 36.33903], [138.31293, 36.33934], [138.31114, 36.34032], [138.30977, 36.34109], [138.30886, 36.34159], [138.30749, 36.34236], [138.30727, 36.34248], [138.30606, 36.34315], [138.30474, 36.34389], [138.30347, 36.34458], [138.30247, 36.34515], [138.302, 36.3454], [138.30044, 36.34628], [138.29917, 36.34699], [138.29813, 36.34758], [138.29776, 36.34778], [138.29677, 36.34833], [138.29592, 36.3488], [138.29497, 36.34931], [138.29258, 36.3506], [138.29021, 36.35193], [138.28913, 36.35253], [138.28897, 36.35265], [138.2889, 36.35269], [138.28832, 36.35305], [138.28699, 36.35387], [138.28586, 36.35458], [138.28442, 36.35549], [138.28326, 36.35623], [138.28288, 36.35649], [138.28281, 36.35654], [138.28172, 36.35724], [138.28077, 36.35793], [138.28022, 36.35838], [138.27947, 36.35903], [138.27842, 36.36005], [138.27774, 36.36074], [138.27707, 36.36145], [138.27676, 36.36181], [138.27613, 36.36253], [138.27553, 36.36326], [138.27495, 36.36401], [138.27468, 36.36439], [138.27413, 36.36516], [138.27384, 36.36563], [138.27336, 36.36645], [138.27126, 36.3702], [138.27082, 36.37105], [138.27066, 36.37136], [138.27018, 36.37232], [138.26979, 36.37318], [138.26944, 36.374], [138.26939, 36.37414], [138.26927, 36.37439], [138.26915, 36.37467], [138.26891, 36.3752], [138.26889, 36.37524], [138.26853, 36.37605], [138.26819, 36.37676], [138.26787, 36.37743], [138.26767, 36.37783], [138.26738, 36.37838], [138.26712, 36.37886], [138.26688, 36.37929], [138.26662, 36.37974], [138.26642, 36.38009], [138.26629, 36.38034], [138.26618, 36.38053], [138.26601, 36.38079], [138.26574, 36.38121], [138.26548, 36.38159], [138.26531, 36.38184], [138.26494, 36.38231], [138.2646, 36.3827], [138.26426, 36.3831], [138.26393, 36.38346], [138.26345, 36.38397], [138.26322, 36.38422], [138.2628, 36.38461], [138.2624, 36.38502], [138.26201, 36.38541], [138.26163, 36.38575], [138.26085, 36.38649], [138.26017, 36.38711], [138.25963, 36.38763], [138.25918, 36.38808], [138.25907, 36.38819], [138.25902, 36.38824], [138.25863, 36.38863], [138.25804, 36.38921], [138.25744, 36.38978], [138.25708, 36.39012], [138.25672, 36.39047], [138.25594, 36.39119], [138.25525, 36.39183], [138.25463, 36.39235], [138.25423, 36.39269], [138.2532, 36.39357], [138.25244, 36.39424], [138.25162, 36.39494], [138.25133, 36.39518]]}, "properties": {"id": "GEOM_TOKYO_3460", "route_id": "R_F3B5B6DF", "route_name": null, "route_color": "#2C62C9", "route_text_color": null, "line_name": "北陸新幹線", "operator_id": "jr_east", "representation": "service_path", "min_zoom": 0, "max_zoom": 24, "offset_rank": 0}}, {"type": "Feature", "bbox": [138.46582, 36.27867, 138.63319, 36.34327], "geometry": {"type": "LineString", "coordinates": [[138.46582, 36.27867], [138.46589, 36.2787], [138.46596, 36.27873], [138.46664, 36.27903], [138.46812, 36.27969], [138.46914, 36.28012], [138.47163, 36.2812], [138.47302, 36.28185], [138.47398, 36.28229], [138.47537, 36.28291], [138.47634, 36.28335], [138.47705, 36.28371], [138.47778, 36.28411], [138.47811, 36.28429], [138.47877, 36.28466], [138.47971, 36.2852], [138.48078, 36.28585], [138.48214, 36.28667], [138.48268, 36.28701], [138.48328, 36.28743], [138.48421, 36.28808], [138.48496, 36.28859], [138.48622, 36.28943], [138.48653, 36.28963], [138.48748, 36.29027], [138.48833, 36.29084], [138.48959, 36.29168], [138.49085, 36.29254], [138.4921, 36.2934], [138.49272, 36.29381], [138.49403, 36.29468], [138.49521, 36.29546], [138.49576, 36.29583], [138.49686, 36.29656], [138.49731, 36.29686], [138.49816, 36.29741], [138.50017, 36.29874], [138.50149, 36.29961], [138.50262, 36.30035], [138.50414, 36.30133], [138.5043, 36.30143], [138.50516, 36.30198], [138.50563, 36.30227], [138.50701, 36.3031], [138.50731, 36.30328], [138.50805, 36.30373], [138.50813, 36.30377], [138.50954, 36.30452], [138.51055, 36.30502], [138.51146, 36.30548], [138.51267, 36.30606], [138.51308, 36.30626], [138.51387, 36.3066], [138.51443, 36.30683], [138.51528, 36.30718], [138.516, 36.30745], [138.51771, 36.30808], [138.52041, 36.30908], [138.52109, 36.30934], [138.52141, 36.30946], [138.52302, 36.31006], [138.52689, 36.3115], [138.5274, 36.31171], [138.52774, 36.31186], [138.52881, 36.31232], [138.52958, 36.31267], [138.53083, 36.31323], [138.53168, 36.31366], [138.53279, 36.3142], [138.53358, 36.31462], [138.53451, 36.31514], [138.536, 36.31599], [138.53639, 36.31622], [138.53691, 36.31655], [138.53759, 36.31697], [138.539, 36.31787], [138.53912, 36.31794], [138.53952, 36.3182], [138.54017, 36.31863], [138.54085, 36.3191], [138.54163, 36.31963], [138.54241, 36.3202], [138.54317, 36.32076], [138.54374, 36.32121], [138.54437, 36.32171], [138.54493, 36.3222], [138.54556, 36.32274], [138.54621, 36.32334], [138.54677, 36.32388], [138.5471, 36.32417], [138.54848, 36.32539], [138.54961, 36.32637], [138.54968, 36.32643], [138.55005, 36.32674], [138.55025, 36.32691], [138.55046, 36.32709], [138.55178, 36.3282], [138.5522, 36.32854], [138.55283, 36.32907], [138.55322, 36.32935], [138.55373, 36.32973], [138.55528, 36.33088], [138.55596, 36.33135], [138.5568, 36.33188], [138.55788, 36.33253], [138.55893, 36.33314], [138.55996, 36.33371], [138.5605, 36.33399], [138.56139, 36.33442], [138.56235, 36.33487], [138.56325, 36.33527], [138.56426, 36.33568], [138.56531, 36.33605], [138.56652, 36.33647], [138.56776, 36.33686], [138.5689, 36.33723], [138.56987, 36.3375], [138.57098, 36.33777], [138.57137, 36.33787], [138.57252, 36.33814], [138.57373, 36.33841], [138.57537, 36.3387], [138.57734, 36.33901], [138.58011, 36.33945], [138.58179, 36.33973], [138.58288, 36.33992], [138.58377, 36.34007], [138.58485, 36.34024], [138.58856, 36.3408], [138.59141, 36.34123], [138.5916, 36.34125], [138.59946, 36.34244], [138.59976, 36.34248], [138.60051, 36.3426], [138.60281, 36.34292], [138.60372, 36.34304], [138.60487, 36.34317], [138.60579, 36.34324], [138.60636, 36.34326], [138.60777, 36.34327], [138.60993, 36.34325], [138.61077, 36.34324], [138.61109, 36.34323], [138.61467, 36.34315], [138.61936, 36.34306], [138.62185, 36.343], [138.62189, 36.343], [138.62277, 36.34301], [138.62378, 36.34299], [138.6255, 36.34294], [138.6265, 36.34291], [138.62715, 36.34289], [138.62964, 36.34288], [138.63019, 36.34285], [138.63051, 36.34283], [138.63276, 36.34266], [138.63319, 36.34264]]}, "properties": {"id": "GEOM_TOKYO_3461", "route_id": "R_F3B5B6DF", "route_name": null, "route_color": "#2C62C9", "route_text_color": null, "line_name": "北陸新幹線", "operator_id": "jr_east", "representation": "service_path", "min_zoom": 0, "max_zoom": 24, "offset_rank": 0}}]}