{"type": "FeatureCollection", "features": [{"type": "Feature", "bbox": [132.49261, 34.3427, 132.75783, 34.39321], "geometry": {"type": "LineString", "coordinates": [[132.75783, 34.38816], [132.75676, 34.38748], [132.75606, 34.38704], [132.75435, 34.38598], [132.75388, 34.38568], [132.75337, 34.38535], [132.75247, 34.38475], [132.75126, 34.38396], [132.74995, 34.38309], [132.74915, 34.38255], [132.74898, 34.38245], [132.74854, 34.38213], [132.74818, 34.38188], [132.74776, 34.38159], [132.74746, 34.38137], [132.74652, 34.38062], [132.74435, 34.37891], [132.74339, 34.37815], [132.74177, 34.37693], [132.74127, 34.37655], [132.7405, 34.37591], [132.73884, 34.37453], [132.73839, 34.37416], [132.73816, 34.37398], [132.73701, 34.37306], [132.73682, 34.37291], [132.73609, 34.37232], [132.73484, 34.37134], [132.73423, 34.37086], [132.73178, 34.3689], [132.73048, 34.36784], [132.72947, 34.36703], [132.72876, 34.36648], [132.72829, 34.36613], [132.72618, 34.36467], [132.72613, 34.36464], [132.72469, 34.3637], [132.72395, 34.36326], [132.72323, 34.36282], [132.72278, 34.36257], [132.72267, 34.36251], [132.71934, 34.36071], [132.71838, 34.3602], [132.71725, 34.35957], [132.71718, 34.35953], [132.71658, 34.3592], [132.71624, 34.35901], [132.71517, 34.35842], [132.71457, 34.35809], [132.71423, 34.3579], [132.71415, 34.35786], [132.71397, 34.35776], [132.71296, 34.35721], [132.711, 34.35618], [132.70988, 34.35559], [132.7084, 34.3548], [132.70808, 34.35463], [132.70673, 34.35388], [132.70634, 34.35368], [132.70576, 34.35334], [132.705, 34.3529], [132.70382, 34.35226], [132.70372, 34.3522], [132.70324, 34.35194], [132.70264, 34.35162], [132.70104, 34.35082], [132.70024, 34.35044], [132.6997, 34.3502], [132.69908, 34.34993], [132.69888, 34.34984], [132.69884, 34.34983], [132.69827, 34.34959], [132.69804, 34.34949], [132.69751, 34.34927], [132.69746, 34.34926], [132.69628, 34.34879], [132.69549, 34.3485], [132.69518, 34.34839], [132.69436, 34.3481], [132.69332, 34.34775], [132.69252, 34.34751], [132.6923, 34.34744], [132.69201, 34.34735], [132.69145, 34.34719], [132.69069, 34.34699], [132.69012, 34.34685], [132.68988, 34.34679], [132.68984, 34.34678], [132.6892, 34.34663], [132.68909, 34.34661], [132.68802, 34.34644], [132.68715, 34.3463], [132.6827, 34.34559], [132.67966, 34.34519], [132.67898, 34.34512], [132.67822, 34.34505], [132.67621, 34.34488], [132.6725, 34.34458], [132.66518, 34.34404], [132.66131, 34.34376], [132.6581, 34.34351], [132.65607, 34.34337], [132.65414, 34.34322], [132.64896, 34.34281], [132.64838, 34.34277], [132.64731, 34.34273], [132.64573, 34.3427], [132.64514, 34.34271], [132.64366, 34.34277], [132.64309, 34.34279], [132.64301, 34.34279], [132.6421, 34.34287], [132.64099, 34.34297], [132.63984, 34.34311], [132.63867, 34.34324], [132.63791, 34.34336], [132.63633, 34.34361], [132.63471, 34.34386], [132.63404, 34.34401], [132.63352, 34.34412], [132.63286, 34.34431], [132.63223, 34.34447], [132.63198, 34.34454], [132.63136, 34.34472], [132.63054, 34.34497], [132.62879, 34.34557], [132.62736, 34.34613], [132.62708, 34.34626], [132.62612, 34.34669], [132.62519, 34.34714], [132.62435, 34.34757], [132.62369, 34.34794], [132.62337, 34.34812], [132.62295, 34.34838], [132.62247, 34.34866], [132.62195, 34.34899], [132.6212, 34.34948], [132.62033, 34.34999], [132.61993, 34.35022], [132.61914, 34.35066], [132.61841, 34.35106], [132.61793, 34.35134], [132.61745, 34.35161], [132.61603, 34.3524], [132.61511, 34.35291], [132.61471, 34.35313], [132.61332, 34.35391], [132.61193, 34.35467], [132.61042, 34.35549], [132.60953, 34.35598], [132.6086, 34.35651], [132.60819, 34.35674], [132.60655, 34.35768], [132.60614, 34.35791], [132.60597, 34.35801], [132.60569, 34.35816], [132.60516, 34.35846], [132.60386, 34.35918], [132.60243, 34.35996], [132.60144, 34.36056], [132.60122, 34.36066], [132.60041, 34.36104], [132.59857, 34.36203], [132.5978, 34.36245], [132.5969, 34.36295], [132.59676, 34.36303], [132.59643, 34.36323], [132.5955, 34.36375], [132.59417, 34.36452], [132.59327, 34.36503], [132.59198, 34.36576], [132.59107, 34.36627], [132.59011, 34.36682], [132.58948, 34.36719], [132.58922, 34.36731], [132.5887, 34.36762], [132.58769, 34.3682], [132.58737, 34.36837], [132.58564, 34.36931], [132.58467, 34.36983], [132.58279, 34.37088], [132.58189, 34.37139], [132.58045, 34.3722], [132.5798, 34.37257], [132.57944, 34.37275], [132.57859, 34.37321], [132.57852, 34.37326], [132.57797, 34.37359], [132.5773, 34.37396], [132.57712, 34.37405], [132.57604, 34.37466], [132.57527, 34.3751], [132.57346, 34.37607], [132.57162, 34.37704], [132.57013, 34.37782], [132.56855, 34.37862], [132.56709, 34.3794], [132.56674, 34.37957], [132.56591, 34.37996], [132.56466, 34.38056], [132.56353, 34.38104], [132.56239, 34.38143], [132.56141, 34.38172], [132.56134, 34.38174], [132.56033, 34.38198], [132.5601, 34.38204], [132.55976, 34.38211], [132.55966, 34.38213], [132.5588, 34.38231], [132.55826, 34.38242], [132.55819, 34.38243], [132.55713, 34.38262], [132.55643, 34.38272], [132.55631, 34.38275], [132.55577, 34.38282], [132.55548, 34.38286], [132.55546, 34.38287], [132.55502, 34.38292], [132.55477, 34.38296], [132.55457, 34.38298], [132.55396, 34.38305], [132.55388, 34.38306], [132.55348, 34.38311], [132.55337, 34.38312], [132.55259, 34.38318], [132.55136, 34.38328], [132.55079, 34.38332], [132.55023, 34.38336], [132.54909, 34.38345], [132.54782, 34.38354], [132.54655, 34.38365], [132.54567, 34.3837], [132.544, 34.38384], [132.54334, 34.38389], [132.54269, 34.38394], [132.54192, 34.384], [132.54063, 34.38407], [132.53934, 34.38415], [132.53812, 34.38423], [132.53661, 34.38432], [132.53454, 34.38444], [132.53396, 34.38448], [132.53266, 34.38455], [132.53128, 34.38462], [132.5301, 34.38469], [132.52872, 34.38477], [132.52804, 34.38481], [132.52743, 34.38486], [132.5267, 34.3849], [132.52541, 34.38499], [132.52415, 34.38506], [132.52348, 34.38512], [132.52291, 34.38516], [132.52273, 34.38518], [132.52111, 34.38537], [132.52001, 34.38553], [132.51927, 34.38566], [132.51894, 34.38571], [132.51818, 34.38585], [132.51749, 34.38599], [132.51515, 34.38657], [132.5147, 34.38667], [132.51455, 34.3867], [132.51441, 34.38674], [132.51401, 34.38683], [132.51278, 34.38713], [132.51244, 34.38721], [132.51181, 34.38737], [132.51173, 34.38738], [132.51136, 34.38748], [132.51052, 34.38769], [132.51042, 34.38771], [132.50901, 34.38808], [132.50751, 34.38846], [132.50618, 34.38882], [132.50527, 34.38908], [132.50506, 34.38915], [132.50487, 34.38921], [132.50466, 34.38928], [132.50459, 34.3893], [132.50416, 34.38945], [132.50363, 34.38963], [132.50239, 34.39007], [132.50112, 34.39053], [132.50108, 34.39054], [132.50051, 34.39075], [132.50029, 34.39083], [132.49894, 34.3913], [132.49845, 34.39147], [132.49748, 34.39179], [132.49689, 34.39198], [132.49647, 34.39211], [132.49509, 34.39259], [132.49478, 34.39269], [132.49457, 34.39275], [132.4944, 34.39281], [132.49389, 34.39297], [132.49368, 34.39303], [132.49333, 34.39311], [132.49302, 34.39316], [132.4928, 34.3932], [132.49261, 34.39321]]}, "properties": {"id": "TRACK_TOKYO_0690", "line_name": "山陽新幹線", "station_group_ids": [], "mode": "shinkansen", "operator_id": "jr_west", "line_color": "#1263D6", "tags": ["tokyo", "track_centerline"]}}]}