{"type": "FeatureCollection", "features": [{"type": "Feature", "bbox": [138.91156, 35.09914, 139.0763, 35.12822], "geometry": {"type": "LineString", "coordinates": [[139.0763, 35.10305], [139.07605, 35.10288], [139.07573, 35.10267], [139.07495, 35.10221], [139.07477, 35.10211], [139.07377, 35.10154], [139.07293, 35.10112], [139.07243, 35.10087], [139.07197, 35.10062], [139.07099, 35.1002], [139.07048, 35.10003], [139.06935, 35.09973], [139.06904, 35.09968], [139.06896, 35.09964], [139.0686, 35.09958], [139.06803, 35.09946], [139.06767, 35.09938], [139.06728, 35.09932], [139.06656, 35.09923], [139.06589, 35.09917], [139.06555, 35.09915], [139.06478, 35.09914], [139.06421, 35.09914], [139.06367, 35.09916], [139.0633, 35.09918], [139.06308, 35.09921], [139.06207, 35.09931], [139.06121, 35.09941], [139.06018, 35.09952], [139.05903, 35.09965], [139.05743, 35.09982], [139.05645, 35.09994], [139.05478, 35.10012], [139.05367, 35.10025], [139.0521, 35.10042], [139.05197, 35.10044], [139.05092, 35.10054], [139.05035, 35.1006], [139.04932, 35.10072], [139.04869, 35.10078], [139.04723, 35.10094], [139.04509, 35.10117], [139.0429, 35.10143], [139.04111, 35.10162], [139.04061, 35.10168], [139.03919, 35.10183], [139.03808, 35.10197], [139.03551, 35.10224], [139.03544, 35.10224], [139.03466, 35.10232], [139.0335, 35.10246], [139.03251, 35.10257], [139.03094, 35.10274], [139.02916, 35.10292], [139.02656, 35.10322], [139.02552, 35.10334], [139.02453, 35.10345], [139.02447, 35.10346], [139.02264, 35.10366], [139.02166, 35.10378], [139.02006, 35.10395], [139.01902, 35.10406], [139.01814, 35.10416], [139.01693, 35.10429], [139.01544, 35.10444], [139.01411, 35.1046], [139.01355, 35.10466], [139.01249, 35.10478], [139.01195, 35.10484], [139.01078, 35.10498], [139.0092, 35.10515], [139.00754, 35.10532], [139.00593, 35.10549], [139.00431, 35.10567], [139.00308, 35.10581], [139.00257, 35.10586], [139.00108, 35.10601], [139.00046, 35.10608], [138.99949, 35.1062], [138.99786, 35.1064], [138.99721, 35.10647], [138.99685, 35.1065], [138.99471, 35.10676], [138.99362, 35.10689], [138.99296, 35.10694], [138.99194, 35.10705], [138.99134, 35.10712], [138.99076, 35.10718], [138.9898, 35.10729], [138.98857, 35.10742], [138.98756, 35.10752], [138.9864, 35.10764], [138.9843, 35.10788], [138.98368, 35.10795], [138.98306, 35.10801], [138.98204, 35.10809], [138.98097, 35.10821], [138.97938, 35.10841], [138.97815, 35.10853], [138.97719, 35.10862], [138.97658, 35.10873], [138.97507, 35.10893], [138.97395, 35.10912], [138.97332, 35.10925], [138.97305, 35.1093], [138.9724, 35.10946], [138.9717, 35.10968], [138.97107, 35.10988], [138.96962, 35.11037], [138.96857, 35.11073], [138.96723, 35.11118], [138.96548, 35.11178], [138.96506, 35.11191], [138.96466, 35.11205], [138.96365, 35.11238], [138.96252, 35.11275], [138.96152, 35.11311], [138.96047, 35.11348], [138.95943, 35.11387], [138.95854, 35.11419], [138.95833, 35.11426], [138.9575, 35.11455], [138.95642, 35.11494], [138.95532, 35.11531], [138.95408, 35.11573], [138.95322, 35.11604], [138.95232, 35.11637], [138.95118, 35.11678], [138.95058, 35.117], [138.95009, 35.11721], [138.94972, 35.11738], [138.94923, 35.11764], [138.94808, 35.11824], [138.94572, 35.11951], [138.94384, 35.12054], [138.94267, 35.12115], [138.94222, 35.12139], [138.94011, 35.12256], [138.93833, 35.12352], [138.93641, 35.1245], [138.93591, 35.12478], [138.93498, 35.12533], [138.93443, 35.12557], [138.93378, 35.12585], [138.93342, 35.12599], [138.93258, 35.12628], [138.93174, 35.12655], [138.93156, 35.1266], [138.93018, 35.12701], [138.92911, 35.12727], [138.92805, 35.12751], [138.9267, 35.12776], [138.92618, 35.12784], [138.92571, 35.1279], [138.92461, 35.12804], [138.92377, 35.12812], [138.92331, 35.12816], [138.92246, 35.1282], [138.92203, 35.12822], [138.92113, 35.12822], [138.92018, 35.1282], [138.91936, 35.12815], [138.91832, 35.12804], [138.91718, 35.1279], [138.91669, 35.12785], [138.91622, 35.12778], [138.9148, 35.12755], [138.91463, 35.12752], [138.91446, 35.1275], [138.91367, 35.12736], [138.91156, 35.12702]]}, "properties": {"id": "GEOM_TOKYO_0969", "route_id": "R_3B2E9FFD", "route_name": null, "route_color": "#1F78FF", "route_text_color": null, "line_name": "東海道新幹線", "operator_id": "東海旅客鉄道", "representation": "service_path", "min_zoom": 0, "max_zoom": 24, "offset_rank": 0}}, {"type": "Feature", "bbox": [139.07952, 35.10548, 139.15371, 35.25501], "geometry": {"type": "LineString", "coordinates": [[139.15371, 35.25501], [139.15368, 35.25497], [139.15338, 35.25458], [139.15301, 35.25412], [139.15248, 35.25344], [139.15236, 35.25328], [139.15154, 35.25219], [139.15075, 35.25112], [139.15043, 35.25066], [139.15015, 35.25031], [139.14982, 35.24987], [139.14954, 35.24948], [139.14915, 35.24896], [139.14848, 35.24805], [139.14783, 35.24716], [139.14719, 35.24629], [139.14682, 35.24582], [139.14636, 35.24512], [139.14584, 35.24437], [139.14524, 35.2433], [139.14492, 35.24271], [139.14468, 35.24227], [139.14438, 35.24175], [139.14414, 35.24122], [139.144, 35.24093], [139.14367, 35.24009], [139.14356, 35.23978], [139.1432, 35.23901], [139.14277, 35.23773], [139.14237, 35.23667], [139.14221, 35.23616], [139.14185, 35.23523], [139.14173, 35.23489], [139.14145, 35.23412], [139.14105, 35.23299], [139.14073, 35.23208], [139.14028, 35.23084], [139.14003, 35.23007], [139.1397, 35.22897], [139.13945, 35.22814], [139.13922, 35.22721], [139.13907, 35.22659], [139.13897, 35.22617], [139.13891, 35.22575], [139.13885, 35.2253], [139.13874, 35.22449], [139.13872, 35.22419], [139.13859, 35.2234], [139.13836, 35.22171], [139.13819, 35.22046], [139.13801, 35.21928], [139.13785, 35.2181], [139.13771, 35.21701], [139.1376, 35.21627], [139.1375, 35.21545], [139.13744, 35.21516], [139.13729, 35.21411], [139.13722, 35.21338], [139.13717, 35.21292], [139.13714, 35.2126], [139.13706, 35.21194], [139.1369, 35.21063], [139.13684, 35.21012], [139.13678, 35.20954], [139.13668, 35.20869], [139.13659, 35.20794], [139.13647, 35.20702], [139.13638, 35.20618], [139.13619, 35.20495], [139.136, 35.20381], [139.13584, 35.20284], [139.1357, 35.20192], [139.13558, 35.20117], [139.13547, 35.20079], [139.13543, 35.2005], [139.13539, 35.20014], [139.13536, 35.1996], [139.13534, 35.19874], [139.13524, 35.19732], [139.13517, 35.19652], [139.13511, 35.19598], [139.13495, 35.19475], [139.13481, 35.19365], [139.13467, 35.19272], [139.13449, 35.19196], [139.13424, 35.19092], [139.13403, 35.19001], [139.13381, 35.1892], [139.13344, 35.18815], [139.13327, 35.18766], [139.13326, 35.18763], [139.13228, 35.18554], [139.13204, 35.18506], [139.132, 35.18495], [139.13195, 35.18484], [139.13173, 35.18448], [139.1314, 35.184], [139.13067, 35.18292], [139.12976, 35.18162], [139.12925, 35.18091], [139.12859, 35.17999], [139.12832, 35.17962], [139.12782, 35.17891], [139.12773, 35.17879], [139.12732, 35.17819], [139.1269, 35.17762], [139.12633, 35.17685], [139.12591, 35.17627], [139.12545, 35.17565], [139.12491, 35.175], [139.12438, 35.17434], [139.12381, 35.17367], [139.12335, 35.17315], [139.12277, 35.17245], [139.12241, 35.17201], [139.12184, 35.17132], [139.12147, 35.17092], [139.12124, 35.17067], [139.12061, 35.16996], [139.12051, 35.16986], [139.12029, 35.16963], [139.11994, 35.16924], [139.11965, 35.16892], [139.11897, 35.16821], [139.11857, 35.16777], [139.11794, 35.16715], [139.11765, 35.16679], [139.11735, 35.16647], [139.117, 35.16609], [139.11699, 35.16608], [139.11666, 35.16572], [139.11636, 35.16541], [139.11603, 35.16507], [139.11562, 35.16461], [139.11504, 35.16399], [139.11437, 35.16323], [139.11401, 35.16284], [139.11374, 35.16253], [139.11305, 35.16181], [139.11239, 35.16109], [139.11211, 35.16078], [139.11142, 35.16001], [139.11074, 35.15929], [139.11036, 35.15887], [139.11024, 35.15873], [139.10957, 35.15801], [139.10948, 35.15792], [139.10911, 35.15753], [139.10892, 35.15732], [139.10864, 35.15703], [139.10812, 35.15643], [139.10746, 35.15566], [139.10731, 35.15551], [139.10665, 35.1548], [139.10621, 35.15434], [139.10558, 35.15366], [139.10494, 35.15298], [139.10461, 35.15262], [139.1043, 35.15229], [139.10397, 35.15193], [139.10333, 35.15123], [139.10299, 35.15087], [139.10261, 35.15046], [139.10196, 35.14976], [139.10132, 35.14907], [139.10098, 35.1487], [139.10027, 35.14795], [139.09958, 35.14719], [139.09894, 35.14648], [139.09861, 35.14612], [139.09795, 35.14542], [139.09786, 35.14532], [139.09708, 35.14447], [139.09652, 35.14387], [139.09641, 35.14375], [139.09635, 35.14368], [139.09578, 35.14307], [139.09527, 35.14253], [139.09493, 35.14217], [139.09476, 35.14199], [139.0947, 35.14192], [139.09448, 35.14167], [139.09405, 35.14119], [139.094, 35.14112], [139.09369, 35.14072], [139.09355, 35.14054], [139.09324, 35.14012], [139.09315, 35.13992], [139.093, 35.13948], [139.09269, 35.13859], [139.09269, 35.13857], [139.09242, 35.13775], [139.09223, 35.13724], [139.09195, 35.13638], [139.09169, 35.13557], [139.09139, 35.13469], [139.0911, 35.1338], [139.09082, 35.13298], [139.09061, 35.13237], [139.09052, 35.13209], [139.09037, 35.13164], [139.09007, 35.13076], [139.08981, 35.12993], [139.08979, 35.12987], [139.08961, 35.12933], [139.08937, 35.12857], [139.08919, 35.12802], [139.08908, 35.12776], [139.08879, 35.1269], [139.08864, 35.12642], [139.08835, 35.12558], [139.08807, 35.12473], [139.08779, 35.12389], [139.08751, 35.12302], [139.08722, 35.12216], [139.08693, 35.12125], [139.0869, 35.12117], [139.08677, 35.12079], [139.08663, 35.12036], [139.08648, 35.11991], [139.08636, 35.11953], [139.08603, 35.11857], [139.08586, 35.11809], [139.08572, 35.11764], [139.08555, 35.11714], [139.08542, 35.11671], [139.08529, 35.11633], [139.085, 35.11548], [139.08469, 35.11453], [139.08449, 35.1139], [139.08412, 35.1129], [139.08398, 35.11247], [139.08385, 35.11208], [139.08378, 35.1119], [139.08371, 35.11168], [139.08359, 35.11134], [139.08341, 35.11086], [139.08307, 35.11015], [139.08288, 35.10981], [139.08254, 35.10926], [139.08217, 35.10873], [139.08148, 35.10775], [139.08112, 35.10727], [139.08085, 35.10697], [139.0804, 35.10646], [139.08012, 35.10617], [139.07997, 35.106], [139.07952, 35.10548]]}, "properties": {"id": "GEOM_TOKYO_0971", "route_id": "R_3B2E9FFD", "route_name": null, "route_color": "#1F78FF", "route_text_color": null, "line_name": "東海道新幹線", "operator_id": "東海旅客鉄道", "representation": "service_path", "min_zoom": 0, "max_zoom": 24, "offset_rank": 0}}, {"type": "Feature", "bbox": [139.0763, 35.10305, 139.07952, 35.10548], "geometry": {"type": "LineString", "coordinates": [[139.07952, 35.10548], [139.07899, 35.10499], [139.07786, 35.10413], [139.0763, 35.10305]]}, "properties": {"id": "GEOM_TOKYO_0972", "route_id": "R_3B2E9FFD", "route_name": null, "route_color": "#1F78FF", "route_text_color": null, "line_name": "東海道新幹線", "operator_id": "東海旅客鉄道", "representation": "service_path", "min_zoom": 0, "max_zoom": 24, "offset_rank": 0}}, {"type": "Feature", "bbox": [138.97256, 35.09873, 139.07621, 35.10872], "geometry": {"type": "LineString", "coordinates": [[139.07621, 35.10266], [139.07521, 35.10202], [139.07473, 35.10173], [139.07452, 35.10161], [139.0743, 35.10147], [139.07374, 35.10111], [139.07335, 35.1009], [139.07288, 35.10066], [139.07214, 35.10029], [139.07155, 35.10004], [139.07099, 35.09982], [139.07059, 35.09968], [139.07003, 35.09955], [139.06988, 35.0995], [139.06863, 35.09931], [139.06856, 35.0993], [139.06811, 35.09924], [139.06778, 35.0992], [139.06687, 35.09909], [139.06571, 35.09894], [139.06505, 35.09885], [139.06433, 35.09876], [139.06397, 35.09874], [139.06357, 35.09873], [139.06318, 35.09873], [139.06268, 35.09876], [139.06234, 35.0988], [139.06032, 35.09902], [139.05969, 35.09908], [139.05867, 35.09919], [139.05756, 35.0993], [139.05593, 35.09948], [139.05451, 35.09965], [139.05384, 35.09973], [139.05219, 35.09994], [139.05136, 35.10003], [139.05016, 35.10017], [139.04897, 35.1003], [139.04687, 35.10053], [139.04513, 35.10072], [139.04401, 35.10085], [139.04349, 35.1009], [139.04246, 35.10102], [139.04129, 35.10115], [139.04038, 35.10125], [139.04021, 35.10127], [139.03899, 35.1014], [139.03745, 35.10157], [139.03576, 35.10176], [139.03523, 35.10183], [139.0352, 35.10183], [139.03351, 35.10199], [139.03247, 35.10211], [139.03089, 35.10228], [139.02973, 35.10242], [139.02864, 35.10254], [139.02698, 35.10271], [139.0259, 35.10283], [139.02439, 35.103], [139.02424, 35.10302], [139.02323, 35.10313], [139.02261, 35.1032], [139.02202, 35.10328], [139.01999, 35.10351], [139.01895, 35.10363], [139.01785, 35.10374], [139.01626, 35.10393], [139.01459, 35.1041], [139.01326, 35.10425], [139.01136, 35.10447], [139.00977, 35.10465], [139.00933, 35.10471], [139.00819, 35.10483], [139.00689, 35.10496], [139.00599, 35.10505], [139.00435, 35.10525], [139.00281, 35.10542], [139.00228, 35.10548], [139.00117, 35.10558], [138.99999, 35.10571], [138.9991, 35.10582], [138.99849, 35.10588], [138.99711, 35.10602], [138.99685, 35.10604], [138.99591, 35.10617], [138.9948, 35.1063], [138.99427, 35.10635], [138.99321, 35.10646], [138.99214, 35.10656], [138.99107, 35.10668], [138.99004, 35.1068], [138.98923, 35.10689], [138.98812, 35.10701], [138.986, 35.10724], [138.98587, 35.10725], [138.98358, 35.10751], [138.98247, 35.10759], [138.9819, 35.10764], [138.98129, 35.10771], [138.97969, 35.10789], [138.978, 35.10809], [138.97756, 35.10817], [138.97654, 35.10827], [138.97466, 35.10847], [138.97256, 35.10872]]}, "properties": {"id": "GEOM_TOKYO_1010", "route_id": "R_A38B6B65", "route_name": null, "route_color": "#F28E1C", "route_text_color": null, "line_name": "東海道線", "operator_id": "東海旅客鉄道", "representation": "service_path", "min_zoom": 0, "max_zoom": 24, "offset_rank": 0}}, {"type": "Feature", "bbox": [139.07621, 35.10266, 139.07967, 35.10512], "geometry": {"type": "LineString", "coordinates": [[139.07967, 35.10512], [139.07876, 35.10446], [139.07658, 35.10292], [139.07621, 35.10266]]}, "properties": {"id": "GEOM_TOKYO_1013", "route_id": "R_A38B6B65", "route_name": null, "route_color": "#F28E1C", "route_text_color": null, "line_name": "東海道線", "operator_id": "東海旅客鉄道", "representation": "service_path", "min_zoom": 0, "max_zoom": 24, "offset_rank": 0}}, {"type": "Feature", "bbox": [139.07654, 35.10266, 139.07912, 35.10445], "geometry": {"type": "LineString", "coordinates": [[139.07912, 35.10445], [139.07909, 35.10443], [139.07892, 35.10432], [139.07672, 35.10279], [139.07654, 35.10266]]}, "properties": {"id": "GEOM_TOKYO_2957", "route_id": "R_09EB5226", "route_name": null, "route_color": "#F28E1C", "route_text_color": null, "line_name": "東海道線", "operator_id": "jr_east", "representation": "service_path", "min_zoom": 0, "max_zoom": 24, "offset_rank": 0}}, {"type": "Feature", "bbox": [139.07621, 35.10266, 139.07967, 35.10512], "geometry": {"type": "LineString", "coordinates": [[139.07967, 35.10512], [139.07876, 35.10446], [139.07658, 35.10292], [139.07621, 35.10266]]}, "properties": {"id": "GEOM_TOKYO_2958", "route_id": "R_09EB5226", "route_name": null, "route_color": "#F28E1C", "route_text_color": null, "line_name": "東海道線", "operator_id": "jr_east", "representation": "service_path", "min_zoom": 0, "max_zoom": 24, "offset_rank": 0}}, {"type": "Feature", "bbox": [139.08953, 35.116, 139.09685, 35.14325], "geometry": {"type": "LineString", "coordinates": [[139.08953, 35.116], [139.08964, 35.11627], [139.08974, 35.11655], [139.08996, 35.11711], [139.09002, 35.11733], [139.09014, 35.11781], [139.09027, 35.11835], [139.09036, 35.11875], [139.09047, 35.11924], [139.09058, 35.11963], [139.09078, 35.12052], [139.091, 35.12141], [139.09116, 35.12215], [139.09139, 35.12305], [139.09151, 35.12361], [139.09171, 35.12446], [139.09192, 35.12531], [139.09214, 35.12618], [139.09214, 35.1262], [139.09225, 35.12663], [139.09243, 35.12741], [139.09256, 35.12794], [139.09269, 35.1284], [139.09279, 35.12884], [139.09298, 35.12971], [139.0932, 35.13063], [139.09339, 35.13148], [139.09348, 35.13191], [139.09357, 35.13223], [139.09371, 35.13279], [139.0939, 35.13359], [139.09412, 35.13443], [139.09425, 35.13503], [139.09425, 35.13505], [139.09466, 35.13676], [139.09476, 35.13722], [139.09488, 35.1377], [139.09498, 35.13813], [139.0952, 35.139], [139.09528, 35.13915], [139.09535, 35.13947], [139.09549, 35.14007], [139.09556, 35.14034], [139.09562, 35.1406], [139.0957, 35.1409], [139.09572, 35.14101], [139.09587, 35.14163], [139.09596, 35.14189], [139.09605, 35.14212], [139.09614, 35.14233], [139.09619, 35.14243], [139.09622, 35.14249], [139.09631, 35.14263], [139.09637, 35.14272], [139.0965, 35.14288], [139.09664, 35.14304], [139.09685, 35.14325]]}, "properties": {"id": "GEOM_TOKYO_2963", "route_id": "R_09EB5226", "route_name": null, "route_color": "#F28E1C", "route_text_color": null, "line_name": "東海道線", "operator_id": "jr_east", "representation": "service_path", "min_zoom": 0, "max_zoom": 24, "offset_rank": 0}}, {"type": "Feature", "bbox": [139.08107, 35.10584, 139.08953, 35.116], "geometry": {"type": "LineString", "coordinates": [[139.08107, 35.10584], [139.0816, 35.10623], [139.08176, 35.10636], [139.08192, 35.10649], [139.0824, 35.10701], [139.08251, 35.10715], [139.0831, 35.1078], [139.08324, 35.10798], [139.08359, 35.10864], [139.08367, 35.10877], [139.08379, 35.10903], [139.08385, 35.1092], [139.08387, 35.10935], [139.08394, 35.11022], [139.08403, 35.11133], [139.08407, 35.11148], [139.08412, 35.11161], [139.0842, 35.11175], [139.08422, 35.1118], [139.08428, 35.11192], [139.08448, 35.11234], [139.08456, 35.11242], [139.08462, 35.11248], [139.08512, 35.11299], [139.08548, 35.11331], [139.08588, 35.11367], [139.0861, 35.11381], [139.08622, 35.11386], [139.08651, 35.11399], [139.08688, 35.1142], [139.08703, 35.11426], [139.08743, 35.11444], [139.08791, 35.1147], [139.08843, 35.115], [139.08858, 35.1151], [139.08901, 35.11544], [139.08936, 35.11584], [139.08953, 35.116]]}, "properties": {"id": "GEOM_TOKYO_2964", "route_id": "R_09EB5226", "route_name": null, "route_color": "#F28E1C", "route_text_color": null, "line_name": "東海道線", "operator_id": "jr_east", "representation": "service_path", "min_zoom": 0, "max_zoom": 24, "offset_rank": 0}}, {"type": "Feature", "bbox": [139.07967, 35.10512, 139.08107, 35.10584], "geometry": {"type": "LineString", "coordinates": [[139.07967, 35.10512], [139.07988, 35.10526], [139.08012, 35.10541], [139.08035, 35.10555], [139.08057, 35.10564], [139.08107, 35.10584]]}, "properties": {"id": "GEOM_TOKYO_2965", "route_id": "R_09EB5226", "route_name": null, "route_color": "#F28E1C", "route_text_color": null, "line_name": "東海道線", "operator_id": "jr_east", "representation": "service_path", "min_zoom": 0, "max_zoom": 24, "offset_rank": 0}}, {"type": "Feature", "bbox": [139.07912, 35.10445, 139.08107, 35.10584], "geometry": {"type": "LineString", "coordinates": [[139.08107, 35.10584], [139.08055, 35.10546], [139.07978, 35.10492], [139.07912, 35.10445]]}, "properties": {"id": "GEOM_TOKYO_2968", "route_id": "R_09EB5226", "route_name": null, "route_color": "#F28E1C", "route_text_color": null, "line_name": "東海道線", "operator_id": "jr_east", "representation": "service_path", "min_zoom": 0, "max_zoom": 24, "offset_rank": 0}}, {"type": "Feature", "bbox": [139.08953, 35.116, 139.09685, 35.14325], "geometry": {"type": "LineString", "coordinates": [[139.08953, 35.116], [139.08991, 35.11636], [139.09002, 35.11656], [139.09028, 35.11727], [139.09036, 35.11768], [139.09057, 35.11851], [139.09069, 35.11904], [139.09081, 35.11956], [139.09101, 35.12041], [139.09122, 35.12124], [139.09134, 35.12174], [139.09145, 35.12218], [139.09165, 35.12306], [139.09177, 35.12353], [139.09188, 35.12394], [139.09208, 35.12475], [139.0922, 35.12526], [139.0923, 35.12569], [139.09241, 35.12612], [139.09251, 35.12655], [139.09265, 35.12712], [139.09285, 35.12793], [139.09296, 35.12836], [139.09317, 35.12927], [139.09337, 35.13011], [139.0935, 35.13057], [139.09359, 35.13097], [139.0938, 35.13184], [139.09399, 35.13266], [139.09417, 35.13345], [139.09433, 35.1341], [139.09454, 35.13496], [139.09455, 35.13498], [139.0948, 35.13612], [139.09502, 35.137], [139.09517, 35.13761], [139.09538, 35.13854], [139.09548, 35.13892], [139.09553, 35.1391], [139.09558, 35.13933], [139.09575, 35.13998], [139.09584, 35.14033], [139.09588, 35.14051], [139.0959, 35.14058], [139.096, 35.141], [139.09601, 35.14105], [139.09623, 35.14184], [139.09644, 35.14248], [139.09646, 35.14251], [139.09655, 35.14273], [139.09657, 35.14277], [139.09668, 35.14294], [139.09685, 35.14325]]}, "properties": {"id": "GEOM_TOKYO_2969", "route_id": "R_09EB5226", "route_name": null, "route_color": "#F28E1C", "route_text_color": null, "line_name": "東海道線", "operator_id": "jr_east", "representation": "service_path", "min_zoom": 0, "max_zoom": 24, "offset_rank": 0}}, {"type": "Feature", "bbox": [139.13102, 35.15599, 139.13348, 35.15786], "geometry": {"type": "LineString", "coordinates": [[139.13102, 35.15599], [139.13128, 35.15612], [139.13148, 35.15624], [139.13182, 35.15645], [139.13214, 35.15667], [139.13275, 35.15719], [139.13309, 35.15751], [139.13348, 35.15786]]}, "properties": {"id": "GEOM_TOKYO_2970", "route_id": "R_09EB5226", "route_name": null, "route_color": "#F28E1C", "route_text_color": null, "line_name": "東海道線", "operator_id": "jr_east", "representation": "service_path", "min_zoom": 0, "max_zoom": 24, "offset_rank": 0}}, {"type": "Feature", "bbox": [139.10386, 35.1469, 139.13102, 35.15599], "geometry": {"type": "LineString", "coordinates": [[139.10386, 35.1469], [139.10392, 35.14694], [139.10417, 35.14707], [139.10451, 35.14725], [139.10549, 35.14778], [139.10581, 35.14797], [139.10641, 35.14834], [139.10692, 35.14875], [139.10729, 35.14908], [139.1075, 35.14934], [139.10792, 35.14998], [139.10826, 35.15058], [139.10884, 35.15156], [139.1093, 35.15234], [139.10947, 35.15263], [139.10958, 35.15279], [139.10972, 35.15298], [139.10988, 35.15318], [139.11005, 35.15336], [139.1102, 35.15351], [139.11033, 35.15361], [139.11044, 35.15369], [139.1105, 35.15372], [139.11063, 35.1538], [139.11075, 35.15387], [139.11096, 35.15397], [139.11115, 35.15406], [139.11143, 35.15416], [139.11157, 35.15421], [139.1118, 35.15428], [139.11204, 35.15436], [139.11227, 35.15441], [139.11254, 35.15445], [139.11292, 35.15448], [139.113, 35.15448], [139.11314, 35.15449], [139.11345, 35.15449], [139.11377, 35.15445], [139.11484, 35.15428], [139.1152, 35.15417], [139.11606, 35.15382], [139.11672, 35.15356], [139.11691, 35.15349], [139.11718, 35.15341], [139.11734, 35.15337], [139.11753, 35.15333], [139.11772, 35.15331], [139.11793, 35.15327], [139.11829, 35.15324], [139.11854, 35.15321], [139.11884, 35.15318], [139.11908, 35.15317], [139.11949, 35.15317], [139.11982, 35.15316], [139.12011, 35.15317], [139.12035, 35.15318], [139.12056, 35.1532], [139.12086, 35.15324], [139.12122, 35.15329], [139.12151, 35.15335], [139.12184, 35.15342], [139.12192, 35.15348], [139.12215, 35.15354], [139.1224, 35.15361], [139.12261, 35.15368], [139.12349, 35.15391], [139.12384, 35.15398], [139.12437, 35.15412], [139.1257, 35.15448], [139.12695, 35.15482], [139.12741, 35.15494], [139.12818, 35.15515], [139.12925, 35.15545], [139.12943, 35.15549], [139.12982, 35.15559], [139.13034, 35.15573], [139.13044, 35.15575], [139.13065, 35.15584], [139.13085, 35.15593], [139.13102, 35.15599]]}, "properties": {"id": "GEOM_TOKYO_2971", "route_id": "R_09EB5226", "route_name": null, "route_color": "#F28E1C", "route_text_color": null, "line_name": "東海道線", "operator_id": "jr_east", "representation": "service_path", "min_zoom": 0, "max_zoom": 24, "offset_rank": 0}}, {"type": "Feature", "bbox": [139.10054, 35.14535, 139.10386, 35.1469], "geometry": {"type": "LineString", "coordinates": [[139.10386, 35.1469], [139.10054, 35.14535]]}, "properties": {"id": "GEOM_TOKYO_2972", "route_id": "R_09EB5226", "route_name": null, "route_color": "#F28E1C", "route_text_color": null, "line_name": "東海道線", "operator_id": "jr_east", "representation": "service_path", "min_zoom": 0, "max_zoom": 24, "offset_rank": 0}}, {"type": "Feature", "bbox": [139.09685, 35.14325, 139.10054, 35.14535], "geometry": {"type": "LineString", "coordinates": [[139.10054, 35.14535], [139.09978, 35.14503], [139.09935, 35.14484], [139.09905, 35.14469], [139.09866, 35.14448], [139.09828, 35.14427], [139.09788, 35.144], [139.09758, 35.14379], [139.09711, 35.14344], [139.09685, 35.14325]]}, "properties": {"id": "GEOM_TOKYO_2973", "route_id": "R_09EB5226", "route_name": null, "route_color": "#F28E1C", "route_text_color": null, "line_name": "東海道線", "operator_id": "jr_east", "representation": "service_path", "min_zoom": 0, "max_zoom": 24, "offset_rank": 0}}]}