{"type": "FeatureCollection", "features": [{"type": "Feature", "bbox": [134.68858, 34.82619, 134.69284, 34.82667], "geometry": {"type": "LineString", "coordinates": [[134.69284, 34.82619], [134.69225, 34.82626], [134.68858, 34.82667]]}, "properties": {"id": "TRACK_TOKYO_0668", "line_name": "山陽新幹線", "station_group_ids": [], "mode": "shinkansen", "operator_id": "西日本旅客鉄道", "line_color": "#1263D6", "tags": ["tokyo", "track_centerline"]}}, {"type": "Feature", "bbox": [134.69284, 34.66724, 134.95833, 34.82619], "geometry": {"type": "LineString", "coordinates": [[134.95833, 34.66724], [134.95526, 34.66757], [134.95309, 34.66785], [134.95292, 34.66787], [134.95158, 34.66806], [134.94946, 34.6684], [134.94666, 34.66888], [134.9444, 34.66933], [134.94257, 34.66979], [134.94214, 34.66992], [134.94089, 34.67033], [134.94026, 34.67058], [134.93958, 34.67085], [134.93836, 34.67137], [134.93727, 34.6719], [134.9363, 34.6724], [134.93521, 34.67304], [134.9341, 34.67372], [134.93242, 34.67486], [134.93124, 34.67575], [134.92917, 34.6773], [134.92619, 34.67956], [134.92318, 34.68194], [134.91524, 34.68822], [134.91302, 34.68998], [134.91084, 34.69167], [134.90815, 34.69375], [134.90722, 34.69445], [134.90551, 34.69571], [134.903, 34.69749], [134.90154, 34.69844], [134.90008, 34.69931], [134.89859, 34.70009], [134.89801, 34.70039], [134.89338, 34.70272], [134.88914, 34.70479], [134.88848, 34.70511], [134.88651, 34.70609], [134.88463, 34.70711], [134.88321, 34.70794], [134.88223, 34.70857], [134.88104, 34.70942], [134.88018, 34.71006], [134.87238, 34.7158], [134.87224, 34.7159], [134.86636, 34.72033], [134.86488, 34.72144], [134.86333, 34.72264], [134.86252, 34.72324], [134.86185, 34.72366], [134.85939, 34.72514], [134.85786, 34.7261], [134.85603, 34.72724], [134.8518, 34.72993], [134.85018, 34.73096], [134.84704, 34.73297], [134.84637, 34.73344], [134.84445, 34.73477], [134.84168, 34.73673], [134.84126, 34.73703], [134.8387, 34.73879], [134.83721, 34.73983], [134.83621, 34.74054], [134.83497, 34.74142], [134.82893, 34.74572], [134.82661, 34.74734], [134.82565, 34.74801], [134.81823, 34.75324], [134.81813, 34.75331], [134.81717, 34.75391], [134.81712, 34.75394], [134.81638, 34.75444], [134.81407, 34.756], [134.81366, 34.75628], [134.81299, 34.75674], [134.81251, 34.75707], [134.81144, 34.7578], [134.81053, 34.75842], [134.81003, 34.75877], [134.80976, 34.75895], [134.80917, 34.75938], [134.80865, 34.75975], [134.80858, 34.7598], [134.80853, 34.75983], [134.80832, 34.76], [134.80828, 34.76001], [134.80827, 34.76003], [134.80586, 34.76178], [134.80303, 34.76391], [134.8021, 34.76464], [134.80045, 34.76592], [134.80032, 34.76602], [134.79942, 34.76673], [134.79615, 34.76939], [134.79593, 34.76956], [134.79405, 34.77108], [134.79258, 34.77227], [134.79171, 34.77297], [134.78981, 34.77442], [134.78929, 34.7748], [134.78897, 34.77504], [134.78893, 34.77508], [134.78881, 34.77516], [134.78869, 34.77524], [134.78742, 34.77614], [134.78707, 34.77638], [134.7869, 34.77649], [134.78682, 34.77654], [134.78579, 34.77729], [134.78482, 34.77795], [134.78432, 34.77828], [134.78383, 34.77859], [134.78381, 34.77862], [134.78255, 34.77939], [134.78201, 34.77972], [134.78154, 34.78001], [134.78117, 34.78023], [134.78061, 34.78057], [134.78003, 34.78093], [134.77975, 34.7811], [134.77925, 34.7814], [134.77799, 34.78216], [134.77794, 34.78218], [134.77736, 34.78255], [134.77682, 34.78287], [134.77636, 34.78315], [134.77547, 34.7837], [134.77506, 34.78395], [134.77452, 34.78427], [134.77386, 34.78465], [134.77347, 34.78489], [134.77345, 34.78491], [134.77334, 34.78496], [134.7728, 34.78531], [134.77191, 34.78589], [134.77156, 34.78613], [134.77088, 34.78661], [134.76981, 34.78739], [134.76975, 34.78744], [134.76925, 34.7878], [134.76713, 34.7896], [134.7663, 34.79031], [134.76625, 34.79034], [134.76563, 34.79092], [134.76484, 34.79166], [134.76321, 34.79317], [134.76165, 34.79464], [134.75981, 34.79635], [134.75979, 34.79636], [134.75943, 34.79671], [134.75818, 34.79787], [134.7578, 34.79823], [134.75731, 34.79869], [134.75676, 34.7992], [134.75648, 34.79946], [134.75618, 34.79973], [134.75541, 34.80047], [134.7551, 34.80075], [134.75497, 34.80087], [134.75451, 34.80129], [134.75318, 34.80254], [134.75293, 34.80278], [134.75269, 34.80301], [134.75262, 34.80306], [134.75211, 34.80354], [134.75143, 34.80417], [134.75124, 34.80435], [134.74947, 34.80602], [134.74901, 34.80644], [134.74877, 34.80666], [134.74864, 34.80679], [134.74816, 34.80723], [134.74786, 34.80752], [134.74726, 34.80811], [134.7463, 34.80896], [134.74559, 34.80965], [134.74502, 34.81016], [134.74463, 34.81046], [134.74409, 34.81085], [134.74362, 34.81119], [134.74356, 34.81124], [134.7431, 34.81154], [134.74111, 34.81285], [134.74095, 34.81296], [134.74084, 34.81303], [134.73895, 34.81425], [134.7379, 34.81494], [134.73656, 34.8158], [134.73574, 34.81634], [134.7357, 34.81636], [134.73496, 34.81683], [134.73446, 34.81715], [134.73363, 34.81765], [134.73275, 34.81816], [134.73221, 34.81847], [134.73144, 34.81888], [134.7312, 34.819], [134.73118, 34.81902], [134.73114, 34.81904], [134.73048, 34.81938], [134.72987, 34.81967], [134.72876, 34.82017], [134.72755, 34.82068], [134.72631, 34.82117], [134.7255, 34.82146], [134.72501, 34.82164], [134.7236, 34.82205], [134.72244, 34.82235], [134.72071, 34.82277], [134.71866, 34.82319], [134.71479, 34.82366], [134.71335, 34.82383], [134.71052, 34.82414], [134.70685, 34.82455], [134.70381, 34.82489], [134.70277, 34.825], [134.6975, 34.82561], [134.69284, 34.82619]]}, "properties": {"id": "TRACK_TOKYO_0671", "line_name": "山陽新幹線", "station_group_ids": [], "mode": "shinkansen", "operator_id": "西日本旅客鉄道", "line_color": "#1263D6", "tags": ["tokyo", "track_centerline"]}}, {"type": "Feature", "bbox": [134.47211, 34.81813, 134.47661, 34.81841], "geometry": {"type": "LineString", "coordinates": [[134.47661, 34.81813], [134.47211, 34.81841]]}, "properties": {"id": "TRACK_TOKYO_0672", "line_name": "山陽新幹線", "station_group_ids": [], "mode": "shinkansen", "operator_id": "西日本旅客鉄道", "line_color": "#1263D6", "tags": ["tokyo", "track_centerline"]}}, {"type": "Feature", "bbox": [134.47661, 34.81754, 134.68858, 34.83109], "geometry": {"type": "LineString", "coordinates": [[134.68858, 34.82667], [134.68706, 34.82685], [134.68398, 34.82721], [134.68189, 34.82745], [134.67677, 34.82803], [134.67301, 34.82846], [134.67171, 34.82861], [134.66639, 34.82902], [134.66593, 34.82903], [134.66198, 34.82933], [134.66135, 34.82938], [134.66108, 34.8294], [134.65587, 34.82973], [134.65436, 34.82985], [134.65283, 34.82993], [134.65069, 34.83012], [134.6503, 34.83014], [134.64898, 34.83024], [134.6483, 34.83029], [134.6455, 34.8305], [134.64457, 34.83056], [134.64247, 34.8307], [134.64025, 34.83085], [134.6394, 34.83092], [134.63709, 34.83107], [134.6354, 34.83109], [134.63301, 34.83104], [134.63172, 34.83098], [134.63141, 34.83095], [134.62853, 34.83069], [134.62808, 34.83065], [134.62494, 34.83035], [134.62431, 34.83029], [134.62345, 34.8302], [134.62227, 34.83008], [134.61818, 34.82967], [134.61796, 34.82965], [134.61223, 34.82909], [134.61194, 34.82906], [134.60889, 34.82874], [134.60697, 34.82854], [134.60318, 34.82816], [134.60119, 34.82802], [134.59786, 34.82792], [134.5945, 34.82802], [134.593, 34.82813], [134.59049, 34.82833], [134.58776, 34.8285], [134.58682, 34.82856], [134.58634, 34.82859], [134.5753, 34.82936], [134.57178, 34.82961], [134.57111, 34.82966], [134.57098, 34.82967], [134.56947, 34.82976], [134.56384, 34.83013], [134.56107, 34.83019], [134.55841, 34.83006], [134.55827, 34.83005], [134.55696, 34.82997], [134.556, 34.82986], [134.55521, 34.82977], [134.55449, 34.82967], [134.55346, 34.82948], [134.5531, 34.82942], [134.55129, 34.82905], [134.54908, 34.82857], [134.54741, 34.82813], [134.54292, 34.82672], [134.54147, 34.82626], [134.54047, 34.82595], [134.53866, 34.82538], [134.53483, 34.82419], [134.53258, 34.82347], [134.53202, 34.82329], [134.52836, 34.82215], [134.52562, 34.82129], [134.52363, 34.82076], [134.52169, 34.82034], [134.52042, 34.82008], [134.51773, 34.81968], [134.51764, 34.81967], [134.5169, 34.81958], [134.51562, 34.81942], [134.51392, 34.81924], [134.51131, 34.81903], [134.51026, 34.81896], [134.51021, 34.81896], [134.51016, 34.81896], [134.50976, 34.81893], [134.50968, 34.81892], [134.5085, 34.81884], [134.50842, 34.81883], [134.50795, 34.8188], [134.50793, 34.8188], [134.50786, 34.81879], [134.50722, 34.81875], [134.5058, 34.81862], [134.50489, 34.81855], [134.50355, 34.81845], [134.50324, 34.81842], [134.50255, 34.81837], [134.50211, 34.81834], [134.5008, 34.81823], [134.50032, 34.8182], [134.49983, 34.81816], [134.49958, 34.81814], [134.49872, 34.81811], [134.49728, 34.81801], [134.49677, 34.81798], [134.49637, 34.81795], [134.49428, 34.81782], [134.4939, 34.81779], [134.49347, 34.81776], [134.4933, 34.81775], [134.4931, 34.81774], [134.49244, 34.8177], [134.49212, 34.81768], [134.49143, 34.81764], [134.49095, 34.81763], [134.49078, 34.81761], [134.49044, 34.81759], [134.4903, 34.81758], [134.48961, 34.81755], [134.48893, 34.81754], [134.48855, 34.81754], [134.48846, 34.81754], [134.48716, 34.81754], [134.48542, 34.81759], [134.48487, 34.81763], [134.48467, 34.81763], [134.48318, 34.8177], [134.48187, 34.81778], [134.48169, 34.81779], [134.4807, 34.81787], [134.48027, 34.8179], [134.47973, 34.81794], [134.47934, 34.81796], [134.4792, 34.81798], [134.47905, 34.81798], [134.47843, 34.81802], [134.47821, 34.81803], [134.47803, 34.81804], [134.47763, 34.81807], [134.4774, 34.81809], [134.47661, 34.81813]]}, "properties": {"id": "TRACK_TOKYO_0673", "line_name": "山陽新幹線", "station_group_ids": [], "mode": "shinkansen", "operator_id": "西日本旅客鉄道", "line_color": "#1263D6", "tags": ["tokyo", "track_centerline"]}}, {"type": "Feature", "bbox": [133.92669, 34.67931, 134.47211, 34.81899], "geometry": {"type": "LineString", "coordinates": [[134.47211, 34.81841], [134.4715, 34.81845], [134.46957, 34.81856], [134.46922, 34.81858], [134.46864, 34.81861], [134.46829, 34.81863], [134.4682, 34.81864], [134.46732, 34.81867], [134.46718, 34.81868], [134.46667, 34.8187], [134.46534, 34.81875], [134.45982, 34.81898], [134.45809, 34.81899], [134.45714, 34.81896], [134.45661, 34.81894], [134.45588, 34.81888], [134.4552, 34.81883], [134.45497, 34.8188], [134.45484, 34.81879], [134.45266, 34.81856], [134.45049, 34.81824], [134.44885, 34.81796], [134.44688, 34.81757], [134.44541, 34.81722], [134.44438, 34.81695], [134.44391, 34.81682], [134.44299, 34.81656], [134.44157, 34.81613], [134.43994, 34.81561], [134.4385, 34.81507], [134.43737, 34.81462], [134.43623, 34.8141], [134.43501, 34.8135], [134.43436, 34.81316], [134.43272, 34.8123], [134.4307, 34.81121], [134.4255, 34.80838], [134.42512, 34.80818], [134.42505, 34.80814], [134.41579, 34.80318], [134.41544, 34.803], [134.41432, 34.8024], [134.41418, 34.80233], [134.41295, 34.80167], [134.41256, 34.80146], [134.41153, 34.80092], [134.41028, 34.80025], [134.40788, 34.79896], [134.40754, 34.79879], [134.40739, 34.7987], [134.40681, 34.7984], [134.40618, 34.79806], [134.40595, 34.79794], [134.4058, 34.79786], [134.40563, 34.79776], [134.40548, 34.79769], [134.40513, 34.7975], [134.40505, 34.79746], [134.40453, 34.79719], [134.40334, 34.79657], [134.40266, 34.79621], [134.40246, 34.79609], [134.4024, 34.79606], [134.40124, 34.79545], [134.39974, 34.79465], [134.39798, 34.79372], [134.39706, 34.79323], [134.39688, 34.79314], [134.39616, 34.79277], [134.39488, 34.79207], [134.38975, 34.78928], [134.38724, 34.78798], [134.38592, 34.78735], [134.38557, 34.78719], [134.38504, 34.78696], [134.38322, 34.78617], [134.37961, 34.7848], [134.37824, 34.78433], [134.37549, 34.78345], [134.37438, 34.78313], [134.3723, 34.78254], [134.36604, 34.78113], [134.36347, 34.7806], [134.36249, 34.78042], [134.36209, 34.78034], [134.36051, 34.7801], [134.35915, 34.77988], [134.35835, 34.77978], [134.35787, 34.77972], [134.3575, 34.77967], [134.35724, 34.77964], [134.35698, 34.77961], [134.35574, 34.77947], [134.35549, 34.77945], [134.35502, 34.77941], [134.35446, 34.77937], [134.35407, 34.77933], [134.35362, 34.7793], [134.35296, 34.77924], [134.35259, 34.77923], [134.35199, 34.77921], [134.35159, 34.77919], [134.34998, 34.77912], [134.34963, 34.77911], [134.34854, 34.77906], [134.34478, 34.77891], [134.34467, 34.7789], [134.34461, 34.7789], [134.33884, 34.7787], [134.33706, 34.77864], [134.33694, 34.77864], [134.33665, 34.77864], [134.33661, 34.77864], [134.33537, 34.7786], [134.33078, 34.7784], [134.3243, 34.77813], [134.31977, 34.77794], [134.3195, 34.77793], [134.31806, 34.77786], [134.31292, 34.77761], [134.31065, 34.77745], [134.309, 34.7773], [134.30779, 34.77715], [134.30703, 34.77704], [134.30587, 34.77687], [134.30409, 34.77653], [134.30101, 34.77576], [134.29767, 34.77483], [134.29644, 34.77445], [134.29535, 34.77411], [134.29086, 34.77263], [134.28615, 34.7711], [134.27586, 34.76774], [134.26557, 34.76439], [134.25596, 34.76127], [134.25565, 34.76118], [134.25555, 34.76115], [134.25452, 34.76083], [134.25437, 34.76078], [134.25368, 34.76056], [134.25256, 34.76022], [134.25215, 34.76009], [134.25115, 34.75977], [134.25088, 34.75969], [134.25028, 34.75949], [134.25017, 34.75946], [134.24976, 34.75932], [134.24731, 34.75852], [134.24541, 34.75793], [134.24483, 34.75774], [134.24455, 34.75766], [134.24404, 34.7575], [134.24376, 34.75741], [134.24345, 34.75732], [134.23851, 34.75586], [134.23821, 34.75577], [134.23479, 34.75476], [134.23476, 34.75475], [134.23245, 34.75422], [134.23127, 34.754], [134.22998, 34.7538], [134.22981, 34.75377], [134.22926, 34.75369], [134.22875, 34.75362], [134.22841, 34.75359], [134.22793, 34.75354], [134.22758, 34.7535], [134.22588, 34.75332], [134.22562, 34.7533], [134.22507, 34.75323], [134.22504, 34.75323], [134.22497, 34.75322], [134.22474, 34.75319], [134.2245, 34.75316], [134.22407, 34.75311], [134.22338, 34.75306], [134.2223, 34.753], [134.22094, 34.75293], [134.2197, 34.75287], [134.217, 34.75274], [134.2068, 34.75216], [134.2042, 34.75201], [134.20084, 34.75181], [134.19415, 34.75144], [134.1871, 34.75104], [134.18637, 34.75098], [134.1855, 34.75088], [134.18482, 34.75081], [134.18433, 34.75074], [134.18313, 34.75055], [134.18049, 34.75011], [134.17962, 34.74992], [134.17746, 34.74934], [134.17679, 34.74913], [134.17567, 34.7488], [134.17364, 34.74816], [134.17231, 34.7477], [134.17048, 34.74708], [134.16972, 34.74678], [134.169, 34.7465], [134.16849, 34.7463], [134.16341, 34.74432], [134.16285, 34.7441], [134.15849, 34.74238], [134.1529, 34.74022], [134.15059, 34.73933], [134.14389, 34.73673], [134.14289, 34.73635], [134.14008, 34.73529], [134.13912, 34.73493], [134.13512, 34.7335], [134.13297, 34.73278], [134.13275, 34.73271], [134.13225, 34.73255], [134.1316, 34.73235], [134.13092, 34.73213], [134.1271, 34.73097], [134.12589, 34.73062], [134.12487, 34.73034], [134.12282, 34.72979], [134.12232, 34.72967], [134.12212, 34.72962], [134.12136, 34.72944], [134.12065, 34.72927], [134.11769, 34.72859], [134.1161, 34.72822], [134.11597, 34.7282], [134.11454, 34.72786], [134.11448, 34.72785], [134.11341, 34.7276], [134.11197, 34.72726], [134.11167, 34.72719], [134.11145, 34.72713], [134.11111, 34.72706], [134.11096, 34.72703], [134.11013, 34.72683], [134.11005, 34.72682], [134.1097, 34.72674], [134.10966, 34.72673], [134.10943, 34.72668], [134.10913, 34.72661], [134.10654, 34.72602], [134.10459, 34.72557], [134.1039, 34.72541], [134.10249, 34.72509], [134.10164, 34.72489], [134.09678, 34.72378], [134.09582, 34.72356], [134.09574, 34.72354], [134.09566, 34.72352], [134.09361, 34.72305], [134.09024, 34.7223], [134.09017, 34.72228], [134.08932, 34.7221], [134.08928, 34.72209], [134.08856, 34.72191], [134.08593, 34.7213], [134.08441, 34.72094], [134.08139, 34.72024], [134.08131, 34.72023], [134.07996, 34.71992], [134.07926, 34.71976], [134.07919, 34.71974], [134.07777, 34.71942], [134.07421, 34.7186], [134.07262, 34.71823], [134.06798, 34.71719], [134.06731, 34.71706], [134.06398, 34.71617], [134.06359, 34.71604], [134.06351, 34.71601], [134.06261, 34.71575], [134.06256, 34.71572], [134.06119, 34.71532], [134.05939, 34.71478], [134.05916, 34.71472], [134.05831, 34.71445], [134.05757, 34.71423], [134.05733, 34.71416], [134.05724, 34.71414], [134.05681, 34.714], [134.05664, 34.71396], [134.0561, 34.71379], [134.05548, 34.7136], [134.05545, 34.71358], [134.05391, 34.71313], [134.05311, 34.7129], [134.05273, 34.71279], [134.05222, 34.71263], [134.05042, 34.71209], [134.04911, 34.7117], [134.048, 34.71136], [134.04778, 34.71131], [134.04755, 34.71123], [134.04683, 34.71102], [134.04564, 34.71067], [134.04561, 34.71065], [134.0454, 34.7106], [134.04509, 34.7105], [134.04506, 34.71048], [134.04412, 34.71022], [134.04392, 34.71015], [134.04293, 34.70986], [134.04289, 34.70985], [134.04271, 34.70979], [134.04171, 34.7095], [134.04133, 34.70937], [134.04114, 34.70931], [134.04099, 34.70927], [134.03957, 34.7088], [134.03952, 34.70878], [134.03886, 34.70854], [134.03882, 34.70852], [134.03875, 34.7085], [134.03791, 34.70817], [134.0378, 34.70813], [134.0369, 34.70778], [134.03604, 34.70743], [134.03507, 34.70704], [134.03479, 34.7069], [134.03446, 34.70676], [134.03425, 34.70666], [134.0342, 34.70664], [134.03276, 34.70596], [134.03271, 34.70594], [134.03224, 34.70572], [134.03187, 34.70553], [134.03047, 34.70481], [134.02719, 34.70308], [134.0271, 34.70303], [134.02688, 34.70292], [134.0268, 34.70288], [134.02585, 34.70237], [134.02535, 34.70211], [134.02519, 34.70202], [134.02478, 34.70181], [134.02457, 34.70169], [134.02436, 34.70158], [134.02418, 34.70148], [134.02356, 34.70116], [134.02344, 34.7011], [134.02302, 34.70088], [134.02202, 34.70034], [134.02046, 34.69952], [134.01871, 34.6986], [134.01787, 34.69816], [134.01764, 34.69804], [134.0172, 34.69781], [134.01623, 34.69731], [134.01596, 34.69716], [134.01487, 34.69659], [134.01435, 34.69631], [134.01425, 34.69626], [134.01355, 34.69589], [134.01246, 34.69533], [134.01152, 34.69484], [134.00849, 34.69324], [134.00776, 34.69286], [134.00739, 34.69266], [134.00699, 34.69245], [134.00636, 34.69212], [134.00585, 34.69186], [134.0054, 34.69162], [134.00493, 34.69139], [134.00407, 34.69095], [134.00377, 34.6908], [134.00317, 34.69051], [134.00214, 34.69003], [134.00133, 34.68966], [134.00091, 34.68949], [134.00074, 34.68943], [134.00031, 34.68925], [133.99957, 34.68898], [133.99879, 34.68869], [133.99733, 34.68815], [133.9963, 34.68783], [133.9962, 34.6878], [133.99616, 34.68779], [133.99368, 34.68713], [133.99279, 34.6869], [133.9921, 34.68674], [133.9917, 34.68666], [133.98916, 34.68616], [133.98821, 34.68603], [133.98735, 34.68592], [133.98711, 34.6859], [133.98665, 34.68584], [133.98595, 34.68577], [133.98522, 34.68571], [133.98488, 34.68568], [133.98485, 34.68567], [133.98433, 34.68563], [133.98418, 34.68562], [133.98281, 34.68549], [133.98267, 34.68548], [133.98263, 34.68547], [133.9816, 34.68539], [133.98062, 34.68531], [133.97941, 34.68519], [133.9789, 34.68514], [133.9783, 34.68509], [133.97723, 34.685], [133.97719, 34.68499], [133.97553, 34.68484], [133.97508, 34.6848], [133.97488, 34.68478], [133.97391, 34.6847], [133.97381, 34.68468], [133.97334, 34.68465], [133.97272, 34.68459], [133.97217, 34.68454], [133.9718, 34.68451], [133.97171, 34.6845], [133.97156, 34.68448], [133.97014, 34.68435], [133.96872, 34.68422], [133.96845, 34.6842], [133.96791, 34.68416], [133.96711, 34.68407], [133.96622, 34.684], [133.96613, 34.68399], [133.96514, 34.68391], [133.96486, 34.68387], [133.96366, 34.68377], [133.96291, 34.6837], [133.96288, 34.68369], [133.96225, 34.68364], [133.9622, 34.68363], [133.96181, 34.6836], [133.96094, 34.68352], [133.96078, 34.68351], [133.96073, 34.6835], [133.96037, 34.68347], [133.95971, 34.68341], [133.95961, 34.6834], [133.95857, 34.68331], [133.95819, 34.68327], [133.95741, 34.68321], [133.95701, 34.68317], [133.95613, 34.68309], [133.95599, 34.68307], [133.95534, 34.68302], [133.95522, 34.68301], [133.95463, 34.68295], [133.95407, 34.6829], [133.95321, 34.68283], [133.95279, 34.68279], [133.9521, 34.68273], [133.95191, 34.68271], [133.95179, 34.6827], [133.95094, 34.68263], [133.95081, 34.68262], [133.95033, 34.68258], [133.95004, 34.68255], [133.94977, 34.68252], [133.94967, 34.68252], [133.94903, 34.68246], [133.94853, 34.68242], [133.94813, 34.68238], [133.94726, 34.6823], [133.94641, 34.68223], [133.94532, 34.68214], [133.94512, 34.68212], [133.94422, 34.68204], [133.94416, 34.68203], [133.94352, 34.68198], [133.94207, 34.68186], [133.94127, 34.68178], [133.93985, 34.68165], [133.93961, 34.68162], [133.93899, 34.68157], [133.93875, 34.68155], [133.93873, 34.68155], [133.93869, 34.68154], [133.9384, 34.68152], [133.9383, 34.68151], [133.93764, 34.68146], [133.93749, 34.68144], [133.93654, 34.68135], [133.93574, 34.68129], [133.93467, 34.6812], [133.93445, 34.68118], [133.93324, 34.68108], [133.93296, 34.68105], [133.93236, 34.68101], [133.93158, 34.68093], [133.93148, 34.68091], [133.9314, 34.6809], [133.93106, 34.68085], [133.93071, 34.68078], [133.93003, 34.68064], [133.9293, 34.68044], [133.92906, 34.68037], [133.92897, 34.68033], [133.92864, 34.68022], [133.92795, 34.67996], [133.92792, 34.67994], [133.92754, 34.67976], [133.92719, 34.6796], [133.92669, 34.67931]]}, "properties": {"id": "TRACK_TOKYO_0674", "line_name": "山陽新幹線", "station_group_ids": [], "mode": "shinkansen", "operator_id": "西日本旅客鉄道", "line_color": "#1263D6", "tags": ["tokyo", "track_centerline"]}}, {"type": "Feature", "bbox": [133.91692, 34.66427, 133.91917, 34.66742], "geometry": {"type": "LineString", "coordinates": [[133.91917, 34.66742], [133.91846, 34.66625], [133.91791, 34.66545], [133.91739, 34.66478], [133.91692, 34.66427]]}, "properties": {"id": "TRACK_TOKYO_0675", "line_name": "山陽新幹線", "station_group_ids": [], "mode": "shinkansen", "operator_id": "西日本旅客鉄道", "line_color": "#1263D6", "tags": ["tokyo", "track_centerline"]}}, {"type": "Feature", "bbox": [133.91917, 34.66742, 133.92669, 34.67931], "geometry": {"type": "LineString", "coordinates": [[133.92669, 34.67931], [133.92599, 34.67887], [133.9256, 34.67858], [133.92513, 34.67816], [133.92445, 34.67753], [133.92408, 34.67712], [133.92385, 34.67683], [133.9235, 34.67636], [133.92337, 34.67616], [133.92294, 34.67539], [133.92241, 34.67426], [133.92172, 34.67277], [133.92149, 34.67229], [133.92077, 34.67075], [133.92053, 34.67024], [133.92045, 34.67006], [133.92037, 34.6699], [133.9203, 34.66977], [133.92017, 34.66949], [133.91986, 34.66881], [133.91979, 34.66866], [133.9195, 34.66804], [133.91917, 34.66742]]}, "properties": {"id": "TRACK_TOKYO_0676", "line_name": "山陽新幹線", "station_group_ids": [], "mode": "shinkansen", "operator_id": "西日本旅客鉄道", "line_color": "#1263D6", "tags": ["tokyo", "track_centerline"]}}, {"type": "Feature", "bbox": [133.68009, 34.56619, 133.91692, 34.66427], "geometry": {"type": "LineString", "coordinates": [[133.91692, 34.66427], [133.91629, 34.66368], [133.91549, 34.66304], [133.91516, 34.66282], [133.91488, 34.66265], [133.91461, 34.66249], [133.91413, 34.66223], [133.91346, 34.66189], [133.91269, 34.66153], [133.91232, 34.66135], [133.91161, 34.66102], [133.9105, 34.66049], [133.91013, 34.66035], [133.9097, 34.66019], [133.90913, 34.66002], [133.90854, 34.65989], [133.90762, 34.65971], [133.90681, 34.65959], [133.90649, 34.65955], [133.90616, 34.65952], [133.90578, 34.6595], [133.90455, 34.65948], [133.90366, 34.65945], [133.90301, 34.65944], [133.90171, 34.65942], [133.90152, 34.65942], [133.9006, 34.65939], [133.9003, 34.65939], [133.89999, 34.65939], [133.89911, 34.65936], [133.89802, 34.65933], [133.8971, 34.6593], [133.89624, 34.65923], [133.89517, 34.65915], [133.89443, 34.65908], [133.89425, 34.65906], [133.8939, 34.65902], [133.89248, 34.65885], [133.89129, 34.65869], [133.88975, 34.65848], [133.8884, 34.65829], [133.88696, 34.6581], [133.88559, 34.65791], [133.88416, 34.65772], [133.88331, 34.6576], [133.88278, 34.65753], [133.8814, 34.65733], [133.88005, 34.65716], [133.87862, 34.65696], [133.8772, 34.65677], [133.87587, 34.65661], [133.87551, 34.65657], [133.87452, 34.65647], [133.87319, 34.65636], [133.87235, 34.6563], [133.87107, 34.65618], [133.87048, 34.65613], [133.8667, 34.65581], [133.86232, 34.65545], [133.85946, 34.65521], [133.85795, 34.65509], [133.8536, 34.65473], [133.84922, 34.65434], [133.84843, 34.65428], [133.84485, 34.65398], [133.8436, 34.65387], [133.842, 34.6537], [133.8405, 34.65351], [133.83982, 34.65339], [133.83773, 34.65301], [133.83748, 34.65295], [133.83622, 34.65267], [133.83612, 34.65264], [133.83484, 34.65234], [133.83459, 34.65227], [133.83356, 34.65199], [133.83174, 34.65149], [133.83041, 34.65111], [133.82736, 34.65025], [133.82298, 34.64898], [133.81996, 34.64811], [133.8186, 34.64771], [133.81394, 34.64635], [133.80989, 34.64517], [133.80953, 34.64507], [133.80571, 34.64402], [133.80152, 34.64285], [133.80037, 34.64252], [133.79741, 34.64169], [133.79331, 34.64056], [133.79308, 34.6405], [133.79172, 34.64016], [133.78896, 34.63944], [133.78581, 34.63864], [133.78472, 34.63836], [133.78042, 34.63731], [133.77974, 34.63715], [133.77607, 34.63625], [133.77544, 34.63609], [133.7752, 34.63603], [133.7736, 34.63563], [133.77351, 34.63561], [133.7717, 34.63516], [133.77066, 34.63491], [133.7696, 34.63463], [133.76733, 34.63399], [133.76649, 34.63376], [133.76391, 34.63294], [133.76304, 34.63265], [133.76237, 34.63243], [133.7613, 34.63204], [133.76028, 34.63163], [133.75865, 34.63094], [133.75783, 34.6306], [133.7564, 34.62995], [133.75426, 34.62899], [133.75323, 34.62848], [133.75306, 34.62839], [133.75212, 34.62791], [133.75119, 34.62742], [133.75066, 34.62712], [133.74979, 34.62662], [133.74889, 34.62608], [133.74808, 34.6256], [133.74736, 34.62514], [133.74598, 34.62408], [133.74553, 34.62376], [133.7444, 34.62293], [133.74395, 34.6226], [133.7419, 34.62112], [133.74158, 34.62086], [133.73984, 34.61958], [133.73901, 34.61896], [133.73736, 34.61776], [133.73705, 34.61753], [133.73615, 34.61687], [133.7349, 34.61595], [133.7337, 34.61508], [133.73287, 34.61448], [133.7311, 34.61319], [133.72999, 34.61235], [133.72882, 34.6115], [133.72703, 34.61019], [133.72401, 34.60798], [133.72126, 34.60596], [133.71994, 34.60496], [133.71849, 34.60392], [133.7172, 34.60298], [133.71696, 34.60281], [133.71675, 34.60266], [133.7151, 34.60143], [133.71263, 34.59963], [133.71163, 34.59888], [133.71063, 34.59812], [133.70995, 34.59759], [133.70943, 34.59713], [133.7089, 34.59664], [133.70874, 34.59649], [133.70739, 34.59518], [133.70654, 34.59424], [133.70591, 34.59349], [133.70542, 34.5929], [133.70472, 34.59201], [133.70437, 34.59155], [133.70347, 34.59033], [133.70345, 34.59031], [133.70284, 34.58946], [133.70177, 34.58786], [133.70126, 34.58706], [133.70092, 34.58657], [133.70069, 34.5862], [133.69917, 34.5839], [133.69899, 34.58362], [133.69858, 34.583], [133.69798, 34.58209], [133.69776, 34.58178], [133.69752, 34.58142], [133.69669, 34.58024], [133.69638, 34.57981], [133.69567, 34.57885], [133.69489, 34.57784], [133.69457, 34.57748], [133.69385, 34.57667], [133.69284, 34.57563], [133.69263, 34.57541], [133.69203, 34.57481], [133.69101, 34.57386], [133.69003, 34.573], [133.68909, 34.57223], [133.68871, 34.57194], [133.68819, 34.57154], [133.68697, 34.57063], [133.68615, 34.57006], [133.68521, 34.56946], [133.6812, 34.56689], [133.68015, 34.56623], [133.68009, 34.56619]]}, "properties": {"id": "TRACK_TOKYO_0678", "line_name": "山陽新幹線", "station_group_ids": [], "mode": "shinkansen", "operator_id": "西日本旅客鉄道", "line_color": "#1263D6", "tags": ["tokyo", "track_centerline"]}}]}