{"type": "FeatureCollection", "features": [{"type": "Feature", "bbox": [141.14875, 39.68769, 141.14875, 39.68769], "geometry": {"type": "Point", "coordinates": [141.14875, 39.68769]}, "properties": {"id": "PS_E9711FAC5D5A", "station_group_id": "SG_A89DC012F456", "name_en": "仙北町", "name_ja": "仙北町", "label_rank": 72, "tags": ["tokyo", "v3"]}}, {"type": "Feature", "bbox": [141.154625, 39.58086, 141.154625, 39.58086], "geometry": {"type": "Point", "coordinates": [141.154625, 39.58086]}, "properties": {"id": "PS_DDFD82232FD8", "station_group_id": "SG_35588DFF1A42", "name_en": "古館", "name_ja": "古館", "label_rank": 72, "tags": ["tokyo", "v3"]}}, {"type": "Feature", "bbox": [141.14659, 39.65375, 141.14659, 39.65375], "geometry": {"type": "Point", "coordinates": [141.14659, 39.65375]}, "properties": {"id": "PS_B44AE8089B11", "station_group_id": "SG_5ED00ED4B4D1", "name_en": "岩手飯岡", "name_ja": "岩手飯岡", "label_rank": 72, "tags": ["tokyo", "v3"]}}, {"type": "Feature", "bbox": [141.13653, 39.70155, 141.13653, 39.70155], "geometry": {"type": "Point", "coordinates": [141.13653, 39.70155]}, "properties": {"id": "PS_ED05054CCB1E", "station_group_id": "SG_AD1907A0B6B8", "name_en": "盛岡", "name_ja": "盛岡", "label_rank": 72, "tags": ["tokyo", "v3"]}}, {"type": "Feature", "bbox": [141.136375, 39.701195, 141.136375, 39.701195], "geometry": {"type": "Point", "coordinates": [141.136375, 39.701195]}, "properties": {"id": "PS_86490B7C7AC2", "station_group_id": "SG_AD1907A0B6B8", "name_en": "盛岡", "name_ja": "盛岡", "label_rank": 72, "tags": ["tokyo", "v3"]}}, {"type": "Feature", "bbox": [141.14811, 39.612804999999994, 141.14811, 39.612804999999994], "geometry": {"type": "Point", "coordinates": [141.14811, 39.612804999999994]}, "properties": {"id": "PS_E4EE7B11869F", "station_group_id": "SG_2AE85DE71CEA", "name_en": "矢幅", "name_ja": "矢幅", "label_rank": 72, "tags": ["tokyo", "v3"]}}, {"type": "Feature", "bbox": [141.159915, 39.55476, 141.159915, 39.55476], "geometry": {"type": "Point", "coordinates": [141.159915, 39.55476]}, "properties": {"id": "PS_3E96CB270DF9", "station_group_id": "SG_D7F3FAFD2245", "name_en": "紫波中央", "name_ja": "紫波中央", "label_rank": 72, "tags": ["tokyo", "v3"]}}]}