{"type": "FeatureCollection", "features": [{"type": "Feature", "bbox": [141.12261999999998, 39.2822, 141.12261999999998, 39.2822], "geometry": {"type": "Point", "coordinates": [141.12261999999998, 39.2822]}, "properties": {"id": "PS_D9128A37D609", "station_group_id": "SG_82FBFA5C5623", "name_en": "北上", "name_ja": "北上", "label_rank": 72, "tags": ["tokyo", "v3"]}}, {"type": "Feature", "bbox": [141.12142, 39.28141, 141.12142, 39.28141], "geometry": {"type": "Point", "coordinates": [141.12142, 39.28141]}, "properties": {"id": "PS_1096FFCD3EB8", "station_group_id": "SG_82FBFA5C5623", "name_en": "北上", "name_ja": "北上", "label_rank": 72, "tags": ["tokyo", "v3"]}}, {"type": "Feature", "bbox": [141.17361499999998, 39.4065, 141.17361499999998, 39.4065], "geometry": {"type": "Point", "coordinates": [141.17361499999998, 39.4065]}, "properties": {"id": "PS_945B8A2A6E1B", "station_group_id": "SG_EB32FC73EBDC", "name_en": "新花巻", "name_ja": "新花巻", "label_rank": 72, "tags": ["tokyo", "v3"]}}, {"type": "Feature", "bbox": [141.16055, 39.538624999999996, 141.16055, 39.538624999999996], "geometry": {"type": "Point", "coordinates": [141.16055, 39.538624999999996]}, "properties": {"id": "PS_1533A853B5FE", "station_group_id": "SG_7F4F6609FEB5", "name_en": "日詰", "name_ja": "日詰", "label_rank": 72, "tags": ["tokyo", "v3"]}}, {"type": "Feature", "bbox": [141.12049, 39.32265, 141.12049, 39.32265], "geometry": {"type": "Point", "coordinates": [141.12049, 39.32265]}, "properties": {"id": "PS_909046C54179", "station_group_id": "SG_F5A2FF0799C0", "name_en": "村崎野", "name_ja": "村崎野", "label_rank": 72, "tags": ["tokyo", "v3"]}}, {"type": "Feature", "bbox": [141.146885, 39.490895, 141.146885, 39.490895], "geometry": {"type": "Point", "coordinates": [141.146885, 39.490895]}, "properties": {"id": "PS_E043DC768D85", "station_group_id": "SG_E328162353DE", "name_en": "石鳥谷", "name_ja": "石鳥谷", "label_rank": 72, "tags": ["tokyo", "v3"]}}, {"type": "Feature", "bbox": [141.110325, 39.393745, 141.110325, 39.393745], "geometry": {"type": "Point", "coordinates": [141.110325, 39.393745]}, "properties": {"id": "PS_B90600258A9A", "station_group_id": "SG_C4E5F67115E3", "name_en": "花巻", "name_ja": "花巻", "label_rank": 72, "tags": ["tokyo", "v3"]}}, {"type": "Feature", "bbox": [141.12731, 39.442255, 141.12731, 39.442255], "geometry": {"type": "Point", "coordinates": [141.12731, 39.442255]}, "properties": {"id": "PS_6A04A2AD69E5", "station_group_id": "SG_DA54FF0D69A8", "name_en": "花巻空港", "name_ja": "花巻空港", "label_rank": 72, "tags": ["tokyo", "v3"]}}]}