{"type": "FeatureCollection", "features": [{"type": "Feature", "bbox": [141.09780999999998, 39.227825, 141.09780999999998, 39.227825], "geometry": {"type": "Point", "coordinates": [141.09780999999998, 39.227825]}, "properties": {"id": "PS_15AEADEEE7D3", "station_group_id": "SG_D887D83365F9", "operator_id": "jr_east", "operator_ids": "jr_east", "name_en": "六原", "name_ja": "六原", "label_rank": 72, "tags": ["tokyo", "v3"]}}, {"type": "Feature", "bbox": [141.12625, 39.049275, 141.12625, 39.049275], "geometry": {"type": "Point", "coordinates": [141.12625, 39.049275]}, "properties": {"id": "PS_76A16AC337E5", "station_group_id": "SG_3D869A0E9DF7", "operator_id": "jr_east", "operator_ids": "jr_east", "name_en": "前沢", "name_ja": "前沢", "label_rank": 72, "tags": ["tokyo", "v3"]}}, {"type": "Feature", "bbox": [141.14632, 39.13923, 141.14632, 39.13923], "geometry": {"type": "Point", "coordinates": [141.14632, 39.13923]}, "properties": {"id": "PS_A2FD7F19DB47", "station_group_id": "SG_6B569F75F24C", "operator_id": "jr_east", "operator_ids": "jr_east", "name_en": "水沢", "name_ja": "水沢", "label_rank": 72, "tags": ["tokyo", "v3"]}}, {"type": "Feature", "bbox": [141.188705, 39.145160000000004, 141.188705, 39.145160000000004], "geometry": {"type": "Point", "coordinates": [141.188705, 39.145160000000004]}, "properties": {"id": "PS_128BCF37A0A3", "station_group_id": "SG_B703D83CE1F5", "operator_id": "jr_east", "operator_ids": "jr_east", "name_en": "水沢江刺", "name_ja": "水沢江刺", "label_rank": 72, "tags": ["tokyo", "v3"]}}, {"type": "Feature", "bbox": [141.11293999999998, 39.199585, 141.11293999999998, 39.199585], "geometry": {"type": "Point", "coordinates": [141.11293999999998, 39.199585]}, "properties": {"id": "PS_531B6AAB8BBF", "station_group_id": "SG_55A2059902C0", "operator_id": "jr_east", "operator_ids": "jr_east", "name_en": "金ヶ崎", "name_ja": "金ヶ崎", "label_rank": 72, "tags": ["tokyo", "v3"]}}, {"type": "Feature", "bbox": [141.14094, 39.09398, 141.14094, 39.09398], "geometry": {"type": "Point", "coordinates": [141.14094, 39.09398]}, "properties": {"id": "PS_FB13EED636B3", "station_group_id": "SG_2148BE9ACBE7", "operator_id": "jr_east", "operator_ids": "jr_east", "name_en": "陸中折居", "name_ja": "陸中折居", "label_rank": 72, "tags": ["tokyo", "v3"]}}]}