{"type": "FeatureCollection", "features": [{"type": "Feature", "bbox": [141.13909999999998, 38.926445, 141.13909999999998, 38.926445], "geometry": {"type": "Point", "coordinates": [141.13909999999998, 38.926445]}, "properties": {"id": "PS_79E5B08F0D49", "station_group_id": "SG_F2A500ACF0A2", "name_en": "一ノ関", "name_ja": "一ノ関", "label_rank": 72, "tags": ["tokyo", "v3"]}}, {"type": "Feature", "bbox": [141.13814, 38.92661, 141.13814, 38.92661], "geometry": {"type": "Point", "coordinates": [141.13814, 38.92661]}, "properties": {"id": "PS_6B9B5F9E16CC", "station_group_id": "SG_F2A500ACF0A2", "name_en": "一ノ関", "name_ja": "一ノ関", "label_rank": 72, "tags": ["tokyo", "v3"]}}, {"type": "Feature", "bbox": [141.13197, 38.951325, 141.13197, 38.951325], "geometry": {"type": "Point", "coordinates": [141.13197, 38.951325]}, "properties": {"id": "PS_93BB740C3421", "station_group_id": "SG_054B2AE1A9F1", "name_en": "山ノ目", "name_ja": "山ノ目", "label_rank": 72, "tags": ["tokyo", "v3"]}}, {"type": "Feature", "bbox": [141.117815, 38.987885, 141.117815, 38.987885], "geometry": {"type": "Point", "coordinates": [141.117815, 38.987885]}, "properties": {"id": "PS_538F621992C9", "station_group_id": "SG_4FF2BAA8EF4D", "name_en": "平泉", "name_ja": "平泉", "label_rank": 72, "tags": ["tokyo", "v3"]}}, {"type": "Feature", "bbox": [141.120895, 38.86744, 141.120895, 38.86744], "geometry": {"type": "Point", "coordinates": [141.120895, 38.86744]}, "properties": {"id": "PS_E810F3AA882C", "station_group_id": "SG_075C09594C8F", "name_en": "有壁", "name_ja": "有壁", "label_rank": 72, "tags": ["tokyo", "v3"]}}, {"type": "Feature", "bbox": [141.17572, 38.797105, 141.17572, 38.797105], "geometry": {"type": "Point", "coordinates": [141.17572, 38.797105]}, "properties": {"id": "PS_08A3AD0D910F", "station_group_id": "SG_F278EC91A035", "name_en": "油島", "name_ja": "油島", "label_rank": 72, "tags": ["tokyo", "v3"]}}, {"type": "Feature", "bbox": [141.15642, 38.8549, 141.15642, 38.8549], "geometry": {"type": "Point", "coordinates": [141.15642, 38.8549]}, "properties": {"id": "PS_2B82BCAB90D5", "station_group_id": "SG_3132982D91EA", "name_en": "清水原", "name_ja": "清水原", "label_rank": 72, "tags": ["tokyo", "v3"]}}, {"type": "Feature", "bbox": [141.15915999999999, 38.76882500000001, 141.15915999999999, 38.76882500000001], "geometry": {"type": "Point", "coordinates": [141.15915999999999, 38.76882500000001]}, "properties": {"id": "PS_4C44FC02EEDD", "station_group_id": "SG_B6C478E2326B", "name_en": "石越", "name_ja": "石越", "label_rank": 72, "tags": ["tokyo", "v3"]}}, {"type": "Feature", "bbox": [141.18001500000003, 38.833365, 141.18001500000003, 38.833365], "geometry": {"type": "Point", "coordinates": [141.18001500000003, 38.833365]}, "properties": {"id": "PS_75B1E041C887", "station_group_id": "SG_4B4B0713D07C", "name_en": "花泉", "name_ja": "花泉", "label_rank": 72, "tags": ["tokyo", "v3"]}}]}