{"type": "FeatureCollection", "features": [{"type": "Feature", "bbox": [141.07157, 38.748850000000004, 141.07157, 38.748850000000004], "geometry": {"type": "Point", "coordinates": [141.07157, 38.748850000000004]}, "properties": {"id": "PS_A26741CC7C62", "station_group_id": "SG_0624C2FF41A6", "operator_id": "jr_east", "operator_ids": "jr_east", "name_en": "くりこま高原", "name_ja": "くりこま高原", "label_rank": 72, "tags": ["tokyo", "v3"]}}, {"type": "Feature", "bbox": [141.064415, 38.54066, 141.064415, 38.54066], "geometry": {"type": "Point", "coordinates": [141.064415, 38.54066]}, "properties": {"id": "PS_ECB5B4C92D8C", "station_group_id": "SG_D5ABC48960B1", "operator_id": "jr_east", "operator_ids": "jr_east", "name_en": "小牛田", "name_ja": "小牛田", "label_rank": 72, "tags": ["tokyo", "v3"]}}, {"type": "Feature", "bbox": [141.119465, 38.711515000000006, 141.119465, 38.711515000000006], "geometry": {"type": "Point", "coordinates": [141.119465, 38.711515000000006]}, "properties": {"id": "PS_478EB0A86310", "station_group_id": "SG_16B6358F85D9", "operator_id": "jr_east", "operator_ids": "jr_east", "name_en": "新田", "name_ja": "新田", "label_rank": 72, "tags": ["tokyo", "v3"]}}, {"type": "Feature", "bbox": [141.07492000000002, 38.512705, 141.07492000000002, 38.512705], "geometry": {"type": "Point", "coordinates": [141.07492000000002, 38.512705]}, "properties": {"id": "PS_978CA3A0E733", "station_group_id": "SG_D0C10272C97B", "operator_id": "jr_east", "operator_ids": "jr_east", "name_en": "松山町", "name_ja": "松山町", "label_rank": 72, "tags": ["tokyo", "v3"]}}, {"type": "Feature", "bbox": [141.08529499999997, 38.681655, 141.08529499999997, 38.681655], "geometry": {"type": "Point", "coordinates": [141.08529499999997, 38.681655]}, "properties": {"id": "PS_FF4B78E46F04", "station_group_id": "SG_274A1E4CF015", "operator_id": "jr_east", "operator_ids": "jr_east", "name_en": "梅ヶ沢", "name_ja": "梅ヶ沢", "label_rank": 72, "tags": ["tokyo", "v3"]}}, {"type": "Feature", "bbox": [141.07385499999998, 38.655609999999996, 141.07385499999998, 38.655609999999996], "geometry": {"type": "Point", "coordinates": [141.07385499999998, 38.655609999999996]}, "properties": {"id": "PS_79A1B8BBEE64", "station_group_id": "SG_A19471BE4963", "operator_id": "jr_east", "operator_ids": "jr_east", "name_en": "瀬峰", "name_ja": "瀬峰", "label_rank": 72, "tags": ["tokyo", "v3"]}}, {"type": "Feature", "bbox": [141.059035, 38.596270000000004, 141.059035, 38.596270000000004], "geometry": {"type": "Point", "coordinates": [141.059035, 38.596270000000004]}, "properties": {"id": "PS_516611026A70", "station_group_id": "SG_256B6A639149", "operator_id": "jr_east", "operator_ids": "jr_east", "name_en": "田尻", "name_ja": "田尻", "label_rank": 72, "tags": ["tokyo", "v3"]}}]}