{"type": "FeatureCollection", "features": [{"type": "Feature", "bbox": [141.08227, 38.43157, 141.08227, 38.43157], "geometry": {"type": "Point", "coordinates": [141.08227, 38.43157]}, "properties": {"id": "PS_0CDB3E467399", "station_group_id": "SG_9FB73CA13B50", "name_en": "品井沼", "name_ja": "品井沼", "label_rank": 72, "tags": ["tokyo", "v3"]}}, {"type": "Feature", "bbox": [141.009545, 38.309665, 141.009545, 38.309665], "geometry": {"type": "Point", "coordinates": [141.009545, 38.309665]}, "properties": {"id": "PS_271D69D48DFE", "station_group_id": "SG_9F5D9B65F1E2", "name_en": "塩釜", "name_ja": "塩釜", "label_rank": 72, "tags": ["tokyo", "v3"]}}, {"type": "Feature", "bbox": [141.06518, 38.397645, 141.06518, 38.397645], "geometry": {"type": "Point", "coordinates": [141.06518, 38.397645]}, "properties": {"id": "PS_89FCF8ABAC87", "station_group_id": "SG_C1016CBB43D5", "name_en": "愛宕", "name_ja": "愛宕", "label_rank": 72, "tags": ["tokyo", "v3"]}}, {"type": "Feature", "bbox": [141.065405, 38.37944, 141.065405, 38.37944], "geometry": {"type": "Point", "coordinates": [141.065405, 38.37944]}, "properties": {"id": "PS_98CB772D90F8", "station_group_id": "SG_F8565F22DDF2", "name_en": "松島", "name_ja": "松島", "label_rank": 72, "tags": ["tokyo", "v3"]}}, {"type": "Feature", "bbox": [141.07355, 38.382825, 141.07355, 38.382825], "geometry": {"type": "Point", "coordinates": [141.07355, 38.382825]}, "properties": {"id": "PS_B4D292BE3A96", "station_group_id": "SG_C5E90B64BEF3", "name_en": "高城町", "name_ja": "高城町", "label_rank": 72, "tags": ["tokyo", "v3"]}}, {"type": "Feature", "bbox": [141.097965, 38.474515, 141.097965, 38.474515], "geometry": {"type": "Point", "coordinates": [141.097965, 38.474515]}, "properties": {"id": "PS_D82175117D38", "station_group_id": "SG_C9B5BB354C07", "name_en": "鹿島台", "name_ja": "鹿島台", "label_rank": 72, "tags": ["tokyo", "v3"]}}]}