{"type": "FeatureCollection", "features": [{"type": "Feature", "bbox": [140.6934695, 40.828104, 140.6934695, 40.828104], "geometry": {"type": "Point", "coordinates": [140.6934695, 40.828104]}, "properties": {"id": "PS_6B64A2512EB0", "station_group_id": "SG_2BA2FF558574", "operator_id": "jr_east", "operator_ids": "jr_east", "name_en": "新青森", "name_ja": "新青森", "label_rank": 72, "tags": ["tokyo", "v3"]}}, {"type": "Feature", "bbox": [140.6934695, 40.828104, 140.6934695, 40.828104], "geometry": {"type": "Point", "coordinates": [140.6934695, 40.828104]}, "properties": {"id": "PS_DDD2180DECBA", "station_group_id": "SG_2BA2FF558574", "operator_id": "jr_hokkaido", "operator_ids": "jr_hokkaido", "name_en": "新青森", "name_ja": "新青森", "label_rank": 72, "tags": ["tokyo", "v3"]}}]}