{"type": "FeatureCollection", "features": [{"type": "Feature", "bbox": [140.57118, 39.591795000000005, 140.57118, 39.591795000000005], "geometry": {"type": "Point", "coordinates": [140.57118, 39.591795000000005]}, "properties": {"id": "PS_846759BF42A1", "station_group_id": "SG_42D36E0FFB32", "operator_id": "秋田内陸縦貫鉄道", "operator_ids": "秋田内陸縦貫鉄道", "name_en": "角館", "name_ja": "角館", "label_rank": 72, "tags": ["tokyo", "v3"]}}, {"type": "Feature", "bbox": [140.57118, 39.591795000000005, 140.57118, 39.591795000000005], "geometry": {"type": "Point", "coordinates": [140.57118, 39.591795000000005]}, "properties": {"id": "PS_55FE7CED13C1", "station_group_id": "SG_42D36E0FFB32", "operator_id": "jr_east", "operator_ids": "jr_east", "name_en": "角館", "name_ja": "角館", "label_rank": 72, "tags": ["tokyo", "v3"]}}]}