{"type": "FeatureCollection", "features": [{"type": "Feature", "bbox": [140.47954, 39.46586, 140.47954, 39.46586], "geometry": {"type": "Point", "coordinates": [140.47954, 39.46586]}, "properties": {"id": "PS_CA775DE09716", "station_group_id": "SG_3500DB0EA0FA", "operator_id": "jr_east", "operator_ids": "jr_east", "name_en": "大曲", "name_ja": "大曲", "label_rank": 72, "tags": ["tokyo", "v3"]}}, {"type": "Feature", "bbox": [140.47954, 39.46586, 140.47954, 39.46586], "geometry": {"type": "Point", "coordinates": [140.47954, 39.46586]}, "properties": {"id": "PS_CF3DA5618AE3", "station_group_id": "SG_3500DB0EA0FA", "operator_id": "jr_east", "operator_ids": "jr_east", "name_en": "大曲", "name_ja": "大曲", "label_rank": 72, "tags": ["tokyo", "v3"]}}]}