{"type": "FeatureCollection", "features": [{"type": "Feature", "bbox": [140.69255, 38.03245, 140.69255, 38.03245], "geometry": {"type": "Point", "coordinates": [140.69255, 38.03245]}, "properties": {"id": "PS_C4F0C1B807DE", "station_group_id": "SG_B2AAE9913BC0", "name_en": "北白川", "name_ja": "北白川", "label_rank": 72, "tags": ["tokyo", "v3"]}}, {"type": "Feature", "bbox": [140.65098, 38.035045, 140.65098, 38.035045], "geometry": {"type": "Point", "coordinates": [140.65098, 38.035045]}, "properties": {"id": "PS_8962A36667DD", "station_group_id": "SG_5D82AA87A9D2", "name_en": "東白石", "name_ja": "東白石", "label_rank": 72, "tags": ["tokyo", "v3"]}}, {"type": "Feature", "bbox": [140.62626, 38.003205, 140.62626, 38.003205], "geometry": {"type": "Point", "coordinates": [140.62626, 38.003205]}, "properties": {"id": "PS_BE81CC95D3A2", "station_group_id": "SG_FA159D98409E", "name_en": "白石", "name_ja": "白石", "label_rank": 72, "tags": ["tokyo", "v3"]}}, {"type": "Feature", "bbox": [140.632785, 37.994775000000004, 140.632785, 37.994775000000004], "geometry": {"type": "Point", "coordinates": [140.632785, 37.994775000000004]}, "properties": {"id": "PS_9DF405CC80C4", "station_group_id": "SG_7984EF6A3023", "name_en": "白石蔵王", "name_ja": "白石蔵王", "label_rank": 72, "tags": ["tokyo", "v3"]}}]}