{"type": "FeatureCollection", "features": [{"type": "Feature", "bbox": [140.49338, 37.824275, 140.49338, 37.824275], "geometry": {"type": "Point", "coordinates": [140.49338, 37.824275]}, "properties": {"id": "PS_CA0F12E9972D", "station_group_id": "SG_7757E8024223", "operator_id": "jr_east", "operator_ids": "jr_east", "name_en": "伊達", "name_ja": "伊達", "label_rank": 72, "tags": ["tokyo", "v3"]}}, {"type": "Feature", "bbox": [140.477345, 37.799765, 140.477345, 37.799765], "geometry": {"type": "Point", "coordinates": [140.477345, 37.799765]}, "properties": {"id": "PS_7D5551495731", "station_group_id": "SG_DA8D7DE57E87", "operator_id": "jr_east", "operator_ids": "jr_east", "name_en": "東福島", "name_ja": "東福島", "label_rank": 72, "tags": ["tokyo", "v3"]}}, {"type": "Feature", "bbox": [140.517315, 37.85517, 140.517315, 37.85517], "geometry": {"type": "Point", "coordinates": [140.517315, 37.85517]}, "properties": {"id": "PS_0205129D3055", "station_group_id": "SG_1A88B7B777A9", "operator_id": "jr_east", "operator_ids": "jr_east", "name_en": "桑折", "name_ja": "桑折", "label_rank": 72, "tags": ["tokyo", "v3"]}}, {"type": "Feature", "bbox": [140.45861000000002, 37.754059999999996, 140.45861000000002, 37.754059999999996], "geometry": {"type": "Point", "coordinates": [140.45861000000002, 37.754059999999996]}, "properties": {"id": "PS_298BD06C6D16", "station_group_id": "SG_FE1E54A3D980", "operator_id": "jr_east", "operator_ids": "jr_east", "name_en": "福島", "name_ja": "福島", "label_rank": 72, "tags": ["tokyo", "v3"]}}, {"type": "Feature", "bbox": [140.45992999999999, 37.754315000000005, 140.45992999999999, 37.754315000000005], "geometry": {"type": "Point", "coordinates": [140.45992999999999, 37.754315000000005]}, "properties": {"id": "PS_A108F63D57D7", "station_group_id": "SG_FE1E54A3D980", "operator_id": "jr_east", "operator_ids": "jr_east", "name_en": "福島", "name_ja": "福島", "label_rank": 72, "tags": ["tokyo", "v3"]}}, {"type": "Feature", "bbox": [140.45976000000002, 37.754315000000005, 140.45976000000002, 37.754315000000005], "geometry": {"type": "Point", "coordinates": [140.45976000000002, 37.754315000000005]}, "properties": {"id": "PS_0AE2892A7FC0", "station_group_id": "SG_FE1E54A3D980", "operator_id": "jr_east", "operator_ids": "jr_east", "name_en": "福島", "name_ja": "福島", "label_rank": 72, "tags": ["tokyo", "v3"]}}, {"type": "Feature", "bbox": [140.53941500000002, 37.878879999999995, 140.53941500000002, 37.878879999999995], "geometry": {"type": "Point", "coordinates": [140.53941500000002, 37.878879999999995]}, "properties": {"id": "PS_81B4CD34C7B5", "station_group_id": "SG_DC302A38639F", "operator_id": "jr_east", "operator_ids": "jr_east", "name_en": "藤田", "name_ja": "藤田", "label_rank": 72, "tags": ["tokyo", "v3"]}}, {"type": "Feature", "bbox": [140.58098, 37.90811, 140.58098, 37.90811], "geometry": {"type": "Point", "coordinates": [140.58098, 37.90811]}, "properties": {"id": "PS_ED3CA92E4127", "station_group_id": "SG_61112E64505B", "operator_id": "jr_east", "operator_ids": "jr_east", "name_en": "貝田", "name_ja": "貝田", "label_rank": 72, "tags": ["tokyo", "v3"]}}, {"type": "Feature", "bbox": [140.604425, 37.933555, 140.604425, 37.933555], "geometry": {"type": "Point", "coordinates": [140.604425, 37.933555]}, "properties": {"id": "PS_30665EEC7B48", "station_group_id": "SG_D83BB4B2BEBE", "operator_id": "jr_east", "operator_ids": "jr_east", "name_en": "越河", "name_ja": "越河", "label_rank": 72, "tags": ["tokyo", "v3"]}}]}