{"type": "FeatureCollection", "features": [{"type": "Feature", "bbox": [140.43552, 37.589465000000004, 140.43552, 37.589465000000004], "geometry": {"type": "Point", "coordinates": [140.43552, 37.589465000000004]}, "properties": {"id": "PS_2B99AC64B896", "station_group_id": "SG_1EB8D178FD8E", "operator_id": "jr_east", "operator_ids": "jr_east", "name_en": "二本松", "name_ja": "二本松", "label_rank": 72, "tags": ["tokyo", "v3"]}}, {"type": "Feature", "bbox": [140.455835, 37.723815, 140.455835, 37.723815], "geometry": {"type": "Point", "coordinates": [140.455835, 37.723815]}, "properties": {"id": "PS_D638112BFDBF", "station_group_id": "SG_5364A47AE1F1", "operator_id": "jr_east", "operator_ids": "jr_east", "name_en": "南福島", "name_ja": "南福島", "label_rank": 72, "tags": ["tokyo", "v3"]}}, {"type": "Feature", "bbox": [140.46668, 37.61264, 140.46668, 37.61264], "geometry": {"type": "Point", "coordinates": [140.46668, 37.61264]}, "properties": {"id": "PS_29203F7741A2", "station_group_id": "SG_53693474F0DF", "operator_id": "jr_east", "operator_ids": "jr_east", "name_en": "安達", "name_ja": "安達", "label_rank": 72, "tags": ["tokyo", "v3"]}}, {"type": "Feature", "bbox": [140.48416500000002, 37.653505, 140.48416500000002, 37.653505], "geometry": {"type": "Point", "coordinates": [140.48416500000002, 37.653505]}, "properties": {"id": "PS_51806C194C3C", "station_group_id": "SG_2432A6757735", "operator_id": "jr_east", "operator_ids": "jr_east", "name_en": "松川", "name_ja": "松川", "label_rank": 72, "tags": ["tokyo", "v3"]}}, {"type": "Feature", "bbox": [140.45200499999999, 37.680710000000005, 140.45200499999999, 37.680710000000005], "geometry": {"type": "Point", "coordinates": [140.45200499999999, 37.680710000000005]}, "properties": {"id": "PS_ADB3B90C698B", "station_group_id": "SG_5976C42DA4AD", "operator_id": "jr_east", "operator_ids": "jr_east", "name_en": "金谷川", "name_ja": "金谷川", "label_rank": 72, "tags": ["tokyo", "v3"]}}]}