{"type": "FeatureCollection", "features": [{"type": "Feature", "bbox": [140.685945, 36.67138, 140.685945, 36.67138], "geometry": {"type": "Point", "coordinates": [140.685945, 36.67138]}, "properties": {"id": "PS_4D0C8C6479E4", "station_group_id": "SG_883B42DF4469", "name_en": "十王", "name_ja": "十王", "label_rank": 72, "tags": ["tokyo", "v3"]}}, {"type": "Feature", "bbox": [140.619435, 36.512925, 140.619435, 36.512925], "geometry": {"type": "Point", "coordinates": [140.619435, 36.512925]}, "properties": {"id": "PS_F9782553A988", "station_group_id": "SG_A7AB79B75753", "name_en": "大甕", "name_ja": "大甕", "label_rank": 72, "tags": ["tokyo", "v3"]}}, {"type": "Feature", "bbox": [140.675295, 36.63664, 140.675295, 36.63664], "geometry": {"type": "Point", "coordinates": [140.675295, 36.63664]}, "properties": {"id": "PS_CD79FD9F4B16", "station_group_id": "SG_72C6DFC10334", "name_en": "小木津", "name_ja": "小木津", "label_rank": 72, "tags": ["tokyo", "v3"]}}, {"type": "Feature", "bbox": [140.63272, 36.552115, 140.63272, 36.552115], "geometry": {"type": "Point", "coordinates": [140.63272, 36.552115]}, "properties": {"id": "PS_E1FC98C114E1", "station_group_id": "SG_96CA03569B6A", "name_en": "常陸多賀", "name_ja": "常陸多賀", "label_rank": 72, "tags": ["tokyo", "v3"]}}, {"type": "Feature", "bbox": [140.66180000000003, 36.590325, 140.66180000000003, 36.590325], "geometry": {"type": "Point", "coordinates": [140.66180000000003, 36.590325]}, "properties": {"id": "PS_9823B580D83B", "station_group_id": "SG_08C5BB646B28", "name_en": "日立", "name_ja": "日立", "label_rank": 72, "tags": ["tokyo", "v3"]}}, {"type": "Feature", "bbox": [140.566035, 36.4655, 140.566035, 36.4655], "geometry": {"type": "Point", "coordinates": [140.566035, 36.4655]}, "properties": {"id": "PS_D50862C6A2E6", "station_group_id": "SG_0D6A9734FFE6", "name_en": "東海", "name_ja": "東海", "label_rank": 72, "tags": ["tokyo", "v3"]}}]}