{"type": "FeatureCollection", "features": [{"type": "Feature", "bbox": [140.54050999999998, 36.43047, 140.54050999999998, 36.43047], "geometry": {"type": "Point", "coordinates": [140.54050999999998, 36.43047]}, "properties": {"id": "PS_E2378A8C67FD", "station_group_id": "SG_72073B67B5FB", "name_en": "佐和", "name_ja": "佐和", "label_rank": 72, "tags": ["tokyo", "v3"]}}, {"type": "Feature", "bbox": [140.45634, 36.37303, 140.45634, 36.37303], "geometry": {"type": "Point", "coordinates": [140.45634, 36.37303]}, "properties": {"id": "PS_73C26537DE40", "station_group_id": "SG_BF2AC143F445", "name_en": "偕楽園", "name_ja": "偕楽園", "label_rank": 72, "tags": ["tokyo", "v3"]}}, {"type": "Feature", "bbox": [140.524215, 36.394075, 140.524215, 36.394075], "geometry": {"type": "Point", "coordinates": [140.524215, 36.394075]}, "properties": {"id": "PS_7E2900E8DDA1", "station_group_id": "SG_04E69BC062CD", "name_en": "勝田", "name_ja": "勝田", "label_rank": 72, "tags": ["tokyo", "v3"]}}, {"type": "Feature", "bbox": [140.47721, 36.370865, 140.47721, 36.370865], "geometry": {"type": "Point", "coordinates": [140.47721, 36.370865]}, "properties": {"id": "PS_7B07BA42EB7E", "station_group_id": "SG_5316F04894B6", "name_en": "水戸", "name_ja": "水戸", "label_rank": 72, "tags": ["tokyo", "v3"]}}]}