{"type": "FeatureCollection", "features": [{"type": "Feature", "bbox": [140.588805, 35.958095, 140.588805, 35.958095], "geometry": {"type": "Point", "coordinates": [140.588805, 35.958095]}, "properties": {"id": "PS_64CE45DEA97E", "station_group_id": "SG_4B08FCF3C064", "name_en": "延方", "name_ja": "延方", "label_rank": 72, "tags": ["tokyo", "v3"]}}, {"type": "Feature", "bbox": [140.54969, 35.937455, 140.54969, 35.937455], "geometry": {"type": "Point", "coordinates": [140.54969, 35.937455]}, "properties": {"id": "PS_ECDE5EA8FAA3", "station_group_id": "SG_E5C6B30ADEBA", "name_en": "潮来", "name_ja": "潮来", "label_rank": 72, "tags": ["tokyo", "v3"]}}, {"type": "Feature", "bbox": [140.62576333333334, 35.970670000000005, 140.62576333333334, 35.970670000000005], "geometry": {"type": "Point", "coordinates": [140.62576333333334, 35.970670000000005]}, "properties": {"id": "PS_2656D3E3C3C0", "station_group_id": "SG_B955990A39AE", "name_en": "鹿島神宮", "name_ja": "鹿島神宮", "label_rank": 72, "tags": ["tokyo", "v3"]}}]}