{"type": "FeatureCollection", "features": [{"type": "Feature", "bbox": [140.70215000000002, 35.818785, 140.70215000000002, 35.818785], "geometry": {"type": "Point", "coordinates": [140.70215000000002, 35.818785]}, "properties": {"id": "PS_84ECC766B0C0", "station_group_id": "SG_B6D685D2C4D5", "operator_id": "jr_east", "operator_ids": "jr_east", "name_en": "下総橘", "name_ja": "下総橘", "label_rank": 72, "tags": ["tokyo", "v3"]}}, {"type": "Feature", "bbox": [140.49377, 35.89493, 140.49377, 35.89493], "geometry": {"type": "Point", "coordinates": [140.49377, 35.89493]}, "properties": {"id": "PS_25CAE99653D8", "station_group_id": "SG_757E7D41FC09", "operator_id": "jr_east", "operator_ids": "jr_east", "name_en": "佐原", "name_ja": "佐原", "label_rank": 72, "tags": ["tokyo", "v3"]}}, {"type": "Feature", "bbox": [140.71399000000002, 35.737755, 140.71399000000002, 35.737755], "geometry": {"type": "Point", "coordinates": [140.71399000000002, 35.737755]}, "properties": {"id": "PS_F7888D5916A6", "station_group_id": "SG_A36B2E6DA74D", "operator_id": "jr_east", "operator_ids": "jr_east", "name_en": "倉橋", "name_ja": "倉橋", "label_rank": 72, "tags": ["tokyo", "v3"]}}, {"type": "Feature", "bbox": [140.552395, 35.699295, 140.552395, 35.699295], "geometry": {"type": "Point", "coordinates": [140.552395, 35.699295]}, "properties": {"id": "PS_CCCEFB5F8D4F", "station_group_id": "SG_1E38F6F7B215", "operator_id": "jr_east", "operator_ids": "jr_east", "name_en": "八日市場", "name_ja": "八日市場", "label_rank": 72, "tags": ["tokyo", "v3"]}}, {"type": "Feature", "bbox": [140.54583000000002, 35.91702, 140.54583000000002, 35.91702], "geometry": {"type": "Point", "coordinates": [140.54583000000002, 35.91702]}, "properties": {"id": "PS_7F8324876247", "station_group_id": "SG_D901B739FC70", "operator_id": "jr_east", "operator_ids": "jr_east", "name_en": "十二橋", "name_ja": "十二橋", "label_rank": 72, "tags": ["tokyo", "v3"]}}, {"type": "Feature", "bbox": [140.45773, 35.88993, 140.45773, 35.88993], "geometry": {"type": "Point", "coordinates": [140.45773, 35.88993]}, "properties": {"id": "PS_4BFE55EABA75", "station_group_id": "SG_A9C1C891B2B5", "operator_id": "jr_east", "operator_ids": "jr_east", "name_en": "大戸", "name_ja": "大戸", "label_rank": 72, "tags": ["tokyo", "v3"]}}, {"type": "Feature", "bbox": [140.6046, 35.84998, 140.6046, 35.84998], "geometry": {"type": "Point", "coordinates": [140.6046, 35.84998]}, "properties": {"id": "PS_9A79E216BEEB", "station_group_id": "SG_CADDB5B06B59", "operator_id": "jr_east", "operator_ids": "jr_east", "name_en": "小見川", "name_ja": "小見川", "label_rank": 72, "tags": ["tokyo", "v3"]}}, {"type": "Feature", "bbox": [140.60331000000002, 35.718345, 140.60331000000002, 35.718345], "geometry": {"type": "Point", "coordinates": [140.60331000000002, 35.718345]}, "properties": {"id": "PS_F990EF1C220E", "station_group_id": "SG_C96198B189E7", "operator_id": "jr_east", "operator_ids": "jr_east", "name_en": "干潟", "name_ja": "干潟", "label_rank": 72, "tags": ["tokyo", "v3"]}}, {"type": "Feature", "bbox": [140.65469000000002, 35.721835, 140.65469000000002, 35.721835], "geometry": {"type": "Point", "coordinates": [140.65469000000002, 35.721835]}, "properties": {"id": "PS_8F4AA36EFB1D", "station_group_id": "SG_A89140F7F8E1", "operator_id": "jr_east", "operator_ids": "jr_east", "name_en": "旭", "name_ja": "旭", "label_rank": 72, "tags": ["tokyo", "v3"]}}, {"type": "Feature", "bbox": [140.570175, 35.885455, 140.570175, 35.885455], "geometry": {"type": "Point", "coordinates": [140.570175, 35.885455]}, "properties": {"id": "PS_3D174A29A35F", "station_group_id": "SG_D9D0FAB56D28", "operator_id": "jr_east", "operator_ids": "jr_east", "name_en": "水郷", "name_ja": "水郷", "label_rank": 72, "tags": ["tokyo", "v3"]}}, {"type": "Feature", "bbox": [140.655825, 35.83943, 140.655825, 35.83943], "geometry": {"type": "Point", "coordinates": [140.655825, 35.83943]}, "properties": {"id": "PS_63E82899E75B", "station_group_id": "SG_95865A278F9F", "operator_id": "jr_east", "operator_ids": "jr_east", "name_en": "笹川", "name_ja": "笹川", "label_rank": 72, "tags": ["tokyo", "v3"]}}, {"type": "Feature", "bbox": [140.521415, 35.68509, 140.521415, 35.68509], "geometry": {"type": "Point", "coordinates": [140.521415, 35.68509]}, "properties": {"id": "PS_957EF4EB1F75", "station_group_id": "SG_1CDCF0C7CC8D", "operator_id": "jr_east", "operator_ids": "jr_east", "name_en": "飯倉", "name_ja": "飯倉", "label_rank": 72, "tags": ["tokyo", "v3"]}}, {"type": "Feature", "bbox": [140.68335, 35.72938, 140.68335, 35.72938], "geometry": {"type": "Point", "coordinates": [140.68335, 35.72938]}, "properties": {"id": "PS_D99B4272D859", "station_group_id": "SG_37D5E7344FF3", "operator_id": "jr_east", "operator_ids": "jr_east", "name_en": "飯岡", "name_ja": "飯岡", "label_rank": 72, "tags": ["tokyo", "v3"]}}, {"type": "Feature", "bbox": [140.53241, 35.897885, 140.53241, 35.897885], "geometry": {"type": "Point", "coordinates": [140.53241, 35.897885]}, "properties": {"id": "PS_29A7F65DAD69", "station_group_id": "SG_46B775C3D26C", "operator_id": "jr_east", "operator_ids": "jr_east", "name_en": "香取", "name_ja": "香取", "label_rank": 72, "tags": ["tokyo", "v3"]}}, {"type": "Feature", "bbox": [140.53241, 35.897885, 140.53241, 35.897885], "geometry": {"type": "Point", "coordinates": [140.53241, 35.897885]}, "properties": {"id": "PS_6047974E6561", "station_group_id": "SG_46B775C3D26C", "operator_id": "jr_east", "operator_ids": "jr_east", "name_en": "香取", "name_ja": "香取", "label_rank": 72, "tags": ["tokyo", "v3"]}}]}