{"type": "FeatureCollection", "features": [{"type": "Feature", "bbox": [140.458075, 35.636355, 140.458075, 35.636355], "geometry": {"type": "Point", "coordinates": [140.458075, 35.636355]}, "properties": {"id": "PS_54B7178B8F85", "station_group_id": "SG_5EE59D6A0CAA", "name_en": "松尾", "name_ja": "松尾", "label_rank": 72, "tags": ["tokyo", "v3"]}}, {"type": "Feature", "bbox": [140.49077499999999, 35.661784999999995, 140.49077499999999, 35.661784999999995], "geometry": {"type": "Point", "coordinates": [140.49077499999999, 35.661784999999995]}, "properties": {"id": "PS_2D9183C126D2", "station_group_id": "SG_8E7080D6D596", "name_en": "横芝", "name_ja": "横芝", "label_rank": 72, "tags": ["tokyo", "v3"]}}]}