{"type": "FeatureCollection", "features": [{"type": "Feature", "bbox": [133.68009, 34.56619, 133.91692, 34.66427], "geometry": {"type": "LineString", "coordinates": [[133.91692, 34.66427], [133.91629, 34.66368], [133.91549, 34.66304], [133.91516, 34.66282], [133.91488, 34.66265], [133.91461, 34.66249], [133.91413, 34.66223], [133.91346, 34.66189], [133.91269, 34.66153], [133.91232, 34.66135], [133.91161, 34.66102], [133.9105, 34.66049], [133.91013, 34.66035], [133.9097, 34.66019], [133.90913, 34.66002], [133.90854, 34.65989], [133.90762, 34.65971], [133.90681, 34.65959], [133.90649, 34.65955], [133.90616, 34.65952], [133.90578, 34.6595], [133.90455, 34.65948], [133.90366, 34.65945], [133.90301, 34.65944], [133.90171, 34.65942], [133.90152, 34.65942], [133.9006, 34.65939], [133.9003, 34.65939], [133.89999, 34.65939], [133.89911, 34.65936], [133.89802, 34.65933], [133.8971, 34.6593], [133.89624, 34.65923], [133.89517, 34.65915], [133.89443, 34.65908], [133.89425, 34.65906], [133.8939, 34.65902], [133.89248, 34.65885], [133.89129, 34.65869], [133.88975, 34.65848], [133.8884, 34.65829], [133.88696, 34.6581], [133.88559, 34.65791], [133.88416, 34.65772], [133.88331, 34.6576], [133.88278, 34.65753], [133.8814, 34.65733], [133.88005, 34.65716], [133.87862, 34.65696], [133.8772, 34.65677], [133.87587, 34.65661], [133.87551, 34.65657], [133.87452, 34.65647], [133.87319, 34.65636], [133.87235, 34.6563], [133.87107, 34.65618], [133.87048, 34.65613], [133.8667, 34.65581], [133.86232, 34.65545], [133.85946, 34.65521], [133.85795, 34.65509], [133.8536, 34.65473], [133.84922, 34.65434], [133.84843, 34.65428], [133.84485, 34.65398], [133.8436, 34.65387], [133.842, 34.6537], [133.8405, 34.65351], [133.83982, 34.65339], [133.83773, 34.65301], [133.83748, 34.65295], [133.83622, 34.65267], [133.83612, 34.65264], [133.83484, 34.65234], [133.83459, 34.65227], [133.83356, 34.65199], [133.83174, 34.65149], [133.83041, 34.65111], [133.82736, 34.65025], [133.82298, 34.64898], [133.81996, 34.64811], [133.8186, 34.64771], [133.81394, 34.64635], [133.80989, 34.64517], [133.80953, 34.64507], [133.80571, 34.64402], [133.80152, 34.64285], [133.80037, 34.64252], [133.79741, 34.64169], [133.79331, 34.64056], [133.79308, 34.6405], [133.79172, 34.64016], [133.78896, 34.63944], [133.78581, 34.63864], [133.78472, 34.63836], [133.78042, 34.63731], [133.77974, 34.63715], [133.77607, 34.63625], [133.77544, 34.63609], [133.7752, 34.63603], [133.7736, 34.63563], [133.77351, 34.63561], [133.7717, 34.63516], [133.77066, 34.63491], [133.7696, 34.63463], [133.76733, 34.63399], [133.76649, 34.63376], [133.76391, 34.63294], [133.76304, 34.63265], [133.76237, 34.63243], [133.7613, 34.63204], [133.76028, 34.63163], [133.75865, 34.63094], [133.75783, 34.6306], [133.7564, 34.62995], [133.75426, 34.62899], [133.75323, 34.62848], [133.75306, 34.62839], [133.75212, 34.62791], [133.75119, 34.62742], [133.75066, 34.62712], [133.74979, 34.62662], [133.74889, 34.62608], [133.74808, 34.6256], [133.74736, 34.62514], [133.74598, 34.62408], [133.74553, 34.62376], [133.7444, 34.62293], [133.74395, 34.6226], [133.7419, 34.62112], [133.74158, 34.62086], [133.73984, 34.61958], [133.73901, 34.61896], [133.73736, 34.61776], [133.73705, 34.61753], [133.73615, 34.61687], [133.7349, 34.61595], [133.7337, 34.61508], [133.73287, 34.61448], [133.7311, 34.61319], [133.72999, 34.61235], [133.72882, 34.6115], [133.72703, 34.61019], [133.72401, 34.60798], [133.72126, 34.60596], [133.71994, 34.60496], [133.71849, 34.60392], [133.7172, 34.60298], [133.71696, 34.60281], [133.71675, 34.60266], [133.7151, 34.60143], [133.71263, 34.59963], [133.71163, 34.59888], [133.71063, 34.59812], [133.70995, 34.59759], [133.70943, 34.59713], [133.7089, 34.59664], [133.70874, 34.59649], [133.70739, 34.59518], [133.70654, 34.59424], [133.70591, 34.59349], [133.70542, 34.5929], [133.70472, 34.59201], [133.70437, 34.59155], [133.70347, 34.59033], [133.70345, 34.59031], [133.70284, 34.58946], [133.70177, 34.58786], [133.70126, 34.58706], [133.70092, 34.58657], [133.70069, 34.5862], [133.69917, 34.5839], [133.69899, 34.58362], [133.69858, 34.583], [133.69798, 34.58209], [133.69776, 34.58178], [133.69752, 34.58142], [133.69669, 34.58024], [133.69638, 34.57981], [133.69567, 34.57885], [133.69489, 34.57784], [133.69457, 34.57748], [133.69385, 34.57667], [133.69284, 34.57563], [133.69263, 34.57541], [133.69203, 34.57481], [133.69101, 34.57386], [133.69003, 34.573], [133.68909, 34.57223], [133.68871, 34.57194], [133.68819, 34.57154], [133.68697, 34.57063], [133.68615, 34.57006], [133.68521, 34.56946], [133.6812, 34.56689], [133.68015, 34.56623], [133.68009, 34.56619]]}, "properties": {"id": "GEOM_TOKYO_0663", "route_id": "R_A02272B9", "route_name": null, "route_color": null, "route_text_color": null, "representation": "service_path", "min_zoom": 0, "max_zoom": 24, "offset_rank": 0}}]}