{"type": "FeatureCollection", "features": [{"type": "Feature", "bbox": [138.18749, 36.64188, 138.19025, 36.64375], "geometry": {"type": "LineString", "coordinates": [[138.18749, 36.64188], [138.19025, 36.64375]]}, "properties": {"id": "TRACK_TOKYO_3450", "line_name": "北陸新幹線", "station_group_ids": [], "mode": "shinkansen", "operator_id": "jr_east", "tags": ["tokyo", "track_centerline"]}}, {"type": "Feature", "bbox": [138.13063, 36.3971, 138.24913, 36.64188], "geometry": {"type": "LineString", "coordinates": [[138.24913, 36.3971], [138.24905, 36.39718], [138.2487, 36.3975], [138.24818, 36.398], [138.24762, 36.39856], [138.24688, 36.39928], [138.24636, 36.39973], [138.24596, 36.40004], [138.24549, 36.40038], [138.2452, 36.40059], [138.2449, 36.40078], [138.24458, 36.40098], [138.24407, 36.40129], [138.24288, 36.40192], [138.24232, 36.40221], [138.24154, 36.4026], [138.24095, 36.40288], [138.24032, 36.40318], [138.23936, 36.40363], [138.23853, 36.40402], [138.23781, 36.40439], [138.23771, 36.40444], [138.236, 36.4053], [138.23471, 36.40599], [138.23285, 36.407], [138.23117, 36.40798], [138.22991, 36.40878], [138.22877, 36.4095], [138.22872, 36.40953], [138.22775, 36.41026], [138.2262, 36.4115], [138.2248, 36.41271], [138.2227, 36.4146], [138.22188, 36.41548], [138.22127, 36.41619], [138.22096, 36.41655], [138.22048, 36.41718], [138.21921, 36.419], [138.21912, 36.41913], [138.21898, 36.41943], [138.21881, 36.41978], [138.21802, 36.42113], [138.21774, 36.42156], [138.21717, 36.42257], [138.21677, 36.42337], [138.21623, 36.42447], [138.21547, 36.42623], [138.21464, 36.42813], [138.2145, 36.42845], [138.21383, 36.42998], [138.21309, 36.43177], [138.21274, 36.43273], [138.21257, 36.4332], [138.21233, 36.43401], [138.21209, 36.43481], [138.2119, 36.43561], [138.21173, 36.43631], [138.21159, 36.4371], [138.21158, 36.43712], [138.21142, 36.438], [138.21107, 36.44008], [138.21077, 36.44168], [138.21055, 36.44299], [138.21038, 36.44394], [138.21014, 36.44559], [138.21006, 36.44605], [138.20975, 36.44785], [138.20944, 36.44994], [138.20913, 36.45167], [138.20881, 36.45318], [138.20832, 36.45495], [138.20831, 36.455], [138.208, 36.45593], [138.20726, 36.45787], [138.20647, 36.45964], [138.20601, 36.46051], [138.20579, 36.46091], [138.20484, 36.46257], [138.20435, 36.4633], [138.20433, 36.46334], [138.20346, 36.46461], [138.20297, 36.46528], [138.20167, 36.46688], [138.20037, 36.46831], [138.19906, 36.46968], [138.19867, 36.47003], [138.19795, 36.47068], [138.197, 36.47152], [138.19507, 36.47321], [138.19411, 36.47407], [138.19283, 36.47523], [138.19212, 36.47585], [138.19132, 36.47656], [138.19044, 36.47731], [138.18943, 36.47819], [138.1872, 36.48011], [138.18354, 36.48328], [138.18285, 36.48388], [138.18275, 36.48396], [138.18129, 36.48522], [138.17934, 36.48692], [138.17802, 36.48806], [138.17635, 36.48951], [138.17356, 36.49193], [138.17199, 36.4933], [138.17177, 36.4935], [138.17042, 36.49468], [138.16942, 36.49556], [138.16789, 36.49686], [138.16706, 36.4976], [138.16631, 36.49824], [138.16549, 36.49897], [138.1646, 36.49975], [138.16381, 36.50042], [138.16366, 36.50055], [138.16243, 36.50164], [138.16084, 36.5031], [138.16048, 36.50338], [138.16012, 36.5037], [138.15924, 36.50451], [138.15916, 36.50459], [138.15833, 36.50533], [138.1577, 36.5059], [138.15648, 36.507], [138.15576, 36.50763], [138.15501, 36.50828], [138.15399, 36.50916], [138.15311, 36.50993], [138.15224, 36.51071], [138.15173, 36.51114], [138.15162, 36.51123], [138.15109, 36.51169], [138.15043, 36.51227], [138.14961, 36.51299], [138.14873, 36.51374], [138.14781, 36.51454], [138.14691, 36.51535], [138.14595, 36.51619], [138.14504, 36.51698], [138.14476, 36.51724], [138.14419, 36.51775], [138.14388, 36.51802], [138.14292, 36.51884], [138.14232, 36.51935], [138.14157, 36.52003], [138.14073, 36.52087], [138.14002, 36.52159], [138.13947, 36.52219], [138.13881, 36.52291], [138.13823, 36.52358], [138.13775, 36.52415], [138.13733, 36.5247], [138.13727, 36.52477], [138.13704, 36.52508], [138.13643, 36.52592], [138.1358, 36.52686], [138.1355, 36.52729], [138.135, 36.52806], [138.13448, 36.52896], [138.13404, 36.52976], [138.13371, 36.53041], [138.13349, 36.53086], [138.13316, 36.53155], [138.1328, 36.53244], [138.13262, 36.53292], [138.13248, 36.53332], [138.13194, 36.53489], [138.13181, 36.53529], [138.13155, 36.53617], [138.13123, 36.53731], [138.1311, 36.53779], [138.13098, 36.53839], [138.13087, 36.53904], [138.13085, 36.53916], [138.13081, 36.53946], [138.13078, 36.53976], [138.1307, 36.54073], [138.13065, 36.54177], [138.13063, 36.54219], [138.13064, 36.54404], [138.13064, 36.54488], [138.13063, 36.54626], [138.13064, 36.54682], [138.13065, 36.54817], [138.13065, 36.54849], [138.13066, 36.54877], [138.13068, 36.5499], [138.13071, 36.55052], [138.13074, 36.55143], [138.13077, 36.55269], [138.1308, 36.55351], [138.13085, 36.55458], [138.13088, 36.55537], [138.13098, 36.55649], [138.1311, 36.55717], [138.13111, 36.55728], [138.13138, 36.55867], [138.13156, 36.55942], [138.13179, 36.56036], [138.1319, 36.56074], [138.1319, 36.56076], [138.13203, 36.56121], [138.13229, 36.56187], [138.13273, 36.56285], [138.13291, 36.56328], [138.13326, 36.564], [138.13357, 36.56468], [138.13372, 36.56507], [138.13402, 36.56582], [138.13459, 36.56729], [138.13487, 36.56799], [138.13538, 36.56931], [138.13545, 36.56946], [138.13572, 36.57015], [138.13625, 36.57142], [138.13651, 36.57213], [138.13702, 36.57343], [138.13713, 36.57373], [138.13749, 36.57468], [138.13788, 36.57571], [138.13821, 36.5766], [138.13824, 36.57669], [138.13853, 36.57745], [138.13879, 36.57815], [138.13928, 36.57944], [138.13957, 36.58019], [138.14001, 36.5814], [138.14027, 36.58206], [138.14081, 36.5834], [138.14115, 36.58418], [138.14158, 36.58519], [138.14207, 36.58643], [138.14261, 36.58778], [138.14305, 36.58887], [138.14381, 36.59076], [138.14464, 36.59285], [138.14537, 36.59468], [138.14601, 36.59636], [138.14606, 36.5965], [138.147, 36.59894], [138.14781, 36.60109], [138.14834, 36.60244], [138.14865, 36.60335], [138.14882, 36.6038], [138.14897, 36.60447], [138.14909, 36.60502], [138.14949, 36.60685], [138.15, 36.60912], [138.15052, 36.61161], [138.15101, 36.6139], [138.15102, 36.61393], [138.15141, 36.61571], [138.15195, 36.6179], [138.1524, 36.61964], [138.15266, 36.62049], [138.15296, 36.62134], [138.15319, 36.62191], [138.1535, 36.62267], [138.15354, 36.62277], [138.15365, 36.62304], [138.15388, 36.62348], [138.15417, 36.62394], [138.15457, 36.62453], [138.15512, 36.62525], [138.15555, 36.6257], [138.15597, 36.62614], [138.15655, 36.6267], [138.15721, 36.62729], [138.15788, 36.6278], [138.15831, 36.62807], [138.15881, 36.62834], [138.15958, 36.62877], [138.16046, 36.62922], [138.16064, 36.62931], [138.16325, 36.63073], [138.16642, 36.6325], [138.16758, 36.63315], [138.16834, 36.63356], [138.1689, 36.63391], [138.16977, 36.63442], [138.17177, 36.63559], [138.17314, 36.63639], [138.17422, 36.63691], [138.17484, 36.63717], [138.17565, 36.63747], [138.17612, 36.6376], [138.17713, 36.63786], [138.17942, 36.63824], [138.17961, 36.63829], [138.18028, 36.63844], [138.18103, 36.63864], [138.18146, 36.63878], [138.18228, 36.6391], [138.18279, 36.63933], [138.18341, 36.63965], [138.18431, 36.6401], [138.18576, 36.6409], [138.18651, 36.64134], [138.18749, 36.64188]]}, "properties": {"id": "TRACK_TOKYO_3458", "line_name": "北陸新幹線", "station_group_ids": [], "mode": "shinkansen", "operator_id": "jr_east", "tags": ["tokyo", "track_centerline"]}}, {"type": "Feature", "bbox": [138.19025, 36.64375, 138.3740657, 36.8439844], "geometry": {"type": "LineString", "coordinates": [[138.19025, 36.64375], [138.19073342, 36.64407387], [138.19241094, 36.6454718], [138.19318724, 36.6461321], [138.19368395, 36.64650984], [138.19572957, 36.64784091], [138.19621926, 36.64817737], [138.19697439, 36.6487526], [138.19827714, 36.64978172], [138.19856178, 36.6499926], [138.1993946, 36.65056367], [138.20057957, 36.65131082], [138.20326931, 36.65310779], [138.20472554, 36.65411668], [138.20658152, 36.65531593], [138.21396213, 36.66004582], [138.22300329, 36.66568911], [138.23042721, 36.67049562], [138.23492439, 36.67332242], [138.23777974, 36.67504991], [138.24525482, 36.67940536], [138.24733685, 36.68078545], [138.24851468, 36.68163016], [138.25010892, 36.68286748], [138.25282151, 36.68524694], [138.26143991, 36.69309916], [138.26762651, 36.69863855], [138.26871155, 36.6995713], [138.27095776, 36.70126547], [138.27312783, 36.70265508], [138.28053271, 36.70731882], [138.29456201, 36.71617042], [138.29789326, 36.71824531], [138.30107222, 36.72014888], [138.30390853, 36.72167173], [138.30571692, 36.7225093], [138.31036163, 36.72452708], [138.31822337, 36.72801061], [138.32100258, 36.72955251], [138.32319169, 36.73103729], [138.326028, 36.73307411], [138.32901661, 36.73585332], [138.33086307, 36.73769978], [138.33312831, 36.74063128], [138.33444178, 36.74266809], [138.33615499, 36.74588513], [138.33691642, 36.74763641], [138.33773495, 36.75001587], [138.33826795, 36.75201462], [138.33859156, 36.75370879], [138.33899131, 36.7569639], [138.33958141, 36.76195125], [138.34001923, 36.76438781], [138.3405332, 36.76657692], [138.34114234, 36.76851856], [138.34201798, 36.77078381], [138.34340759, 36.77356302], [138.34487333, 36.77599958], [138.34668287, 36.77835411], [138.34821048, 36.7801387], [138.34996652, 36.78198041], [138.35199382, 36.78377928], [138.35393546, 36.78532117], [138.35807573, 36.78847634], [138.36080259, 36.79056074], [138.36210177, 36.79166005], [138.36335813, 36.79278792], [138.36482864, 36.79424415], [138.36634197, 36.79591453], [138.36742701, 36.79731365], [138.3684121, 36.79866995], [138.37002538, 36.80116838], [138.37078205, 36.80265316], [138.37172431, 36.80469474], [138.37273796, 36.8074216], [138.37336614, 36.80977727], [138.37378017, 36.81214721], [138.3740086, 36.81431728], [138.3740657, 36.81643024], [138.37392294, 36.81885729], [138.37375161, 36.82042774], [138.37338042, 36.82246932], [138.37285218, 36.82441096], [138.3724096, 36.82588146], [138.37165293, 36.82790876], [138.37008249, 36.83106393], [138.36886896, 36.83296274], [138.36819795, 36.83400494], [138.36568524, 36.83723149], [138.36181624, 36.84181433], [138.35998167, 36.8439844]]}, "properties": {"id": "TRACK_TOKYO_4064", "line_name": "北陸新幹線", "station_group_ids": [], "mode": "shinkansen", "operator_id": "jr_east", "tags": ["tokyo", "track_centerline"]}}]}