{"type": "FeatureCollection", "features": [{"type": "Feature", "bbox": [138.2363, 35.91175, 138.23943, 35.91278], "geometry": {"type": "LineString", "coordinates": [[138.23943, 35.91175], [138.2363, 35.91278]]}, "properties": {"id": "TRACK_TOKYO_2781", "line_name": "中央線", "station_group_ids": [], "mode": "rail", "operator_id": "jr_east", "line_color": "#F15A24", "tags": ["tokyo", "track_centerline"]}}, {"type": "Feature", "bbox": [138.21089, 35.92955, 138.21271, 35.93125], "geometry": {"type": "LineString", "coordinates": [[138.21271, 35.92955], [138.21193, 35.93034], [138.21186, 35.93042], [138.21181, 35.93046], [138.21171, 35.93056], [138.21163, 35.93063], [138.21089, 35.93125]]}, "properties": {"id": "TRACK_TOKYO_2782", "line_name": "中央線", "station_group_ids": [], "mode": "rail", "operator_id": "jr_east", "line_color": "#F15A24", "tags": ["tokyo", "track_centerline"]}}, {"type": "Feature", "bbox": [138.31431, 35.86334, 138.31854, 35.86428], "geometry": {"type": "LineString", "coordinates": [[138.31854, 35.86334], [138.31741, 35.86358], [138.31431, 35.86428]]}, "properties": {"id": "TRACK_TOKYO_2789", "line_name": "中央線", "station_group_ids": [], "mode": "rail", "operator_id": "jr_east", "line_color": "#F15A24", "tags": ["tokyo", "track_centerline"]}}, {"type": "Feature", "bbox": [138.39348, 35.78987, 138.3951, 35.79153], "geometry": {"type": "LineString", "coordinates": [[138.3951, 35.78987], [138.39451, 35.79051], [138.39402, 35.791], [138.39348, 35.79153]]}, "properties": {"id": "TRACK_TOKYO_2796", "line_name": "中央線", "station_group_ids": [], "mode": "rail", "operator_id": "jr_east", "line_color": "#F15A24", "tags": ["tokyo", "track_centerline"]}}, {"type": "Feature", "bbox": [138.2745, 35.88431, 138.27643, 35.88561], "geometry": {"type": "LineString", "coordinates": [[138.27643, 35.88431], [138.2759, 35.88463], [138.27529, 35.88505], [138.2745, 35.88561]]}, "properties": {"id": "TRACK_TOKYO_2801", "line_name": "中央線", "station_group_ids": [], "mode": "rail", "operator_id": "jr_east", "line_color": "#F15A24", "tags": ["tokyo", "track_centerline"]}}, {"type": "Feature", "bbox": [138.31854, 35.83681, 138.36898, 35.86334], "geometry": {"type": "LineString", "coordinates": [[138.31854, 35.86334], [138.31924, 35.86314], [138.3198, 35.86295], [138.32003, 35.86286], [138.32023, 35.86277], [138.32071, 35.86251], [138.32104, 35.86229], [138.32122, 35.86213], [138.32133, 35.86201], [138.32147, 35.86184], [138.32153, 35.86177], [138.32168, 35.86156], [138.32191, 35.86122], [138.32206, 35.86094], [138.32212, 35.86082], [138.32237, 35.86034], [138.32262, 35.85989], [138.32273, 35.85972], [138.32282, 35.85959], [138.32295, 35.85943], [138.32308, 35.85929], [138.32324, 35.85912], [138.3234, 35.85899], [138.32359, 35.85886], [138.32378, 35.85875], [138.32407, 35.85863], [138.32468, 35.8584], [138.3252, 35.8582], [138.32595, 35.8579], [138.3263, 35.85773], [138.3265, 35.85762], [138.32666, 35.85751], [138.32681, 35.85739], [138.32695, 35.85725], [138.32708, 35.8571], [138.32752, 35.85651], [138.32787, 35.85603], [138.3282, 35.85551], [138.32854, 35.85499], [138.32865, 35.85482], [138.32871, 35.85473], [138.3288, 35.8546], [138.32892, 35.85443], [138.32907, 35.85426], [138.3293, 35.85405], [138.32955, 35.85386], [138.32978, 35.85371], [138.33011, 35.85351], [138.33019, 35.85348], [138.33057, 35.85326], [138.33059, 35.85325], [138.33103, 35.853], [138.3314, 35.85281], [138.33166, 35.85267], [138.33188, 35.85254], [138.33216, 35.85235], [138.33242, 35.85216], [138.33272, 35.85191], [138.33295, 35.85173], [138.33306, 35.85162], [138.33317, 35.8515], [138.33326, 35.85137], [138.33345, 35.85102], [138.33359, 35.85074], [138.33368, 35.85057], [138.33374, 35.85039], [138.33395, 35.84975], [138.33407, 35.84919], [138.33419, 35.84861], [138.33427, 35.84828], [138.33433, 35.8481], [138.33443, 35.8479], [138.33455, 35.84769], [138.33469, 35.84751], [138.3349, 35.84728], [138.3351, 35.84708], [138.33543, 35.84678], [138.33569, 35.84657], [138.33592, 35.84639], [138.33666, 35.8459], [138.33711, 35.84563], [138.33748, 35.84541], [138.33784, 35.84521], [138.33805, 35.84511], [138.33829, 35.84501], [138.33856, 35.84493], [138.33882, 35.84487], [138.33904, 35.84484], [138.33953, 35.84477], [138.34005, 35.84473], [138.34024, 35.84471], [138.34089, 35.84467], [138.34205, 35.84463], [138.34391, 35.84456], [138.34595, 35.84452], [138.34718, 35.84452], [138.34733, 35.84453], [138.34753, 35.84457], [138.34786, 35.84464], [138.34825, 35.84477], [138.34897, 35.84504], [138.34979, 35.84538], [138.35039, 35.84563], [138.35079, 35.84575], [138.3508, 35.84575], [138.35107, 35.84581], [138.35151, 35.84585], [138.35204, 35.84588], [138.35267, 35.84588], [138.35429, 35.84585], [138.35533, 35.84582], [138.3559, 35.8458], [138.35752, 35.84574], [138.35829, 35.84571], [138.35913, 35.84569], [138.35976, 35.84567], [138.35995, 35.84567], [138.36007, 35.84566], [138.3603, 35.84563], [138.36053, 35.84558], [138.36077, 35.84553], [138.36099, 35.84545], [138.36118, 35.84537], [138.3614, 35.84526], [138.36167, 35.84511], [138.36207, 35.84488], [138.36236, 35.8447], [138.36282, 35.84442], [138.36316, 35.84419], [138.36339, 35.84403], [138.36375, 35.84378], [138.36406, 35.84356], [138.36441, 35.84331], [138.36472, 35.84308], [138.36533, 35.84264], [138.36608, 35.84211], [138.36664, 35.84169], [138.36686, 35.8415], [138.36701, 35.84134], [138.36716, 35.84119], [138.36731, 35.84099], [138.36743, 35.8408], [138.3675, 35.84067], [138.36758, 35.84041], [138.36767, 35.84013], [138.36786, 35.83947], [138.36814, 35.83836], [138.3682, 35.83817], [138.36829, 35.83793], [138.36837, 35.83777], [138.36844, 35.83767], [138.36855, 35.83748], [138.36879, 35.83711], [138.36892, 35.8369], [138.36898, 35.83681]]}, "properties": {"id": "TRACK_TOKYO_2808", "line_name": "中央線", "station_group_ids": [], "mode": "rail", "operator_id": "jr_east", "line_color": "#F15A24", "tags": ["tokyo", "track_centerline"]}}, {"type": "Feature", "bbox": [138.36574, 35.82599, 138.36726, 35.82829], "geometry": {"type": "LineString", "coordinates": [[138.36574, 35.82599], [138.36633, 35.82698], [138.36685, 35.8278], [138.36707, 35.82809], [138.36726, 35.82829]]}, "properties": {"id": "TRACK_TOKYO_2811", "line_name": "中央線", "station_group_ids": [], "mode": "rail", "operator_id": "jr_east", "line_color": "#F15A24", "tags": ["tokyo", "track_centerline"]}}, {"type": "Feature", "bbox": [138.21271, 35.91278, 138.2363, 35.92955], "geometry": {"type": "LineString", "coordinates": [[138.2363, 35.91278], [138.23542, 35.91309], [138.23437, 35.91341], [138.23428, 35.91344], [138.23257, 35.91402], [138.23201, 35.91419], [138.23133, 35.91441], [138.23101, 35.91453], [138.23031, 35.9148], [138.22983, 35.91501], [138.22945, 35.91519], [138.22919, 35.91537], [138.22854, 35.91592], [138.22838, 35.91607], [138.22812, 35.91635], [138.22802, 35.91646], [138.22754, 35.91702], [138.2274, 35.91719], [138.22733, 35.91727], [138.22687, 35.91782], [138.2264, 35.91842], [138.22618, 35.91868], [138.22601, 35.91884], [138.22588, 35.91895], [138.22569, 35.91909], [138.2255, 35.91924], [138.22534, 35.91936], [138.22471, 35.91984], [138.22293, 35.92096], [138.22126, 35.922], [138.22066, 35.92237], [138.22046, 35.92249], [138.21995, 35.92281], [138.21976, 35.92292], [138.2196, 35.92302], [138.21821, 35.92388], [138.21784, 35.9241], [138.21778, 35.92414], [138.21733, 35.92441], [138.21691, 35.92467], [138.21653, 35.92491], [138.21621, 35.92512], [138.21596, 35.92529], [138.21573, 35.92547], [138.21551, 35.92563], [138.21531, 35.9258], [138.21513, 35.92598], [138.21486, 35.9263], [138.21467, 35.92656], [138.21463, 35.92662], [138.2145, 35.92683], [138.21437, 35.92707], [138.21421, 35.92737], [138.21405, 35.92771], [138.21388, 35.92803], [138.2137, 35.92835], [138.21347, 35.92866], [138.21309, 35.92913], [138.21271, 35.92955]]}, "properties": {"id": "TRACK_TOKYO_2815", "line_name": "中央線", "station_group_ids": [], "mode": "rail", "operator_id": "jr_east", "line_color": "#F15A24", "tags": ["tokyo", "track_centerline"]}}, {"type": "Feature", "bbox": [138.27643, 35.86497, 138.31248, 35.88431], "geometry": {"type": "LineString", "coordinates": [[138.31248, 35.86497], [138.31189, 35.8652], [138.31072, 35.86565], [138.30969, 35.86606], [138.30848, 35.86655], [138.30762, 35.86689], [138.307, 35.86713], [138.3065, 35.86733], [138.30621, 35.86745], [138.30561, 35.86772], [138.30492, 35.86807], [138.30447, 35.86834], [138.30357, 35.86898], [138.30284, 35.86954], [138.30192, 35.87027], [138.30095, 35.87104], [138.30004, 35.87177], [138.29917, 35.87246], [138.29831, 35.87314], [138.29819, 35.87324], [138.29744, 35.87384], [138.29665, 35.87446], [138.29574, 35.87519], [138.29482, 35.87593], [138.29388, 35.87668], [138.29302, 35.87735], [138.29238, 35.87786], [138.2914, 35.87864], [138.29097, 35.87899], [138.29063, 35.87927], [138.2905, 35.87937], [138.29024, 35.87955], [138.2901, 35.87965], [138.28993, 35.87975], [138.28947, 35.88002], [138.2888, 35.8804], [138.28837, 35.88065], [138.2879, 35.88089], [138.28702, 35.88124], [138.28605, 35.88165], [138.28586, 35.88173], [138.28571, 35.88179], [138.28562, 35.88181], [138.28461, 35.88212], [138.28342, 35.88243], [138.28263, 35.88263], [138.28171, 35.88284], [138.28101, 35.88298], [138.2799, 35.88319], [138.27902, 35.88339], [138.27848, 35.88351], [138.27794, 35.88366], [138.27744, 35.88383], [138.2771, 35.88396], [138.27682, 35.88408], [138.27643, 35.88431]]}, "properties": {"id": "TRACK_TOKYO_2816", "line_name": "中央線", "station_group_ids": [], "mode": "rail", "operator_id": "jr_east", "line_color": "#F15A24", "tags": ["tokyo", "track_centerline"]}}, {"type": "Feature", "bbox": [138.31248, 35.86428, 138.31431, 35.86497], "geometry": {"type": "LineString", "coordinates": [[138.31431, 35.86428], [138.31415, 35.86432], [138.31375, 35.86447], [138.31343, 35.86459], [138.3131, 35.86472], [138.31248, 35.86497]]}, "properties": {"id": "TRACK_TOKYO_2817", "line_name": "中央線", "station_group_ids": [], "mode": "rail", "operator_id": "jr_east", "line_color": "#F15A24", "tags": ["tokyo", "track_centerline"]}}, {"type": "Feature", "bbox": [138.36898, 35.83082, 138.37049, 35.83681], "geometry": {"type": "LineString", "coordinates": [[138.36898, 35.83681], [138.36915, 35.83652], [138.36931, 35.83617], [138.36944, 35.83589], [138.36956, 35.83566], [138.36979, 35.83518], [138.36991, 35.83491], [138.37005, 35.83462], [138.37016, 35.83437], [138.37028, 35.83409], [138.37037, 35.83387], [138.37043, 35.83367], [138.37046, 35.83348], [138.37048, 35.83331], [138.37049, 35.83312], [138.37049, 35.83289], [138.37046, 35.83262], [138.37041, 35.83238], [138.37035, 35.8322], [138.37027, 35.832], [138.37018, 35.83178], [138.37003, 35.83149], [138.36993, 35.83127], [138.36988, 35.83117], [138.36965, 35.83082]]}, "properties": {"id": "TRACK_TOKYO_2819", "line_name": "中央線", "station_group_ids": [], "mode": "rail", "operator_id": "jr_east", "line_color": "#F15A24", "tags": ["tokyo", "track_centerline"]}}, {"type": "Feature", "bbox": [138.23943, 35.88561, 138.2745, 35.91175], "geometry": {"type": "LineString", "coordinates": [[138.2745, 35.88561], [138.27401, 35.88597], [138.27349, 35.88638], [138.27298, 35.88683], [138.27241, 35.8874], [138.27156, 35.88827], [138.27069, 35.88915], [138.27, 35.88986], [138.26938, 35.89048], [138.26924, 35.89062], [138.26872, 35.89117], [138.26789, 35.89208], [138.26724, 35.8928], [138.26644, 35.89373], [138.26581, 35.89449], [138.26541, 35.89493], [138.26502, 35.89536], [138.26482, 35.89558], [138.26444, 35.89591], [138.26393, 35.89629], [138.2635, 35.89656], [138.26275, 35.89703], [138.26227, 35.8973], [138.26147, 35.89776], [138.2602, 35.89848], [138.25889, 35.89922], [138.25777, 35.89986], [138.25655, 35.90056], [138.25575, 35.90102], [138.25515, 35.90137], [138.25474, 35.90165], [138.25437, 35.90192], [138.25396, 35.90227], [138.25353, 35.90272], [138.25349, 35.90276], [138.25328, 35.90301], [138.25326, 35.90305], [138.25296, 35.90349], [138.25275, 35.90385], [138.25243, 35.90448], [138.25222, 35.90489], [138.25209, 35.90516], [138.25185, 35.90557], [138.25165, 35.9059], [138.25143, 35.90623], [138.25123, 35.9065], [138.25103, 35.90673], [138.25058, 35.90715], [138.25009, 35.90757], [138.24982, 35.90777], [138.24943, 35.90805], [138.24883, 35.90844], [138.24862, 35.90857], [138.24837, 35.9087], [138.24732, 35.90919], [138.24716, 35.90927], [138.24705, 35.90933], [138.2469, 35.9094], [138.24557, 35.90982], [138.24462, 35.91012], [138.24446, 35.91017], [138.24408, 35.91029], [138.24402, 35.9103], [138.24253, 35.91077], [138.24113, 35.91121], [138.24098, 35.91126], [138.24002, 35.91156], [138.23943, 35.91175]]}, "properties": {"id": "TRACK_TOKYO_2822", "line_name": "中央線", "station_group_ids": [], "mode": "rail", "operator_id": "jr_east", "line_color": "#F15A24", "tags": ["tokyo", "track_centerline"]}}, {"type": "Feature", "bbox": [138.36726, 35.82829, 138.36965, 35.83082], "geometry": {"type": "LineString", "coordinates": [[138.36726, 35.82829], [138.36729, 35.82832], [138.36771, 35.82871], [138.36775, 35.82875], [138.36814, 35.82913], [138.3685, 35.8295], [138.36897, 35.83], [138.36965, 35.83082]]}, "properties": {"id": "TRACK_TOKYO_2823", "line_name": "中央線", "station_group_ids": [], "mode": "rail", "operator_id": "jr_east", "line_color": "#F15A24", "tags": ["tokyo", "track_centerline"]}}, {"type": "Feature", "bbox": [138.36498, 35.79153, 138.39348, 35.82599], "geometry": {"type": "LineString", "coordinates": [[138.39348, 35.79153], [138.39206, 35.79291], [138.39171, 35.79326], [138.39155, 35.79342], [138.39137, 35.79355], [138.39118, 35.79368], [138.39102, 35.79378], [138.39083, 35.79387], [138.39061, 35.79395], [138.39007, 35.79417], [138.38892, 35.79459], [138.38795, 35.79494], [138.38731, 35.79517], [138.38654, 35.79546], [138.3857, 35.79576], [138.3841, 35.79635], [138.38328, 35.79665], [138.3825, 35.79693], [138.38213, 35.79707], [138.3816, 35.79726], [138.38123, 35.7974], [138.3809, 35.79755], [138.38044, 35.79781], [138.38011, 35.79805], [138.37969, 35.79837], [138.37934, 35.79863], [138.3788, 35.79903], [138.37839, 35.79934], [138.37829, 35.79942], [138.37778, 35.7998], [138.37692, 35.80045], [138.37621, 35.80097], [138.37551, 35.80151], [138.37465, 35.80214], [138.37413, 35.80252], [138.37377, 35.8028], [138.37342, 35.80311], [138.37322, 35.80334], [138.37301, 35.80366], [138.37281, 35.80399], [138.37269, 35.80428], [138.3726, 35.80458], [138.37241, 35.80511], [138.37221, 35.8057], [138.37216, 35.80585], [138.3721, 35.806], [138.37204, 35.80612], [138.372, 35.80619], [138.37195, 35.80626], [138.37189, 35.80634], [138.37187, 35.80638], [138.37182, 35.80644], [138.37164, 35.80672], [138.37152, 35.80692], [138.37142, 35.80705], [138.37131, 35.80717], [138.37121, 35.80726], [138.37112, 35.80734], [138.37091, 35.80756], [138.37077, 35.80769], [138.37047, 35.80799], [138.37018, 35.8083], [138.36982, 35.80867], [138.36947, 35.80903], [138.36914, 35.80935], [138.36888, 35.80958], [138.36875, 35.80971], [138.36865, 35.80982], [138.36856, 35.80996], [138.36849, 35.81011], [138.36841, 35.81028], [138.36833, 35.81052], [138.36793, 35.81178], [138.3675, 35.81303], [138.36706, 35.81431], [138.3666, 35.81559], [138.36657, 35.81568], [138.36617, 35.81686], [138.36596, 35.81751], [138.36577, 35.81814], [138.36568, 35.81848], [138.36562, 35.81881], [138.36552, 35.81938], [138.36539, 35.82001], [138.36532, 35.82052], [138.36524, 35.82106], [138.36517, 35.82173], [138.36511, 35.8222], [138.36506, 35.82261], [138.36502, 35.82315], [138.36499, 35.82374], [138.36498, 35.82391], [138.36499, 35.82411], [138.36503, 35.82433], [138.36509, 35.82456], [138.36515, 35.82475], [138.36516, 35.82478], [138.36529, 35.82514], [138.36542, 35.82541], [138.36556, 35.82568], [138.36574, 35.82599]]}, "properties": {"id": "TRACK_TOKYO_2831", "line_name": "中央線", "station_group_ids": [], "mode": "rail", "operator_id": "jr_east", "line_color": "#F15A24", "tags": ["tokyo", "track_centerline"]}}, {"type": "Feature", "bbox": [138.3951, 35.75225, 138.41574, 35.78987], "geometry": {"type": "LineString", "coordinates": [[138.41352, 35.75225], [138.41329, 35.75311], [138.41326, 35.7532], [138.41316, 35.75345], [138.41293, 35.75423], [138.41287, 35.75445], [138.41257, 35.75549], [138.41222, 35.75673], [138.41209, 35.75729], [138.412, 35.75781], [138.41199, 35.75789], [138.41193, 35.75845], [138.41188, 35.75896], [138.41185, 35.75942], [138.41186, 35.75965], [138.41188, 35.75987], [138.41194, 35.76052], [138.41201, 35.76111], [138.41214, 35.76171], [138.41224, 35.76206], [138.41238, 35.76241], [138.4125, 35.76269], [138.41252, 35.76274], [138.41257, 35.76284], [138.41263, 35.76296], [138.41266, 35.76301], [138.41276, 35.76316], [138.41284, 35.76327], [138.41327, 35.76376], [138.4137, 35.76423], [138.41412, 35.76468], [138.41432, 35.76489], [138.41441, 35.76498], [138.41464, 35.76524], [138.41484, 35.7655], [138.41502, 35.76578], [138.41517, 35.76605], [138.41532, 35.76635], [138.41545, 35.76665], [138.41556, 35.76694], [138.41565, 35.76724], [138.4157, 35.76747], [138.41573, 35.76771], [138.41574, 35.76804], [138.41572, 35.76846], [138.41569, 35.76875], [138.41565, 35.76896], [138.41558, 35.76917], [138.41546, 35.76949], [138.41533, 35.76981], [138.41498, 35.77059], [138.41489, 35.77077], [138.41468, 35.77126], [138.41438, 35.77193], [138.41434, 35.77203], [138.41429, 35.77213], [138.414, 35.77278], [138.41364, 35.7736], [138.41331, 35.77435], [138.41296, 35.77513], [138.41262, 35.77592], [138.41244, 35.77631], [138.41223, 35.77671], [138.41204, 35.77705], [138.41183, 35.77737], [138.41156, 35.77771], [138.41129, 35.77804], [138.41094, 35.77841], [138.41057, 35.77876], [138.41011, 35.77913], [138.40936, 35.77974], [138.40922, 35.77985], [138.40894, 35.78007], [138.40745, 35.78128], [138.40622, 35.78228], [138.40596, 35.78249], [138.40487, 35.78337], [138.40435, 35.78379], [138.40377, 35.78423], [138.40327, 35.78455], [138.40281, 35.78483], [138.40225, 35.7851], [138.40132, 35.78545], [138.39971, 35.78604], [138.39907, 35.7863], [138.39884, 35.78641], [138.39854, 35.78657], [138.39828, 35.78675], [138.3981, 35.78689], [138.39777, 35.78722], [138.39741, 35.78756], [138.39718, 35.78779], [138.39686, 35.7881], [138.39682, 35.78814], [138.39647, 35.7885], [138.39569, 35.78926], [138.3951, 35.78987]]}, "properties": {"id": "TRACK_TOKYO_2834", "line_name": "中央線", "station_group_ids": [], "mode": "rail", "operator_id": "jr_east", "line_color": "#F15A24", "tags": ["tokyo", "track_centerline"]}}, {"type": "Feature", "bbox": [138.36898, 35.83082, 138.37093, 35.83681], "geometry": {"type": "LineString", "coordinates": [[138.36898, 35.83681], [138.36911, 35.83671], [138.36917, 35.83664], [138.36926, 35.83652], [138.36966, 35.83599], [138.36982, 35.83576], [138.37014, 35.83529], [138.37027, 35.83509], [138.37041, 35.83488], [138.37056, 35.83462], [138.37066, 35.83439], [138.37074, 35.83418], [138.37082, 35.83396], [138.37088, 35.83372], [138.37091, 35.83355], [138.37093, 35.83332], [138.37093, 35.8331], [138.37092, 35.83284], [138.37088, 35.83257], [138.37082, 35.83232], [138.37071, 35.83203], [138.37062, 35.83186], [138.3705, 35.83166], [138.37039, 35.83149], [138.37028, 35.83134], [138.37025, 35.83131], [138.37014, 35.83118], [138.37011, 35.83116], [138.37002, 35.83108], [138.36984, 35.83095], [138.36965, 35.83082]]}, "properties": {"id": "TRACK_TOKYO_2843", "line_name": "中央線", "station_group_ids": [], "mode": "rail", "operator_id": "jr_east", "line_color": "#F15A24", "tags": ["tokyo", "track_centerline"]}}]}