{"type": "FeatureCollection", "features": [{"type": "Feature", "bbox": [140.35383, 36.37056, 140.41333, 36.3815], "geometry": {"type": "LineString", "coordinates": [[140.41333, 36.3815], [140.41179, 36.3813], [140.41147, 36.38126], [140.40873, 36.38086], [140.4046, 36.38031], [140.39759, 36.37935], [140.39022, 36.37837], [140.38448, 36.37758], [140.38185, 36.3772], [140.37666, 36.37649], [140.3755, 36.37633], [140.37185, 36.37582], [140.37169, 36.37579], [140.37162, 36.37578], [140.37132, 36.37572], [140.36812, 36.37529], [140.36541, 36.37492], [140.36407, 36.37473], [140.36379, 36.37466], [140.36321, 36.37446], [140.36266, 36.37423], [140.36092, 36.37352], [140.35928, 36.37282], [140.35753, 36.3721], [140.35593, 36.37141], [140.35394, 36.37061], [140.35383, 36.37056]]}, "properties": {"id": "GEOM_TOKYO_2399", "route_id": "R_06E4D384", "route_name": null, "route_color": "#22A6B3", "route_text_color": null, "line_name": "常磐線", "operator_id": "jr_east", "representation": "service_path", "min_zoom": 0, "max_zoom": 24, "offset_rank": 0}}, {"type": "Feature", "bbox": [140.41333, 36.3815, 140.41699, 36.38201], "geometry": {"type": "LineString", "coordinates": [[140.41699, 36.38201], [140.41333, 36.3815]]}, "properties": {"id": "GEOM_TOKYO_2400", "route_id": "R_06E4D384", "route_name": null, "route_color": "#22A6B3", "route_text_color": null, "line_name": "常磐線", "operator_id": "jr_east", "representation": "service_path", "min_zoom": 0, "max_zoom": 24, "offset_rank": 0}}, {"type": "Feature", "bbox": [140.34735, 36.3678, 140.35143, 36.36953], "geometry": {"type": "LineString", "coordinates": [[140.35143, 36.36953], [140.34962, 36.36875], [140.34846, 36.36827], [140.34735, 36.3678]]}, "properties": {"id": "GEOM_TOKYO_2408", "route_id": "R_06E4D384", "route_name": null, "route_color": "#22A6B3", "route_text_color": null, "line_name": "常磐線", "operator_id": "jr_east", "representation": "service_path", "min_zoom": 0, "max_zoom": 24, "offset_rank": 0}}, {"type": "Feature", "bbox": [140.41699, 36.37311, 140.45496, 36.38452], "geometry": {"type": "LineString", "coordinates": [[140.45496, 36.37311], [140.45367, 36.37323], [140.45319, 36.37332], [140.45266, 36.37346], [140.45187, 36.37373], [140.45164, 36.37383], [140.45129, 36.374], [140.45091, 36.37429], [140.45057, 36.37461], [140.44522, 36.37973], [140.44407, 36.38081], [140.44292, 36.3819], [140.44153, 36.38293], [140.44094, 36.3833], [140.44031, 36.38363], [140.44018, 36.38368], [140.43965, 36.38388], [140.43872, 36.38417], [140.43822, 36.38429], [140.4372, 36.38447], [140.43635, 36.38452], [140.43579, 36.3845], [140.43488, 36.38441], [140.42701, 36.38336], [140.41902, 36.38228], [140.41699, 36.38201]]}, "properties": {"id": "GEOM_TOKYO_2414", "route_id": "R_06E4D384", "route_name": null, "route_color": "#22A6B3", "route_text_color": null, "line_name": "常磐線", "operator_id": "jr_east", "representation": "service_path", "min_zoom": 0, "max_zoom": 24, "offset_rank": 0}}, {"type": "Feature", "bbox": [140.32619, 36.35892, 140.34735, 36.3678], "geometry": {"type": "LineString", "coordinates": [[140.32619, 36.35892], [140.32699, 36.35926], [140.33086, 36.36087], [140.33519, 36.3627], [140.3386, 36.36413], [140.33972, 36.3646], [140.34103, 36.36515], [140.34316, 36.36606], [140.34589, 36.3672], [140.34735, 36.3678]]}, "properties": {"id": "GEOM_TOKYO_2418", "route_id": "R_06E4D384", "route_name": null, "route_color": "#22A6B3", "route_text_color": null, "line_name": "常磐線", "operator_id": "jr_east", "representation": "service_path", "min_zoom": 0, "max_zoom": 24, "offset_rank": 0}}, {"type": "Feature", "bbox": [140.32619, 36.35892, 140.34735, 36.3678], "geometry": {"type": "LineString", "coordinates": [[140.32619, 36.35892], [140.32843, 36.35948], [140.33283, 36.36057], [140.33348, 36.3608], [140.33394, 36.36102], [140.34032, 36.36369], [140.34159, 36.36422], [140.34294, 36.36479], [140.34412, 36.36541], [140.34682, 36.36736], [140.34735, 36.3678]]}, "properties": {"id": "GEOM_TOKYO_2419", "route_id": "R_06E4D384", "route_name": null, "route_color": "#22A6B3", "route_text_color": null, "line_name": "常磐線", "operator_id": "jr_east", "representation": "service_path", "min_zoom": 0, "max_zoom": 24, "offset_rank": 0}}, {"type": "Feature", "bbox": [140.35143, 36.36953, 140.35383, 36.37056], "geometry": {"type": "LineString", "coordinates": [[140.35383, 36.37056], [140.35143, 36.36953]]}, "properties": {"id": "GEOM_TOKYO_2424", "route_id": "R_06E4D384", "route_name": null, "route_color": "#22A6B3", "route_text_color": null, "line_name": "常磐線", "operator_id": "jr_east", "representation": "service_path", "min_zoom": 0, "max_zoom": 24, "offset_rank": 0}}, {"type": "Feature", "bbox": [140.27595, 36.24855, 140.28651, 36.29447], "geometry": {"type": "LineString", "coordinates": [[140.27616, 36.29447], [140.27605, 36.29396], [140.27598, 36.29352], [140.27595, 36.2929], [140.27595, 36.29196], [140.276, 36.29129], [140.27608, 36.29062], [140.27623, 36.28979], [140.27648, 36.28881], [140.27684, 36.28738], [140.27724, 36.28578], [140.27807, 36.28257], [140.27841, 36.28124], [140.27902, 36.27884], [140.2792, 36.27813], [140.27951, 36.27689], [140.27991, 36.27534], [140.28032, 36.27382], [140.28076, 36.27204], [140.28123, 36.27019], [140.28127, 36.27001], [140.28191, 36.26751], [140.28227, 36.26608], [140.28267, 36.26455], [140.28326, 36.26218], [140.28359, 36.26078], [140.28384, 36.25989], [140.28423, 36.25831], [140.28474, 36.2562], [140.28489, 36.25556], [140.2852, 36.25426], [140.28544, 36.25318], [140.28621, 36.24967], [140.28651, 36.24855]]}, "properties": {"id": "GEOM_TOKYO_2437", "route_id": "R_06E4D384", "route_name": null, "route_color": "#22A6B3", "route_text_color": null, "line_name": "常磐線", "operator_id": "jr_east", "representation": "service_path", "min_zoom": 0, "max_zoom": 24, "offset_rank": 0}}, {"type": "Feature", "bbox": [140.27687, 36.29638, 140.30302, 36.34919], "geometry": {"type": "LineString", "coordinates": [[140.30302, 36.34919], [140.30175, 36.3482], [140.30117, 36.34767], [140.30081, 36.34724], [140.30049, 36.34681], [140.30016, 36.3463], [140.29985, 36.34569], [140.29959, 36.34505], [140.29934, 36.3443], [140.29903, 36.34321], [140.29866, 36.34197], [140.29834, 36.34098], [140.29808, 36.34013], [140.29749, 36.33827], [140.29691, 36.3365], [140.29599, 36.33363], [140.29562, 36.33244], [140.29522, 36.3312], [140.29507, 36.33071], [140.29479, 36.32984], [140.29462, 36.32932], [140.29395, 36.32717], [140.29339, 36.32536], [140.29285, 36.32366], [140.29273, 36.32327], [140.29237, 36.32213], [140.2919, 36.3207], [140.29138, 36.31903], [140.29066, 36.31677], [140.29026, 36.31555], [140.28998, 36.31462], [140.28978, 36.31395], [140.28937, 36.31265], [140.28895, 36.31155], [140.28834, 36.31037], [140.28806, 36.30994], [140.28766, 36.30937], [140.28725, 36.30887], [140.28586, 36.30725], [140.28515, 36.30643], [140.2848, 36.306], [140.28372, 36.30477], [140.28319, 36.30416], [140.28293, 36.30385], [140.2823, 36.30313], [140.28086, 36.30147], [140.28021, 36.30073], [140.27954, 36.29994], [140.27895, 36.29928], [140.2783, 36.29852], [140.27795, 36.2981], [140.27747, 36.29743], [140.27713, 36.29687], [140.27687, 36.29638]]}, "properties": {"id": "GEOM_TOKYO_2442", "route_id": "R_06E4D384", "route_name": null, "route_color": "#22A6B3", "route_text_color": null, "line_name": "常磐線", "operator_id": "jr_east", "representation": "service_path", "min_zoom": 0, "max_zoom": 24, "offset_rank": 0}}, {"type": "Feature", "bbox": [140.30302, 36.34919, 140.3046, 36.34986], "geometry": {"type": "LineString", "coordinates": [[140.3046, 36.34986], [140.30341, 36.34935], [140.30313, 36.34924], [140.30302, 36.34919]]}, "properties": {"id": "GEOM_TOKYO_2443", "route_id": "R_06E4D384", "route_name": null, "route_color": "#22A6B3", "route_text_color": null, "line_name": "常磐線", "operator_id": "jr_east", "representation": "service_path", "min_zoom": 0, "max_zoom": 24, "offset_rank": 0}}, {"type": "Feature", "bbox": [140.3046, 36.34986, 140.30745, 36.35106], "geometry": {"type": "LineString", "coordinates": [[140.30745, 36.35106], [140.3046, 36.34986]]}, "properties": {"id": "GEOM_TOKYO_2444", "route_id": "R_06E4D384", "route_name": null, "route_color": "#22A6B3", "route_text_color": null, "line_name": "常磐線", "operator_id": "jr_east", "representation": "service_path", "min_zoom": 0, "max_zoom": 24, "offset_rank": 0}}, {"type": "Feature", "bbox": [140.28055, 36.16481, 140.29765, 36.19033], "geometry": {"type": "LineString", "coordinates": [[140.28055, 36.19033], [140.28144, 36.1889], [140.28224, 36.1876], [140.28279, 36.1867], [140.28321, 36.18598], [140.28375, 36.18505], [140.28409, 36.18462], [140.28432, 36.18433], [140.28461, 36.18404], [140.28859, 36.18054], [140.29129, 36.17815], [140.29381, 36.17588], [140.29524, 36.17461], [140.29616, 36.17377], [140.29651, 36.17332], [140.29697, 36.17261], [140.29713, 36.17231], [140.29744, 36.17157], [140.29762, 36.17078], [140.29765, 36.17037], [140.29763, 36.16986], [140.29754, 36.16878], [140.29739, 36.1683], [140.29708, 36.16753], [140.29574, 36.16547], [140.29571, 36.16542], [140.29532, 36.16481]]}, "properties": {"id": "GEOM_TOKYO_2447", "route_id": "R_06E4D384", "route_name": null, "route_color": "#22A6B3", "route_text_color": null, "line_name": "常磐線", "operator_id": "jr_east", "representation": "service_path", "min_zoom": 0, "max_zoom": 24, "offset_rank": 0}}, {"type": "Feature", "bbox": [140.27898, 36.19033, 140.28055, 36.19266], "geometry": {"type": "LineString", "coordinates": [[140.27898, 36.19266], [140.28011, 36.19098], [140.28021, 36.19083], [140.28055, 36.19033]]}, "properties": {"id": "GEOM_TOKYO_2450", "route_id": "R_06E4D384", "route_name": null, "route_color": "#22A6B3", "route_text_color": null, "line_name": "常磐線", "operator_id": "jr_east", "representation": "service_path", "min_zoom": 0, "max_zoom": 24, "offset_rank": 0}}, {"type": "Feature", "bbox": [140.30745, 36.35106, 140.32619, 36.35892], "geometry": {"type": "LineString", "coordinates": [[140.30745, 36.35106], [140.30792, 36.35127], [140.30951, 36.35193], [140.31181, 36.35289], [140.31298, 36.35337], [140.31367, 36.35368], [140.3147, 36.35409], [140.31578, 36.35456], [140.31914, 36.35596], [140.32068, 36.35662], [140.32394, 36.35798], [140.32481, 36.35835], [140.32539, 36.35858], [140.32619, 36.35892]]}, "properties": {"id": "GEOM_TOKYO_2454", "route_id": "R_06E4D384", "route_name": null, "route_color": "#22A6B3", "route_text_color": null, "line_name": "常磐線", "operator_id": "jr_east", "representation": "service_path", "min_zoom": 0, "max_zoom": 24, "offset_rank": 0}}, {"type": "Feature", "bbox": [140.27616, 36.29447, 140.27687, 36.29638], "geometry": {"type": "LineString", "coordinates": [[140.27687, 36.29638], [140.27648, 36.29547], [140.27616, 36.29447]]}, "properties": {"id": "GEOM_TOKYO_2455", "route_id": "R_06E4D384", "route_name": null, "route_color": "#22A6B3", "route_text_color": null, "line_name": "常磐線", "operator_id": "jr_east", "representation": "service_path", "min_zoom": 0, "max_zoom": 24, "offset_rank": 0}}, {"type": "Feature", "bbox": [140.28651, 36.24653, 140.28704, 36.24855], "geometry": {"type": "LineString", "coordinates": [[140.28651, 36.24855], [140.28704, 36.24653]]}, "properties": {"id": "GEOM_TOKYO_2457", "route_id": "R_06E4D384", "route_name": null, "route_color": "#22A6B3", "route_text_color": null, "line_name": "常磐線", "operator_id": "jr_east", "representation": "service_path", "min_zoom": 0, "max_zoom": 24, "offset_rank": 0}}, {"type": "Feature", "bbox": [140.27734, 36.19266, 140.28964, 36.24653], "geometry": {"type": "LineString", "coordinates": [[140.28704, 36.24653], [140.28735, 36.24521], [140.28753, 36.24455], [140.28799, 36.24268], [140.28813, 36.24217], [140.28836, 36.2412], [140.28862, 36.2401], [140.28899, 36.23868], [140.28928, 36.23749], [140.28958, 36.23621], [140.28964, 36.23579], [140.28962, 36.23511], [140.28954, 36.23439], [140.28944, 36.23389], [140.28918, 36.23302], [140.28851, 36.23108], [140.28818, 36.23009], [140.28739, 36.22767], [140.28642, 36.22477], [140.28521, 36.22127], [140.28505, 36.2208], [140.28493, 36.22042], [140.28486, 36.22023], [140.28391, 36.21741], [140.28289, 36.21436], [140.28124, 36.20957], [140.28049, 36.20736], [140.28022, 36.20652], [140.27941, 36.20415], [140.27923, 36.20362], [140.2787, 36.20205], [140.27829, 36.2009], [140.27775, 36.19932], [140.27757, 36.19867], [140.2774, 36.19799], [140.27734, 36.19741], [140.27735, 36.19654], [140.27744, 36.19594], [140.27759, 36.19537], [140.27778, 36.19475], [140.27818, 36.19403], [140.27861, 36.19332], [140.27898, 36.19266]]}, "properties": {"id": "GEOM_TOKYO_2460", "route_id": "R_06E4D384", "route_name": null, "route_color": "#22A6B3", "route_text_color": null, "line_name": "常磐線", "operator_id": "jr_east", "representation": "service_path", "min_zoom": 0, "max_zoom": 24, "offset_rank": 0}}]}