{"type": "FeatureCollection", "features": [{"type": "Feature", "bbox": [140.31481, 35.77583, 140.31612, 35.77671], "geometry": {"type": "LineString", "coordinates": [[140.31612, 35.77671], [140.31481, 35.77583]]}, "properties": {"id": "GEOM_TOKYO_0202", "route_id": "R_E8462BA3", "route_name": "東成田線", "route_color": "#2457C5", "route_text_color": "#ffffff", "line_name": "東成田線", "operator_id": "keisei", "representation": "service_path", "min_zoom": 0, "max_zoom": 24, "offset_rank": 0}}, {"type": "Feature", "bbox": [140.31612, 35.77401, 140.37806, 35.77902], "geometry": {"type": "LineString", "coordinates": [[140.37806, 35.77581], [140.37607, 35.77649], [140.37598, 35.77651], [140.37558, 35.77666], [140.37496, 35.77686], [140.37494, 35.77688], [140.37462, 35.77699], [140.37439, 35.77707], [140.37171, 35.77789], [140.37079, 35.77799], [140.37043, 35.77801], [140.37003, 35.77803], [140.36923, 35.77808], [140.36881, 35.77807], [140.36806, 35.77804], [140.36754, 35.77799], [140.36726, 35.77796], [140.36684, 35.77789], [140.36621, 35.77775], [140.36587, 35.77767], [140.36508, 35.77745], [140.36434, 35.77724], [140.36285, 35.77679], [140.36284, 35.77678], [140.36277, 35.77678], [140.36264, 35.77673], [140.36241, 35.77666], [140.36234, 35.77665], [140.36195, 35.77652], [140.36173, 35.77647], [140.35966, 35.77592], [140.35951, 35.77589], [140.35909, 35.77578], [140.35864, 35.77568], [140.35808, 35.77555], [140.3576, 35.77544], [140.35743, 35.77542], [140.3574, 35.77541], [140.3568, 35.77532], [140.35601, 35.77525], [140.35569, 35.77522], [140.35519, 35.77517], [140.35513, 35.77517], [140.35414, 35.77508], [140.35384, 35.77505], [140.35382, 35.77506], [140.35286, 35.77496], [140.35276, 35.77497], [140.35158, 35.77485], [140.3515, 35.77486], [140.3512, 35.77483], [140.35116, 35.77482], [140.35056, 35.77478], [140.35008, 35.77473], [140.34984, 35.77471], [140.34903, 35.77463], [140.34854, 35.77458], [140.34847, 35.77459], [140.34827, 35.77456], [140.34808, 35.77455], [140.3478, 35.77452], [140.34776, 35.77453], [140.34775, 35.77452], [140.34768, 35.77451], [140.34762, 35.77451], [140.3471, 35.77446], [140.34678, 35.77443], [140.34674, 35.77442], [140.3458, 35.77435], [140.34571, 35.77434], [140.34464, 35.77426], [140.34425, 35.77423], [140.34343, 35.77417], [140.34246, 35.77411], [140.34159, 35.77406], [140.34104, 35.77403], [140.34048, 35.77401], [140.33969, 35.77402], [140.33823, 35.77407], [140.33791, 35.7741], [140.33777, 35.77411], [140.33718, 35.77416], [140.33679, 35.77419], [140.33676, 35.7742], [140.33627, 35.77425], [140.3359, 35.77429], [140.33526, 35.77438], [140.335, 35.77443], [140.33462, 35.77449], [140.33437, 35.77454], [140.33378, 35.77466], [140.33302, 35.77482], [140.33256, 35.77492], [140.33248, 35.77495], [140.33203, 35.77505], [140.33152, 35.7752], [140.33141, 35.77523], [140.33107, 35.77533], [140.33082, 35.7754], [140.33069, 35.77544], [140.33055, 35.77549], [140.33043, 35.77551], [140.33, 35.77566], [140.32991, 35.77567], [140.32943, 35.77584], [140.32936, 35.77586], [140.32909, 35.77596], [140.32839, 35.77623], [140.32822, 35.7763], [140.32783, 35.77647], [140.32773, 35.77651], [140.3274, 35.77666], [140.32713, 35.77678], [140.32679, 35.77694], [140.32604, 35.7773], [140.32516, 35.77772], [140.32515, 35.77773], [140.32404, 35.77826], [140.32335, 35.77857], [140.32291, 35.77874], [140.32288, 35.77875], [140.32264, 35.77882], [140.32231, 35.77891], [140.32193, 35.77897], [140.32165, 35.779], [140.32131, 35.77902], [140.32075, 35.77901], [140.32044, 35.77899], [140.31997, 35.77891], [140.31982, 35.77887], [140.31968, 35.77884], [140.31929, 35.7787], [140.31922, 35.77869], [140.3188, 35.77851], [140.31849, 35.77835], [140.3181, 35.77809], [140.3177, 35.77782], [140.31732, 35.77754], [140.31699, 35.77731], [140.31667, 35.77709], [140.31666, 35.77708], [140.31663, 35.77707], [140.31653, 35.77699], [140.31651, 35.77699], [140.31612, 35.77671]]}, "properties": {"id": "GEOM_TOKYO_0203", "route_id": "R_E8462BA3", "route_name": "東成田線", "route_color": "#2457C5", "route_text_color": "#ffffff", "line_name": "東成田線", "operator_id": "keisei", "representation": "service_path", "min_zoom": 0, "max_zoom": 24, "offset_rank": 0}}, {"type": "Feature", "bbox": [140.38676, 35.76902, 140.38774, 35.77035], "geometry": {"type": "LineString", "coordinates": [[140.38774, 35.76902], [140.38676, 35.77035]]}, "properties": {"id": "GEOM_TOKYO_0204", "route_id": "R_E8462BA3", "route_name": "東成田線", "route_color": "#2457C5", "route_text_color": "#ffffff", "line_name": "東成田線", "operator_id": "keisei", "representation": "service_path", "min_zoom": 0, "max_zoom": 24, "offset_rank": 0}}, {"type": "Feature", "bbox": [140.37806, 35.77035, 140.38676, 35.77581], "geometry": {"type": "LineString", "coordinates": [[140.38676, 35.77035], [140.38612, 35.77119], [140.38554, 35.77196], [140.38496, 35.77268], [140.3846, 35.77315], [140.38423, 35.77349], [140.38389, 35.77373], [140.38303, 35.77416], [140.38217, 35.77452], [140.38096, 35.7749], [140.37983, 35.77525], [140.37852, 35.77564], [140.37806, 35.77581]]}, "properties": {"id": "GEOM_TOKYO_0205", "route_id": "R_E8462BA3", "route_name": "東成田線", "route_color": "#2457C5", "route_text_color": "#ffffff", "line_name": "東成田線", "operator_id": "keisei", "representation": "service_path", "min_zoom": 0, "max_zoom": 24, "offset_rank": 0}}, {"type": "Feature", "bbox": [140.3871, 35.76693, 140.38896, 35.77178], "geometry": {"type": "LineString", "coordinates": [[140.3871, 35.76693], [140.3877, 35.7678], [140.388, 35.76828], [140.38883, 35.76973], [140.38893, 35.77001], [140.38896, 35.77025], [140.38893, 35.77063], [140.3889, 35.77096], [140.38882, 35.77116], [140.38866, 35.77143], [140.38846, 35.77178]]}, "properties": {"id": "GEOM_TOKYO_0206", "route_id": "R_E67CFC31", "route_name": "本線", "route_color": "#2457C5", "route_text_color": "#ffffff", "line_name": "本線", "operator_id": "keisei", "representation": "service_path", "min_zoom": 0, "max_zoom": 24, "offset_rank": 0}}, {"type": "Feature", "bbox": [140.38676, 35.77178, 140.38846, 35.77414], "geometry": {"type": "LineString", "coordinates": [[140.38846, 35.77178], [140.38676, 35.77414]]}, "properties": {"id": "GEOM_TOKYO_0207", "route_id": "R_E67CFC31", "route_name": "本線", "route_color": "#2457C5", "route_text_color": "#ffffff", "line_name": "本線", "operator_id": "keisei", "representation": "service_path", "min_zoom": 0, "max_zoom": 24, "offset_rank": 0}}, {"type": "Feature", "bbox": [140.38551, 35.76452, 140.3871, 35.76693], "geometry": {"type": "LineString", "coordinates": [[140.38551, 35.76452], [140.3871, 35.76693]]}, "properties": {"id": "GEOM_TOKYO_0208", "route_id": "R_E67CFC31", "route_name": "本線", "route_color": "#2457C5", "route_text_color": "#ffffff", "line_name": "本線", "operator_id": "keisei", "representation": "service_path", "min_zoom": 0, "max_zoom": 24, "offset_rank": 0}}, {"type": "Feature", "bbox": [140.38449, 35.77414, 140.38676, 35.77733], "geometry": {"type": "LineString", "coordinates": [[140.38676, 35.77414], [140.3865, 35.77451], [140.38618, 35.77491], [140.3861, 35.77504], [140.38585, 35.77542], [140.38556, 35.77584], [140.38531, 35.77623], [140.38504, 35.77657], [140.38496, 35.77668], [140.38449, 35.77733]]}, "properties": {"id": "GEOM_TOKYO_0209", "route_id": "R_E67CFC31", "route_name": "本線", "route_color": "#2457C5", "route_text_color": "#ffffff", "line_name": "本線", "operator_id": "keisei", "representation": "service_path", "min_zoom": 0, "max_zoom": 24, "offset_rank": 0}}, {"type": "Feature", "bbox": [140.25102, 35.73008, 140.2697, 35.73644], "geometry": {"type": "LineString", "coordinates": [[140.25102, 35.73008], [140.25109, 35.73012], [140.25274, 35.73098], [140.25339, 35.73128], [140.25404, 35.73146], [140.25712, 35.73224], [140.25999, 35.73295], [140.26124, 35.73326], [140.26139, 35.7333], [140.26328, 35.73377], [140.26577, 35.7344], [140.26692, 35.73469], [140.26755, 35.73486], [140.26797, 35.735], [140.26837, 35.73521], [140.26876, 35.73549], [140.26895, 35.73567], [140.26925, 35.73599], [140.2697, 35.73644]]}, "properties": {"id": "GEOM_TOKYO_0210", "route_id": "R_E67CFC31", "route_name": "本線", "route_color": "#2457C5", "route_text_color": "#ffffff", "line_name": "本線", "operator_id": "keisei", "representation": "service_path", "min_zoom": 0, "max_zoom": 24, "offset_rank": 0}}, {"type": "Feature", "bbox": [140.22901, 35.72517, 140.23072, 35.72524], "geometry": {"type": "LineString", "coordinates": [[140.23072, 35.72524], [140.22901, 35.72517]]}, "properties": {"id": "GEOM_TOKYO_0211", "route_id": "R_E67CFC31", "route_name": "本線", "route_color": "#2457C5", "route_text_color": "#ffffff", "line_name": "本線", "operator_id": "keisei", "representation": "service_path", "min_zoom": 0, "max_zoom": 24, "offset_rank": 0}}, {"type": "Feature", "bbox": [140.31481, 35.77583, 140.31612, 35.77671], "geometry": {"type": "LineString", "coordinates": [[140.31612, 35.77671], [140.31481, 35.77583]]}, "properties": {"id": "GEOM_TOKYO_0212", "route_id": "R_E67CFC31", "route_name": "本線", "route_color": "#2457C5", "route_text_color": "#ffffff", "line_name": "本線", "operator_id": "keisei", "representation": "service_path", "min_zoom": 0, "max_zoom": 24, "offset_rank": 0}}, {"type": "Feature", "bbox": [140.31612, 35.77401, 140.37806, 35.77902], "geometry": {"type": "LineString", "coordinates": [[140.37806, 35.77581], [140.37607, 35.77649], [140.37598, 35.77651], [140.37558, 35.77666], [140.37496, 35.77686], [140.37494, 35.77688], [140.37462, 35.77699], [140.37439, 35.77707], [140.37171, 35.77789], [140.37079, 35.77799], [140.37043, 35.77801], [140.37003, 35.77803], [140.36923, 35.77808], [140.36881, 35.77807], [140.36806, 35.77804], [140.36754, 35.77799], [140.36726, 35.77796], [140.36684, 35.77789], [140.36621, 35.77775], [140.36587, 35.77767], [140.36508, 35.77745], [140.36434, 35.77724], [140.36285, 35.77679], [140.36284, 35.77678], [140.36277, 35.77678], [140.36264, 35.77673], [140.36241, 35.77666], [140.36234, 35.77665], [140.36195, 35.77652], [140.36173, 35.77647], [140.35966, 35.77592], [140.35951, 35.77589], [140.35909, 35.77578], [140.35864, 35.77568], [140.35808, 35.77555], [140.3576, 35.77544], [140.35743, 35.77542], [140.3574, 35.77541], [140.3568, 35.77532], [140.35601, 35.77525], [140.35569, 35.77522], [140.35519, 35.77517], [140.35513, 35.77517], [140.35414, 35.77508], [140.35384, 35.77505], [140.35382, 35.77506], [140.35286, 35.77496], [140.35276, 35.77497], [140.35158, 35.77485], [140.3515, 35.77486], [140.3512, 35.77483], [140.35116, 35.77482], [140.35056, 35.77478], [140.35008, 35.77473], [140.34984, 35.77471], [140.34903, 35.77463], [140.34854, 35.77458], [140.34847, 35.77459], [140.34827, 35.77456], [140.34808, 35.77455], [140.3478, 35.77452], [140.34776, 35.77453], [140.34775, 35.77452], [140.34768, 35.77451], [140.34762, 35.77451], [140.3471, 35.77446], [140.34678, 35.77443], [140.34674, 35.77442], [140.3458, 35.77435], [140.34571, 35.77434], [140.34464, 35.77426], [140.34425, 35.77423], [140.34343, 35.77417], [140.34246, 35.77411], [140.34159, 35.77406], [140.34104, 35.77403], [140.34048, 35.77401], [140.33969, 35.77402], [140.33823, 35.77407], [140.33791, 35.7741], [140.33777, 35.77411], [140.33718, 35.77416], [140.33679, 35.77419], [140.33676, 35.7742], [140.33627, 35.77425], [140.3359, 35.77429], [140.33526, 35.77438], [140.335, 35.77443], [140.33462, 35.77449], [140.33437, 35.77454], [140.33378, 35.77466], [140.33302, 35.77482], [140.33256, 35.77492], [140.33248, 35.77495], [140.33203, 35.77505], [140.33152, 35.7752], [140.33141, 35.77523], [140.33107, 35.77533], [140.33082, 35.7754], [140.33069, 35.77544], [140.33055, 35.77549], [140.33043, 35.77551], [140.33, 35.77566], [140.32991, 35.77567], [140.32943, 35.77584], [140.32936, 35.77586], [140.32909, 35.77596], [140.32839, 35.77623], [140.32822, 35.7763], [140.32783, 35.77647], [140.32773, 35.77651], [140.3274, 35.77666], [140.32713, 35.77678], [140.32679, 35.77694], [140.32604, 35.7773], [140.32516, 35.77772], [140.32515, 35.77773], [140.32404, 35.77826], [140.32335, 35.77857], [140.32291, 35.77874], [140.32288, 35.77875], [140.32264, 35.77882], [140.32231, 35.77891], [140.32193, 35.77897], [140.32165, 35.779], [140.32131, 35.77902], [140.32075, 35.77901], [140.32044, 35.77899], [140.31997, 35.77891], [140.31982, 35.77887], [140.31968, 35.77884], [140.31929, 35.7787], [140.31922, 35.77869], [140.3188, 35.77851], [140.31849, 35.77835], [140.3181, 35.77809], [140.3177, 35.77782], [140.31732, 35.77754], [140.31699, 35.77731], [140.31667, 35.77709], [140.31666, 35.77708], [140.31663, 35.77707], [140.31653, 35.77699], [140.31651, 35.77699], [140.31612, 35.77671]]}, "properties": {"id": "GEOM_TOKYO_0213", "route_id": "R_E67CFC31", "route_name": "本線", "route_color": "#2457C5", "route_text_color": "#ffffff", "line_name": "本線", "operator_id": "keisei", "representation": "service_path", "min_zoom": 0, "max_zoom": 24, "offset_rank": 0}}, {"type": "Feature", "bbox": [140.37806, 35.77581, 140.38449, 35.77779], "geometry": {"type": "LineString", "coordinates": [[140.38449, 35.77733], [140.38415, 35.77749], [140.38381, 35.77766], [140.38341, 35.77775], [140.38308, 35.77779], [140.38269, 35.77778], [140.38245, 35.77771], [140.38211, 35.77762], [140.38177, 35.77744], [140.38135, 35.77715], [140.38088, 35.77683], [140.3804, 35.77646], [140.38012, 35.77629], [140.3797, 35.7761], [140.37931, 35.77594], [140.37915, 35.7759], [140.37878, 35.77586], [140.37849, 35.77583], [140.37806, 35.77581]]}, "properties": {"id": "GEOM_TOKYO_0214", "route_id": "R_E67CFC31", "route_name": "本線", "route_color": "#2457C5", "route_text_color": "#ffffff", "line_name": "本線", "operator_id": "keisei", "representation": "service_path", "min_zoom": 0, "max_zoom": 24, "offset_rank": 0}}, {"type": "Feature", "bbox": [140.29486, 35.76033, 140.31481, 35.77583], "geometry": {"type": "LineString", "coordinates": [[140.31481, 35.77583], [140.31464, 35.77569], [140.3146, 35.77567], [140.31457, 35.77564], [140.31452, 35.77562], [140.31422, 35.77536], [140.31419, 35.77535], [140.31332, 35.77465], [140.31319, 35.77455], [140.3129, 35.7743], [140.31229, 35.77375], [140.31219, 35.77365], [140.31191, 35.7734], [140.31157, 35.77303], [140.31121, 35.77258], [140.31085, 35.77218], [140.31049, 35.77183], [140.31028, 35.77167], [140.31009, 35.77154], [140.30989, 35.77142], [140.30988, 35.77142], [140.3098, 35.77136], [140.30975, 35.77134], [140.30962, 35.77128], [140.30954, 35.77124], [140.30947, 35.77119], [140.30909, 35.77103], [140.30882, 35.77092], [140.30857, 35.77083], [140.30797, 35.77066], [140.30788, 35.77062], [140.30777, 35.77057], [140.30767, 35.77051], [140.30742, 35.77029], [140.30718, 35.77004], [140.30582, 35.76856], [140.30568, 35.76842], [140.30554, 35.76826], [140.3055, 35.76822], [140.3054, 35.76811], [140.30538, 35.7681], [140.30517, 35.76788], [140.30516, 35.76785], [140.30502, 35.76771], [140.30491, 35.7676], [140.30443, 35.76707], [140.30427, 35.76689], [140.30387, 35.76645], [140.30369, 35.76623], [140.30337, 35.76593], [140.30315, 35.76577], [140.30295, 35.76566], [140.30275, 35.76559], [140.30188, 35.76536], [140.30127, 35.76513], [140.30094, 35.76498], [140.30089, 35.76496], [140.30071, 35.76486], [140.30051, 35.76472], [140.30047, 35.76469], [140.30032, 35.76459], [140.30017, 35.76444], [140.3, 35.76426], [140.29945, 35.76364], [140.2989, 35.76295], [140.29852, 35.7625], [140.29802, 35.76204], [140.2977, 35.76176], [140.29695, 35.76122], [140.29658, 35.7609], [140.29643, 35.76082], [140.29619, 35.76072], [140.29589, 35.76062], [140.2956, 35.76054], [140.29486, 35.76033]]}, "properties": {"id": "GEOM_TOKYO_0215", "route_id": "R_E67CFC31", "route_name": "本線", "route_color": "#2457C5", "route_text_color": "#ffffff", "line_name": "本線", "operator_id": "keisei", "representation": "service_path", "min_zoom": 0, "max_zoom": 24, "offset_rank": 0}}, {"type": "Feature", "bbox": [140.2811, 35.75274, 140.29403, 35.76009], "geometry": {"type": "LineString", "coordinates": [[140.2811, 35.75274], [140.2816, 35.75324], [140.28206, 35.75379], [140.2824, 35.75419], [140.28266, 35.75454], [140.28331, 35.75544], [140.28336, 35.7555], [140.28367, 35.75583], [140.2837, 35.75585], [140.28376, 35.75592], [140.2843, 35.75644], [140.28438, 35.7565], [140.28475, 35.75683], [140.285, 35.757], [140.28507, 35.75707], [140.28531, 35.75721], [140.28553, 35.75733], [140.28573, 35.75742], [140.28628, 35.75765], [140.28715, 35.75793], [140.28865, 35.7584], [140.28913, 35.75855], [140.29206, 35.75946], [140.29268, 35.75965], [140.29366, 35.75996], [140.29403, 35.76009]]}, "properties": {"id": "GEOM_TOKYO_0216", "route_id": "R_E67CFC31", "route_name": "本線", "route_color": "#2457C5", "route_text_color": "#ffffff", "line_name": "本線", "operator_id": "keisei", "representation": "service_path", "min_zoom": 0, "max_zoom": 24, "offset_rank": 0}}, {"type": "Feature", "bbox": [140.2697, 35.73644, 140.27065, 35.73739], "geometry": {"type": "LineString", "coordinates": [[140.2697, 35.73644], [140.27065, 35.73739]]}, "properties": {"id": "GEOM_TOKYO_0217", "route_id": "R_E67CFC31", "route_name": "本線", "route_color": "#2457C5", "route_text_color": "#ffffff", "line_name": "本線", "operator_id": "keisei", "representation": "service_path", "min_zoom": 0, "max_zoom": 24, "offset_rank": 0}}, {"type": "Feature", "bbox": [140.25042, 35.72978, 140.25102, 35.73008], "geometry": {"type": "LineString", "coordinates": [[140.25042, 35.72978], [140.25102, 35.73008]]}, "properties": {"id": "GEOM_TOKYO_0218", "route_id": "R_E67CFC31", "route_name": "本線", "route_color": "#2457C5", "route_text_color": "#ffffff", "line_name": "本線", "operator_id": "keisei", "representation": "service_path", "min_zoom": 0, "max_zoom": 24, "offset_rank": 0}}, {"type": "Feature", "bbox": [140.23072, 35.72524, 140.25042, 35.72978], "geometry": {"type": "LineString", "coordinates": [[140.23072, 35.72524], [140.23172, 35.72529], [140.23205, 35.72531], [140.23211, 35.72532], [140.23218, 35.72532], [140.23232, 35.72533], [140.23285, 35.72539], [140.23311, 35.72544], [140.23388, 35.72559], [140.23408, 35.72561], [140.23439, 35.72566], [140.23494, 35.72571], [140.23596, 35.72575], [140.23844, 35.72583], [140.23852, 35.72583], [140.23859, 35.72583], [140.23921, 35.72585], [140.24017, 35.72587], [140.24129, 35.72591], [140.24175, 35.72592], [140.24206, 35.72592], [140.24259, 35.72594], [140.24285, 35.72596], [140.2433, 35.72602], [140.24334, 35.72602], [140.24372, 35.72609], [140.24395, 35.72615], [140.24441, 35.72627], [140.24483, 35.7264], [140.245, 35.72647], [140.24568, 35.72673], [140.24588, 35.72683], [140.24614, 35.72696], [140.24669, 35.72729], [140.24672, 35.72731], [140.24752, 35.72799], [140.24839, 35.72862], [140.24883, 35.72893], [140.24952, 35.72931], [140.25042, 35.72978]]}, "properties": {"id": "GEOM_TOKYO_0219", "route_id": "R_E67CFC31", "route_name": "本線", "route_color": "#2457C5", "route_text_color": "#ffffff", "line_name": "本線", "operator_id": "keisei", "representation": "service_path", "min_zoom": 0, "max_zoom": 24, "offset_rank": 0}}, {"type": "Feature", "bbox": [140.29403, 35.76009, 140.29486, 35.76033], "geometry": {"type": "LineString", "coordinates": [[140.29403, 35.76009], [140.29486, 35.76033]]}, "properties": {"id": "GEOM_TOKYO_0220", "route_id": "R_E67CFC31", "route_name": "本線", "route_color": "#2457C5", "route_text_color": "#ffffff", "line_name": "本線", "operator_id": "keisei", "representation": "service_path", "min_zoom": 0, "max_zoom": 24, "offset_rank": 0}}, {"type": "Feature", "bbox": [140.28031, 35.75196, 140.2811, 35.75274], "geometry": {"type": "LineString", "coordinates": [[140.28031, 35.75196], [140.2811, 35.75274]]}, "properties": {"id": "GEOM_TOKYO_0221", "route_id": "R_E67CFC31", "route_name": "本線", "route_color": "#2457C5", "route_text_color": "#ffffff", "line_name": "本線", "operator_id": "keisei", "representation": "service_path", "min_zoom": 0, "max_zoom": 24, "offset_rank": 0}}, {"type": "Feature", "bbox": [140.27065, 35.73739, 140.28031, 35.75196], "geometry": {"type": "LineString", "coordinates": [[140.27065, 35.73739], [140.271, 35.73776], [140.27129, 35.73814], [140.27157, 35.73858], [140.27179, 35.73903], [140.27194, 35.73936], [140.27206, 35.73976], [140.27225, 35.74043], [140.2725, 35.74131], [140.27278, 35.74224], [140.27288, 35.74251], [140.27305, 35.74294], [140.27366, 35.7442], [140.27389, 35.74467], [140.27425, 35.74537], [140.27465, 35.74602], [140.27491, 35.74646], [140.27514, 35.74676], [140.27575, 35.74741], [140.27718, 35.74886], [140.2783, 35.74999], [140.28031, 35.75196]]}, "properties": {"id": "GEOM_TOKYO_0222", "route_id": "R_E67CFC31", "route_name": "本線", "route_color": "#2457C5", "route_text_color": "#ffffff", "line_name": "本線", "operator_id": "keisei", "representation": "service_path", "min_zoom": 0, "max_zoom": 24, "offset_rank": 0}}, {"type": "Feature", "bbox": [140.12685, 35.71547, 140.14453, 35.71734], "geometry": {"type": "LineString", "coordinates": [[140.14453, 35.71734], [140.14421, 35.7173], [140.14371, 35.71726], [140.14315, 35.7172], [140.14214, 35.7171], [140.14132, 35.71701], [140.1413, 35.71701], [140.13999, 35.71688], [140.13938, 35.71681], [140.13899, 35.71676], [140.13872, 35.71674], [140.13849, 35.71672], [140.1384, 35.71671], [140.13799, 35.71666], [140.1376, 35.71662], [140.13727, 35.71659], [140.13633, 35.71648], [140.13626, 35.71648], [140.13613, 35.71646], [140.13584, 35.71643], [140.13523, 35.71636], [140.13497, 35.71633], [140.1349, 35.71633], [140.13392, 35.71622], [140.13369, 35.71619], [140.13342, 35.71617], [140.13267, 35.71609], [140.12806, 35.71559], [140.12796, 35.71559], [140.12786, 35.71557], [140.1277, 35.71555], [140.12724, 35.7155], [140.12685, 35.71547]]}, "properties": {"id": "GEOM_TOKYO_0223", "route_id": "R_E67CFC31", "route_name": "本線", "route_color": "#2457C5", "route_text_color": "#ffffff", "line_name": "本線", "operator_id": "keisei", "representation": "service_path", "min_zoom": 0, "max_zoom": 24, "offset_rank": 0}}, {"type": "Feature", "bbox": [140.14453, 35.71734, 140.14533, 35.71747], "geometry": {"type": "LineString", "coordinates": [[140.14453, 35.71734], [140.14533, 35.71747]]}, "properties": {"id": "GEOM_TOKYO_0227", "route_id": "R_E67CFC31", "route_name": "本線", "route_color": "#2457C5", "route_text_color": "#ffffff", "line_name": "本線", "operator_id": "keisei", "representation": "service_path", "min_zoom": 0, "max_zoom": 24, "offset_rank": 0}}, {"type": "Feature", "bbox": [140.15535, 35.72158, 140.15698, 35.72197], "geometry": {"type": "LineString", "coordinates": [[140.15698, 35.72197], [140.1568, 35.72193], [140.15641, 35.72184], [140.15535, 35.72158]]}, "properties": {"id": "GEOM_TOKYO_0235", "route_id": "R_E67CFC31", "route_name": "本線", "route_color": "#2457C5", "route_text_color": "#ffffff", "line_name": "本線", "operator_id": "keisei", "representation": "service_path", "min_zoom": 0, "max_zoom": 24, "offset_rank": 0}}, {"type": "Feature", "bbox": [140.1813, 35.72509, 140.22901, 35.73929], "geometry": {"type": "LineString", "coordinates": [[140.22901, 35.72517], [140.22853, 35.72515], [140.22801, 35.72512], [140.2279, 35.72512], [140.22757, 35.72511], [140.22717, 35.72509], [140.22697, 35.72509], [140.22674, 35.72512], [140.22651, 35.72516], [140.22621, 35.72524], [140.22604, 35.72529], [140.22581, 35.72536], [140.22553, 35.72546], [140.22495, 35.72573], [140.22407, 35.72614], [140.22406, 35.72615], [140.22316, 35.72658], [140.22258, 35.72684], [140.22217, 35.72703], [140.22183, 35.7272], [140.2215, 35.72734], [140.22087, 35.72759], [140.22049, 35.72773], [140.22047, 35.72774], [140.21829, 35.72858], [140.21748, 35.7289], [140.21659, 35.72925], [140.21579, 35.72955], [140.21515, 35.7298], [140.21477, 35.72998], [140.21439, 35.73024], [140.2141, 35.7305], [140.2139, 35.73072], [140.2137, 35.73095], [140.21328, 35.73146], [140.21292, 35.73193], [140.21202, 35.73302], [140.21184, 35.73325], [140.21165, 35.7335], [140.2114, 35.7338], [140.21087, 35.73422], [140.21057, 35.73443], [140.20956, 35.73502], [140.20942, 35.73509], [140.20863, 35.73555], [140.20848, 35.73562], [140.20817, 35.7358], [140.20762, 35.73611], [140.20365, 35.73832], [140.20295, 35.7387], [140.20237, 35.73901], [140.20214, 35.7391], [140.20194, 35.73918], [140.20165, 35.73925], [140.2013, 35.73929], [140.20095, 35.73929], [140.20065, 35.73926], [140.19968, 35.73902], [140.19847, 35.7387], [140.19829, 35.73865], [140.19471, 35.7377], [140.19423, 35.73758], [140.19012, 35.73649], [140.18992, 35.73643], [140.18977, 35.73639], [140.18921, 35.73625], [140.18912, 35.73623], [140.18905, 35.73621], [140.18782, 35.73588], [140.18741, 35.73576], [140.18734, 35.73575], [140.18716, 35.73569], [140.18683, 35.73559], [140.18667, 35.73553], [140.18624, 35.73534], [140.18599, 35.73519], [140.18578, 35.73506], [140.18557, 35.7349], [140.18549, 35.73484], [140.18511, 35.73448], [140.1846, 35.73392], [140.18448, 35.73379], [140.18445, 35.73377], [140.18435, 35.73365], [140.18422, 35.73353], [140.18412, 35.73342], [140.18343, 35.73271], [140.18278, 35.73205], [140.18271, 35.73197], [140.18266, 35.73193], [140.18256, 35.73182], [140.18243, 35.7317], [140.18224, 35.73149], [140.18207, 35.73133], [140.18167, 35.73091], [140.1813, 35.73053]]}, "properties": {"id": "GEOM_TOKYO_0246", "route_id": "R_E67CFC31", "route_name": "本線", "route_color": "#2457C5", "route_text_color": "#ffffff", "line_name": "本線", "operator_id": "keisei", "representation": "service_path", "min_zoom": 0, "max_zoom": 24, "offset_rank": 0}}, {"type": "Feature", "bbox": [140.18031, 35.72952, 140.1813, 35.73053], "geometry": {"type": "LineString", "coordinates": [[140.1813, 35.73053], [140.18031, 35.72952]]}, "properties": {"id": "GEOM_TOKYO_0249", "route_id": "R_E67CFC31", "route_name": "本線", "route_color": "#2457C5", "route_text_color": "#ffffff", "line_name": "本線", "operator_id": "keisei", "representation": "service_path", "min_zoom": 0, "max_zoom": 24, "offset_rank": 0}}, {"type": "Feature", "bbox": [140.15698, 35.72197, 140.18031, 35.72952], "geometry": {"type": "LineString", "coordinates": [[140.15698, 35.72197], [140.15732, 35.72204], [140.15778, 35.72214], [140.15809, 35.72221], [140.15884, 35.72239], [140.15915, 35.72247], [140.15943, 35.72253], [140.15968, 35.7226], [140.1598, 35.72262], [140.15993, 35.72266], [140.16029, 35.72274], [140.16169, 35.72308], [140.16194, 35.72314], [140.16292, 35.72335], [140.16428, 35.72366], [140.16446, 35.72371], [140.16472, 35.72377], [140.16514, 35.72386], [140.16544, 35.72394], [140.16582, 35.72402], [140.16614, 35.7241], [140.16677, 35.72425], [140.16738, 35.72439], [140.16814, 35.72458], [140.16904, 35.72478], [140.16941, 35.72487], [140.16976, 35.72495], [140.1703, 35.72507], [140.17115, 35.72528], [140.17152, 35.72537], [140.17183, 35.72544], [140.17307, 35.72575], [140.17393, 35.72596], [140.17434, 35.72605], [140.17464, 35.72613], [140.17491, 35.72619], [140.17629, 35.72652], [140.17691, 35.72671], [140.17746, 35.72701], [140.17822, 35.72749], [140.17864, 35.72782], [140.17916, 35.72833], [140.17933, 35.72852], [140.17985, 35.72904], [140.18031, 35.72952]]}, "properties": {"id": "GEOM_TOKYO_0251", "route_id": "R_E67CFC31", "route_name": "本線", "route_color": "#2457C5", "route_text_color": "#ffffff", "line_name": "本線", "operator_id": "keisei", "representation": "service_path", "min_zoom": 0, "max_zoom": 24, "offset_rank": 0}}, {"type": "Feature", "bbox": [140.14533, 35.71747, 140.15535, 35.72158], "geometry": {"type": "LineString", "coordinates": [[140.14533, 35.71747], [140.1456, 35.71755], [140.14589, 35.71763], [140.1463, 35.71778], [140.14636, 35.7178], [140.1469, 35.71803], [140.14711, 35.71814], [140.14751, 35.71836], [140.14773, 35.7185], [140.14789, 35.7186], [140.14805, 35.71872], [140.14846, 35.71903], [140.14888, 35.71934], [140.14955, 35.71982], [140.15007, 35.72016], [140.15013, 35.72018], [140.15068, 35.72043], [140.15118, 35.7206], [140.15205, 35.7208], [140.15232, 35.72086], [140.15281, 35.72098], [140.15294, 35.72101], [140.1532, 35.72107], [140.15352, 35.72115], [140.15425, 35.72132], [140.15465, 35.72141], [140.15535, 35.72158]]}, "properties": {"id": "GEOM_TOKYO_0254", "route_id": "R_E67CFC31", "route_name": "本線", "route_color": "#2457C5", "route_text_color": "#ffffff", "line_name": "本線", "operator_id": "keisei", "representation": "service_path", "min_zoom": 0, "max_zoom": 24, "offset_rank": 0}}, {"type": "Feature", "bbox": [140.19987, 35.68519, 140.20076, 35.68626], "geometry": {"type": "LineString", "coordinates": [[140.20076, 35.68626], [140.19987, 35.68519]]}, "properties": {"id": "GEOM_TOKYO_2536", "route_id": "R_7A7743D8", "route_name": null, "route_color": "#F4C300", "route_text_color": null, "line_name": "総武線", "operator_id": "jr_east", "representation": "service_path", "min_zoom": 0, "max_zoom": 24, "offset_rank": 0}}, {"type": "Feature", "bbox": [140.28868, 35.66363, 140.31649, 35.68344], "geometry": {"type": "LineString", "coordinates": [[140.31649, 35.66363], [140.31628, 35.66374], [140.31522, 35.66428], [140.31428, 35.66473], [140.31329, 35.66522], [140.31248, 35.66561], [140.31072, 35.66649], [140.30849, 35.6676], [140.30657, 35.66854], [140.30543, 35.66912], [140.30446, 35.6696], [140.30383, 35.66992], [140.30247, 35.67058], [140.30129, 35.67115], [140.30006, 35.67178], [140.29898, 35.67242], [140.29828, 35.67292], [140.29776, 35.67337], [140.29693, 35.67412], [140.29553, 35.67571], [140.29543, 35.67582], [140.29289, 35.67868], [140.29153, 35.68023], [140.28905, 35.68302], [140.28868, 35.68344]]}, "properties": {"id": "GEOM_TOKYO_2540", "route_id": "R_7A7743D8", "route_name": null, "route_color": "#F4C300", "route_text_color": null, "line_name": "総武線", "operator_id": "jr_east", "representation": "service_path", "min_zoom": 0, "max_zoom": 24, "offset_rank": 0}}, {"type": "Feature", "bbox": [140.28755, 35.68344, 140.28868, 35.68471], "geometry": {"type": "LineString", "coordinates": [[140.28755, 35.68471], [140.28868, 35.68344]]}, "properties": {"id": "GEOM_TOKYO_2544", "route_id": "R_7A7743D8", "route_name": null, "route_color": "#F4C300", "route_text_color": null, "line_name": "総武線", "operator_id": "jr_east", "representation": "service_path", "min_zoom": 0, "max_zoom": 24, "offset_rank": 0}}, {"type": "Feature", "bbox": [140.25547, 35.70454, 140.26689, 35.70763], "geometry": {"type": "LineString", "coordinates": [[140.25547, 35.7073], [140.25673, 35.70757], [140.25795, 35.70763], [140.2583, 35.70758], [140.25889, 35.70746], [140.25966, 35.70726], [140.26082, 35.70679], [140.26229, 35.7062], [140.26395, 35.70555], [140.26454, 35.70533], [140.2655, 35.70499], [140.26666, 35.70461], [140.26689, 35.70454]]}, "properties": {"id": "GEOM_TOKYO_2548", "route_id": "R_7A7743D8", "route_name": null, "route_color": "#F4C300", "route_text_color": null, "line_name": "総武線", "operator_id": "jr_east", "representation": "service_path", "min_zoom": 0, "max_zoom": 24, "offset_rank": 0}}, {"type": "Feature", "bbox": [140.22802, 35.70639, 140.25547, 35.71085], "geometry": {"type": "LineString", "coordinates": [[140.22802, 35.7099], [140.22839, 35.70996], [140.22893, 35.71003], [140.22988, 35.71016], [140.23023, 35.71021], [140.23064, 35.71026], [140.23097, 35.7103], [140.23238, 35.71048], [140.2345, 35.71076], [140.23499, 35.7108], [140.23537, 35.71084], [140.23597, 35.71085], [140.23651, 35.71082], [140.23678, 35.7108], [140.23684, 35.71079], [140.23733, 35.71071], [140.23766, 35.71062], [140.23798, 35.71052], [140.23919, 35.71004], [140.24027, 35.70957], [140.24151, 35.70906], [140.24327, 35.7083], [140.24404, 35.70799], [140.24502, 35.70756], [140.24559, 35.70732], [140.24644, 35.70695], [140.24657, 35.7069], [140.24672, 35.70687], [140.24733, 35.70671], [140.2479, 35.70659], [140.24848, 35.70648], [140.24904, 35.70642], [140.24952, 35.70639], [140.25032, 35.70642], [140.25105, 35.7065], [140.25547, 35.7073]]}, "properties": {"id": "GEOM_TOKYO_2549", "route_id": "R_7A7743D8", "route_name": null, "route_color": "#F4C300", "route_text_color": null, "line_name": "総武線", "operator_id": "jr_east", "representation": "service_path", "min_zoom": 0, "max_zoom": 24, "offset_rank": 0}}, {"type": "Feature", "bbox": [140.26689, 35.70406, 140.26898, 35.70454], "geometry": {"type": "LineString", "coordinates": [[140.26689, 35.70454], [140.26728, 35.70444], [140.26809, 35.70425], [140.26898, 35.70406]]}, "properties": {"id": "GEOM_TOKYO_2553", "route_id": "R_7A7743D8", "route_name": null, "route_color": "#F4C300", "route_text_color": null, "line_name": "総武線", "operator_id": "jr_east", "representation": "service_path", "min_zoom": 0, "max_zoom": 24, "offset_rank": 0}}, {"type": "Feature", "bbox": [140.26898, 35.68471, 140.28755, 35.70406], "geometry": {"type": "LineString", "coordinates": [[140.26898, 35.70406], [140.26945, 35.70395], [140.27034, 35.70367], [140.27084, 35.70343], [140.27132, 35.70309], [140.27174, 35.70268], [140.2722, 35.70216], [140.27223, 35.70213], [140.27337, 35.70082], [140.27458, 35.69944], [140.27584, 35.698], [140.27668, 35.69704], [140.27868, 35.69475], [140.28038, 35.69285], [140.28315, 35.68971], [140.28351, 35.6893], [140.28671, 35.68565], [140.28755, 35.68471]]}, "properties": {"id": "GEOM_TOKYO_2560", "route_id": "R_7A7743D8", "route_name": null, "route_color": "#F4C300", "route_text_color": null, "line_name": "総武線", "operator_id": "jr_east", "representation": "service_path", "min_zoom": 0, "max_zoom": 24, "offset_rank": 0}}, {"type": "Feature", "bbox": [140.22555, 35.70959, 140.22802, 35.7099], "geometry": {"type": "LineString", "coordinates": [[140.22555, 35.70959], [140.2258, 35.70962], [140.22765, 35.70985], [140.22802, 35.7099]]}, "properties": {"id": "GEOM_TOKYO_2562", "route_id": "R_7A7743D8", "route_name": null, "route_color": "#F4C300", "route_text_color": null, "line_name": "総武線", "operator_id": "jr_east", "representation": "service_path", "min_zoom": 0, "max_zoom": 24, "offset_rank": 0}}, {"type": "Feature", "bbox": [140.20076, 35.68626, 140.22555, 35.70959], "geometry": {"type": "LineString", "coordinates": [[140.22555, 35.70959], [140.22529, 35.70956], [140.22298, 35.70926], [140.22251, 35.70921], [140.22217, 35.70917], [140.22176, 35.70912], [140.22134, 35.70907], [140.22089, 35.70899], [140.2207, 35.70895], [140.22028, 35.70885], [140.21966, 35.70866], [140.21916, 35.70845], [140.21865, 35.70819], [140.21821, 35.70792], [140.21786, 35.70766], [140.21784, 35.70764], [140.21734, 35.70723], [140.21664, 35.7066], [140.21612, 35.70613], [140.21574, 35.70578], [140.21521, 35.70531], [140.2134, 35.70362], [140.21311, 35.70334], [140.21304, 35.70328], [140.2119, 35.70226], [140.21141, 35.7018], [140.20975, 35.70027], [140.20909, 35.69966], [140.20879, 35.69939], [140.20833, 35.69897], [140.20822, 35.69887], [140.20723, 35.69797], [140.20672, 35.6975], [140.20655, 35.69731], [140.20626, 35.69699], [140.20612, 35.69681], [140.20589, 35.69653], [140.20554, 35.69604], [140.2054, 35.69581], [140.20519, 35.69545], [140.20506, 35.69518], [140.20486, 35.69467], [140.20475, 35.69433], [140.20468, 35.69399], [140.20452, 35.69336], [140.20438, 35.69278], [140.20403, 35.69126], [140.204, 35.69114], [140.20383, 35.69046], [140.20373, 35.69018], [140.20363, 35.6899], [140.20351, 35.68967], [140.2033, 35.68936], [140.20295, 35.68889], [140.20286, 35.68877], [140.20271, 35.6886], [140.20233, 35.68814], [140.20223, 35.68801], [140.20222, 35.68801], [140.20124, 35.68685], [140.20122, 35.68683], [140.20106, 35.68663], [140.20076, 35.68626]]}, "properties": {"id": "GEOM_TOKYO_2566", "route_id": "R_7A7743D8", "route_name": null, "route_color": "#F4C300", "route_text_color": null, "line_name": "総武線", "operator_id": "jr_east", "representation": "service_path", "min_zoom": 0, "max_zoom": 24, "offset_rank": 0}}, {"type": "Feature", "bbox": [140.16599, 35.66323, 140.19987, 35.68519], "geometry": {"type": "LineString", "coordinates": [[140.16599, 35.66323], [140.1666, 35.66345], [140.16813, 35.66401], [140.1692, 35.66445], [140.17005, 35.66481], [140.17044, 35.66501], [140.17118, 35.66545], [140.17371, 35.667], [140.17679, 35.66888], [140.178, 35.66965], [140.1784, 35.66991], [140.1785, 35.66996], [140.1787, 35.67008], [140.17907, 35.67029], [140.17988, 35.67077], [140.1812, 35.67156], [140.18201, 35.67204], [140.18234, 35.67224], [140.1828, 35.67257], [140.18337, 35.67305], [140.18371, 35.67337], [140.18468, 35.67445], [140.185, 35.67482], [140.1854, 35.67527], [140.18587, 35.67581], [140.18641, 35.67642], [140.18707, 35.67716], [140.18717, 35.67725], [140.18723, 35.6773], [140.1873, 35.67735], [140.18732, 35.67737], [140.18759, 35.67762], [140.18804, 35.67796], [140.18852, 35.67828], [140.18875, 35.67841], [140.18892, 35.67849], [140.18907, 35.67856], [140.18929, 35.67867], [140.18957, 35.67876], [140.19005, 35.6789], [140.19077, 35.67911], [140.19092, 35.67916], [140.19103, 35.67919], [140.19154, 35.67934], [140.19235, 35.67959], [140.19237, 35.6796], [140.19256, 35.67965], [140.19272, 35.6797], [140.19336, 35.67988], [140.19363, 35.67996], [140.19389, 35.68004], [140.19413, 35.68012], [140.19457, 35.6803], [140.19518, 35.68058], [140.19551, 35.68074], [140.19589, 35.68096], [140.19631, 35.68124], [140.19639, 35.68131], [140.19644, 35.68134], [140.19651, 35.68139], [140.19688, 35.68168], [140.1973, 35.68207], [140.19745, 35.68224], [140.19792, 35.68285], [140.19825, 35.68325], [140.19838, 35.6834], [140.19866, 35.68376], [140.19901, 35.68415], [140.19944, 35.68468], [140.19947, 35.6847], [140.19987, 35.68519]]}, "properties": {"id": "GEOM_TOKYO_2576", "route_id": "R_7A7743D8", "route_name": null, "route_color": "#F4C300", "route_text_color": null, "line_name": "総武線", "operator_id": "jr_east", "representation": "service_path", "min_zoom": 0, "max_zoom": 24, "offset_rank": 0}}, {"type": "Feature", "bbox": [140.292302, 35.79628, 140.32547, 35.799769], "geometry": {"type": "LineString", "coordinates": [[140.32547, 35.79628], [140.316903, 35.797095], [140.31556, 35.797267], [140.313998, 35.797559], [140.311531, 35.798238], [140.309959, 35.798746], [140.308156, 35.799197], [140.307015, 35.799433], [140.305162, 35.799683], [140.303607, 35.799769], [140.29746, 35.799683], [140.292302, 35.799577]]}, "properties": {"id": "GEOM_TOKYO_4027", "route_id": "R_80C469C3", "route_name": "成田空港線", "route_color": "#2457C5", "route_text_color": "#ffffff", "line_name": "成田空港線", "operator_id": "keisei", "representation": "service_path", "min_zoom": 0, "max_zoom": 24, "offset_rank": 0}}, {"type": "Feature", "bbox": [140.203038, 35.782579, 140.290659, 35.799543], "geometry": {"type": "LineString", "coordinates": [[140.290659, 35.799543], [140.285227, 35.799447], [140.284279, 35.799361], [140.282866, 35.799197], [140.278327, 35.798267], [140.27033, 35.796521], [140.268001, 35.795978], [140.265779, 35.795241], [140.259012, 35.792444], [140.249409, 35.78838], [140.240863, 35.784782], [140.23861, 35.783888], [140.237443, 35.783552], [140.236231, 35.783201], [140.234791, 35.782922], [140.233343, 35.782722], [140.231539, 35.782579], [140.229722, 35.782636], [140.228379, 35.782707], [140.226668, 35.782929], [140.220064, 35.784074], [140.213678, 35.785132], [140.209903, 35.785783], [140.20736, 35.78642], [140.203038, 35.787721]]}, "properties": {"id": "GEOM_TOKYO_4028", "route_id": "R_80C469C3", "route_name": "成田空港線", "route_color": "#2457C5", "route_text_color": "#ffffff", "line_name": "成田空港線", "operator_id": "keisei", "representation": "service_path", "min_zoom": 0, "max_zoom": 24, "offset_rank": 0}}, {"type": "Feature", "bbox": [140.290659, 35.799543, 140.292302, 35.799577], "geometry": {"type": "LineString", "coordinates": [[140.292302, 35.799577], [140.290659, 35.799543]]}, "properties": {"id": "GEOM_TOKYO_4029", "route_id": "R_80C469C3", "route_name": "成田空港線", "route_color": "#2457C5", "route_text_color": "#ffffff", "line_name": "成田空港線", "operator_id": "keisei", "representation": "service_path", "min_zoom": 0, "max_zoom": 24, "offset_rank": 0}}, {"type": "Feature", "bbox": [140.32547, 35.77733, 140.38449, 35.79628], "geometry": {"type": "LineString", "coordinates": [[140.38449, 35.77733], [140.38389, 35.77813], [140.38332, 35.77893], [140.38273, 35.77975], [140.38228, 35.78036], [140.38211, 35.78058], [140.38084, 35.78238], [140.38038, 35.78299], [140.38011, 35.78334], [140.37975, 35.78383], [140.37947, 35.78426], [140.37927, 35.78452], [140.37902, 35.78484], [140.37893, 35.78495], [140.37872, 35.78519], [140.37848, 35.78548], [140.37824, 35.78573], [140.3781, 35.78588], [140.3779, 35.78607], [140.37691, 35.78699], [140.37643, 35.7874], [140.37545, 35.78817], [140.37464, 35.78872], [140.37408, 35.78909], [140.37387, 35.78921], [140.3737, 35.78931], [140.37287, 35.78981], [140.37274, 35.78988], [140.37263, 35.78995], [140.37233, 35.79008], [140.37188, 35.79032], [140.37171, 35.7904], [140.37069, 35.79081], [140.36905, 35.79145], [140.36828, 35.79172], [140.36789, 35.79186], [140.36723, 35.79203], [140.36655, 35.79222], [140.36634, 35.79227], [140.36605, 35.79236], [140.36555, 35.79243], [140.365, 35.79256], [140.36438, 35.79266], [140.36312, 35.79282], [140.36212, 35.79291], [140.35944, 35.79316], [140.35707, 35.79339], [140.35649, 35.79346], [140.35134, 35.79393], [140.34753, 35.79426], [140.34655, 35.79434], [140.34547, 35.79446], [140.34491, 35.7945], [140.34486, 35.79451], [140.34071, 35.79489], [140.3393, 35.79502], [140.33496, 35.79543], [140.33422, 35.79548], [140.33337, 35.79556], [140.33233, 35.79566], [140.33212, 35.79568], [140.32931, 35.79593], [140.32828, 35.79603], [140.32616, 35.79622], [140.32547, 35.79628]]}, "properties": {"id": "GEOM_TOKYO_4052", "route_id": "R_80C469C3", "route_name": "成田空港線", "route_color": "#2457C5", "route_text_color": "#ffffff", "line_name": "成田空港線", "operator_id": "keisei", "representation": "service_path", "min_zoom": 0, "max_zoom": 24, "offset_rank": 0}}, {"type": "Feature", "bbox": [140.38449, 35.77414, 140.38676, 35.77733], "geometry": {"type": "LineString", "coordinates": [[140.38676, 35.77414], [140.3865, 35.77451], [140.38618, 35.77491], [140.3861, 35.77504], [140.38585, 35.77542], [140.38556, 35.77584], [140.38531, 35.77623], [140.38504, 35.77657], [140.38496, 35.77668], [140.38449, 35.77733]]}, "properties": {"id": "GEOM_TOKYO_4053", "route_id": "R_80C469C3", "route_name": "成田空港線", "route_color": "#2457C5", "route_text_color": "#ffffff", "line_name": "成田空港線", "operator_id": "keisei", "representation": "service_path", "min_zoom": 0, "max_zoom": 24, "offset_rank": 0}}, {"type": "Feature", "bbox": [140.38676, 35.77178, 140.38846, 35.77414], "geometry": {"type": "LineString", "coordinates": [[140.38846, 35.77178], [140.38676, 35.77414]]}, "properties": {"id": "GEOM_TOKYO_4054", "route_id": "R_80C469C3", "route_name": "成田空港線", "route_color": "#2457C5", "route_text_color": "#ffffff", "line_name": "成田空港線", "operator_id": "keisei", "representation": "service_path", "min_zoom": 0, "max_zoom": 24, "offset_rank": 0}}, {"type": "Feature", "bbox": [140.3871, 35.76693, 140.38896, 35.77178], "geometry": {"type": "LineString", "coordinates": [[140.3871, 35.76693], [140.3877, 35.7678], [140.388, 35.76828], [140.38883, 35.76973], [140.38893, 35.77001], [140.38896, 35.77025], [140.38893, 35.77063], [140.3889, 35.77096], [140.38882, 35.77116], [140.38866, 35.77143], [140.38846, 35.77178]]}, "properties": {"id": "GEOM_TOKYO_4055", "route_id": "R_80C469C3", "route_name": "成田空港線", "route_color": "#2457C5", "route_text_color": "#ffffff", "line_name": "成田空港線", "operator_id": "keisei", "representation": "service_path", "min_zoom": 0, "max_zoom": 24, "offset_rank": 0}}, {"type": "Feature", "bbox": [140.38551, 35.76452, 140.3871, 35.76693], "geometry": {"type": "LineString", "coordinates": [[140.38551, 35.76452], [140.3871, 35.76693]]}, "properties": {"id": "GEOM_TOKYO_4056", "route_id": "R_80C469C3", "route_name": "成田空港線", "route_color": "#2457C5", "route_text_color": "#ffffff", "line_name": "成田空港線", "operator_id": "keisei", "representation": "service_path", "min_zoom": 0, "max_zoom": 24, "offset_rank": 0}}, {"type": "Feature", "bbox": [140.20248, 35.787721, 140.203038, 35.78791], "geometry": {"type": "LineString", "coordinates": [[140.203038, 35.787721], [140.20248, 35.78791]]}, "properties": {"id": "GEOM_TOKYO_4059", "route_id": "R_80C469C3", "route_name": "成田空港線", "route_color": "#2457C5", "route_text_color": "#ffffff", "line_name": "成田空港線", "operator_id": "keisei", "representation": "service_path", "min_zoom": 0, "max_zoom": 24, "offset_rank": 0}}, {"type": "Feature", "bbox": [140.11702, 35.80046, 140.17323, 35.80585], "geometry": {"type": "LineString", "coordinates": [[140.17323, 35.80153], [140.17127, 35.80241], [140.16979, 35.80293], [140.16861, 35.80326], [140.16778, 35.80348], [140.16774, 35.80349], [140.16718, 35.80362], [140.1665, 35.80377], [140.16647, 35.80378], [140.1653, 35.80402], [140.1631, 35.80448], [140.15972, 35.80517], [140.15762, 35.8054], [140.15564, 35.80559], [140.15443, 35.80566], [140.15294, 35.80574], [140.15034, 35.8058], [140.1476, 35.80585], [140.14469, 35.80579], [140.14405, 35.80577], [140.14335, 35.80573], [140.14319, 35.80571], [140.14104, 35.80548], [140.13678, 35.80491], [140.13582, 35.80479], [140.13243, 35.80423], [140.13078, 35.80396], [140.12765, 35.80343], [140.12628, 35.80319], [140.12466, 35.80281], [140.12357, 35.80252], [140.12173, 35.80195], [140.1213, 35.8018], [140.12001, 35.8014], [140.11702, 35.80046]]}, "properties": {"id": "GEOM_TOKYO_4062", "route_id": "R_80C469C3", "route_name": "成田空港線", "route_color": "#2457C5", "route_text_color": "#ffffff", "line_name": "成田空港線", "operator_id": "keisei", "representation": "service_path", "min_zoom": 0, "max_zoom": 24, "offset_rank": 0}}, {"type": "Feature", "bbox": [140.17323, 35.79842, 140.17884, 35.80153], "geometry": {"type": "LineString", "coordinates": [[140.17323, 35.80153], [140.17501, 35.80041], [140.17702, 35.79926], [140.17723, 35.79916], [140.17884, 35.79842]]}, "properties": {"id": "GEOM_TOKYO_4063", "route_id": "R_80C469C3", "route_name": "成田空港線", "route_color": "#2457C5", "route_text_color": "#ffffff", "line_name": "成田空港線", "operator_id": "keisei", "representation": "service_path", "min_zoom": 0, "max_zoom": 24, "offset_rank": 0}}, {"type": "Feature", "bbox": [140.17323, 35.79842, 140.17884, 35.80153], "geometry": {"type": "LineString", "coordinates": [[140.17323, 35.80153], [140.17446, 35.80108], [140.1753, 35.80068], [140.17643, 35.80007], [140.17658, 35.79998], [140.17722, 35.7996], [140.17884, 35.79842]]}, "properties": {"id": "GEOM_TOKYO_4066", "route_id": "R_80C469C3", "route_name": "成田空港線", "route_color": "#2457C5", "route_text_color": "#ffffff", "line_name": "成田空港線", "operator_id": "keisei", "representation": "service_path", "min_zoom": 0, "max_zoom": 24, "offset_rank": 0}}, {"type": "Feature", "bbox": [140.17884, 35.78791, 140.20248, 35.79842], "geometry": {"type": "LineString", "coordinates": [[140.20248, 35.78791], [140.198243, 35.789132], [140.19551, 35.78995], [140.19388, 35.79054], [140.19337, 35.79072], [140.19269, 35.79102], [140.19019, 35.79217], [140.18803, 35.79324], [140.18795, 35.79328], [140.18523, 35.79478], [140.1809, 35.79726], [140.17884, 35.79842]]}, "properties": {"id": "GEOM_TOKYO_4067", "route_id": "R_80C469C3", "route_name": "成田空港線", "route_color": "#2457C5", "route_text_color": "#ffffff", "line_name": "成田空港線", "operator_id": "keisei", "representation": "service_path", "min_zoom": 0, "max_zoom": 24, "offset_rank": 0}}]}