{"type": "FeatureCollection", "features": [{"type": "Feature", "bbox": [140.16995, 35.53259, 140.17025, 35.5345], "geometry": {"type": "LineString", "coordinates": [[140.16995, 35.53259], [140.17006, 35.53326], [140.17023, 35.53441], [140.17025, 35.5345]]}, "properties": {"id": "GEOM_TOKYO_0171", "route_id": "R_3492E341", "route_name": null, "route_color": "#2457C5", "route_text_color": null, "line_name": "千原線", "operator_id": "keisei", "representation": "service_path", "min_zoom": 0, "max_zoom": 24, "offset_rank": 0}}, {"type": "Feature", "bbox": [140.14922, 35.58371, 140.14992, 35.58427], "geometry": {"type": "LineString", "coordinates": [[140.14992, 35.58371], [140.14922, 35.58427]]}, "properties": {"id": "GEOM_TOKYO_0172", "route_id": "R_3492E341", "route_name": null, "route_color": "#2457C5", "route_text_color": null, "line_name": "千原線", "operator_id": "keisei", "representation": "service_path", "min_zoom": 0, "max_zoom": 24, "offset_rank": 0}}, {"type": "Feature", "bbox": [140.14992, 35.56109, 140.16033, 35.58371], "geometry": {"type": "LineString", "coordinates": [[140.15851, 35.56109], [140.15863, 35.56169], [140.15867, 35.56188], [140.15871, 35.56208], [140.15876, 35.56231], [140.15903, 35.56352], [140.15906, 35.56368], [140.15913, 35.56406], [140.15926, 35.56469], [140.15933, 35.56502], [140.15938, 35.56528], [140.15952, 35.566], [140.15956, 35.5663], [140.1596, 35.56657], [140.15981, 35.56804], [140.16003, 35.56975], [140.16003, 35.56986], [140.1601, 35.57058], [140.16013, 35.57085], [140.16015, 35.57102], [140.16019, 35.57155], [140.1602, 35.57181], [140.16028, 35.57284], [140.1603, 35.57308], [140.16033, 35.57351], [140.16032, 35.57394], [140.16028, 35.57432], [140.1602, 35.57463], [140.1601, 35.575], [140.16, 35.57529], [140.15987, 35.57565], [140.15954, 35.5762], [140.15932, 35.57651], [140.15874, 35.57714], [140.15798, 35.57773], [140.15761, 35.57798], [140.1574, 35.57813], [140.15596, 35.57908], [140.15531, 35.57949], [140.15502, 35.57966], [140.15468, 35.57992], [140.15442, 35.58011], [140.15385, 35.58054], [140.15304, 35.58119], [140.1522, 35.58188], [140.15193, 35.5821], [140.15104, 35.58281], [140.1508, 35.583], [140.15022, 35.58347], [140.14992, 35.58371]]}, "properties": {"id": "GEOM_TOKYO_0173", "route_id": "R_3492E341", "route_name": null, "route_color": "#2457C5", "route_text_color": null, "line_name": "千原線", "operator_id": "keisei", "representation": "service_path", "min_zoom": 0, "max_zoom": 24, "offset_rank": 0}}, {"type": "Feature", "bbox": [140.13274, 35.58427, 140.14922, 35.5902], "geometry": {"type": "LineString", "coordinates": [[140.14922, 35.58427], [140.14884, 35.58454], [140.1483, 35.58499], [140.14818, 35.58511], [140.14798, 35.58527], [140.14706, 35.58605], [140.1468, 35.58624], [140.14632, 35.58659], [140.14599, 35.58687], [140.1458, 35.58704], [140.14576, 35.58707], [140.14542, 35.58737], [140.1449, 35.5878], [140.14466, 35.58798], [140.14411, 35.58842], [140.14355, 35.58875], [140.14311, 35.58895], [140.14269, 35.58915], [140.14214, 35.58938], [140.14153, 35.58951], [140.14057, 35.58961], [140.14044, 35.58962], [140.13941, 35.5897], [140.13928, 35.58971], [140.13829, 35.58976], [140.13819, 35.58976], [140.13625, 35.58985], [140.13616, 35.58986], [140.1337, 35.59001], [140.13303, 35.59014], [140.13274, 35.5902]]}, "properties": {"id": "GEOM_TOKYO_0174", "route_id": "R_3492E341", "route_name": null, "route_color": "#2457C5", "route_text_color": null, "line_name": "千原線", "operator_id": "keisei", "representation": "service_path", "min_zoom": 0, "max_zoom": 24, "offset_rank": 0}}, {"type": "Feature", "bbox": [140.15828, 35.55982, 140.15851, 35.56109], "geometry": {"type": "LineString", "coordinates": [[140.15828, 35.55982], [140.15836, 35.56024], [140.15845, 35.56072], [140.15851, 35.56109]]}, "properties": {"id": "GEOM_TOKYO_0175", "route_id": "R_3492E341", "route_name": null, "route_color": "#2457C5", "route_text_color": null, "line_name": "千原線", "operator_id": "keisei", "representation": "service_path", "min_zoom": 0, "max_zoom": 24, "offset_rank": 0}}, {"type": "Feature", "bbox": [140.16708, 35.5345, 140.17156, 35.54975], "geometry": {"type": "LineString", "coordinates": [[140.17025, 35.5345], [140.17035, 35.53506], [140.17049, 35.53589], [140.17051, 35.53598], [140.17052, 35.53604], [140.17054, 35.53621], [140.17058, 35.53652], [140.17088, 35.53867], [140.17096, 35.5393], [140.17115, 35.54071], [140.17125, 35.54168], [140.17146, 35.54325], [140.17156, 35.5447], [140.17155, 35.5453], [140.17145, 35.54585], [140.17128, 35.54634], [140.17103, 35.54693], [140.17075, 35.54735], [140.17053, 35.54762], [140.1703, 35.54788], [140.17007, 35.54811], [140.16967, 35.54842], [140.16885, 35.54895], [140.16825, 35.54928], [140.16708, 35.54975]]}, "properties": {"id": "GEOM_TOKYO_0176", "route_id": "R_3492E341", "route_name": null, "route_color": "#2457C5", "route_text_color": null, "line_name": "千原線", "operator_id": "keisei", "representation": "service_path", "min_zoom": 0, "max_zoom": 24, "offset_rank": 0}}, {"type": "Feature", "bbox": [140.16561, 35.54975, 140.16708, 35.55028], "geometry": {"type": "LineString", "coordinates": [[140.16708, 35.54975], [140.16678, 35.54986], [140.16589, 35.55018], [140.16561, 35.55028]]}, "properties": {"id": "GEOM_TOKYO_0177", "route_id": "R_3492E341", "route_name": null, "route_color": "#2457C5", "route_text_color": null, "line_name": "千原線", "operator_id": "keisei", "representation": "service_path", "min_zoom": 0, "max_zoom": 24, "offset_rank": 0}}, {"type": "Feature", "bbox": [140.1578, 35.55028, 140.16561, 35.55982], "geometry": {"type": "LineString", "coordinates": [[140.16561, 35.55028], [140.16488, 35.55054], [140.16179, 35.5516], [140.16132, 35.55179], [140.161, 35.55192], [140.16039, 35.55229], [140.15944, 35.553], [140.15895, 35.55349], [140.15856, 35.55398], [140.15818, 35.55461], [140.15789, 35.55563], [140.15784, 35.55597], [140.1578, 35.5567], [140.1579, 35.55771], [140.15826, 35.5597], [140.15828, 35.55982]]}, "properties": {"id": "GEOM_TOKYO_0178", "route_id": "R_3492E341", "route_name": null, "route_color": "#2457C5", "route_text_color": null, "line_name": "千原線", "operator_id": "keisei", "representation": "service_path", "min_zoom": 0, "max_zoom": 24, "offset_rank": 0}}, {"type": "Feature", "bbox": [140.29945, 35.44845, 140.29998, 35.45041], "geometry": {"type": "LineString", "coordinates": [[140.29945, 35.44845], [140.29998, 35.45041]]}, "properties": {"id": "GEOM_TOKYO_2154", "route_id": "R_CA890E41", "route_name": null, "route_color": "#D9352A", "route_text_color": null, "line_name": "外房線", "operator_id": "jr_east", "representation": "service_path", "min_zoom": 0, "max_zoom": 24, "offset_rank": 0}}, {"type": "Feature", "bbox": [140.30741, 35.48115, 140.30773, 35.48317], "geometry": {"type": "LineString", "coordinates": [[140.30741, 35.48115], [140.30773, 35.48317]]}, "properties": {"id": "GEOM_TOKYO_2160", "route_id": "R_CA890E41", "route_name": null, "route_color": "#D9352A", "route_text_color": null, "line_name": "外房線", "operator_id": "jr_east", "representation": "service_path", "min_zoom": 0, "max_zoom": 24, "offset_rank": 0}}, {"type": "Feature", "bbox": [140.17825, 35.56224, 140.17925, 35.56307], "geometry": {"type": "LineString", "coordinates": [[140.17825, 35.56307], [140.17846, 35.56289], [140.17874, 35.56265], [140.17925, 35.56224]]}, "properties": {"id": "GEOM_TOKYO_2167", "route_id": "R_CA890E41", "route_name": null, "route_color": "#D9352A", "route_text_color": null, "line_name": "外房線", "operator_id": "jr_east", "representation": "service_path", "min_zoom": 0, "max_zoom": 24, "offset_rank": 0}}, {"type": "Feature", "bbox": [140.29998, 35.45041, 140.30741, 35.48115], "geometry": {"type": "LineString", "coordinates": [[140.29998, 35.45041], [140.30097, 35.45424], [140.30108, 35.45468], [140.30162, 35.45676], [140.30258, 35.46042], [140.30315, 35.46259], [140.30337, 35.46343], [140.305, 35.46981], [140.30566, 35.47225], [140.30604, 35.4737], [140.30625, 35.47481], [140.30741, 35.48115]]}, "properties": {"id": "GEOM_TOKYO_2171", "route_id": "R_CA890E41", "route_name": null, "route_color": "#D9352A", "route_text_color": null, "line_name": "外房線", "operator_id": "jr_east", "representation": "service_path", "min_zoom": 0, "max_zoom": 24, "offset_rank": 0}}, {"type": "Feature", "bbox": [140.29563, 35.42766, 140.30259, 35.44845], "geometry": {"type": "LineString", "coordinates": [[140.30259, 35.42766], [140.30168, 35.42817], [140.30081, 35.42865], [140.30012, 35.42904], [140.29908, 35.42961], [140.29883, 35.42975], [140.29753, 35.43046], [140.29723, 35.43065], [140.29681, 35.43095], [140.29656, 35.43119], [140.29641, 35.43136], [140.29622, 35.4316], [140.296, 35.43194], [140.29588, 35.43222], [140.29578, 35.43245], [140.29567, 35.43282], [140.29564, 35.43307], [140.29563, 35.4334], [140.29564, 35.43364], [140.29567, 35.43388], [140.2957, 35.43405], [140.29576, 35.43433], [140.29585, 35.43475], [140.29597, 35.43519], [140.29616, 35.43593], [140.29632, 35.43647], [140.29656, 35.43735], [140.29676, 35.43814], [140.29706, 35.43921], [140.29717, 35.43962], [140.29945, 35.44845]]}, "properties": {"id": "GEOM_TOKYO_2174", "route_id": "R_CA890E41", "route_name": null, "route_color": "#D9352A", "route_text_color": null, "line_name": "外房線", "operator_id": "jr_east", "representation": "service_path", "min_zoom": 0, "max_zoom": 24, "offset_rank": 0}}, {"type": "Feature", "bbox": [140.13246, 35.56307, 140.17825, 35.57866], "geometry": {"type": "LineString", "coordinates": [[140.13246, 35.57866], [140.13342, 35.57777], [140.13456, 35.5769], [140.13589, 35.5759], [140.13819, 35.57419], [140.13868, 35.57384], [140.14067, 35.57231], [140.14316, 35.57062], [140.14372, 35.57028], [140.14456, 35.56992], [140.14799, 35.56847], [140.14993, 35.56762], [140.15057, 35.56734], [140.15348, 35.56611], [140.15628, 35.56489], [140.15703, 35.56466], [140.15746, 35.56458], [140.15812, 35.56453], [140.15892, 35.56453], [140.15949, 35.56453], [140.15981, 35.56452], [140.16008, 35.56452], [140.16025, 35.56453], [140.16346, 35.56453], [140.16351, 35.56453], [140.16716, 35.56451], [140.16918, 35.56449], [140.16966, 35.56449], [140.17146, 35.5648], [140.17252, 35.56494], [140.1728, 35.56497], [140.17329, 35.565], [140.17373, 35.56498], [140.17452, 35.56487], [140.1749, 35.5648], [140.17527, 35.56473], [140.17626, 35.56441], [140.17684, 35.56416], [140.17706, 35.56403], [140.17713, 35.56399], [140.17765, 35.56359], [140.17825, 35.56307]]}, "properties": {"id": "GEOM_TOKYO_2175", "route_id": "R_CA890E41", "route_name": null, "route_color": "#D9352A", "route_text_color": null, "line_name": "外房線", "operator_id": "jr_east", "representation": "service_path", "min_zoom": 0, "max_zoom": 24, "offset_rank": 0}}, {"type": "Feature", "bbox": [140.30963, 35.52143, 140.31239, 35.52317], "geometry": {"type": "LineString", "coordinates": [[140.31239, 35.52143], [140.31221, 35.52162], [140.31193, 35.52191], [140.31164, 35.52214], [140.31142, 35.52232], [140.31117, 35.52249], [140.31095, 35.5226], [140.31075, 35.52271], [140.31052, 35.52282], [140.30991, 35.52306], [140.30963, 35.52317]]}, "properties": {"id": "GEOM_TOKYO_2176", "route_id": "R_CA890E41", "route_name": null, "route_color": "#D9352A", "route_text_color": null, "line_name": "外房線", "operator_id": "jr_east", "representation": "service_path", "min_zoom": 0, "max_zoom": 24, "offset_rank": 0}}, {"type": "Feature", "bbox": [140.30555, 35.40454, 140.34429, 35.426], "geometry": {"type": "LineString", "coordinates": [[140.34429, 35.40454], [140.34254, 35.40551], [140.33994, 35.40695], [140.33706, 35.40852], [140.33515, 35.40957], [140.33369, 35.4104], [140.33337, 35.41058], [140.32835, 35.41334], [140.32458, 35.41544], [140.3242, 35.41565], [140.32355, 35.41601], [140.32087, 35.41749], [140.31679, 35.41977], [140.31648, 35.41995], [140.31472, 35.42094], [140.31072, 35.42318], [140.31033, 35.42339], [140.30753, 35.42493], [140.30607, 35.42572], [140.30555, 35.426]]}, "properties": {"id": "GEOM_TOKYO_2179", "route_id": "R_CA890E41", "route_name": null, "route_color": "#D9352A", "route_text_color": null, "line_name": "外房線", "operator_id": "jr_east", "representation": "service_path", "min_zoom": 0, "max_zoom": 24, "offset_rank": 0}}, {"type": "Feature", "bbox": [140.26829, 35.53043, 140.27125, 35.53141], "geometry": {"type": "LineString", "coordinates": [[140.27125, 35.53043], [140.27004, 35.53083], [140.2697, 35.53094], [140.26829, 35.53141]]}, "properties": {"id": "GEOM_TOKYO_2181", "route_id": "R_CA890E41", "route_name": null, "route_color": "#D9352A", "route_text_color": null, "line_name": "外房線", "operator_id": "jr_east", "representation": "service_path", "min_zoom": 0, "max_zoom": 24, "offset_rank": 0}}, {"type": "Feature", "bbox": [140.21469, 35.53141, 140.26829, 35.54673], "geometry": {"type": "LineString", "coordinates": [[140.26829, 35.53141], [140.26781, 35.53157], [140.26759, 35.53164], [140.26735, 35.53172], [140.26576, 35.53225], [140.26566, 35.53229], [140.26555, 35.53231], [140.2652, 35.53245], [140.26471, 35.5326], [140.26436, 35.53271], [140.26383, 35.53289], [140.26304, 35.53317], [140.26229, 35.53342], [140.26173, 35.53358], [140.2612, 35.53371], [140.2606, 35.53382], [140.25979, 35.53391], [140.2592, 35.5339], [140.25826, 35.53383], [140.2572, 35.53375], [140.25689, 35.53373], [140.25677, 35.53373], [140.25658, 35.53372], [140.25616, 35.53373], [140.2557, 35.53376], [140.25527, 35.53381], [140.25487, 35.53389], [140.2543, 35.53406], [140.25394, 35.5342], [140.2537, 35.53428], [140.25343, 35.5344], [140.25188, 35.53508], [140.24874, 35.53645], [140.24673, 35.5373], [140.24482, 35.53808], [140.24307, 35.53883], [140.24221, 35.53917], [140.24165, 35.53933], [140.24106, 35.53947], [140.24016, 35.53967], [140.2382, 35.54003], [140.23691, 35.54026], [140.23597, 35.54044], [140.23411, 35.54099], [140.2315, 35.54178], [140.23091, 35.54195], [140.22945, 35.54238], [140.22746, 35.54295], [140.2241, 35.54396], [140.221, 35.54487], [140.2205, 35.54502], [140.21908, 35.54545], [140.21611, 35.5463], [140.21469, 35.54673]]}, "properties": {"id": "GEOM_TOKYO_2183", "route_id": "R_CA890E41", "route_name": null, "route_color": "#D9352A", "route_text_color": null, "line_name": "外房線", "operator_id": "jr_east", "representation": "service_path", "min_zoom": 0, "max_zoom": 24, "offset_rank": 0}}, {"type": "Feature", "bbox": [140.21288, 35.54673, 140.21469, 35.54727], "geometry": {"type": "LineString", "coordinates": [[140.21288, 35.54727], [140.21469, 35.54673]]}, "properties": {"id": "GEOM_TOKYO_2185", "route_id": "R_CA890E41", "route_name": null, "route_color": "#D9352A", "route_text_color": null, "line_name": "外房線", "operator_id": "jr_east", "representation": "service_path", "min_zoom": 0, "max_zoom": 24, "offset_rank": 0}}, {"type": "Feature", "bbox": [140.30773, 35.48317, 140.3111, 35.50223], "geometry": {"type": "LineString", "coordinates": [[140.30773, 35.48317], [140.309, 35.49014], [140.30904, 35.49037], [140.30905, 35.49042], [140.30948, 35.49289], [140.31015, 35.49671], [140.31103, 35.50182], [140.3111, 35.50223]]}, "properties": {"id": "GEOM_TOKYO_2190", "route_id": "R_CA890E41", "route_name": null, "route_color": "#D9352A", "route_text_color": null, "line_name": "外房線", "operator_id": "jr_east", "representation": "service_path", "min_zoom": 0, "max_zoom": 24, "offset_rank": 0}}, {"type": "Feature", "bbox": [140.31144, 35.50425, 140.31375, 35.52143], "geometry": {"type": "LineString", "coordinates": [[140.31144, 35.50425], [140.31151, 35.50466], [140.3116, 35.50518], [140.31173, 35.50563], [140.31192, 35.50624], [140.31203, 35.50653], [140.31226, 35.50711], [140.31227, 35.50712], [140.31255, 35.50779], [140.3127, 35.50812], [140.31271, 35.50813], [140.31292, 35.50874], [140.31292, 35.50878], [140.31294, 35.50884], [140.31296, 35.50895], [140.31299, 35.50914], [140.31304, 35.50947], [140.31304, 35.51064], [140.31297, 35.51137], [140.31292, 35.51167], [140.31288, 35.51205], [140.31286, 35.51225], [140.31288, 35.51244], [140.31288, 35.5126], [140.31288, 35.51285], [140.3129, 35.5131], [140.31299, 35.51378], [140.31312, 35.51445], [140.31338, 35.51587], [140.31353, 35.51658], [140.3137, 35.51744], [140.31372, 35.51756], [140.31374, 35.5177], [140.31375, 35.5179], [140.31366, 35.51892], [140.31359, 35.51921], [140.31356, 35.51934], [140.3135, 35.51956], [140.31341, 35.51985], [140.31324, 35.52024], [140.31304, 35.52059], [140.31283, 35.52089], [140.31239, 35.52143]]}, "properties": {"id": "GEOM_TOKYO_2192", "route_id": "R_CA890E41", "route_name": null, "route_color": "#D9352A", "route_text_color": null, "line_name": "外房線", "operator_id": "jr_east", "representation": "service_path", "min_zoom": 0, "max_zoom": 24, "offset_rank": 0}}, {"type": "Feature", "bbox": [140.27125, 35.5236, 140.30833, 35.53043], "geometry": {"type": "LineString", "coordinates": [[140.27125, 35.53043], [140.27185, 35.53024], [140.27335, 35.52979], [140.27391, 35.52968], [140.27445, 35.52964], [140.27522, 35.5296], [140.27652, 35.52959], [140.27756, 35.5296], [140.27782, 35.5296], [140.27819, 35.52958], [140.27866, 35.52951], [140.27896, 35.52946], [140.27954, 35.52931], [140.27999, 35.52919], [140.28034, 35.52908], [140.2807, 35.52896], [140.28076, 35.52894], [140.28138, 35.52871], [140.28192, 35.52849], [140.28198, 35.52846], [140.28229, 35.52834], [140.28249, 35.52827], [140.28278, 35.5282], [140.28326, 35.52814], [140.28384, 35.5281], [140.28453, 35.52813], [140.28608, 35.5283], [140.28722, 35.52852], [140.28842, 35.52883], [140.28913, 35.52905], [140.29005, 35.52936], [140.29102, 35.52967], [140.29116, 35.52972], [140.29169, 35.52988], [140.29187, 35.52995], [140.29227, 35.53006], [140.29271, 35.53015], [140.29318, 35.53022], [140.29375, 35.53028], [140.29487, 35.53026], [140.29535, 35.53022], [140.29572, 35.53016], [140.29629, 35.53003], [140.29687, 35.52984], [140.29751, 35.52957], [140.29808, 35.52927], [140.29861, 35.52896], [140.2997, 35.52827], [140.30062, 35.52771], [140.30111, 35.52736], [140.30144, 35.52708], [140.30297, 35.5256], [140.3032, 35.5254], [140.30362, 35.52507], [140.30405, 35.5248], [140.30447, 35.52458], [140.30481, 35.52443], [140.30549, 35.52421], [140.30575, 35.52413], [140.30617, 35.52403], [140.30666, 35.52391], [140.30678, 35.52389], [140.30774, 35.52369], [140.30807, 35.52364], [140.30833, 35.5236]]}, "properties": {"id": "GEOM_TOKYO_2195", "route_id": "R_CA890E41", "route_name": null, "route_color": "#D9352A", "route_text_color": null, "line_name": "外房線", "operator_id": "jr_east", "representation": "service_path", "min_zoom": 0, "max_zoom": 24, "offset_rank": 0}}, {"type": "Feature", "bbox": [140.30833, 35.52317, 140.30963, 35.5236], "geometry": {"type": "LineString", "coordinates": [[140.30833, 35.5236], [140.30903, 35.52337], [140.30938, 35.52325], [140.30963, 35.52317]]}, "properties": {"id": "GEOM_TOKYO_2196", "route_id": "R_CA890E41", "route_name": null, "route_color": "#D9352A", "route_text_color": null, "line_name": "外房線", "operator_id": "jr_east", "representation": "service_path", "min_zoom": 0, "max_zoom": 24, "offset_rank": 0}}, {"type": "Feature", "bbox": [140.3111, 35.50223, 140.31144, 35.50425], "geometry": {"type": "LineString", "coordinates": [[140.31144, 35.50425], [140.31132, 35.50362], [140.31127, 35.50327], [140.3111, 35.50223]]}, "properties": {"id": "GEOM_TOKYO_2199", "route_id": "R_CA890E41", "route_name": null, "route_color": "#D9352A", "route_text_color": null, "line_name": "外房線", "operator_id": "jr_east", "representation": "service_path", "min_zoom": 0, "max_zoom": 24, "offset_rank": 0}}, {"type": "Feature", "bbox": [140.30259, 35.426, 140.30555, 35.42766], "geometry": {"type": "LineString", "coordinates": [[140.30555, 35.426], [140.30259, 35.42766]]}, "properties": {"id": "GEOM_TOKYO_2208", "route_id": "R_CA890E41", "route_name": null, "route_color": "#D9352A", "route_text_color": null, "line_name": "外房線", "operator_id": "jr_east", "representation": "service_path", "min_zoom": 0, "max_zoom": 24, "offset_rank": 0}}, {"type": "Feature", "bbox": [140.17925, 35.54727, 140.21288, 35.56224], "geometry": {"type": "LineString", "coordinates": [[140.17925, 35.56224], [140.18028, 35.56134], [140.18056, 35.56111], [140.18081, 35.56093], [140.18104, 35.56076], [140.18161, 35.56041], [140.18206, 35.56019], [140.18261, 35.55992], [140.18343, 35.55952], [140.18465, 35.55892], [140.18539, 35.55856], [140.18808, 35.55724], [140.18937, 35.55658], [140.1906, 35.55608], [140.19209, 35.55546], [140.19409, 35.55464], [140.19433, 35.55454], [140.19739, 35.55328], [140.20089, 35.55187], [140.20186, 35.55146], [140.20362, 35.55074], [140.20729, 35.54923], [140.20744, 35.54917], [140.21018, 35.54808], [140.21055, 35.54794], [140.21064, 35.5479], [140.21251, 35.54737], [140.21288, 35.54727]]}, "properties": {"id": "GEOM_TOKYO_2211", "route_id": "R_CA890E41", "route_name": null, "route_color": "#D9352A", "route_text_color": null, "line_name": "外房線", "operator_id": "jr_east", "representation": "service_path", "min_zoom": 0, "max_zoom": 24, "offset_rank": 0}}, {"type": "Feature", "bbox": [140.28868, 35.66363, 140.31649, 35.68344], "geometry": {"type": "LineString", "coordinates": [[140.31649, 35.66363], [140.31628, 35.66374], [140.31522, 35.66428], [140.31428, 35.66473], [140.31329, 35.66522], [140.31248, 35.66561], [140.31072, 35.66649], [140.30849, 35.6676], [140.30657, 35.66854], [140.30543, 35.66912], [140.30446, 35.6696], [140.30383, 35.66992], [140.30247, 35.67058], [140.30129, 35.67115], [140.30006, 35.67178], [140.29898, 35.67242], [140.29828, 35.67292], [140.29776, 35.67337], [140.29693, 35.67412], [140.29553, 35.67571], [140.29543, 35.67582], [140.29289, 35.67868], [140.29153, 35.68023], [140.28905, 35.68302], [140.28868, 35.68344]]}, "properties": {"id": "GEOM_TOKYO_2870", "route_id": "R_7A7743D8", "route_name": null, "route_color": "#F4C300", "route_text_color": null, "line_name": "総武線", "operator_id": "jr_east", "representation": "service_path", "min_zoom": 0, "max_zoom": 24, "offset_rank": 0}}, {"type": "Feature", "bbox": [140.31649, 35.66272, 140.31834, 35.66363], "geometry": {"type": "LineString", "coordinates": [[140.31834, 35.66272], [140.31649, 35.66363]]}, "properties": {"id": "GEOM_TOKYO_2891", "route_id": "R_7A7743D8", "route_name": null, "route_color": "#F4C300", "route_text_color": null, "line_name": "総武線", "operator_id": "jr_east", "representation": "service_path", "min_zoom": 0, "max_zoom": 24, "offset_rank": 0}}, {"type": "Feature", "bbox": [140.15046, 35.63692, 140.1638, 35.66235], "geometry": {"type": "LineString", "coordinates": [[140.1638, 35.66235], [140.16253, 35.66186], [140.1612, 35.66133], [140.16033, 35.66086], [140.15989, 35.66059], [140.15951, 35.66036], [140.15884, 35.65982], [140.1586, 35.6596], [140.15824, 35.65928], [140.1578, 35.65874], [140.15753, 35.65832], [140.1573, 35.65788], [140.15703, 35.65726], [140.1568, 35.65648], [140.1566, 35.65562], [140.15624, 35.65365], [140.15597, 35.6522], [140.15559, 35.65012], [140.15552, 35.64977], [140.15511, 35.64749], [140.15486, 35.64606], [140.15417, 35.64227], [140.15403, 35.64159], [140.15395, 35.64121], [140.1537, 35.64045], [140.15343, 35.63989], [140.15301, 35.63925], [140.15263, 35.63876], [140.15214, 35.63829], [140.15151, 35.63772], [140.15046, 35.63692]]}, "properties": {"id": "GEOM_TOKYO_2897", "route_id": "R_7A7743D8", "route_name": null, "route_color": "#F4C300", "route_text_color": null, "line_name": "総武線", "operator_id": "jr_east", "representation": "service_path", "min_zoom": 0, "max_zoom": 24, "offset_rank": 0}}, {"type": "Feature", "bbox": [140.16599, 35.66323, 140.19987, 35.68519], "geometry": {"type": "LineString", "coordinates": [[140.16599, 35.66323], [140.1666, 35.66345], [140.16813, 35.66401], [140.1692, 35.66445], [140.17005, 35.66481], [140.17044, 35.66501], [140.17118, 35.66545], [140.17371, 35.667], [140.17679, 35.66888], [140.178, 35.66965], [140.1784, 35.66991], [140.1785, 35.66996], [140.1787, 35.67008], [140.17907, 35.67029], [140.17988, 35.67077], [140.1812, 35.67156], [140.18201, 35.67204], [140.18234, 35.67224], [140.1828, 35.67257], [140.18337, 35.67305], [140.18371, 35.67337], [140.18468, 35.67445], [140.185, 35.67482], [140.1854, 35.67527], [140.18587, 35.67581], [140.18641, 35.67642], [140.18707, 35.67716], [140.18717, 35.67725], [140.18723, 35.6773], [140.1873, 35.67735], [140.18732, 35.67737], [140.18759, 35.67762], [140.18804, 35.67796], [140.18852, 35.67828], [140.18875, 35.67841], [140.18892, 35.67849], [140.18907, 35.67856], [140.18929, 35.67867], [140.18957, 35.67876], [140.19005, 35.6789], [140.19077, 35.67911], [140.19092, 35.67916], [140.19103, 35.67919], [140.19154, 35.67934], [140.19235, 35.67959], [140.19237, 35.6796], [140.19256, 35.67965], [140.19272, 35.6797], [140.19336, 35.67988], [140.19363, 35.67996], [140.19389, 35.68004], [140.19413, 35.68012], [140.19457, 35.6803], [140.19518, 35.68058], [140.19551, 35.68074], [140.19589, 35.68096], [140.19631, 35.68124], [140.19639, 35.68131], [140.19644, 35.68134], [140.19651, 35.68139], [140.19688, 35.68168], [140.1973, 35.68207], [140.19745, 35.68224], [140.19792, 35.68285], [140.19825, 35.68325], [140.19838, 35.6834], [140.19866, 35.68376], [140.19901, 35.68415], [140.19944, 35.68468], [140.19947, 35.6847], [140.19987, 35.68519]]}, "properties": {"id": "GEOM_TOKYO_2906", "route_id": "R_7A7743D8", "route_name": null, "route_color": "#F4C300", "route_text_color": null, "line_name": "総武線", "operator_id": "jr_east", "representation": "service_path", "min_zoom": 0, "max_zoom": 24, "offset_rank": 0}}, {"type": "Feature", "bbox": [140.1638, 35.66235, 140.16599, 35.66323], "geometry": {"type": "LineString", "coordinates": [[140.16599, 35.66323], [140.16567, 35.66309], [140.16534, 35.66296], [140.1638, 35.66235]]}, "properties": {"id": "GEOM_TOKYO_2914", "route_id": "R_7A7743D8", "route_name": null, "route_color": "#F4C300", "route_text_color": null, "line_name": "総武線", "operator_id": "jr_east", "representation": "service_path", "min_zoom": 0, "max_zoom": 24, "offset_rank": 0}}, {"type": "Feature", "bbox": [140.40838, 35.60852, 140.41218, 35.60855], "geometry": {"type": "LineString", "coordinates": [[140.41218, 35.60855], [140.40838, 35.60852]]}, "properties": {"id": "GEOM_TOKYO_2953", "route_id": "R_7A7743D8", "route_name": null, "route_color": "#F4C300", "route_text_color": null, "line_name": "総武線", "operator_id": "jr_east", "representation": "service_path", "min_zoom": 0, "max_zoom": 24, "offset_rank": 0}}, {"type": "Feature", "bbox": [140.31834, 35.62862, 140.36174, 35.66272], "geometry": {"type": "LineString", "coordinates": [[140.36174, 35.62862], [140.36127, 35.62886], [140.36074, 35.62911], [140.36044, 35.6293], [140.35913, 35.6302], [140.35745, 35.63141], [140.35694, 35.63177], [140.35621, 35.6323], [140.35542, 35.63288], [140.35491, 35.63324], [140.35387, 35.6341], [140.35353, 35.63443], [140.35331, 35.63465], [140.35304, 35.63497], [140.35277, 35.6353], [140.35249, 35.63573], [140.35233, 35.63601], [140.35219, 35.63628], [140.352, 35.6367], [140.35192, 35.63689], [140.35147, 35.63795], [140.35089, 35.63938], [140.35037, 35.64062], [140.35016, 35.64113], [140.34992, 35.64171], [140.34975, 35.6421], [140.34961, 35.64241], [140.34948, 35.64262], [140.3493, 35.64286], [140.34906, 35.64315], [140.34884, 35.64339], [140.34866, 35.64354], [140.3485, 35.64367], [140.3483, 35.64381], [140.34809, 35.64393], [140.34773, 35.64411], [140.34684, 35.64447], [140.34679, 35.6445], [140.34537, 35.64511], [140.34477, 35.64536], [140.34396, 35.6457], [140.34353, 35.64588], [140.34323, 35.64601], [140.34293, 35.64616], [140.34265, 35.64632], [140.34105, 35.64727], [140.33974, 35.64808], [140.33894, 35.64858], [140.3385, 35.64886], [140.33824, 35.64901], [140.33804, 35.64916], [140.33763, 35.6495], [140.33756, 35.64956], [140.33733, 35.64983], [140.33707, 35.65014], [140.33696, 35.6503], [140.33667, 35.65085], [140.33615, 35.65205], [140.33584, 35.6527], [140.33548, 35.65321], [140.3353, 35.65341], [140.3351, 35.6536], [140.33491, 35.65374], [140.33475, 35.65384], [140.3346, 35.65394], [140.3343, 35.65405], [140.33367, 35.65428], [140.33321, 35.65443], [140.33238, 35.65463], [140.33194, 35.65479], [140.33169, 35.65491], [140.33145, 35.65504], [140.33042, 35.6557], [140.3301, 35.65591], [140.3287, 35.65682], [140.32807, 35.65724], [140.32746, 35.65763], [140.32613, 35.65847], [140.32481, 35.65936], [140.32421, 35.65976], [140.32392, 35.65991], [140.32316, 35.6603], [140.32099, 35.66139], [140.31834, 35.66272]]}, "properties": {"id": "GEOM_TOKYO_2954", "route_id": "R_7A7743D8", "route_name": null, "route_color": "#F4C300", "route_text_color": null, "line_name": "総武線", "operator_id": "jr_east", "representation": "service_path", "min_zoom": 0, "max_zoom": 24, "offset_rank": 0}}, {"type": "Feature", "bbox": [140.41378, 35.60855, 140.45728, 35.63553], "geometry": {"type": "LineString", "coordinates": [[140.41378, 35.60855], [140.41561, 35.60858], [140.41593, 35.60858], [140.41619, 35.60858], [140.41771, 35.6086], [140.4201, 35.60862], [140.42252, 35.60864], [140.42253, 35.60866], [140.42261, 35.60864], [140.4249, 35.60866], [140.42649, 35.60867], [140.42695, 35.60869], [140.42742, 35.60873], [140.4276, 35.60876], [140.42799, 35.60881], [140.42844, 35.60889], [140.42862, 35.60893], [140.42893, 35.60904], [140.4293, 35.6092], [140.42969, 35.60942], [140.43007, 35.60964], [140.43074, 35.61003], [140.43133, 35.61038], [140.43171, 35.61059], [140.43228, 35.61093], [140.43233, 35.61096], [140.43313, 35.61142], [140.43357, 35.61167], [140.43382, 35.61182], [140.43434, 35.61211], [140.43467, 35.61233], [140.43507, 35.61265], [140.43546, 35.61304], [140.43621, 35.61381], [140.43779, 35.61544], [140.43859, 35.61627], [140.43954, 35.61725], [140.43982, 35.61755], [140.44078, 35.61855], [140.44192, 35.61971], [140.44224, 35.62005], [140.44226, 35.62006], [140.44228, 35.62009], [140.4427, 35.62052], [140.44272, 35.62052], [140.44276, 35.62059], [140.44278, 35.62059], [140.44285, 35.62067], [140.4441, 35.62196], [140.44449, 35.62236], [140.44543, 35.62334], [140.44547, 35.62338], [140.4455, 35.6234], [140.44552, 35.62342], [140.44574, 35.62366], [140.44583, 35.62374], [140.44636, 35.6243], [140.44653, 35.62448], [140.44823, 35.62624], [140.4483, 35.62631], [140.44859, 35.62661], [140.45001, 35.62808], [140.45041, 35.6285], [140.4507, 35.62879], [140.45091, 35.62902], [140.45098, 35.62908], [140.45212, 35.63026], [140.45219, 35.63031], [140.45303, 35.63119], [140.4539, 35.63208], [140.45575, 35.63397], [140.45572, 35.63397], [140.45576, 35.63398], [140.4558, 35.63403], [140.45601, 35.63425], [140.45728, 35.63553]]}, "properties": {"id": "GEOM_TOKYO_2955", "route_id": "R_7A7743D8", "route_name": null, "route_color": "#F4C300", "route_text_color": null, "line_name": "総武線", "operator_id": "jr_east", "representation": "service_path", "min_zoom": 0, "max_zoom": 24, "offset_rank": 0}}, {"type": "Feature", "bbox": [140.41218, 35.60855, 140.41378, 35.60856], "geometry": {"type": "LineString", "coordinates": [[140.41218, 35.60855], [140.41347, 35.60856], [140.41378, 35.60855]]}, "properties": {"id": "GEOM_TOKYO_2956", "route_id": "R_7A7743D8", "route_name": null, "route_color": "#F4C300", "route_text_color": null, "line_name": "総武線", "operator_id": "jr_east", "representation": "service_path", "min_zoom": 0, "max_zoom": 24, "offset_rank": 0}}, {"type": "Feature", "bbox": [140.36312, 35.60847, 140.40838, 35.62797], "geometry": {"type": "LineString", "coordinates": [[140.40838, 35.60852], [140.40821, 35.60852], [140.40476, 35.60849], [140.40468, 35.6085], [140.40449, 35.60849], [140.40438, 35.60849], [140.40183, 35.60847], [140.40144, 35.60849], [140.40115, 35.60854], [140.4006, 35.60864], [140.39973, 35.60883], [140.39872, 35.60904], [140.3986, 35.60908], [140.39804, 35.6092], [140.39767, 35.60928], [140.39727, 35.60936], [140.3964, 35.60955], [140.39566, 35.6097], [140.39563, 35.60972], [140.39547, 35.60975], [140.39538, 35.60977], [140.39504, 35.60984], [140.39499, 35.60986], [140.39475, 35.6099], [140.39446, 35.60996], [140.39421, 35.61003], [140.39317, 35.61025], [140.39273, 35.61034], [140.39272, 35.61035], [140.39106, 35.6107], [140.39087, 35.61074], [140.39022, 35.61088], [140.38989, 35.61095], [140.38973, 35.61098], [140.38886, 35.61117], [140.38737, 35.61149], [140.38729, 35.6115], [140.38701, 35.61157], [140.38656, 35.61166], [140.38599, 35.61178], [140.38594, 35.6118], [140.3858, 35.61182], [140.38564, 35.61187], [140.38499, 35.612], [140.38398, 35.61222], [140.38379, 35.61226], [140.38331, 35.61236], [140.38172, 35.6127], [140.38167, 35.61271], [140.3804, 35.61298], [140.38001, 35.61309], [140.37965, 35.61321], [140.37929, 35.61337], [140.37901, 35.61352], [140.37872, 35.61372], [140.37838, 35.61399], [140.37789, 35.61445], [140.37769, 35.61469], [140.37763, 35.61475], [140.37743, 35.61499], [140.37719, 35.61529], [140.37653, 35.61616], [140.37576, 35.61716], [140.37541, 35.61759], [140.37496, 35.61818], [140.37416, 35.61919], [140.37293, 35.62075], [140.37219, 35.6217], [140.37171, 35.62229], [140.37159, 35.62246], [140.37128, 35.62289], [140.37093, 35.6234], [140.37068, 35.62367], [140.37049, 35.62392], [140.37005, 35.62436], [140.3696, 35.62475], [140.36909, 35.62515], [140.36867, 35.62542], [140.36803, 35.62576], [140.36698, 35.62626], [140.36645, 35.6265], [140.36564, 35.62685], [140.36467, 35.62729], [140.36347, 35.62781], [140.36312, 35.62797]]}, "properties": {"id": "GEOM_TOKYO_2958", "route_id": "R_7A7743D8", "route_name": null, "route_color": "#F4C300", "route_text_color": null, "line_name": "総武線", "operator_id": "jr_east", "representation": "service_path", "min_zoom": 0, "max_zoom": 24, "offset_rank": 0}}, {"type": "Feature", "bbox": [140.1233, 35.6177, 140.14791, 35.63512], "geometry": {"type": "LineString", "coordinates": [[140.14791, 35.63512], [140.14752, 35.63483], [140.14601, 35.63372], [140.14556, 35.63338], [140.14531, 35.63321], [140.14519, 35.63312], [140.14474, 35.63281], [140.14097, 35.63003], [140.13983, 35.6292], [140.13694, 35.62711], [140.13622, 35.62657], [140.13248, 35.62385], [140.13041, 35.62235], [140.13039, 35.62234], [140.13001, 35.62207], [140.1262, 35.61958], [140.12572, 35.61927], [140.12568, 35.61924], [140.1233, 35.6177]]}, "properties": {"id": "GEOM_TOKYO_2963", "route_id": "R_7A7743D8", "route_name": null, "route_color": "#F4C300", "route_text_color": null, "line_name": "総武線", "operator_id": "jr_east", "representation": "service_path", "min_zoom": 0, "max_zoom": 24, "offset_rank": 0}}, {"type": "Feature", "bbox": [140.36174, 35.62797, 140.36312, 35.62862], "geometry": {"type": "LineString", "coordinates": [[140.36312, 35.62797], [140.36174, 35.62862]]}, "properties": {"id": "GEOM_TOKYO_2964", "route_id": "R_7A7743D8", "route_name": null, "route_color": "#F4C300", "route_text_color": null, "line_name": "総武線", "operator_id": "jr_east", "representation": "service_path", "min_zoom": 0, "max_zoom": 24, "offset_rank": 0}}, {"type": "Feature", "bbox": [140.14791, 35.63512, 140.15046, 35.63692], "geometry": {"type": "LineString", "coordinates": [[140.15046, 35.63692], [140.14791, 35.63512]]}, "properties": {"id": "GEOM_TOKYO_2965", "route_id": "R_7A7743D8", "route_name": null, "route_color": "#F4C300", "route_text_color": null, "line_name": "総武線", "operator_id": "jr_east", "representation": "service_path", "min_zoom": 0, "max_zoom": 24, "offset_rank": 0}}, {"type": "Feature", "bbox": [140.41218, 35.60855, 140.41378, 35.60856], "geometry": {"type": "LineString", "coordinates": [[140.41218, 35.60855], [140.41347, 35.60856], [140.41378, 35.60855]]}, "properties": {"id": "GEOM_TOKYO_3307", "route_id": "R_326FAF02", "route_name": null, "route_color": "#E48E00", "route_text_color": null, "line_name": "東金線", "operator_id": "jr_east", "representation": "service_path", "min_zoom": 0, "max_zoom": 24, "offset_rank": 0}}, {"type": "Feature", "bbox": [140.40838, 35.60852, 140.41218, 35.60855], "geometry": {"type": "LineString", "coordinates": [[140.41218, 35.60855], [140.40838, 35.60852]]}, "properties": {"id": "GEOM_TOKYO_3308", "route_id": "R_326FAF02", "route_name": null, "route_color": "#E48E00", "route_text_color": null, "line_name": "東金線", "operator_id": "jr_east", "representation": "service_path", "min_zoom": 0, "max_zoom": 24, "offset_rank": 0}}, {"type": "Feature", "bbox": [140.30833, 35.52317, 140.31071, 35.5236], "geometry": {"type": "LineString", "coordinates": [[140.31071, 35.52317], [140.30908, 35.52347], [140.30833, 35.5236]]}, "properties": {"id": "GEOM_TOKYO_3309", "route_id": "R_326FAF02", "route_name": null, "route_color": "#E48E00", "route_text_color": null, "line_name": "東金線", "operator_id": "jr_east", "representation": "service_path", "min_zoom": 0, "max_zoom": 24, "offset_rank": 0}}, {"type": "Feature", "bbox": [140.31521, 35.52374, 140.34136, 35.54571], "geometry": {"type": "LineString", "coordinates": [[140.34136, 35.54571], [140.34079, 35.54524], [140.33846, 35.54324], [140.3366, 35.54164], [140.33577, 35.54093], [140.33527, 35.5405], [140.33398, 35.53939], [140.33315, 35.53867], [140.33139, 35.53715], [140.33119, 35.53698], [140.33074, 35.53659], [140.33055, 35.53642], [140.32994, 35.5359], [140.32941, 35.53546], [140.3289, 35.53502], [140.32756, 35.53385], [140.32456, 35.53139], [140.3243, 35.53118], [140.32399, 35.53092], [140.32396, 35.53091], [140.32322, 35.53029], [140.3232, 35.53029], [140.32301, 35.53014], [140.32268, 35.52985], [140.32265, 35.52984], [140.32172, 35.52909], [140.32169, 35.52904], [140.32038, 35.52798], [140.31953, 35.52729], [140.31875, 35.52665], [140.31873, 35.52664], [140.31863, 35.52655], [140.31569, 35.52414], [140.31521, 35.52374]]}, "properties": {"id": "GEOM_TOKYO_3310", "route_id": "R_326FAF02", "route_name": null, "route_color": "#E48E00", "route_text_color": null, "line_name": "東金線", "operator_id": "jr_east", "representation": "service_path", "min_zoom": 0, "max_zoom": 24, "offset_rank": 0}}, {"type": "Feature", "bbox": [140.39564, 35.57938, 140.39671, 35.58031], "geometry": {"type": "LineString", "coordinates": [[140.39564, 35.57938], [140.39671, 35.58031]]}, "properties": {"id": "GEOM_TOKYO_3311", "route_id": "R_326FAF02", "route_name": null, "route_color": "#E48E00", "route_text_color": null, "line_name": "東金線", "operator_id": "jr_east", "representation": "service_path", "min_zoom": 0, "max_zoom": 24, "offset_rank": 0}}, {"type": "Feature", "bbox": [140.39671, 35.58031, 140.41737, 35.60855], "geometry": {"type": "LineString", "coordinates": [[140.39671, 35.58031], [140.39678, 35.58037], [140.39701, 35.58056], [140.39723, 35.58076], [140.39732, 35.58083], [140.39812, 35.58154], [140.39816, 35.58156], [140.39821, 35.58161], [140.39825, 35.58163], [140.39825, 35.58166], [140.39832, 35.5817], [140.39953, 35.58276], [140.39965, 35.58288], [140.39971, 35.58292], [140.39976, 35.58297], [140.40046, 35.58357], [140.40092, 35.58398], [140.40098, 35.58402], [140.40166, 35.58462], [140.40257, 35.58542], [140.4026, 35.58543], [140.40288, 35.58568], [140.40359, 35.5863], [140.40368, 35.58638], [140.40382, 35.5865], [140.40384, 35.58653], [140.40392, 35.58659], [140.40512, 35.58766], [140.40514, 35.58767], [140.40619, 35.58861], [140.40654, 35.5889], [140.40671, 35.58905], [140.40725, 35.58955], [140.40847, 35.59062], [140.40916, 35.59123], [140.40923, 35.59128], [140.40924, 35.59129], [140.40933, 35.59137], [140.41084, 35.5927], [140.41118, 35.593], [140.41163, 35.59343], [140.41184, 35.59368], [140.41219, 35.59413], [140.41236, 35.59443], [140.41364, 35.59696], [140.41455, 35.59874], [140.41459, 35.5988], [140.41469, 35.59901], [140.41479, 35.5992], [140.41521, 35.60004], [140.41528, 35.60018], [140.4153, 35.6002], [140.41537, 35.60036], [140.41557, 35.60075], [140.41573, 35.60105], [140.41617, 35.60191], [140.41638, 35.60233], [140.4164, 35.60235], [140.41687, 35.60328], [140.41718, 35.60389], [140.41726, 35.60412], [140.41733, 35.60438], [140.41737, 35.60473], [140.41737, 35.60529], [140.41732, 35.60556], [140.41726, 35.60582], [140.41709, 35.60627], [140.4169, 35.60662], [140.41668, 35.60691], [140.41633, 35.60732], [140.41589, 35.60767], [140.41548, 35.60792], [140.41505, 35.60812], [140.41432, 35.60841], [140.41401, 35.60851], [140.41396, 35.60852], [140.41389, 35.60854], [140.41378, 35.60855]]}, "properties": {"id": "GEOM_TOKYO_3312", "route_id": "R_326FAF02", "route_name": null, "route_color": "#E48E00", "route_text_color": null, "line_name": "東金線", "operator_id": "jr_east", "representation": "service_path", "min_zoom": 0, "max_zoom": 24, "offset_rank": 0}}, {"type": "Feature", "bbox": [140.36272, 35.55965, 140.36448, 35.56054], "geometry": {"type": "LineString", "coordinates": [[140.36272, 35.55965], [140.36448, 35.56054]]}, "properties": {"id": "GEOM_TOKYO_3313", "route_id": "R_326FAF02", "route_name": null, "route_color": "#E48E00", "route_text_color": null, "line_name": "東金線", "operator_id": "jr_east", "representation": "service_path", "min_zoom": 0, "max_zoom": 24, "offset_rank": 0}}, {"type": "Feature", "bbox": [140.34136, 35.54571, 140.34239, 35.54662], "geometry": {"type": "LineString", "coordinates": [[140.34239, 35.54662], [140.34136, 35.54571]]}, "properties": {"id": "GEOM_TOKYO_3314", "route_id": "R_326FAF02", "route_name": null, "route_color": "#E48E00", "route_text_color": null, "line_name": "東金線", "operator_id": "jr_east", "representation": "service_path", "min_zoom": 0, "max_zoom": 24, "offset_rank": 0}}, {"type": "Feature", "bbox": [140.36448, 35.56054, 140.39564, 35.57938], "geometry": {"type": "LineString", "coordinates": [[140.39564, 35.57938], [140.3938, 35.57776], [140.39379, 35.57773], [140.39375, 35.57771], [140.39361, 35.57761], [140.3936, 35.57759], [140.39343, 35.57744], [140.3934, 35.57742], [140.39336, 35.57738], [140.39235, 35.57648], [140.39084, 35.57516], [140.38991, 35.57435], [140.38989, 35.57433], [140.38981, 35.57427], [140.38976, 35.57422], [140.3889, 35.5735], [140.38774, 35.57254], [140.38772, 35.57254], [140.3873, 35.5722], [140.3869, 35.5719], [140.38655, 35.57168], [140.38628, 35.57152], [140.38454, 35.57065], [140.38417, 35.57046], [140.3838, 35.57028], [140.38348, 35.57011], [140.38301, 35.56987], [140.3828, 35.56976], [140.38264, 35.56968], [140.38114, 35.56893], [140.38076, 35.56873], [140.38072, 35.5687], [140.38023, 35.56846], [140.37962, 35.56815], [140.37799, 35.56732], [140.37615, 35.56639], [140.37557, 35.5661], [140.37542, 35.56603], [140.37515, 35.56589], [140.37491, 35.56577], [140.3736, 35.56512], [140.3728, 35.56472], [140.37265, 35.56466], [140.37172, 35.56419], [140.36448, 35.56054]]}, "properties": {"id": "GEOM_TOKYO_3315", "route_id": "R_326FAF02", "route_name": null, "route_color": "#E48E00", "route_text_color": null, "line_name": "東金線", "operator_id": "jr_east", "representation": "service_path", "min_zoom": 0, "max_zoom": 24, "offset_rank": 0}}, {"type": "Feature", "bbox": [140.34239, 35.54662, 140.36272, 35.55965], "geometry": {"type": "LineString", "coordinates": [[140.36272, 35.55965], [140.36111, 35.55885], [140.35758, 35.5571], [140.3564, 35.55651], [140.35539, 35.556], [140.35337, 35.55498], [140.35202, 35.55432], [140.35087, 35.55369], [140.35, 35.55312], [140.34964, 35.55285], [140.34939, 35.55264], [140.3491, 35.55242], [140.34898, 35.55232], [140.34855, 35.55194], [140.34842, 35.55183], [140.34827, 35.55169], [140.34776, 35.55125], [140.34755, 35.55109], [140.34703, 35.55063], [140.34668, 35.55033], [140.34636, 35.55005], [140.34599, 35.54974], [140.34371, 35.54776], [140.34239, 35.54662]]}, "properties": {"id": "GEOM_TOKYO_3316", "route_id": "R_326FAF02", "route_name": null, "route_color": "#E48E00", "route_text_color": null, "line_name": "東金線", "operator_id": "jr_east", "representation": "service_path", "min_zoom": 0, "max_zoom": 24, "offset_rank": 0}}, {"type": "Feature", "bbox": [140.31071, 35.52288, 140.31215, 35.52317], "geometry": {"type": "LineString", "coordinates": [[140.31215, 35.52288], [140.31174, 35.52296], [140.31131, 35.52305], [140.31071, 35.52317]]}, "properties": {"id": "GEOM_TOKYO_3317", "route_id": "R_326FAF02", "route_name": null, "route_color": "#E48E00", "route_text_color": null, "line_name": "東金線", "operator_id": "jr_east", "representation": "service_path", "min_zoom": 0, "max_zoom": 24, "offset_rank": 0}}, {"type": "Feature", "bbox": [140.31215, 35.52278, 140.31521, 35.52374], "geometry": {"type": "LineString", "coordinates": [[140.31215, 35.52288], [140.31229, 35.52285], [140.31266, 35.52278], [140.31309, 35.52279], [140.31357, 35.52291], [140.31377, 35.52296], [140.3141, 35.5231], [140.31457, 35.52335], [140.31483, 35.52351], [140.31521, 35.52374]]}, "properties": {"id": "GEOM_TOKYO_3318", "route_id": "R_326FAF02", "route_name": null, "route_color": "#E48E00", "route_text_color": null, "line_name": "東金線", "operator_id": "jr_east", "representation": "service_path", "min_zoom": 0, "max_zoom": 24, "offset_rank": 0}}]}