{"type": "FeatureCollection", "features": [{"type": "Feature", "bbox": [140.34429, 35.40337, 140.34642, 35.40454], "geometry": {"type": "LineString", "coordinates": [[140.34642, 35.40337], [140.34429, 35.40454]]}, "properties": {"id": "GEOM_TOKYO_2155", "route_id": "R_CA890E41", "route_name": null, "route_color": "#D9352A", "route_text_color": null, "line_name": "外房線", "operator_id": "jr_east", "representation": "service_path", "min_zoom": 0, "max_zoom": 24, "offset_rank": 0}}, {"type": "Feature", "bbox": [140.34721, 35.18217, 140.35082, 35.18675], "geometry": {"type": "LineString", "coordinates": [[140.35082, 35.18675], [140.35065, 35.18653], [140.35039, 35.18621], [140.34979, 35.18547], [140.34957, 35.18517], [140.34885, 35.18425], [140.34862, 35.18395], [140.34743, 35.18244], [140.34721, 35.18217]]}, "properties": {"id": "GEOM_TOKYO_2156", "route_id": "R_CA890E41", "route_name": null, "route_color": "#D9352A", "route_text_color": null, "line_name": "外房線", "operator_id": "jr_east", "representation": "service_path", "min_zoom": 0, "max_zoom": 24, "offset_rank": 0}}, {"type": "Feature", "bbox": [140.39133, 35.28258, 140.39156, 35.28326], "geometry": {"type": "LineString", "coordinates": [[140.39156, 35.28258], [140.39133, 35.28326]]}, "properties": {"id": "GEOM_TOKYO_2157", "route_id": "R_CA890E41", "route_name": null, "route_color": "#D9352A", "route_text_color": null, "line_name": "外房線", "operator_id": "jr_east", "representation": "service_path", "min_zoom": 0, "max_zoom": 24, "offset_rank": 0}}, {"type": "Feature", "bbox": [140.36447, 35.34764, 140.37615, 35.37331], "geometry": {"type": "LineString", "coordinates": [[140.37615, 35.34764], [140.37572, 35.34838], [140.37546, 35.34891], [140.37522, 35.34933], [140.37496, 35.34974], [140.3747, 35.35006], [140.37441, 35.35037], [140.37406, 35.35083], [140.37361, 35.35152], [140.37299, 35.35257], [140.37244, 35.35349], [140.37172, 35.3547], [140.37069, 35.35642], [140.36893, 35.35937], [140.36686, 35.36275], [140.3666, 35.36317], [140.36609, 35.36397], [140.36583, 35.36452], [140.36541, 35.3654], [140.36517, 35.3659], [140.36506, 35.36615], [140.36496, 35.36637], [140.36486, 35.36664], [140.36476, 35.36688], [140.36467, 35.36715], [140.3646, 35.36744], [140.36454, 35.36775], [140.36449, 35.36803], [140.36448, 35.36822], [140.36447, 35.36845], [140.36447, 35.36871], [140.36448, 35.36909], [140.36451, 35.36939], [140.36455, 35.36964], [140.36459, 35.36994], [140.36465, 35.37023], [140.36471, 35.37053], [140.36493, 35.37171], [140.36526, 35.37331]]}, "properties": {"id": "GEOM_TOKYO_2162", "route_id": "R_CA890E41", "route_name": null, "route_color": "#D9352A", "route_text_color": null, "line_name": "外房線", "operator_id": "jr_east", "representation": "service_path", "min_zoom": 0, "max_zoom": 24, "offset_rank": 0}}, {"type": "Feature", "bbox": [140.37715, 35.32066, 140.38119, 35.3459], "geometry": {"type": "LineString", "coordinates": [[140.37715, 35.3459], [140.37881, 35.34285], [140.37963, 35.34138], [140.37984, 35.34098], [140.37999, 35.34067], [140.38012, 35.34041], [140.38019, 35.34016], [140.38022, 35.33993], [140.38021, 35.33963], [140.38012, 35.33912], [140.38002, 35.3386], [140.37996, 35.33818], [140.37994, 35.33787], [140.37994, 35.33758], [140.37995, 35.33742], [140.37997, 35.3373], [140.38008, 35.33694], [140.38009, 35.33689], [140.38017, 35.33662], [140.38054, 35.33545], [140.38073, 35.3349], [140.38094, 35.33431], [140.38106, 35.33385], [140.38113, 35.3335], [140.38116, 35.33323], [140.38118, 35.33296], [140.38113, 35.33233], [140.38096, 35.33093], [140.38091, 35.33055], [140.38088, 35.33035], [140.38046, 35.32763], [140.38041, 35.32721], [140.38041, 35.32658], [140.38044, 35.32621], [140.38061, 35.32483], [140.38061, 35.32477], [140.38073, 35.32393], [140.38117, 35.32087], [140.38119, 35.32066]]}, "properties": {"id": "GEOM_TOKYO_2163", "route_id": "R_CA890E41", "route_name": null, "route_color": "#D9352A", "route_text_color": null, "line_name": "外房線", "operator_id": "jr_east", "representation": "service_path", "min_zoom": 0, "max_zoom": 24, "offset_rank": 0}}, {"type": "Feature", "bbox": [140.36526, 35.37331, 140.36579, 35.37606], "geometry": {"type": "LineString", "coordinates": [[140.36526, 35.37331], [140.36579, 35.37606]]}, "properties": {"id": "GEOM_TOKYO_2169", "route_id": "R_CA890E41", "route_name": null, "route_color": "#D9352A", "route_text_color": null, "line_name": "外房線", "operator_id": "jr_east", "representation": "service_path", "min_zoom": 0, "max_zoom": 24, "offset_rank": 0}}, {"type": "Feature", "bbox": [140.31546, 35.15466, 140.32733, 35.16582], "geometry": {"type": "LineString", "coordinates": [[140.31546, 35.15466], [140.31689, 35.15524], [140.3179, 35.1556], [140.31944, 35.15605], [140.32006, 35.15628], [140.32076, 35.15663], [140.3213, 35.15707], [140.32178, 35.15761], [140.32239, 35.15838], [140.32445, 35.16103], [140.32495, 35.16167], [140.32535, 35.16222], [140.32564, 35.16266], [140.32581, 35.16307], [140.32605, 35.16411], [140.32614, 35.1644], [140.32634, 35.16482], [140.32654, 35.16512], [140.32674, 35.16534], [140.32733, 35.16582]]}, "properties": {"id": "GEOM_TOKYO_2170", "route_id": "R_CA890E41", "route_name": null, "route_color": "#D9352A", "route_text_color": null, "line_name": "外房線", "operator_id": "jr_east", "representation": "service_path", "min_zoom": 0, "max_zoom": 24, "offset_rank": 0}}, {"type": "Feature", "bbox": [140.35082, 35.18675, 140.35207, 35.18833], "geometry": {"type": "LineString", "coordinates": [[140.35082, 35.18675], [140.35207, 35.18833]]}, "properties": {"id": "GEOM_TOKYO_2172", "route_id": "R_CA890E41", "route_name": null, "route_color": "#D9352A", "route_text_color": null, "line_name": "外房線", "operator_id": "jr_east", "representation": "service_path", "min_zoom": 0, "max_zoom": 24, "offset_rank": 0}}, {"type": "Feature", "bbox": [140.32733, 35.16582, 140.3348, 35.17082], "geometry": {"type": "LineString", "coordinates": [[140.32733, 35.16582], [140.3277, 35.16601], [140.32844, 35.16627], [140.32964, 35.16663], [140.33, 35.16674], [140.33027, 35.16682], [140.33104, 35.16708], [140.3315, 35.16724], [140.33184, 35.16741], [140.33201, 35.16751], [140.33233, 35.1677], [140.33284, 35.16812], [140.33312, 35.16843], [140.33353, 35.169], [140.33416, 35.16998], [140.3348, 35.17082]]}, "properties": {"id": "GEOM_TOKYO_2177", "route_id": "R_CA890E41", "route_name": null, "route_color": "#D9352A", "route_text_color": null, "line_name": "外房線", "operator_id": "jr_east", "representation": "service_path", "min_zoom": 0, "max_zoom": 24, "offset_rank": 0}}, {"type": "Feature", "bbox": [140.30555, 35.40454, 140.34429, 35.426], "geometry": {"type": "LineString", "coordinates": [[140.34429, 35.40454], [140.34254, 35.40551], [140.33994, 35.40695], [140.33706, 35.40852], [140.33515, 35.40957], [140.33369, 35.4104], [140.33337, 35.41058], [140.32835, 35.41334], [140.32458, 35.41544], [140.3242, 35.41565], [140.32355, 35.41601], [140.32087, 35.41749], [140.31679, 35.41977], [140.31648, 35.41995], [140.31472, 35.42094], [140.31072, 35.42318], [140.31033, 35.42339], [140.30753, 35.42493], [140.30607, 35.42572], [140.30555, 35.426]]}, "properties": {"id": "GEOM_TOKYO_2179", "route_id": "R_CA890E41", "route_name": null, "route_color": "#D9352A", "route_text_color": null, "line_name": "外房線", "operator_id": "jr_east", "representation": "service_path", "min_zoom": 0, "max_zoom": 24, "offset_rank": 0}}, {"type": "Feature", "bbox": [140.39099, 35.25017, 140.39106, 35.25185], "geometry": {"type": "LineString", "coordinates": [[140.39099, 35.25185], [140.39105, 35.25052], [140.39106, 35.25017]]}, "properties": {"id": "GEOM_TOKYO_2184", "route_id": "R_CA890E41", "route_name": null, "route_color": "#D9352A", "route_text_color": null, "line_name": "外房線", "operator_id": "jr_east", "representation": "service_path", "min_zoom": 0, "max_zoom": 24, "offset_rank": 0}}, {"type": "Feature", "bbox": [140.37959, 35.22321, 140.39126, 35.25017], "geometry": {"type": "LineString", "coordinates": [[140.39106, 35.25017], [140.39108, 35.24983], [140.3911, 35.24975], [140.3911, 35.24956], [140.3911, 35.24943], [140.39111, 35.24929], [140.39111, 35.24908], [140.39113, 35.24884], [140.39112, 35.24864], [140.39114, 35.24835], [140.39116, 35.24806], [140.39117, 35.24784], [140.39119, 35.24749], [140.39126, 35.24614], [140.39125, 35.24572], [140.39121, 35.24547], [140.39113, 35.24511], [140.39093, 35.24453], [140.39082, 35.24428], [140.39011, 35.24303], [140.38958, 35.2421], [140.38933, 35.24168], [140.38915, 35.24135], [140.38881, 35.24074], [140.38861, 35.24039], [140.38844, 35.24009], [140.38824, 35.23974], [140.38794, 35.23923], [140.38777, 35.23891], [140.38761, 35.23863], [140.38745, 35.23835], [140.38684, 35.23726], [140.38651, 35.23669], [140.38565, 35.23517], [140.38499, 35.23401], [140.3848, 35.23368], [140.38466, 35.23343], [140.38456, 35.23324], [140.38434, 35.23286], [140.38418, 35.23255], [140.38404, 35.23222], [140.38388, 35.23188], [140.38365, 35.23128], [140.38357, 35.2311], [140.38288, 35.22944], [140.38282, 35.22931], [140.38257, 35.22868], [140.38235, 35.22816], [140.38223, 35.22785], [140.38153, 35.22616], [140.38138, 35.22579], [140.38119, 35.22531], [140.38112, 35.2252], [140.38094, 35.22493], [140.3803, 35.22413], [140.38018, 35.22398], [140.38005, 35.22382], [140.37981, 35.2235], [140.37959, 35.22321]]}, "properties": {"id": "GEOM_TOKYO_2186", "route_id": "R_CA890E41", "route_name": null, "route_color": "#D9352A", "route_text_color": null, "line_name": "外房線", "operator_id": "jr_east", "representation": "service_path", "min_zoom": 0, "max_zoom": 24, "offset_rank": 0}}, {"type": "Feature", "bbox": [140.39093, 35.25185, 140.39099, 35.25402], "geometry": {"type": "LineString", "coordinates": [[140.39099, 35.25185], [140.39097, 35.2527], [140.39094, 35.2533], [140.39094, 35.25353], [140.39093, 35.25402]]}, "properties": {"id": "GEOM_TOKYO_2187", "route_id": "R_CA890E41", "route_name": null, "route_color": "#D9352A", "route_text_color": null, "line_name": "外房線", "operator_id": "jr_east", "representation": "service_path", "min_zoom": 0, "max_zoom": 24, "offset_rank": 0}}, {"type": "Feature", "bbox": [140.38969, 35.25402, 140.39167, 35.28258], "geometry": {"type": "LineString", "coordinates": [[140.39093, 35.25402], [140.39092, 35.25472], [140.39088, 35.25596], [140.39086, 35.25641], [140.39085, 35.25662], [140.3908, 35.25803], [140.39073, 35.25987], [140.39064, 35.26187], [140.39059, 35.26243], [140.39048, 35.26336], [140.39042, 35.26371], [140.39036, 35.26422], [140.39033, 35.26444], [140.39016, 35.26562], [140.38998, 35.26686], [140.38991, 35.26735], [140.38987, 35.2676], [140.38978, 35.26829], [140.38971, 35.26891], [140.38969, 35.26948], [140.3897, 35.26967], [140.38972, 35.2701], [140.3898, 35.27082], [140.38985, 35.27131], [140.38998, 35.27248], [140.38998, 35.27263], [140.39014, 35.2741], [140.39017, 35.27443], [140.39027, 35.2752], [140.39029, 35.27533], [140.39031, 35.27545], [140.39052, 35.27628], [140.3906, 35.27664], [140.39092, 35.27809], [140.39097, 35.27827], [140.391, 35.2784], [140.39138, 35.28011], [140.39154, 35.28083], [140.3916, 35.28112], [140.39164, 35.2814], [140.39167, 35.28179], [140.39167, 35.28181], [140.39166, 35.28191], [140.39166, 35.28216], [140.39162, 35.28237], [140.39156, 35.28258]]}, "properties": {"id": "GEOM_TOKYO_2188", "route_id": "R_CA890E41", "route_name": null, "route_color": "#D9352A", "route_text_color": null, "line_name": "外房線", "operator_id": "jr_east", "representation": "service_path", "min_zoom": 0, "max_zoom": 24, "offset_rank": 0}}, {"type": "Feature", "bbox": [140.37868, 35.22206, 140.37959, 35.22321], "geometry": {"type": "LineString", "coordinates": [[140.37868, 35.22206], [140.37959, 35.22321]]}, "properties": {"id": "GEOM_TOKYO_2189", "route_id": "R_CA890E41", "route_name": null, "route_color": "#D9352A", "route_text_color": null, "line_name": "外房線", "operator_id": "jr_east", "representation": "service_path", "min_zoom": 0, "max_zoom": 24, "offset_rank": 0}}, {"type": "Feature", "bbox": [140.38119, 35.31953, 140.38139, 35.32066], "geometry": {"type": "LineString", "coordinates": [[140.38119, 35.32066], [140.38139, 35.31953]]}, "properties": {"id": "GEOM_TOKYO_2191", "route_id": "R_CA890E41", "route_name": null, "route_color": "#D9352A", "route_text_color": null, "line_name": "外房線", "operator_id": "jr_east", "representation": "service_path", "min_zoom": 0, "max_zoom": 24, "offset_rank": 0}}, {"type": "Feature", "bbox": [140.3348, 35.17082, 140.34721, 35.18217], "geometry": {"type": "LineString", "coordinates": [[140.3348, 35.17082], [140.3352, 35.17145], [140.33563, 35.17196], [140.33587, 35.17222], [140.33628, 35.17258], [140.33815, 35.17401], [140.33829, 35.17411], [140.3391, 35.1747], [140.34066, 35.17581], [140.34114, 35.17616], [140.34162, 35.17653], [140.3423, 35.17707], [140.34335, 35.17806], [140.34461, 35.17935], [140.34601, 35.18089], [140.34687, 35.18187], [140.34721, 35.18217]]}, "properties": {"id": "GEOM_TOKYO_2197", "route_id": "R_CA890E41", "route_name": null, "route_color": "#D9352A", "route_text_color": null, "line_name": "外房線", "operator_id": "jr_east", "representation": "service_path", "min_zoom": 0, "max_zoom": 24, "offset_rank": 0}}, {"type": "Feature", "bbox": [140.37615, 35.3459, 140.37715, 35.34764], "geometry": {"type": "LineString", "coordinates": [[140.37715, 35.3459], [140.37615, 35.34764]]}, "properties": {"id": "GEOM_TOKYO_2200", "route_id": "R_CA890E41", "route_name": null, "route_color": "#D9352A", "route_text_color": null, "line_name": "外房線", "operator_id": "jr_east", "representation": "service_path", "min_zoom": 0, "max_zoom": 24, "offset_rank": 0}}, {"type": "Feature", "bbox": [140.34642, 35.37606, 140.36688, 35.40337], "geometry": {"type": "LineString", "coordinates": [[140.36579, 35.37606], [140.36608, 35.37751], [140.36616, 35.37791], [140.3662, 35.3781], [140.36647, 35.37945], [140.36661, 35.38014], [140.36675, 35.38088], [140.3668, 35.38123], [140.36686, 35.38177], [140.36688, 35.38212], [140.36686, 35.38249], [140.36683, 35.38281], [140.36677, 35.38316], [140.36666, 35.38355], [140.36653, 35.38393], [140.36637, 35.38427], [140.36617, 35.38465], [140.36592, 35.38501], [140.36552, 35.3855], [140.36523, 35.38588], [140.36481, 35.38633], [140.36456, 35.38658], [140.36452, 35.38663], [140.36414, 35.38698], [140.36379, 35.3873], [140.36324, 35.38772], [140.36283, 35.38799], [140.3624, 35.38825], [140.36185, 35.38853], [140.36136, 35.38874], [140.36084, 35.38901], [140.36036, 35.38932], [140.36022, 35.38943], [140.35997, 35.38961], [140.35965, 35.38987], [140.35931, 35.39019], [140.35894, 35.39059], [140.35854, 35.39107], [140.35833, 35.39139], [140.35815, 35.3917], [140.3579, 35.39216], [140.35771, 35.39252], [140.35716, 35.39341], [140.35684, 35.39383], [140.35662, 35.3941], [140.35632, 35.39444], [140.356, 35.39478], [140.35393, 35.39678], [140.35358, 35.39712], [140.35108, 35.39951], [140.35006, 35.40049], [140.34953, 35.40102], [140.34864, 35.40187], [140.34828, 35.40216], [140.34777, 35.40255], [140.34717, 35.40295], [140.34642, 35.40337]]}, "properties": {"id": "GEOM_TOKYO_2201", "route_id": "R_CA890E41", "route_name": null, "route_color": "#D9352A", "route_text_color": null, "line_name": "外房線", "operator_id": "jr_east", "representation": "service_path", "min_zoom": 0, "max_zoom": 24, "offset_rank": 0}}, {"type": "Feature", "bbox": [140.31546, 35.15466, 140.32733, 35.16582], "geometry": {"type": "LineString", "coordinates": [[140.31546, 35.15466], [140.31607, 35.15504], [140.31706, 35.15554], [140.31761, 35.15574], [140.31808, 35.15589], [140.3187, 35.15605], [140.3192, 35.15618], [140.3196, 35.15631], [140.31994, 35.15644], [140.32024, 35.1566], [140.32051, 35.15677], [140.32097, 35.15716], [140.32133, 35.15759], [140.32165, 35.15807], [140.32332, 35.16084], [140.32453, 35.16291], [140.32522, 35.164], [140.32547, 35.16435], [140.32579, 35.1647], [140.32619, 35.16507], [140.32692, 35.16561], [140.32733, 35.16582]]}, "properties": {"id": "GEOM_TOKYO_2202", "route_id": "R_CA890E41", "route_name": null, "route_color": "#D9352A", "route_text_color": null, "line_name": "外房線", "operator_id": "jr_east", "representation": "service_path", "min_zoom": 0, "max_zoom": 24, "offset_rank": 0}}, {"type": "Feature", "bbox": [140.3804, 35.29694, 140.38443, 35.31953], "geometry": {"type": "LineString", "coordinates": [[140.38443, 35.29694], [140.38399, 35.29777], [140.38396, 35.29784], [140.3838, 35.29817], [140.38369, 35.29842], [140.3836, 35.29867], [140.38344, 35.29912], [140.38296, 35.30083], [140.38283, 35.30127], [140.38274, 35.30159], [140.38267, 35.30185], [140.38224, 35.30343], [140.38097, 35.30816], [140.3805, 35.30992], [140.38045, 35.31018], [140.38043, 35.31032], [140.3804, 35.31066], [140.38041, 35.31118], [140.38045, 35.31155], [140.38053, 35.31202], [140.38071, 35.31269], [140.38128, 35.3149], [140.38164, 35.31631], [140.38167, 35.31651], [140.38169, 35.31677], [140.38169, 35.31733], [140.38166, 35.31761], [140.38152, 35.31866], [140.38139, 35.31953]]}, "properties": {"id": "GEOM_TOKYO_2203", "route_id": "R_CA890E41", "route_name": null, "route_color": "#D9352A", "route_text_color": null, "line_name": "外房線", "operator_id": "jr_east", "representation": "service_path", "min_zoom": 0, "max_zoom": 24, "offset_rank": 0}}, {"type": "Feature", "bbox": [140.38443, 35.29558, 140.38519, 35.29694], "geometry": {"type": "LineString", "coordinates": [[140.38519, 35.29558], [140.38443, 35.29694]]}, "properties": {"id": "GEOM_TOKYO_2204", "route_id": "R_CA890E41", "route_name": null, "route_color": "#D9352A", "route_text_color": null, "line_name": "外房線", "operator_id": "jr_east", "representation": "service_path", "min_zoom": 0, "max_zoom": 24, "offset_rank": 0}}, {"type": "Feature", "bbox": [140.35207, 35.18833, 140.37868, 35.22206], "geometry": {"type": "LineString", "coordinates": [[140.35207, 35.18833], [140.35235, 35.1887], [140.35253, 35.18891], [140.35297, 35.18948], [140.35312, 35.18969], [140.35336, 35.19], [140.35399, 35.19082], [140.3542, 35.19106], [140.35441, 35.19127], [140.3546, 35.19146], [140.35496, 35.19177], [140.35517, 35.19193], [140.35565, 35.19225], [140.356, 35.19245], [140.35688, 35.19285], [140.35708, 35.19294], [140.3571, 35.19296], [140.35716, 35.19299], [140.35745, 35.19311], [140.35819, 35.19345], [140.3596, 35.1941], [140.3597, 35.19413], [140.35975, 35.19417], [140.35981, 35.19419], [140.36382, 35.19602], [140.36551, 35.19683], [140.36668, 35.19742], [140.36726, 35.19776], [140.36825, 35.19836], [140.36852, 35.19852], [140.36923, 35.19905], [140.3698, 35.19954], [140.37048, 35.20033], [140.37172, 35.202], [140.37181, 35.20213], [140.37202, 35.2024], [140.37203, 35.20241], [140.37204, 35.20243], [140.37242, 35.20298], [140.37293, 35.20362], [140.37309, 35.20397], [140.3732, 35.20435], [140.37321, 35.20444], [140.37325, 35.20607], [140.37327, 35.20708], [140.37332, 35.20852], [140.37332, 35.20875], [140.37334, 35.20982], [140.3734, 35.2102], [140.3735, 35.21072], [140.37365, 35.21116], [140.37392, 35.21165], [140.37407, 35.2119], [140.37425, 35.21219], [140.37474, 35.21299], [140.37494, 35.21331], [140.37502, 35.21345], [140.37528, 35.21388], [140.3753, 35.21389], [140.37537, 35.21402], [140.37551, 35.21429], [140.3756, 35.21457], [140.37562, 35.2147], [140.37568, 35.21505], [140.37579, 35.21569], [140.37582, 35.21592], [140.37604, 35.21728], [140.37623, 35.2184], [140.37625, 35.21845], [140.37625, 35.2185], [140.37632, 35.21869], [140.37645, 35.21905], [140.37647, 35.21906], [140.37651, 35.21918], [140.37673, 35.21959], [140.37703, 35.22004], [140.37719, 35.22024], [140.37728, 35.22034], [140.37732, 35.22039], [140.37755, 35.22069], [140.37827, 35.22158], [140.37868, 35.22206]]}, "properties": {"id": "GEOM_TOKYO_2205", "route_id": "R_CA890E41", "route_name": null, "route_color": "#D9352A", "route_text_color": null, "line_name": "外房線", "operator_id": "jr_east", "representation": "service_path", "min_zoom": 0, "max_zoom": 24, "offset_rank": 0}}, {"type": "Feature", "bbox": [140.38519, 35.28326, 140.39133, 35.29558], "geometry": {"type": "LineString", "coordinates": [[140.39133, 35.28326], [140.3913, 35.28334], [140.39112, 35.2838], [140.39108, 35.28392], [140.39024, 35.28606], [140.39011, 35.28639], [140.38976, 35.28722], [140.38974, 35.28728], [140.38967, 35.28742], [140.38962, 35.28753], [140.38938, 35.28805], [140.38891, 35.28892], [140.38856, 35.28958], [140.38799, 35.29064], [140.38791, 35.29078], [140.38773, 35.29112], [140.38748, 35.29159], [140.38689, 35.29268], [140.3866, 35.29318], [140.38631, 35.29373], [140.38623, 35.29387], [140.38599, 35.29428], [140.38592, 35.2944], [140.38563, 35.29486], [140.38558, 35.29494], [140.38529, 35.29541], [140.38519, 35.29558]]}, "properties": {"id": "GEOM_TOKYO_2207", "route_id": "R_CA890E41", "route_name": null, "route_color": "#D9352A", "route_text_color": null, "line_name": "外房線", "operator_id": "jr_east", "representation": "service_path", "min_zoom": 0, "max_zoom": 24, "offset_rank": 0}}, {"type": "Feature", "bbox": [140.3348, 35.17082, 140.34721, 35.18217], "geometry": {"type": "LineString", "coordinates": [[140.3348, 35.17082], [140.33554, 35.17151], [140.3369, 35.17249], [140.33776, 35.17314], [140.33996, 35.17475], [140.34179, 35.1761], [140.34213, 35.17635], [140.34269, 35.17687], [140.3436, 35.17771], [140.34412, 35.17826], [140.34454, 35.17875], [140.34511, 35.17946], [140.34596, 35.18051], [140.34662, 35.18139], [140.34699, 35.18189], [140.34721, 35.18217]]}, "properties": {"id": "GEOM_TOKYO_2212", "route_id": "R_CA890E41", "route_name": null, "route_color": "#D9352A", "route_text_color": null, "line_name": "外房線", "operator_id": "jr_east", "representation": "service_path", "min_zoom": 0, "max_zoom": 24, "offset_rank": 0}}]}