{"type": "FeatureCollection", "features": [{"type": "Feature", "bbox": [140.128285, 37.909414999999996, 140.128285, 37.909414999999996], "geometry": {"type": "Point", "coordinates": [140.128285, 37.909414999999996]}, "properties": {"id": "PS_14A56694A706", "station_group_id": "SG_192B2B4F3762", "name_en": "米沢", "name_ja": "米沢", "label_rank": 72, "tags": ["tokyo", "v3"]}}, {"type": "Feature", "bbox": [140.128285, 37.909414999999996, 140.128285, 37.909414999999996], "geometry": {"type": "Point", "coordinates": [140.128285, 37.909414999999996]}, "properties": {"id": "PS_BEA88701A1B1", "station_group_id": "SG_192B2B4F3762", "name_en": "米沢", "name_ja": "米沢", "label_rank": 72, "tags": ["tokyo", "v3"]}}]}