{"type": "FeatureCollection", "features": [{"type": "Feature", "bbox": [140.08735, 36.99651, 140.08735, 36.99651], "geometry": {"type": "Point", "coordinates": [140.08735, 36.99651]}, "properties": {"id": "PS_4F2DB353201E", "station_group_id": "SG_63DD170EC29C", "operator_id": "jr_east", "operator_ids": "jr_east", "name_en": "高久", "name_ja": "高久", "label_rank": 72, "tags": ["tokyo", "v3"]}}, {"type": "Feature", "bbox": [140.12079, 37.02344, 140.12079, 37.02344], "geometry": {"type": "Point", "coordinates": [140.12079, 37.02344]}, "properties": {"id": "PS_92D14F42DAD4", "station_group_id": "SG_57C9A1B84CFC", "operator_id": "jr_east", "operator_ids": "jr_east", "name_en": "黒田原", "name_ja": "黒田原", "label_rank": 72, "tags": ["tokyo", "v3"]}}, {"type": "Feature", "bbox": [140.06015, 36.970119999999994, 140.06015, 36.970119999999994], "geometry": {"type": "Point", "coordinates": [140.06015, 36.970119999999994]}, "properties": {"id": "PS_DAA8AFC99F09", "station_group_id": "SG_73787EB8EEF3", "operator_id": "jr_east", "operator_ids": "jr_east", "name_en": "黒磯", "name_ja": "黒磯", "label_rank": 72, "tags": ["tokyo", "v3"]}}]}