{"type": "FeatureCollection", "features": [{"type": "Feature", "bbox": [139.94554, 36.75468, 139.94554, 36.75468], "geometry": {"type": "Point", "coordinates": [139.94554, 36.75468]}, "properties": {"id": "PS_39625A89BAEA", "station_group_id": "SG_A8A7F4D7810D", "operator_id": "jr_east", "operator_ids": "jr_east", "name_en": "片岡", "name_ja": "片岡", "label_rank": 72, "tags": ["tokyo", "v3"]}}, {"type": "Feature", "bbox": [139.932975, 36.80662, 139.932975, 36.80662], "geometry": {"type": "Point", "coordinates": [139.932975, 36.80662]}, "properties": {"id": "PS_410C14912785", "station_group_id": "SG_6B93B2608CE0", "operator_id": "jr_east", "operator_ids": "jr_east", "name_en": "矢板", "name_ja": "矢板", "label_rank": 72, "tags": ["tokyo", "v3"]}}, {"type": "Feature", "bbox": [139.950405, 36.720745, 139.950405, 36.720745], "geometry": {"type": "Point", "coordinates": [139.950405, 36.720745]}, "properties": {"id": "PS_45549347BED3", "station_group_id": "SG_E5600E24AA70", "operator_id": "jr_east", "operator_ids": "jr_east", "name_en": "蒲須坂", "name_ja": "蒲須坂", "label_rank": 72, "tags": ["tokyo", "v3"]}}, {"type": "Feature", "bbox": [139.98639, 36.88374, 139.98639, 36.88374], "geometry": {"type": "Point", "coordinates": [139.98639, 36.88374]}, "properties": {"id": "PS_56B547094086", "station_group_id": "SG_BF3D6431433E", "operator_id": "jr_east", "operator_ids": "jr_east", "name_en": "西那須野", "name_ja": "西那須野", "label_rank": 72, "tags": ["tokyo", "v3"]}}, {"type": "Feature", "bbox": [140.02070500000002, 36.93166, 140.02070500000002, 36.93166], "geometry": {"type": "Point", "coordinates": [140.02070500000002, 36.93166]}, "properties": {"id": "PS_5661E6B8B645", "station_group_id": "SG_08C9F6E2A23D", "operator_id": "jr_east", "operator_ids": "jr_east", "name_en": "那須塩原", "name_ja": "那須塩原", "label_rank": 72, "tags": ["tokyo", "v3"]}}, {"type": "Feature", "bbox": [140.02106, 36.931545, 140.02106, 36.931545], "geometry": {"type": "Point", "coordinates": [140.02106, 36.931545]}, "properties": {"id": "PS_3A595D1192EE", "station_group_id": "SG_08C9F6E2A23D", "operator_id": "jr_east", "operator_ids": "jr_east", "name_en": "那須塩原", "name_ja": "那須塩原", "label_rank": 72, "tags": ["tokyo", "v3"]}}, {"type": "Feature", "bbox": [139.958105, 36.84381, 139.958105, 36.84381], "geometry": {"type": "Point", "coordinates": [139.958105, 36.84381]}, "properties": {"id": "PS_87A670D1577D", "station_group_id": "SG_0198FA5946E8", "operator_id": "jr_east", "operator_ids": "jr_east", "name_en": "野崎", "name_ja": "野崎", "label_rank": 72, "tags": ["tokyo", "v3"]}}]}