{"type": "FeatureCollection", "features": [{"type": "Feature", "bbox": [139.87206500000002, 36.54378, 139.87206500000002, 36.54378], "geometry": {"type": "Point", "coordinates": [139.87206500000002, 36.54378]}, "properties": {"id": "PS_F881F5823AE5", "station_group_id": "SG_432A1A80AE6F", "operator_id": "tobu", "operator_ids": "tobu", "name_en": "南宇都宮", "name_ja": "南宇都宮", "label_rank": 72, "tags": ["tokyo", "v3"]}}, {"type": "Feature", "bbox": [139.89809, 36.558769999999996, 139.89809, 36.558769999999996], "geometry": {"type": "Point", "coordinates": [139.89809, 36.558769999999996]}, "properties": {"id": "PS_0393B1C5325D", "station_group_id": "SG_EA3A8AE9032A", "operator_id": "jr_east", "operator_ids": "jr_east", "name_en": "宇都宮", "name_ja": "宇都宮", "label_rank": 72, "tags": ["tokyo", "v3"]}}, {"type": "Feature", "bbox": [139.898725, 36.55975, 139.898725, 36.55975], "geometry": {"type": "Point", "coordinates": [139.898725, 36.55975]}, "properties": {"id": "PS_ED8B396839B9", "station_group_id": "SG_EA3A8AE9032A", "operator_id": "jr_east", "operator_ids": "jr_east", "name_en": "宇都宮", "name_ja": "宇都宮", "label_rank": 72, "tags": ["tokyo", "v3"]}}, {"type": "Feature", "bbox": [139.97952, 36.631625, 139.97952, 36.631625], "geometry": {"type": "Point", "coordinates": [139.97952, 36.631625]}, "properties": {"id": "PS_8D495829E3A1", "station_group_id": "SG_F414A0DC79DC", "operator_id": "jr_east", "operator_ids": "jr_east", "name_en": "宝積寺", "name_ja": "宝積寺", "label_rank": 72, "tags": ["tokyo", "v3"]}}, {"type": "Feature", "bbox": [139.94425, 36.598265, 139.94425, 36.598265], "geometry": {"type": "Point", "coordinates": [139.94425, 36.598265]}, "properties": {"id": "PS_994B65B16754", "station_group_id": "SG_80913656979B", "operator_id": "jr_east", "operator_ids": "jr_east", "name_en": "岡本", "name_ja": "岡本", "label_rank": 72, "tags": ["tokyo", "v3"]}}, {"type": "Feature", "bbox": [139.88060000000002, 36.55866, 139.88060000000002, 36.55866], "geometry": {"type": "Point", "coordinates": [139.88060000000002, 36.55866]}, "properties": {"id": "PS_EC295A1AAF08", "station_group_id": "SG_C312C9E498B8", "operator_id": "tobu", "operator_ids": "tobu", "name_en": "東武宇都宮", "name_ja": "東武宇都宮", "label_rank": 72, "tags": ["tokyo", "v3"]}}, {"type": "Feature", "bbox": [139.96210000000002, 36.68169, 139.96210000000002, 36.68169], "geometry": {"type": "Point", "coordinates": [139.96210000000002, 36.68169]}, "properties": {"id": "PS_1B5A98F2745B", "station_group_id": "SG_30BEDCB60979", "operator_id": "jr_east", "operator_ids": "jr_east", "name_en": "氏家", "name_ja": "氏家", "label_rank": 72, "tags": ["tokyo", "v3"]}}, {"type": "Feature", "bbox": [139.860815, 36.530955000000006, 139.860815, 36.530955000000006], "geometry": {"type": "Point", "coordinates": [139.860815, 36.530955000000006]}, "properties": {"id": "PS_F04BF6BB61B4", "station_group_id": "SG_1BF1C88FE582", "operator_id": "tobu", "operator_ids": "tobu", "name_en": "江曾島", "name_ja": "江曾島", "label_rank": 72, "tags": ["tokyo", "v3"]}}, {"type": "Feature", "bbox": [139.87708, 36.493905, 139.87708, 36.493905], "geometry": {"type": "Point", "coordinates": [139.87708, 36.493905]}, "properties": {"id": "PS_D85EBE7DFAF9", "station_group_id": "SG_06513827496B", "operator_id": "jr_east", "operator_ids": "jr_east", "name_en": "雀宮", "name_ja": "雀宮", "label_rank": 72, "tags": ["tokyo", "v3"]}}]}