{"type": "FeatureCollection", "features": [{"type": "Feature", "bbox": [139.86651, 36.43624, 139.86651, 36.43624], "geometry": {"type": "Point", "coordinates": [139.86651, 36.43624]}, "properties": {"id": "PS_7EAEE359C6C6", "station_group_id": "SG_222BCFA07604", "operator_id": "jr_east", "operator_ids": "jr_east", "name_en": "石橋", "name_ja": "石橋", "label_rank": 72, "tags": ["tokyo", "v3"]}}, {"type": "Feature", "bbox": [139.854515, 36.39538, 139.854515, 36.39538], "geometry": {"type": "Point", "coordinates": [139.854515, 36.39538]}, "properties": {"id": "PS_26A761CDC756", "station_group_id": "SG_1E48EB7B5D87", "operator_id": "jr_east", "operator_ids": "jr_east", "name_en": "自治医大", "name_ja": "自治医大", "label_rank": 72, "tags": ["tokyo", "v3"]}}]}