{"type": "FeatureCollection", "features": [{"type": "Feature", "bbox": [140.110545, 36.082425, 140.110545, 36.082425], "geometry": {"type": "Point", "coordinates": [140.110545, 36.082425]}, "properties": {"id": "PS_77CFFD811FBB", "station_group_id": "SG_70F05C57B656", "name_en": "つくば", "name_ja": "つくば", "label_rank": 72, "tags": ["tokyo", "v3"]}}, {"type": "Feature", "bbox": [140.056205, 36.029920000000004, 140.056205, 36.029920000000004], "geometry": {"type": "Point", "coordinates": [140.056205, 36.029920000000004]}, "properties": {"id": "PS_302CF069251C", "station_group_id": "SG_666AAAFA92C6", "name_en": "みどりの", "name_ja": "みどりの", "label_rank": 72, "tags": ["tokyo", "v3"]}}, {"type": "Feature", "bbox": [140.038345, 35.994405, 140.038345, 35.994405], "geometry": {"type": "Point", "coordinates": [140.038345, 35.994405]}, "properties": {"id": "PS_07756242123D", "station_group_id": "SG_6EB348BBAF31", "name_en": "みらい平", "name_ja": "みらい平", "label_rank": 72, "tags": ["tokyo", "v3"]}}, {"type": "Feature", "bbox": [139.85295000000002, 35.97085, 139.85295000000002, 35.97085], "geometry": {"type": "Point", "coordinates": [139.85295000000002, 35.97085]}, "properties": {"id": "PS_857A61836F7F", "station_group_id": "SG_E28C44011D40", "name_en": "七光台", "name_ja": "七光台", "label_rank": 72, "tags": ["tokyo", "v3"]}}, {"type": "Feature", "bbox": [140.059375, 36.058400000000006, 140.059375, 36.058400000000006], "geometry": {"type": "Point", "coordinates": [140.059375, 36.058400000000006]}, "properties": {"id": "PS_FF56B08CD7E2", "station_group_id": "SG_C72F0746DBCC", "name_en": "万博記念公園", "name_ja": "万博記念公園", "label_rank": 72, "tags": ["tokyo", "v3"]}}, {"type": "Feature", "bbox": [139.99201, 35.950015, 139.99201, 35.950015], "geometry": {"type": "Point", "coordinates": [139.99201, 35.950015]}, "properties": {"id": "PS_F9FCA380E537", "station_group_id": "SG_5068923BD714", "name_en": "守谷", "name_ja": "守谷", "label_rank": 72, "tags": ["tokyo", "v3"]}}, {"type": "Feature", "bbox": [139.864625, 35.950615, 139.864625, 35.950615], "geometry": {"type": "Point", "coordinates": [139.864625, 35.950615]}, "properties": {"id": "PS_9462F53803FC", "station_group_id": "SG_C1016CBB43D5", "name_en": "愛宕", "name_ja": "愛宕", "label_rank": 72, "tags": ["tokyo", "v3"]}}, {"type": "Feature", "bbox": [139.891095, 35.93158, 139.891095, 35.93158], "geometry": {"type": "Point", "coordinates": [139.891095, 35.93158]}, "properties": {"id": "PS_A4B0E341B8F2", "station_group_id": "SG_D1817223FA4A", "name_en": "梅郷", "name_ja": "梅郷", "label_rank": 72, "tags": ["tokyo", "v3"]}}, {"type": "Feature", "bbox": [139.86030499999998, 35.958794999999995, 139.86030499999998, 35.958794999999995], "geometry": {"type": "Point", "coordinates": [139.86030499999998, 35.958794999999995]}, "properties": {"id": "PS_A055AC9B44F8", "station_group_id": "SG_869C32FF54E5", "name_en": "清水公園", "name_ja": "清水公園", "label_rank": 72, "tags": ["tokyo", "v3"]}}, {"type": "Feature", "bbox": [140.08228, 36.082165, 140.08228, 36.082165], "geometry": {"type": "Point", "coordinates": [140.08228, 36.082165]}, "properties": {"id": "PS_1843F2EBDD51", "station_group_id": "SG_CECD5E52643A", "name_en": "研究学園", "name_ja": "研究学園", "label_rank": 72, "tags": ["tokyo", "v3"]}}, {"type": "Feature", "bbox": [139.870785, 35.943765, 139.870785, 35.943765], "geometry": {"type": "Point", "coordinates": [139.870785, 35.943765]}, "properties": {"id": "PS_41FC3241C69C", "station_group_id": "SG_5ABD819351BA", "name_en": "野田市", "name_ja": "野田市", "label_rank": 72, "tags": ["tokyo", "v3"]}}, {"type": "Feature", "bbox": [140.13791500000002, 35.929935, 140.13791500000002, 35.929935], "geometry": {"type": "Point", "coordinates": [140.13791500000002, 35.929935]}, "properties": {"id": "PS_D357B80B8622", "station_group_id": "SG_85F6668ED804", "name_en": "龍ケ崎市", "name_ja": "龍ケ崎市", "label_rank": 72, "tags": ["tokyo", "v3"]}}]}