{"type": "FeatureCollection", "features": [{"type": "Feature", "bbox": [139.88289, 35.68594, 139.88289, 35.68594], "geometry": {"type": "Point", "coordinates": [139.88289, 35.68594]}, "properties": {"id": "PS_CAE12CAB8B59", "station_group_id": "SG_FBE1AF65A5F7", "operator_id": "toei", "operator_ids": "toei", "name_en": "一之江", "name_ja": "一之江", "label_rank": 72, "tags": ["tokyo", "v3"]}}, {"type": "Feature", "bbox": [139.88683500000002, 35.844835, 139.88683500000002, 35.844835], "geometry": {"type": "Point", "coordinates": [139.88683500000002, 35.844835]}, "properties": {"id": "PS_BD9B175215FB", "station_group_id": "SG_2BB5DC98BC90", "operator_id": "jr_east", "operator_ids": "jr_east", "name_en": "三郷", "name_ja": "三郷", "label_rank": 72, "tags": ["tokyo", "v3"]}}, {"type": "Feature", "bbox": [139.87837000000002, 35.824484999999996, 139.87837000000002, 35.824484999999996], "geometry": {"type": "Point", "coordinates": [139.87837000000002, 35.824484999999996]}, "properties": {"id": "PS_DEECC31062D7", "station_group_id": "SG_1F7DA217ABCF", "operator_id": "tsukuba_express", "operator_ids": "tsukuba_express", "name_en": "三郷中央", "name_ja": "三郷中央", "label_rank": 72, "tags": ["tokyo", "v3"]}}, {"type": "Feature", "bbox": [139.94307, 35.714285000000004, 139.94307, 35.714285000000004], "geometry": {"type": "Point", "coordinates": [139.94307, 35.714285000000004]}, "properties": {"id": "PS_E9E5B8C5E391", "station_group_id": "SG_FF238CD592F9", "operator_id": "jr_east", "operator_ids": "jr_east", "name_en": "下総中山", "name_ja": "下総中山", "label_rank": 72, "tags": ["tokyo", "v3"]}}, {"type": "Feature", "bbox": [139.959555, 35.69132, 139.959555, 35.69132], "geometry": {"type": "Point", "coordinates": [139.959555, 35.69132]}, "properties": {"id": "PS_F2E6B69D83A4", "station_group_id": "SG_B3D73FC67F85", "operator_id": "jr_east", "operator_ids": "jr_east", "name_en": "二俣新町", "name_ja": "二俣新町", "label_rank": 72, "tags": ["tokyo", "v3"]}}, {"type": "Feature", "bbox": [139.94438, 35.71695, 139.94438, 35.71695], "geometry": {"type": "Point", "coordinates": [139.94438, 35.71695]}, "properties": {"id": "PS_E2A45B94F8A3", "station_group_id": "SG_1B9B8F4CE33E", "operator_id": "keisei", "operator_ids": "keisei", "name_en": "京成中山", "name_ja": "京成中山", "label_rank": 72, "tags": ["tokyo", "v3"]}}, {"type": "Feature", "bbox": [139.92817, 35.72386, 139.92817, 35.72386], "geometry": {"type": "Point", "coordinates": [139.92817, 35.72386]}, "properties": {"id": "PS_8AAF08EB8143", "station_group_id": "SG_94F19604D976", "operator_id": "keisei", "operator_ids": "keisei", "name_en": "京成八幡", "name_ja": "京成八幡", "label_rank": 92, "tags": ["tokyo", "v3"]}}, {"type": "Feature", "bbox": [140.048605, 35.685925, 140.048605, 35.685925], "geometry": {"type": "Point", "coordinates": [140.048605, 35.685925]}, "properties": {"id": "PS_68B52926D006", "station_group_id": "SG_C33F07C12AC3", "operator_id": "keisei", "operator_ids": "keisei", "name_en": "京成大久保", "name_ja": "京成大久保", "label_rank": 72, "tags": ["tokyo", "v3"]}}, {"type": "Feature", "bbox": [140.10863, 35.712360000000004, 140.10863, 35.712360000000004], "geometry": {"type": "Point", "coordinates": [140.10863, 35.712360000000004]}, "properties": {"id": "PS_B951D08B1013", "station_group_id": "SG_C2AA174A563A", "operator_id": "keisei", "operator_ids": "keisei", "name_en": "京成大和田", "name_ja": "京成大和田", "label_rank": 72, "tags": ["tokyo", "v3"]}}, {"type": "Feature", "bbox": [139.883615, 35.742215, 139.883615, 35.742215], "geometry": {"type": "Point", "coordinates": [139.883615, 35.742215]}, "properties": {"id": "PS_764A5638F50E", "station_group_id": "SG_030AA046E865", "operator_id": "keisei", "operator_ids": "keisei", "name_en": "京成小岩", "name_ja": "京成小岩", "label_rank": 72, "tags": ["tokyo", "v3"]}}, {"type": "Feature", "bbox": [140.041675, 35.672920000000005, 140.041675, 35.672920000000005], "geometry": {"type": "Point", "coordinates": [140.041675, 35.672920000000005]}, "properties": {"id": "PS_35A0FF73BD8B", "station_group_id": "SG_A5F79BE528DC", "operator_id": "keisei", "operator_ids": "keisei", "name_en": "京成幕張本郷", "name_ja": "京成幕張本郷", "label_rank": 72, "tags": ["tokyo", "v3"]}}, {"type": "Feature", "bbox": [140.024845, 35.68364, 140.024845, 35.68364], "geometry": {"type": "Point", "coordinates": [140.024845, 35.68364]}, "properties": {"id": "PS_EDFD2DAFCF20", "station_group_id": "SG_608148003478", "operator_id": "keisei", "operator_ids": "keisei", "name_en": "京成津田沼", "name_ja": "京成津田沼", "label_rank": 92, "tags": ["tokyo", "v3"]}}, {"type": "Feature", "bbox": [140.024845, 35.68364, 140.024845, 35.68364], "geometry": {"type": "Point", "coordinates": [140.024845, 35.68364]}, "properties": {"id": "PS_4AC9D192885B", "station_group_id": "SG_608148003478", "operator_id": "keisei", "operator_ids": "keisei", "name_en": "京成津田沼", "name_ja": "京成津田沼", "label_rank": 92, "tags": ["tokyo", "v3"]}}, {"type": "Feature", "bbox": [139.98516999999998, 35.70007, 139.98516999999998, 35.70007], "geometry": {"type": "Point", "coordinates": [139.98516999999998, 35.70007]}, "properties": {"id": "PS_676C54BE6CAC", "station_group_id": "SG_FCC63180E820", "operator_id": "keisei", "operator_ids": "keisei", "name_en": "京成船橋", "name_ja": "京成船橋", "label_rank": 92, "tags": ["tokyo", "v3"]}}, {"type": "Feature", "bbox": [139.958845, 35.711690000000004, 139.958845, 35.711690000000004], "geometry": {"type": "Point", "coordinates": [139.958845, 35.711690000000004]}, "properties": {"id": "PS_C1486D9780E6", "station_group_id": "SG_B1D8D7392320", "operator_id": "keisei", "operator_ids": "keisei", "name_en": "京成西船", "name_ja": "京成西船", "label_rank": 72, "tags": ["tokyo", "v3"]}}, {"type": "Feature", "bbox": [139.87034999999997, 35.76845, 139.87034999999997, 35.76845], "geometry": {"type": "Point", "coordinates": [139.87034999999997, 35.76845]}, "properties": {"id": "PS_86EEFB0640AC", "station_group_id": "SG_659A3925D7AE", "operator_id": "keisei", "operator_ids": "keisei", "name_en": "京成金町", "name_ja": "京成金町", "label_rank": 72, "tags": ["tokyo", "v3"]}}, {"type": "Feature", "bbox": [139.86659, 35.75087, 139.86659, 35.75087], "geometry": {"type": "Point", "coordinates": [139.86659, 35.75087]}, "properties": {"id": "PS_0AC813EB4CC1", "station_group_id": "SG_7E407EF85BE7", "operator_id": "keisei", "operator_ids": "keisei", "name_en": "京成高砂", "name_ja": "京成高砂", "label_rank": 92, "tags": ["tokyo", "v3"]}}, {"type": "Feature", "bbox": [139.86659, 35.75087, 139.86659, 35.75087], "geometry": {"type": "Point", "coordinates": [139.86659, 35.75087]}, "properties": {"id": "PS_4C950183A5E4", "station_group_id": "SG_7E407EF85BE7", "operator_id": "keisei", "operator_ids": "keisei", "name_en": "京成高砂", "name_ja": "京成高砂", "label_rank": 92, "tags": ["tokyo", "v3"]}}, {"type": "Feature", "bbox": [139.86659, 35.75087, 139.86659, 35.75087], "geometry": {"type": "Point", "coordinates": [139.86659, 35.75087]}, "properties": {"id": "PS_A68971C7D582", "station_group_id": "SG_7E407EF85BE7", "operator_id": "keisei", "operator_ids": "keisei", "name_en": "京成高砂", "name_ja": "京成高砂", "label_rank": 92, "tags": ["tokyo", "v3"]}}, {"type": "Feature", "bbox": [140.103305, 35.727875, 140.103305, 35.727875], "geometry": {"type": "Point", "coordinates": [140.103305, 35.727875]}, "properties": {"id": "PS_C532EA657AB0", "station_group_id": "SG_9CF10C4D7178", "operator_id": "東葉高速鉄道", "operator_ids": "東葉高速鉄道", "name_en": "八千代中央", "name_ja": "八千代中央", "label_rank": 72, "tags": ["tokyo", "v3"]}}, {"type": "Feature", "bbox": [140.09077000000002, 35.701355, 140.09077000000002, 35.701355], "geometry": {"type": "Point", "coordinates": [140.09077000000002, 35.701355]}, "properties": {"id": "PS_C998CBFB820C", "station_group_id": "SG_4A5CE80C3519", "operator_id": "keisei", "operator_ids": "keisei", "name_en": "八千代台", "name_ja": "八千代台", "label_rank": 72, "tags": ["tokyo", "v3"]}}, {"type": "Feature", "bbox": [140.073205, 35.728939999999994, 140.073205, 35.728939999999994], "geometry": {"type": "Point", "coordinates": [140.073205, 35.728939999999994]}, "properties": {"id": "PS_A791E80B7D83", "station_group_id": "SG_54CEA92C26E7", "operator_id": "東葉高速鉄道", "operator_ids": "東葉高速鉄道", "name_en": "八千代緑が丘", "name_ja": "八千代緑が丘", "label_rank": 72, "tags": ["tokyo", "v3"]}}, {"type": "Feature", "bbox": [139.99924499999997, 35.793705, 139.99924499999997, 35.793705], "geometry": {"type": "Point", "coordinates": [139.99924499999997, 35.793705]}, "properties": {"id": "PS_689566248F21", "station_group_id": "SG_164E79355DAB", "operator_id": "tobu", "operator_ids": "tobu", "name_en": "六実", "name_ja": "六実", "label_rank": 72, "tags": ["tokyo", "v3"]}}, {"type": "Feature", "bbox": [139.91791, 35.883840000000006, 139.91791, 35.883840000000006], "geometry": {"type": "Point", "coordinates": [139.91791, 35.883840000000006]}, "properties": {"id": "PS_986685235231", "station_group_id": "SG_6BF25DFDBA34", "operator_id": "tobu", "operator_ids": "tobu", "name_en": "初石", "name_ja": "初石", "label_rank": 72, "tags": ["tokyo", "v3"]}}, {"type": "Feature", "bbox": [140.12604499999998, 35.71539, 140.12604499999998, 35.71539], "geometry": {"type": "Point", "coordinates": [140.12604499999998, 35.71539]}, "properties": {"id": "PS_D348F8BB3A79", "station_group_id": "SG_76228CDCDFD4", "operator_id": "keisei", "operator_ids": "keisei", "name_en": "勝田台", "name_ja": "勝田台", "label_rank": 72, "tags": ["tokyo", "v3"]}}, {"type": "Feature", "bbox": [139.93075, 35.833169999999996, 139.93075, 35.833169999999996], "geometry": {"type": "Point", "coordinates": [139.93075, 35.833169999999996]}, "properties": {"id": "PS_47C4FE56CCBD", "station_group_id": "SG_121146D919B1", "operator_id": "jr_east", "operator_ids": "jr_east", "name_en": "北小金", "name_ja": "北小金", "label_rank": 72, "tags": ["tokyo", "v3"]}}, {"type": "Feature", "bbox": [139.91162500000002, 35.800365, 139.91162500000002, 35.800365], "geometry": {"type": "Point", "coordinates": [139.91162500000002, 35.800365]}, "properties": {"id": "PS_EFAF2DC65207", "station_group_id": "SG_1D65D994DA3E", "operator_id": "jr_east", "operator_ids": "jr_east", "name_en": "北松戸", "name_ja": "北松戸", "label_rank": 72, "tags": ["tokyo", "v3"]}}, {"type": "Feature", "bbox": [139.98804, 35.875659999999996, 139.98804, 35.875659999999996], "geometry": {"type": "Point", "coordinates": [139.98804, 35.875659999999996]}, "properties": {"id": "PS_28AE7F9C21F7", "station_group_id": "SG_2B6855D692D0", "operator_id": "jr_east", "operator_ids": "jr_east", "name_en": "北柏", "name_ja": "北柏", "label_rank": 72, "tags": ["tokyo", "v3"]}}, {"type": "Feature", "bbox": [140.042175, 35.721325, 140.042175, 35.721325], "geometry": {"type": "Point", "coordinates": [140.042175, 35.721325]}, "properties": {"id": "PS_9AEE717B5E94", "station_group_id": "SG_3A0BA7504B82", "operator_id": "新京成電鉄", "operator_ids": "新京成電鉄", "name_en": "北習志野", "name_ja": "北習志野", "label_rank": 72, "tags": ["tokyo", "v3"]}}, {"type": "Feature", "bbox": [140.042464, 35.72169, 140.042464, 35.72169], "geometry": {"type": "Point", "coordinates": [140.042464, 35.72169]}, "properties": {"id": "PS_AD99ACA198A6", "station_group_id": "SG_3A0BA7504B82", "operator_id": "東葉高速鉄道", "operator_ids": "東葉高速鉄道", "name_en": "北習志野", "name_ja": "北習志野", "label_rank": 72, "tags": ["tokyo", "v3"]}}, {"type": "Feature", "bbox": [140.1162, 35.800200000000004, 140.1162, 35.800200000000004], "geometry": {"type": "Point", "coordinates": [140.1162, 35.800200000000004]}, "properties": {"id": "PS_D0BD8F8C3999", "station_group_id": "SG_49BD6B69DEC5", "operator_id": "keisei", "operator_ids": "keisei", "name_en": "千葉ニュータウン中央", "name_ja": "千葉ニュータウン中央", "label_rank": 72, "tags": ["tokyo", "v3"]}}, {"type": "Feature", "bbox": [139.95427999999998, 35.844695, 139.95427999999998, 35.844695], "geometry": {"type": "Point", "coordinates": [139.95427999999998, 35.844695]}, "properties": {"id": "PS_2B773092EEB5", "station_group_id": "SG_0CC95D9004CB", "operator_id": "jr_east", "operator_ids": "jr_east", "name_en": "南柏", "name_ja": "南柏", "label_rank": 72, "tags": ["tokyo", "v3"]}}, {"type": "Feature", "bbox": [139.902795, 35.83843, 139.902795, 35.83843], "geometry": {"type": "Point", "coordinates": [139.902795, 35.83843]}, "properties": {"id": "PS_62F71D4E5776", "station_group_id": "SG_2848B78B106B", "operator_id": "tsukuba_express", "operator_ids": "tsukuba_express", "name_en": "南流山", "name_ja": "南流山", "label_rank": 72, "tags": ["tokyo", "v3"]}}, {"type": "Feature", "bbox": [139.90422999999998, 35.837845, 139.90422999999998, 35.837845], "geometry": {"type": "Point", "coordinates": [139.90422999999998, 35.837845]}, "properties": {"id": "PS_2FFD5CDB3F43", "station_group_id": "SG_2848B78B106B", "operator_id": "jr_east", "operator_ids": "jr_east", "name_en": "南流山", "name_ja": "南流山", "label_rank": 72, "tags": ["tokyo", "v3"]}}, {"type": "Feature", "bbox": [139.9957, 35.681665, 139.9957, 35.681665], "geometry": {"type": "Point", "coordinates": [139.9957, 35.681665]}, "properties": {"id": "PS_457A4C8AC5CB", "station_group_id": "SG_4861A3C1D739", "operator_id": "jr_east", "operator_ids": "jr_east", "name_en": "南船橋", "name_ja": "南船橋", "label_rank": 72, "tags": ["tokyo", "v3"]}}, {"type": "Feature", "bbox": [139.902275, 35.67273, 139.902275, 35.67273], "geometry": {"type": "Point", "coordinates": [139.902275, 35.67273]}, "properties": {"id": "PS_16A63367CCEC", "station_group_id": "SG_70A5200FD7CB", "operator_id": "tokyo_metro", "operator_ids": "tokyo_metro", "name_en": "南行徳", "name_ja": "南行徳", "label_rank": 72, "tags": ["tokyo", "v3"]}}, {"type": "Feature", "bbox": [139.941915, 35.7033, 139.941915, 35.7033], "geometry": {"type": "Point", "coordinates": [139.941915, 35.7033]}, "properties": {"id": "PS_40AD45499B9D", "station_group_id": "SG_A97F9A6987C8", "operator_id": "tokyo_metro", "operator_ids": "tokyo_metro", "name_en": "原木中山", "name_ja": "原木中山", "label_rank": 72, "tags": ["tokyo", "v3"]}}, {"type": "Feature", "bbox": [140.062985, 35.89582, 140.062985, 35.89582], "geometry": {"type": "Point", "coordinates": [140.062985, 35.89582]}, "properties": {"id": "PS_DDA8C51B2289", "station_group_id": "SG_6F49FC61EEAC", "operator_id": "jr_east", "operator_ids": "jr_east", "name_en": "取手", "name_ja": "取手", "label_rank": 72, "tags": ["tokyo", "v3"]}}, {"type": "Feature", "bbox": [140.06272, 35.89487, 140.06272, 35.89487], "geometry": {"type": "Point", "coordinates": [140.06272, 35.89487]}, "properties": {"id": "PS_79D4809507AF", "station_group_id": "SG_6F49FC61EEAC", "operator_id": "jr_east", "operator_ids": "jr_east", "name_en": "取手", "name_ja": "取手", "label_rank": 72, "tags": ["tokyo", "v3"]}}, {"type": "Feature", "bbox": [139.85812149999998, 35.868087, 139.85812149999998, 35.868087], "geometry": {"type": "Point", "coordinates": [139.85812149999998, 35.868087]}, "properties": {"id": "PS_054E20B805F6", "station_group_id": "SG_3CB920FBDD8E", "operator_id": "jr_east", "operator_ids": "jr_east", "name_en": "吉川美南", "name_ja": "吉川美南", "label_rank": 72, "tags": ["tokyo", "v3"]}}, {"type": "Feature", "bbox": [139.90354, 35.73631, 139.90354, 35.73631], "geometry": {"type": "Point", "coordinates": [139.90354, 35.73631]}, "properties": {"id": "PS_A9EEE3B64D54", "station_group_id": "SG_32F881DF2143", "operator_id": "keisei", "operator_ids": "keisei", "name_en": "国府台", "name_ja": "国府台", "label_rank": 72, "tags": ["tokyo", "v3"]}}, {"type": "Feature", "bbox": [139.98290500000002, 35.722125, 139.98290500000002, 35.722125], "geometry": {"type": "Point", "coordinates": [139.98290500000002, 35.722125]}, "properties": {"id": "PS_00B37F1AA357", "station_group_id": "SG_2D48EACA9184", "operator_id": "tobu", "operator_ids": "tobu", "name_en": "塚田", "name_ja": "塚田", "label_rank": 72, "tags": ["tokyo", "v3"]}}, {"type": "Feature", "bbox": [139.97632499999997, 35.82982, 139.97632499999997, 35.82982], "geometry": {"type": "Point", "coordinates": [139.97632499999997, 35.82982]}, "properties": {"id": "PS_12690FE12C7D", "station_group_id": "SG_FFF3E9DEC1A5", "operator_id": "tobu", "operator_ids": "tobu", "name_en": "増尾", "name_ja": "増尾", "label_rank": 72, "tags": ["tokyo", "v3"]}}, {"type": "Feature", "bbox": [139.99137, 35.69397, 139.99137, 35.69397], "geometry": {"type": "Point", "coordinates": [139.99137, 35.69397]}, "properties": {"id": "PS_24ECCA512DAD", "station_group_id": "SG_D35032F19C55", "operator_id": "keisei", "operator_ids": "keisei", "name_en": "大神宮下", "name_ja": "大神宮下", "label_rank": 72, "tags": ["tokyo", "v3"]}}, {"type": "Feature", "bbox": [140.04232, 35.87247, 140.04232, 35.87247], "geometry": {"type": "Point", "coordinates": [140.04232, 35.87247]}, "properties": {"id": "PS_303394035F01", "station_group_id": "SG_C5262B2E7874", "operator_id": "jr_east", "operator_ids": "jr_east", "name_en": "天王台", "name_ja": "天王台", "label_rank": 72, "tags": ["tokyo", "v3"]}}, {"type": "Feature", "bbox": [139.92428999999998, 35.69101, 139.92428999999998, 35.69101], "geometry": {"type": "Point", "coordinates": [139.92428999999998, 35.69101]}, "properties": {"id": "PS_9A168DB89398", "station_group_id": "SG_4189B3BC87F6", "operator_id": "tokyo_metro", "operator_ids": "tokyo_metro", "name_en": "妙典", "name_ja": "妙典", "label_rank": 72, "tags": ["tokyo", "v3"]}}, {"type": "Feature", "bbox": [140.06808, 35.68685, 140.06808, 35.68685], "geometry": {"type": "Point", "coordinates": [140.06808, 35.68685]}, "properties": {"id": "PS_2DB1D49BB099", "station_group_id": "SG_023B4E624DFA", "operator_id": "keisei", "operator_ids": "keisei", "name_en": "実籾", "name_ja": "実籾", "label_rank": 72, "tags": ["tokyo", "v3"]}}, {"type": "Feature", "bbox": [139.88185, 35.733329999999995, 139.88185, 35.733329999999995], "geometry": {"type": "Point", "coordinates": [139.88185, 35.733329999999995]}, "properties": {"id": "PS_50FEBD777345", "station_group_id": "SG_2C792C4F2E94", "operator_id": "jr_east", "operator_ids": "jr_east", "name_en": "小岩", "name_ja": "小岩", "label_rank": 72, "tags": ["tokyo", "v3"]}}, {"type": "Feature", "bbox": [139.90816999999998, 35.72887, 139.90816999999998, 35.72887], "geometry": {"type": "Point", "coordinates": [139.90816999999998, 35.72887]}, "properties": {"id": "PS_7EEC4A90EB2D", "station_group_id": "SG_BA0FD1104BA6", "operator_id": "jr_east", "operator_ids": "jr_east", "name_en": "市川", "name_ja": "市川", "label_rank": 92, "tags": ["tokyo", "v3"]}}, {"type": "Feature", "bbox": [139.95128, 35.755405, 139.95128, 35.755405], "geometry": {"type": "Point", "coordinates": [139.95128, 35.755405]}, "properties": {"id": "PS_D547D671B11F", "station_group_id": "SG_EC7ACC31F4C6", "operator_id": "jr_east", "operator_ids": "jr_east", "name_en": "市川大野", "name_ja": "市川大野", "label_rank": 72, "tags": ["tokyo", "v3"]}}, {"type": "Feature", "bbox": [139.91178, 35.731285, 139.91178, 35.731285], "geometry": {"type": "Point", "coordinates": [139.91178, 35.731285]}, "properties": {"id": "PS_ABA12A52EAB0", "station_group_id": "SG_583A1CEDCEFB", "operator_id": "keisei", "operator_ids": "keisei", "name_en": "市川真間", "name_ja": "市川真間", "label_rank": 72, "tags": ["tokyo", "v3"]}}, {"type": "Feature", "bbox": [140.132975, 35.84935, 140.132975, 35.84935], "geometry": {"type": "Point", "coordinates": [140.132975, 35.84935]}, "properties": {"id": "PS_CBACF8146A0E", "station_group_id": "SG_C3ADD0B4D594", "operator_id": "jr_east", "operator_ids": "jr_east", "name_en": "布佐", "name_ja": "布佐", "label_rank": 72, "tags": ["tokyo", "v3"]}}, {"type": "Feature", "bbox": [140.042075, 35.672905, 140.042075, 35.672905], "geometry": {"type": "Point", "coordinates": [140.042075, 35.672905]}, "properties": {"id": "PS_6B7E430427A3", "station_group_id": "SG_3C6292E79D6C", "operator_id": "jr_east", "operator_ids": "jr_east", "name_en": "幕張本郷", "name_ja": "幕張本郷", "label_rank": 72, "tags": ["tokyo", "v3"]}}, {"type": "Feature", "bbox": [140.010425, 35.872805, 140.010425, 35.872805], "geometry": {"type": "Point", "coordinates": [140.010425, 35.872805]}, "properties": {"id": "PS_0949433B65DF", "station_group_id": "SG_89CB3D34B1BC", "operator_id": "jr_east", "operator_ids": "jr_east", "name_en": "我孫子", "name_ja": "我孫子", "label_rank": 92, "tags": ["tokyo", "v3"]}}, {"type": "Feature", "bbox": [140.010425, 35.872805, 140.010425, 35.872805], "geometry": {"type": "Point", "coordinates": [140.010425, 35.872805]}, "properties": {"id": "PS_F446E6786171", "station_group_id": "SG_89CB3D34B1BC", "operator_id": "jr_east", "operator_ids": "jr_east", "name_en": "我孫子", "name_ja": "我孫子", "label_rank": 92, "tags": ["tokyo", "v3"]}}, {"type": "Feature", "bbox": [139.86953499999998, 35.85839, 139.86953499999998, 35.85839], "geometry": {"type": "Point", "coordinates": [139.86953499999998, 35.85839]}, "properties": {"id": "PS_371A3FCF1AD7", "station_group_id": "SG_E40D13AC4CA5", "operator_id": "jr_east", "operator_ids": "jr_east", "name_en": "新三郷", "name_ja": "新三郷", "label_rank": 72, "tags": ["tokyo", "v3"]}}, {"type": "Feature", "bbox": [139.938555, 35.791290000000004, 139.938555, 35.791290000000004], "geometry": {"type": "Point", "coordinates": [139.938555, 35.791290000000004]}, "properties": {"id": "PS_D8EEB4719710", "station_group_id": "SG_C20BF3FE8B30", "operator_id": "jr_east", "operator_ids": "jr_east", "name_en": "新八柱", "name_ja": "新八柱", "label_rank": 72, "tags": ["tokyo", "v3"]}}, {"type": "Feature", "bbox": [139.85764999999998, 35.716785, 139.85764999999998, 35.716785], "geometry": {"type": "Point", "coordinates": [139.85764999999998, 35.716785]}, "properties": {"id": "PS_18627DB8BFA0", "station_group_id": "SG_539F4C4B61C4", "operator_id": "jr_east", "operator_ids": "jr_east", "name_en": "新小岩", "name_ja": "新小岩", "label_rank": 92, "tags": ["tokyo", "v3"]}}, {"type": "Feature", "bbox": [140.10705000000002, 35.862399999999994, 140.10705000000002, 35.862399999999994], "geometry": {"type": "Point", "coordinates": [140.10705000000002, 35.862399999999994]}, "properties": {"id": "PS_E1A7B0090432", "station_group_id": "SG_07DC7354ACDC", "operator_id": "jr_east", "operator_ids": "jr_east", "name_en": "新木", "name_ja": "新木", "label_rank": 72, "tags": ["tokyo", "v3"]}}, {"type": "Feature", "bbox": [139.9212, 35.825410000000005, 139.9212, 35.825410000000005], "geometry": {"type": "Point", "coordinates": [139.9212, 35.825410000000005]}, "properties": {"id": "PS_60DC1A984414", "station_group_id": "SG_B8CE2B5EC416", "operator_id": "jr_east", "operator_ids": "jr_east", "name_en": "新松戸", "name_ja": "新松戸", "label_rank": 92, "tags": ["tokyo", "v3"]}}, {"type": "Feature", "bbox": [139.920985, 35.825555, 139.920985, 35.825555], "geometry": {"type": "Point", "coordinates": [139.920985, 35.825555]}, "properties": {"id": "PS_F694C3874577", "station_group_id": "SG_B8CE2B5EC416", "operator_id": "jr_east", "operator_ids": "jr_east", "name_en": "新松戸", "name_ja": "新松戸", "label_rank": 92, "tags": ["tokyo", "v3"]}}, {"type": "Feature", "bbox": [139.96704, 35.8381, 139.96704, 35.8381], "geometry": {"type": "Point", "coordinates": [139.96704, 35.8381]}, "properties": {"id": "PS_A1EA7C9DE864", "station_group_id": "SG_52D947820F59", "operator_id": "tobu", "operator_ids": "tobu", "name_en": "新柏", "name_ja": "新柏", "label_rank": 72, "tags": ["tokyo", "v3"]}}, {"type": "Feature", "bbox": [139.97982, 35.711565, 139.97982, 35.711565], "geometry": {"type": "Point", "coordinates": [139.97982, 35.711565]}, "properties": {"id": "PS_4A623F39B0E9", "station_group_id": "SG_433E6473DAB3", "operator_id": "tobu", "operator_ids": "tobu", "name_en": "新船橋", "name_ja": "新船橋", "label_rank": 72, "tags": ["tokyo", "v3"]}}, {"type": "Feature", "bbox": [139.99947500000002, 35.78078, 139.99947500000002, 35.78078], "geometry": {"type": "Point", "coordinates": [139.99947500000002, 35.78078]}, "properties": {"id": "PS_502F85DD70C3", "station_group_id": "SG_49A36ABC43DB", "operator_id": "tobu", "operator_ids": "tobu", "name_en": "新鎌ヶ谷", "name_ja": "新鎌ヶ谷", "label_rank": 92, "tags": ["tokyo", "v3"]}}, {"type": "Feature", "bbox": [139.998355, 35.779610000000005, 139.998355, 35.779610000000005], "geometry": {"type": "Point", "coordinates": [139.998355, 35.779610000000005]}, "properties": {"id": "PS_6E48C12ADE29", "station_group_id": "SG_49A36ABC43DB", "operator_id": "keisei", "operator_ids": "keisei", "name_en": "新鎌ヶ谷", "name_ja": "新鎌ヶ谷", "label_rank": 92, "tags": ["tokyo", "v3"]}}, {"type": "Feature", "bbox": [139.92687999999998, 35.723349999999996, 139.92687999999998, 35.723349999999996], "geometry": {"type": "Point", "coordinates": [139.92687999999998, 35.723349999999996]}, "properties": {"id": "PS_E4A725700D91", "station_group_id": "SG_BD835C1C9122", "operator_id": "toei", "operator_ids": "toei", "name_en": "本八幡", "name_ja": "本八幡", "label_rank": 92, "tags": ["tokyo", "v3"]}}, {"type": "Feature", "bbox": [139.92740500000002, 35.72085, 139.92740500000002, 35.72085], "geometry": {"type": "Point", "coordinates": [139.92740500000002, 35.72085]}, "properties": {"id": "PS_A5C2CB690DF3", "station_group_id": "SG_BD835C1C9122", "operator_id": "jr_east", "operator_ids": "jr_east", "name_en": "本八幡", "name_ja": "本八幡", "label_rank": 92, "tags": ["tokyo", "v3"]}}, {"type": "Feature", "bbox": [140.118635, 35.723780000000005, 140.118635, 35.723780000000005], "geometry": {"type": "Point", "coordinates": [140.118635, 35.723780000000005]}, "properties": {"id": "PS_6EEC6E739BF4", "station_group_id": "SG_CE4F5FC20BF8", "operator_id": "東葉高速鉄道", "operator_ids": "東葉高速鉄道", "name_en": "村上", "name_ja": "村上", "label_rank": 72, "tags": ["tokyo", "v3"]}}, {"type": "Feature", "bbox": [139.952635, 35.714420000000004, 139.952635, 35.714420000000004], "geometry": {"type": "Point", "coordinates": [139.952635, 35.714420000000004]}, "properties": {"id": "PS_B895B3E865F8", "station_group_id": "SG_BB75FD29B55B", "operator_id": "keisei", "operator_ids": "keisei", "name_en": "東中山", "name_ja": "東中山", "label_rank": 72, "tags": ["tokyo", "v3"]}}, {"type": "Feature", "bbox": [140.047605, 35.86898, 140.047605, 35.86898], "geometry": {"type": "Point", "coordinates": [140.047605, 35.86898]}, "properties": {"id": "PS_AF75926C51A5", "station_group_id": "SG_6004323C93C2", "operator_id": "jr_east", "operator_ids": "jr_east", "name_en": "東我孫子", "name_ja": "東我孫子", "label_rank": 72, "tags": ["tokyo", "v3"]}}, {"type": "Feature", "bbox": [139.94386, 35.77049, 139.94386, 35.77049], "geometry": {"type": "Point", "coordinates": [139.94386, 35.77049]}, "properties": {"id": "PS_54F25C6A2118", "station_group_id": "SG_2AC4A240DADC", "operator_id": "jr_east", "operator_ids": "jr_east", "name_en": "東松戸", "name_ja": "東松戸", "label_rank": 92, "tags": ["tokyo", "v3"]}}, {"type": "Feature", "bbox": [139.94302, 35.76995, 139.94302, 35.76995], "geometry": {"type": "Point", "coordinates": [139.94302, 35.76995]}, "properties": {"id": "PS_846FED6B6E5F", "station_group_id": "SG_2AC4A240DADC", "operator_id": "keisei", "operator_ids": "keisei", "name_en": "東松戸", "name_ja": "東松戸", "label_rank": 92, "tags": ["tokyo", "v3"]}}, {"type": "Feature", "bbox": [139.98055499999998, 35.705960000000005, 139.98055499999998, 35.705960000000005], "geometry": {"type": "Point", "coordinates": [139.98055499999998, 35.705960000000005]}, "properties": {"id": "PS_74F42579E9B3", "station_group_id": "SG_19034000CA27", "operator_id": "東葉高速鉄道", "operator_ids": "東葉高速鉄道", "name_en": "東海神", "name_ja": "東海神", "label_rank": 72, "tags": ["tokyo", "v3"]}}, {"type": "Feature", "bbox": [140.00407, 35.69983, 140.00407, 35.69983], "geometry": {"type": "Point", "coordinates": [140.00407, 35.69983]}, "properties": {"id": "PS_39849389004F", "station_group_id": "SG_7050B0457863", "operator_id": "jr_east", "operator_ids": "jr_east", "name_en": "東船橋", "name_ja": "東船橋", "label_rank": 72, "tags": ["tokyo", "v3"]}}, {"type": "Feature", "bbox": [140.12584333333334, 35.71641333333333, 140.12584333333334, 35.71641333333333], "geometry": {"type": "Point", "coordinates": [140.12584333333334, 35.71641333333333]}, "properties": {"id": "PS_D5CBCBCCF968", "station_group_id": "SG_F984FA42EFB2", "operator_id": "東葉高速鉄道", "operator_ids": "東葉高速鉄道", "name_en": "東葉勝田台", "name_ja": "東葉勝田台", "label_rank": 72, "tags": ["tokyo", "v3"]}}, {"type": "Feature", "bbox": [139.90076, 35.784615, 139.90076, 35.784615], "geometry": {"type": "Point", "coordinates": [139.90076, 35.784615]}, "properties": {"id": "PS_41BCC1B11BD5", "station_group_id": "SG_CFC22891315A", "operator_id": "jr_east", "operator_ids": "jr_east", "name_en": "松戸", "name_ja": "松戸", "label_rank": 72, "tags": ["tokyo", "v3"]}}, {"type": "Feature", "bbox": [139.970955, 35.8621, 139.970955, 35.8621], "geometry": {"type": "Point", "coordinates": [139.970955, 35.8621]}, "properties": {"id": "PS_F22F1CB6A63C", "station_group_id": "SG_7366E2ED9D64", "operator_id": "jr_east", "operator_ids": "jr_east", "name_en": "柏", "name_ja": "柏", "label_rank": 92, "tags": ["tokyo", "v3"]}}, {"type": "Feature", "bbox": [139.970465, 35.861985, 139.970465, 35.861985], "geometry": {"type": "Point", "coordinates": [139.970465, 35.861985]}, "properties": {"id": "PS_5662C94379D0", "station_group_id": "SG_7366E2ED9D64", "operator_id": "tobu", "operator_ids": "tobu", "name_en": "柏", "name_ja": "柏", "label_rank": 92, "tags": ["tokyo", "v3"]}}, {"type": "Feature", "bbox": [139.957515, 35.91086, 139.957515, 35.91086], "geometry": {"type": "Point", "coordinates": [139.957515, 35.91086]}, "properties": {"id": "PS_92697A5D88F2", "station_group_id": "SG_176F93F874E1", "operator_id": "tsukuba_express", "operator_ids": "tsukuba_express", "name_en": "柏たなか", "name_ja": "柏たなか", "label_rank": 72, "tags": ["tokyo", "v3"]}}, {"type": "Feature", "bbox": [139.952525, 35.893315, 139.952525, 35.893315], "geometry": {"type": "Point", "coordinates": [139.952525, 35.893315]}, "properties": {"id": "PS_74EC75053272", "station_group_id": "SG_42C4EFCE498A", "operator_id": "tsukuba_express", "operator_ids": "tsukuba_express", "name_en": "柏の葉キャンパス", "name_ja": "柏の葉キャンパス", "label_rank": 72, "tags": ["tokyo", "v3"]}}, {"type": "Feature", "bbox": [139.875275, 35.756434999999996, 139.875275, 35.756434999999996], "geometry": {"type": "Point", "coordinates": [139.875275, 35.756434999999996]}, "properties": {"id": "PS_291F5BB33CFB", "station_group_id": "SG_364F3943B054", "operator_id": "keisei", "operator_ids": "keisei", "name_en": "柴又", "name_ja": "柴又", "label_rank": 72, "tags": ["tokyo", "v3"]}}, {"type": "Feature", "bbox": [139.89576, 35.737855, 139.89576, 35.737855], "geometry": {"type": "Point", "coordinates": [139.89576, 35.737855]}, "properties": {"id": "PS_EC39D1E2F222", "station_group_id": "SG_0D7FD732EB14", "operator_id": "keisei", "operator_ids": "keisei", "name_en": "江戸川", "name_ja": "江戸川", "label_rank": 72, "tags": ["tokyo", "v3"]}}, {"type": "Feature", "bbox": [139.91053, 35.89723, 139.91053, 35.89723], "geometry": {"type": "Point", "coordinates": [139.91053, 35.89723]}, "properties": {"id": "PS_2CF50CF5AC99", "station_group_id": "SG_640723909D9B", "operator_id": "tobu", "operator_ids": "tobu", "name_en": "江戸川台", "name_ja": "江戸川台", "label_rank": 72, "tags": ["tokyo", "v3"]}}, {"type": "Feature", "bbox": [140.02022, 35.69137, 140.02022, 35.69137], "geometry": {"type": "Point", "coordinates": [140.02022, 35.69137]}, "properties": {"id": "PS_73FE54E30319", "station_group_id": "SG_C29ABBDCCED6", "operator_id": "jr_east", "operator_ids": "jr_east", "name_en": "津田沼", "name_ja": "津田沼", "label_rank": 92, "tags": ["tokyo", "v3"]}}, {"type": "Feature", "bbox": [139.924955, 35.871755, 139.924955, 35.871755], "geometry": {"type": "Point", "coordinates": [139.924955, 35.871755]}, "properties": {"id": "PS_8FCFF3954C0C", "station_group_id": "SG_95703D4FE830", "operator_id": "tsukuba_express", "operator_ids": "tsukuba_express", "name_en": "流山おおたかの森", "name_ja": "流山おおたかの森", "label_rank": 92, "tags": ["tokyo", "v3"]}}, {"type": "Feature", "bbox": [139.92576000000003, 35.872085, 139.92576000000003, 35.872085], "geometry": {"type": "Point", "coordinates": [139.92576000000003, 35.872085]}, "properties": {"id": "PS_8C2CF6A447DA", "station_group_id": "SG_95703D4FE830", "operator_id": "tobu", "operator_ids": "tobu", "name_en": "流山おおたかの森", "name_ja": "流山おおたかの森", "label_rank": 92, "tags": ["tokyo", "v3"]}}, {"type": "Feature", "bbox": [139.91518, 35.85459, 139.91518, 35.85459], "geometry": {"type": "Point", "coordinates": [139.91518, 35.85459]}, "properties": {"id": "PS_2365D713934C", "station_group_id": "SG_31101FEB587B", "operator_id": "tsukuba_express", "operator_ids": "tsukuba_express", "name_en": "流山セントラルパーク", "name_ja": "流山セントラルパーク", "label_rank": 72, "tags": ["tokyo", "v3"]}}, {"type": "Feature", "bbox": [139.971785, 35.70592499999999, 139.971785, 35.70592499999999], "geometry": {"type": "Point", "coordinates": [139.971785, 35.70592499999999]}, "properties": {"id": "PS_ADAB9414958E", "station_group_id": "SG_703FB6815046", "operator_id": "keisei", "operator_ids": "keisei", "name_en": "海神", "name_ja": "海神", "label_rank": 72, "tags": ["tokyo", "v3"]}}, {"type": "Feature", "bbox": [140.077945, 35.867194999999995, 140.077945, 35.867194999999995], "geometry": {"type": "Point", "coordinates": [140.077945, 35.867194999999995]}, "properties": {"id": "PS_EDD1E923EFF9", "station_group_id": "SG_03A9E1483EAE", "operator_id": "jr_east", "operator_ids": "jr_east", "name_en": "湖北", "name_ja": "湖北", "label_rank": 72, "tags": ["tokyo", "v3"]}}, {"type": "Feature", "bbox": [139.89781, 35.69339, 139.89781, 35.69339], "geometry": {"type": "Point", "coordinates": [139.89781, 35.69339]}, "properties": {"id": "PS_2EFAE4F55216", "station_group_id": "SG_969E40AA4593", "operator_id": "toei", "operator_ids": "toei", "name_en": "瑞江", "name_ja": "瑞江", "label_rank": 72, "tags": ["tokyo", "v3"]}}, {"type": "Feature", "bbox": [139.903885, 35.70612, 139.903885, 35.70612], "geometry": {"type": "Point", "coordinates": [139.903885, 35.70612]}, "properties": {"id": "PS_9E8B90B0737C", "station_group_id": "SG_4568EABF77A2", "operator_id": "toei", "operator_ids": "toei", "name_en": "篠崎", "name_ja": "篠崎", "label_rank": 72, "tags": ["tokyo", "v3"]}}, {"type": "Feature", "bbox": [139.863855, 35.683785, 139.863855, 35.683785], "geometry": {"type": "Point", "coordinates": [139.863855, 35.683785]}, "properties": {"id": "PS_E77B128DEDE0", "station_group_id": "SG_C320FEAF39F3", "operator_id": "toei", "operator_ids": "toei", "name_en": "船堀", "name_ja": "船堀", "label_rank": 72, "tags": ["tokyo", "v3"]}}, {"type": "Feature", "bbox": [139.98467499999998, 35.701735, 139.98467499999998, 35.701735], "geometry": {"type": "Point", "coordinates": [139.98467499999998, 35.701735]}, "properties": {"id": "PS_1E7A72D458CF", "station_group_id": "SG_E9E953F08D20", "operator_id": "jr_east", "operator_ids": "jr_east", "name_en": "船橋", "name_ja": "船橋", "label_rank": 92, "tags": ["tokyo", "v3"]}}, {"type": "Feature", "bbox": [139.98436500000003, 35.7021, 139.98436500000003, 35.7021], "geometry": {"type": "Point", "coordinates": [139.98436500000003, 35.7021]}, "properties": {"id": "PS_1CD00EB47648", "station_group_id": "SG_E9E953F08D20", "operator_id": "tobu", "operator_ids": "tobu", "name_en": "船橋", "name_ja": "船橋", "label_rank": 92, "tags": ["tokyo", "v3"]}}, {"type": "Feature", "bbox": [140.060075, 35.727244999999996, 140.060075, 35.727244999999996], "geometry": {"type": "Point", "coordinates": [140.060075, 35.727244999999996]}, "properties": {"id": "PS_3455CE0961D1", "station_group_id": "SG_F430C27F3C20", "operator_id": "東葉高速鉄道", "operator_ids": "東葉高速鉄道", "name_en": "船橋日大前", "name_ja": "船橋日大前", "label_rank": 72, "tags": ["tokyo", "v3"]}}, {"type": "Feature", "bbox": [139.96670999999998, 35.73046, 139.96670999999998, 35.73046], "geometry": {"type": "Point", "coordinates": [139.96670999999998, 35.73046]}, "properties": {"id": "PS_2F8781136098", "station_group_id": "SG_3DD2256BAAF7", "operator_id": "jr_east", "operator_ids": "jr_east", "name_en": "船橋法典", "name_ja": "船橋法典", "label_rank": 72, "tags": ["tokyo", "v3"]}}, {"type": "Feature", "bbox": [139.998085, 35.689605, 139.998085, 35.689605], "geometry": {"type": "Point", "coordinates": [139.998085, 35.689605]}, "properties": {"id": "PS_CB8F33023DA7", "station_group_id": "SG_D8586881D5CD", "operator_id": "keisei", "operator_ids": "keisei", "name_en": "船橋競馬場", "name_ja": "船橋競馬場", "label_rank": 72, "tags": ["tokyo", "v3"]}}, {"type": "Feature", "bbox": [139.919395, 35.728275, 139.919395, 35.728275], "geometry": {"type": "Point", "coordinates": [139.919395, 35.728275]}, "properties": {"id": "PS_19079AFB4FDD", "station_group_id": "SG_E26E1C7532D5", "operator_id": "keisei", "operator_ids": "keisei", "name_en": "菅野", "name_ja": "菅野", "label_rank": 72, "tags": ["tokyo", "v3"]}}, {"type": "Feature", "bbox": [140.11815, 35.920555, 140.11815, 35.920555], "geometry": {"type": "Point", "coordinates": [140.11815, 35.920555]}, "properties": {"id": "PS_E17447406239", "station_group_id": "SG_36DBB6E2F55B", "operator_id": "jr_east", "operator_ids": "jr_east", "name_en": "藤代", "name_ja": "藤代", "label_rank": 72, "tags": ["tokyo", "v3"]}}, {"type": "Feature", "bbox": [139.914185, 35.68262, 139.914185, 35.68262], "geometry": {"type": "Point", "coordinates": [139.914185, 35.68262]}, "properties": {"id": "PS_C2E44FFC20F0", "station_group_id": "SG_333C730EF2A0", "operator_id": "tokyo_metro", "operator_ids": "tokyo_metro", "name_en": "行徳", "name_ja": "行徳", "label_rank": 72, "tags": ["tokyo", "v3"]}}, {"type": "Feature", "bbox": [139.958835, 35.707265, 139.958835, 35.707265], "geometry": {"type": "Point", "coordinates": [139.958835, 35.707265]}, "properties": {"id": "PS_364651B7A7CB", "station_group_id": "SG_26FB19AC686B", "operator_id": "tokyo_metro", "operator_ids": "tokyo_metro", "name_en": "西船橋", "name_ja": "西船橋", "label_rank": 100, "tags": ["tokyo", "v3"]}}, {"type": "Feature", "bbox": [139.95952, 35.70722, 139.95952, 35.70722], "geometry": {"type": "Point", "coordinates": [139.95952, 35.70722]}, "properties": {"id": "PS_326212D2ECB2", "station_group_id": "SG_26FB19AC686B", "operator_id": "jr_east", "operator_ids": "jr_east", "name_en": "西船橋", "name_ja": "西船橋", "label_rank": 100, "tags": ["tokyo", "v3"]}}, {"type": "Feature", "bbox": [139.95907, 35.707390000000004, 139.95907, 35.707390000000004], "geometry": {"type": "Point", "coordinates": [139.95907, 35.707390000000004]}, "properties": {"id": "PS_3815898EDEB0", "station_group_id": "SG_26FB19AC686B", "operator_id": "jr_east", "operator_ids": "jr_east", "name_en": "西船橋", "name_ja": "西船橋", "label_rank": 100, "tags": ["tokyo", "v3"]}}, {"type": "Feature", "bbox": [139.95915, 35.707480000000004, 139.95915, 35.707480000000004], "geometry": {"type": "Point", "coordinates": [139.95915, 35.707480000000004]}, "properties": {"id": "PS_FCF7852A2856", "station_group_id": "SG_26FB19AC686B", "operator_id": "jr_east", "operator_ids": "jr_east", "name_en": "西船橋", "name_ja": "西船橋", "label_rank": 100, "tags": ["tokyo", "v3"]}}, {"type": "Feature", "bbox": [139.958045, 35.707985, 139.958045, 35.707985], "geometry": {"type": "Point", "coordinates": [139.958045, 35.707985]}, "properties": {"id": "PS_B4B4E94C0FEC", "station_group_id": "SG_26FB19AC686B", "operator_id": "jr_east", "operator_ids": "jr_east", "name_en": "西船橋", "name_ja": "西船橋", "label_rank": 100, "tags": ["tokyo", "v3"]}}, {"type": "Feature", "bbox": [139.95952, 35.70722, 139.95952, 35.70722], "geometry": {"type": "Point", "coordinates": [139.95952, 35.70722]}, "properties": {"id": "PS_D5E2FF80A43B", "station_group_id": "SG_26FB19AC686B", "operator_id": "jr_east", "operator_ids": "jr_east", "name_en": "西船橋", "name_ja": "西船橋", "label_rank": 100, "tags": ["tokyo", "v3"]}}, {"type": "Feature", "bbox": [140.00772, 35.685265, 140.00772, 35.685265], "geometry": {"type": "Point", "coordinates": [140.00772, 35.685265]}, "properties": {"id": "PS_2A48BFACBDA2", "station_group_id": "SG_FF6273AB2F5A", "operator_id": "keisei", "operator_ids": "keisei", "name_en": "谷津", "name_ja": "谷津", "label_rank": 72, "tags": ["tokyo", "v3"]}}, {"type": "Feature", "bbox": [139.93928, 35.866535, 139.93928, 35.866535], "geometry": {"type": "Point", "coordinates": [139.93928, 35.866535]}, "properties": {"id": "PS_5F6F0B2B48D0", "station_group_id": "SG_AC4F46A3FC43", "operator_id": "tobu", "operator_ids": "tobu", "name_en": "豊四季", "name_ja": "豊四季", "label_rank": 72, "tags": ["tokyo", "v3"]}}, {"type": "Feature", "bbox": [139.983715, 35.82328, 139.983715, 35.82328], "geometry": {"type": "Point", "coordinates": [139.983715, 35.82328]}, "properties": {"id": "PS_3ED9D80C1653", "station_group_id": "SG_324791BDE1DF", "operator_id": "tobu", "operator_ids": "tobu", "name_en": "逆井", "name_ja": "逆井", "label_rank": 72, "tags": ["tokyo", "v3"]}}, {"type": "Feature", "bbox": [139.906035, 35.91437, 139.906035, 35.91437], "geometry": {"type": "Point", "coordinates": [139.906035, 35.91437]}, "properties": {"id": "PS_522237A15401", "station_group_id": "SG_DC448C54858A", "operator_id": "tobu", "operator_ids": "tobu", "name_en": "運河", "name_ja": "運河", "label_rank": 72, "tags": ["tokyo", "v3"]}}, {"type": "Feature", "bbox": [139.87039, 35.76951, 139.87039, 35.76951], "geometry": {"type": "Point", "coordinates": [139.87039, 35.76951]}, "properties": {"id": "PS_C87D1BFB019B", "station_group_id": "SG_D388BFE16B7A", "operator_id": "jr_east", "operator_ids": "jr_east", "name_en": "金町", "name_ja": "金町", "label_rank": 72, "tags": ["tokyo", "v3"]}}, {"type": "Feature", "bbox": [139.99731, 35.763785, 139.99731, 35.763785], "geometry": {"type": "Point", "coordinates": [139.99731, 35.763785]}, "properties": {"id": "PS_B63C206F6EB3", "station_group_id": "SG_670CB8138196", "operator_id": "tobu", "operator_ids": "tobu", "name_en": "鎌ヶ谷", "name_ja": "鎌ヶ谷", "label_rank": 72, "tags": ["tokyo", "v3"]}}, {"type": "Feature", "bbox": [139.85627, 35.74587, 139.85627, 35.74587], "geometry": {"type": "Point", "coordinates": [139.85627, 35.74587]}, "properties": {"id": "PS_134167100C4C", "station_group_id": "SG_715F211D588E", "operator_id": "keisei", "operator_ids": "keisei", "name_en": "青砥", "name_ja": "青砥", "label_rank": 92, "tags": ["tokyo", "v3"]}}, {"type": "Feature", "bbox": [139.85627, 35.74587, 139.85627, 35.74587], "geometry": {"type": "Point", "coordinates": [139.85627, 35.74587]}, "properties": {"id": "PS_D6D440C357ED", "station_group_id": "SG_715F211D588E", "operator_id": "keisei", "operator_ids": "keisei", "name_en": "青砥", "name_ja": "青砥", "label_rank": 92, "tags": ["tokyo", "v3"]}}, {"type": "Feature", "bbox": [140.0223, 35.714, 140.0223, 35.714], "geometry": {"type": "Point", "coordinates": [140.0223, 35.714]}, "properties": {"id": "PS_9D4E758D1752", "station_group_id": "SG_22953E93B993", "operator_id": "東葉高速鉄道", "operator_ids": "東葉高速鉄道", "name_en": "飯山満", "name_ja": "飯山満", "label_rank": 72, "tags": ["tokyo", "v3"]}}, {"type": "Feature", "bbox": [139.91732000000002, 35.811685, 139.91732000000002, 35.811685], "geometry": {"type": "Point", "coordinates": [139.91732000000002, 35.811685]}, "properties": {"id": "PS_42ACD016267A", "station_group_id": "SG_4EF6868210A9", "operator_id": "jr_east", "operator_ids": "jr_east", "name_en": "馬橋", "name_ja": "馬橋", "label_rank": 72, "tags": ["tokyo", "v3"]}}, {"type": "Feature", "bbox": [139.992205, 35.741655, 139.992205, 35.741655], "geometry": {"type": "Point", "coordinates": [139.992205, 35.741655]}, "properties": {"id": "PS_F5437715E675", "station_group_id": "SG_7D86B8656898", "operator_id": "tobu", "operator_ids": "tobu", "name_en": "馬込沢", "name_ja": "馬込沢", "label_rank": 72, "tags": ["tokyo", "v3"]}}, {"type": "Feature", "bbox": [139.99898, 35.808305, 139.99898, 35.808305], "geometry": {"type": "Point", "coordinates": [139.99898, 35.808305]}, "properties": {"id": "PS_99173C45BBBA", "station_group_id": "SG_0F148F399BAA", "operator_id": "tobu", "operator_ids": "tobu", "name_en": "高柳", "name_ja": "高柳", "label_rank": 72, "tags": ["tokyo", "v3"]}}, {"type": "Feature", "bbox": [139.937865, 35.719764999999995, 139.937865, 35.719764999999995], "geometry": {"type": "Point", "coordinates": [139.937865, 35.719764999999995]}, "properties": {"id": "PS_135D6E1D5B20", "station_group_id": "SG_17A28BC3737B", "operator_id": "keisei", "operator_ids": "keisei", "name_en": "鬼越", "name_ja": "鬼越", "label_rank": 72, "tags": ["tokyo", "v3"]}}]}