{"type": "FeatureCollection", "features": [{"type": "Feature", "bbox": [140.097325, 35.625295, 140.097325, 35.625295], "geometry": {"type": "Point", "coordinates": [140.097325, 35.625295]}, "properties": {"id": "PS_B18FE09540DF", "station_group_id": "SG_9092683CF903", "name_en": "みどり台", "name_ja": "みどり台", "label_rank": 72, "tags": ["tokyo", "v3"]}}, {"type": "Feature", "bbox": [140.089745, 35.513115, 140.089745, 35.513115], "geometry": {"type": "Point", "coordinates": [140.089745, 35.513115]}, "properties": {"id": "PS_A8257FB72B88", "station_group_id": "SG_5ADF9D615C1E", "name_en": "五井", "name_ja": "五井", "label_rank": 72, "tags": ["tokyo", "v3"]}}, {"type": "Feature", "bbox": [140.089745, 35.513115, 140.089745, 35.513115], "geometry": {"type": "Point", "coordinates": [140.089745, 35.513115]}, "properties": {"id": "PS_7995F769EC6D", "station_group_id": "SG_5ADF9D615C1E", "name_en": "五井", "name_ja": "五井", "label_rank": 72, "tags": ["tokyo", "v3"]}}, {"type": "Feature", "bbox": [140.114355, 35.61162, 140.114355, 35.61162], "geometry": {"type": "Point", "coordinates": [140.114355, 35.61162]}, "properties": {"id": "PS_282A44C91FC0", "station_group_id": "SG_7B05FFDD4CFF", "name_en": "京成千葉", "name_ja": "京成千葉", "label_rank": 72, "tags": ["tokyo", "v3"]}}, {"type": "Feature", "bbox": [140.05602499999998, 35.66046, 140.05602499999998, 35.66046], "geometry": {"type": "Point", "coordinates": [140.05602499999998, 35.66046]}, "properties": {"id": "PS_680B5B39A4DB", "station_group_id": "SG_1D9AF0F7D851", "name_en": "京成幕張", "name_ja": "京成幕張", "label_rank": 72, "tags": ["tokyo", "v3"]}}, {"type": "Feature", "bbox": [140.08571, 35.637249999999995, 140.08571, 35.637249999999995], "geometry": {"type": "Point", "coordinates": [140.08571, 35.637249999999995]}, "properties": {"id": "PS_1DEE905D5FD2", "station_group_id": "SG_33FF26CC6303", "name_en": "京成稲毛", "name_ja": "京成稲毛", "label_rank": 72, "tags": ["tokyo", "v3"]}}, {"type": "Feature", "bbox": [140.120035, 35.536159999999995, 140.120035, 35.536159999999995], "geometry": {"type": "Point", "coordinates": [140.120035, 35.536159999999995]}, "properties": {"id": "PS_8DDF621178AB", "station_group_id": "SG_06164A39BEAA", "name_en": "八幡宿", "name_ja": "八幡宿", "label_rank": 72, "tags": ["tokyo", "v3"]}}, {"type": "Feature", "bbox": [140.11355, 35.6136, 140.11355, 35.6136], "geometry": {"type": "Point", "coordinates": [140.11355, 35.6136]}, "properties": {"id": "PS_49FF0129367F", "station_group_id": "SG_26278D28856B", "name_en": "千葉", "name_ja": "千葉", "label_rank": 100, "tags": ["tokyo", "v3"]}}, {"type": "Feature", "bbox": [140.10279500000001, 35.60671, 140.10279500000001, 35.60671], "geometry": {"type": "Point", "coordinates": [140.10279500000001, 35.60671]}, "properties": {"id": "PS_F051456E2F01", "station_group_id": "SG_0DF4F1568C4F", "name_en": "千葉みなと", "name_ja": "千葉みなと", "label_rank": 72, "tags": ["tokyo", "v3"]}}, {"type": "Feature", "bbox": [140.11776500000002, 35.607475, 140.11776500000002, 35.607475], "geometry": {"type": "Point", "coordinates": [140.11776500000002, 35.607475]}, "properties": {"id": "PS_40B49AAAC16C", "station_group_id": "SG_F61D27C3E484", "name_en": "千葉中央", "name_ja": "千葉中央", "label_rank": 92, "tags": ["tokyo", "v3"]}}, {"type": "Feature", "bbox": [140.11776500000002, 35.607475, 140.11776500000002, 35.607475], "geometry": {"type": "Point", "coordinates": [140.11776500000002, 35.607475]}, "properties": {"id": "PS_2EF2120DD3F5", "station_group_id": "SG_F61D27C3E484", "name_en": "千葉中央", "name_ja": "千葉中央", "label_rank": 92, "tags": ["tokyo", "v3"]}}, {"type": "Feature", "bbox": [140.13217, 35.590360000000004, 140.13217, 35.590360000000004], "geometry": {"type": "Point", "coordinates": [140.13217, 35.590360000000004]}, "properties": {"id": "PS_06F04D75975B", "station_group_id": "SG_54543C5CB4C9", "name_en": "千葉寺", "name_ja": "千葉寺", "label_rank": 72, "tags": ["tokyo", "v3"]}}, {"type": "Feature", "bbox": [140.04193333333333, 35.478649999999995, 140.04193333333333, 35.478649999999995], "geometry": {"type": "Point", "coordinates": [140.04193333333333, 35.478649999999995]}, "properties": {"id": "PS_F09575728A92", "station_group_id": "SG_CAF584C3B43C", "name_en": "姉ヶ崎", "name_ja": "姉ヶ崎", "label_rank": 72, "tags": ["tokyo", "v3"]}}, {"type": "Feature", "bbox": [139.933805, 35.414784999999995, 139.933805, 35.414784999999995], "geometry": {"type": "Point", "coordinates": [139.933805, 35.414784999999995]}, "properties": {"id": "PS_FDF1CB8AB0D3", "station_group_id": "SG_47FBE6DA170F", "name_en": "巌根", "name_ja": "巌根", "label_rank": 72, "tags": ["tokyo", "v3"]}}, {"type": "Feature", "bbox": [139.92365, 35.66648, 139.92365, 35.66648], "geometry": {"type": "Point", "coordinates": [139.92365, 35.66648]}, "properties": {"id": "PS_9B6641D72EEE", "station_group_id": "SG_3445AC2D391B", "name_en": "市川塩浜", "name_ja": "市川塩浜", "label_rank": 72, "tags": ["tokyo", "v3"]}}, {"type": "Feature", "bbox": [140.05782, 35.659545, 140.05782, 35.659545], "geometry": {"type": "Point", "coordinates": [140.05782, 35.659545]}, "properties": {"id": "PS_09BD2853D933", "station_group_id": "SG_30D9669FDAEB", "name_en": "幕張", "name_ja": "幕張", "label_rank": 72, "tags": ["tokyo", "v3"]}}, {"type": "Feature", "bbox": [140.02707312045885, 35.658160987275096, 140.02707312045885, 35.658160987275096], "geometry": {"type": "Point", "coordinates": [140.02707312045885, 35.658160987275096]}, "properties": {"id": "PS_4D41557AAD29", "station_group_id": "SG_EDE8D249DCF6", "name_en": "幕張豊砂", "name_ja": "幕張豊砂", "label_rank": 72, "tags": ["tokyo", "v3"]}}, {"type": "Feature", "bbox": [140.10862500000002, 35.612465, 140.10862500000002, 35.612465], "geometry": {"type": "Point", "coordinates": [140.10862500000002, 35.612465]}, "properties": {"id": "PS_DC96B84D9E2C", "station_group_id": "SG_C1A1BFC8CD5C", "name_en": "新千葉", "name_ja": "新千葉", "label_rank": 72, "tags": ["tokyo", "v3"]}}, {"type": "Feature", "bbox": [140.07334500000002, 35.6518, 140.07334500000002, 35.6518], "geometry": {"type": "Point", "coordinates": [140.07334500000002, 35.6518]}, "properties": {"id": "PS_A41B8A8C41F2", "station_group_id": "SG_13412F06DB5F", "name_en": "新検見川", "name_ja": "新検見川", "label_rank": 72, "tags": ["tokyo", "v3"]}}, {"type": "Feature", "bbox": [139.91253, 35.649519999999995, 139.91253, 35.649519999999995], "geometry": {"type": "Point", "coordinates": [139.91253, 35.649519999999995]}, "properties": {"id": "PS_AE5882202D02", "station_group_id": "SG_7DFBAF797FBB", "name_en": "新浦安", "name_ja": "新浦安", "label_rank": 72, "tags": ["tokyo", "v3"]}}, {"type": "Feature", "bbox": [140.012975, 35.6674, 140.012975, 35.6674], "geometry": {"type": "Point", "coordinates": [140.012975, 35.6674]}, "properties": {"id": "PS_DDAC18344A0B", "station_group_id": "SG_59AB92F1FDCA", "name_en": "新習志野", "name_ja": "新習志野", "label_rank": 72, "tags": ["tokyo", "v3"]}}, {"type": "Feature", "bbox": [140.12153333333333, 35.60039, 140.12153333333333, 35.60039], "geometry": {"type": "Point", "coordinates": [140.12153333333333, 35.60039]}, "properties": {"id": "PS_F9693F39CD66", "station_group_id": "SG_19A143DD2382", "name_en": "本千葉", "name_ja": "本千葉", "label_rank": 72, "tags": ["tokyo", "v3"]}}, {"type": "Feature", "bbox": [140.12242, 35.617125, 140.12242, 35.617125], "geometry": {"type": "Point", "coordinates": [140.12242, 35.617125]}, "properties": {"id": "PS_249C5015A63A", "station_group_id": "SG_38BD67096787", "name_en": "東千葉", "name_ja": "東千葉", "label_rank": 72, "tags": ["tokyo", "v3"]}}, {"type": "Feature", "bbox": [140.06676, 35.65251, 140.06676, 35.65251], "geometry": {"type": "Point", "coordinates": [140.06676, 35.65251]}, "properties": {"id": "PS_771B0B24084A", "station_group_id": "SG_CCF01E46C0CF", "name_en": "検見川", "name_ja": "検見川", "label_rank": 72, "tags": ["tokyo", "v3"]}}, {"type": "Feature", "bbox": [140.059085, 35.63717, 140.059085, 35.63717], "geometry": {"type": "Point", "coordinates": [140.059085, 35.63717]}, "properties": {"id": "PS_26997FC9D1CE", "station_group_id": "SG_002FEB541B2B", "name_en": "検見川浜", "name_ja": "検見川浜", "label_rank": 72, "tags": ["tokyo", "v3"]}}, {"type": "Feature", "bbox": [140.132185, 35.552099999999996, 140.132185, 35.552099999999996], "geometry": {"type": "Point", "coordinates": [140.132185, 35.552099999999996]}, "properties": {"id": "PS_E00D8B1E6E95", "station_group_id": "SG_31BAFE471EBF", "name_en": "浜野", "name_ja": "浜野", "label_rank": 72, "tags": ["tokyo", "v3"]}}, {"type": "Feature", "bbox": [139.893235, 35.665905, 139.893235, 35.665905], "geometry": {"type": "Point", "coordinates": [139.893235, 35.665905]}, "properties": {"id": "PS_E5A2B27D4E2B", "station_group_id": "SG_472C4366B618", "name_en": "浦安", "name_ja": "浦安", "label_rank": 72, "tags": ["tokyo", "v3"]}}, {"type": "Feature", "bbox": [140.041995, 35.648399999999995, 140.041995, 35.648399999999995], "geometry": {"type": "Point", "coordinates": [140.041995, 35.648399999999995]}, "properties": {"id": "PS_6AB4AE9DA86F", "station_group_id": "SG_D68666B51CA9", "name_en": "海浜幕張", "name_ja": "海浜幕張", "label_rank": 72, "tags": ["tokyo", "v3"]}}, {"type": "Feature", "bbox": [140.09256499999998, 35.63731, 140.09256499999998, 35.63731], "geometry": {"type": "Point", "coordinates": [140.09256499999998, 35.63731]}, "properties": {"id": "PS_31CE1D92CF36", "station_group_id": "SG_130B7744B8CC", "name_en": "稲毛", "name_ja": "稲毛", "label_rank": 72, "tags": ["tokyo", "v3"]}}, {"type": "Feature", "bbox": [140.07385, 35.62952, 140.07385, 35.62952], "geometry": {"type": "Point", "coordinates": [140.07385, 35.62952]}, "properties": {"id": "PS_E3E708388E97", "station_group_id": "SG_142CEFE33E97", "name_en": "稲毛海岸", "name_ja": "稲毛海岸", "label_rank": 72, "tags": ["tokyo", "v3"]}}, {"type": "Feature", "bbox": [139.88371999999998, 35.636160000000004, 139.88371999999998, 35.636160000000004], "geometry": {"type": "Point", "coordinates": [139.88371999999998, 35.636160000000004]}, "properties": {"id": "PS_2FA5139EF550", "station_group_id": "SG_D75D5F70AF3F", "name_en": "舞浜", "name_ja": "舞浜", "label_rank": 100, "tags": ["tokyo", "v3"]}}, {"type": "Feature", "bbox": [139.87253, 35.663619999999995, 139.87253, 35.663619999999995], "geometry": {"type": "Point", "coordinates": [139.87253, 35.663619999999995]}, "properties": {"id": "PS_97A3CD69DF9D", "station_group_id": "SG_509CAB5F5B13", "name_en": "葛西", "name_ja": "葛西", "label_rank": 72, "tags": ["tokyo", "v3"]}}, {"type": "Feature", "bbox": [139.861485, 35.64417, 139.861485, 35.64417], "geometry": {"type": "Point", "coordinates": [139.861485, 35.64417]}, "properties": {"id": "PS_DA0E87A76FA4", "station_group_id": "SG_D580A0D4AB89", "name_en": "葛西臨海公園", "name_ja": "葛西臨海公園", "label_rank": 72, "tags": ["tokyo", "v3"]}}, {"type": "Feature", "bbox": [140.13073500000002, 35.582155, 140.13073500000002, 35.582155], "geometry": {"type": "Point", "coordinates": [140.13073500000002, 35.582155]}, "properties": {"id": "PS_764D91751CE3", "station_group_id": "SG_6AC3DCA5C50D", "name_en": "蘇我", "name_ja": "蘇我", "label_rank": 72, "tags": ["tokyo", "v3"]}}, {"type": "Feature", "bbox": [139.95721, 35.431905, 139.95721, 35.431905], "geometry": {"type": "Point", "coordinates": [139.95721, 35.431905]}, "properties": {"id": "PS_780F747E2B7A", "station_group_id": "SG_77E651A6852F", "name_en": "袖ヶ浦", "name_ja": "袖ヶ浦", "label_rank": 72, "tags": ["tokyo", "v3"]}}, {"type": "Feature", "bbox": [140.10332499999998, 35.62263, 140.10332499999998, 35.62263], "geometry": {"type": "Point", "coordinates": [140.10332499999998, 35.62263]}, "properties": {"id": "PS_8D52AB524A43", "station_group_id": "SG_60162F25B097", "name_en": "西千葉", "name_ja": "西千葉", "label_rank": 72, "tags": ["tokyo", "v3"]}}, {"type": "Feature", "bbox": [140.10287, 35.617625000000004, 140.10287, 35.617625000000004], "geometry": {"type": "Point", "coordinates": [140.10287, 35.617625000000004]}, "properties": {"id": "PS_150D8417DA20", "station_group_id": "SG_C9D334602F2A", "name_en": "西登戸", "name_ja": "西登戸", "label_rank": 72, "tags": ["tokyo", "v3"]}}, {"type": "Feature", "bbox": [139.8596, 35.664559999999994, 139.8596, 35.664559999999994], "geometry": {"type": "Point", "coordinates": [139.8596, 35.664559999999994]}, "properties": {"id": "PS_35F110591151", "station_group_id": "SG_F34AFEBF4D5B", "name_en": "西葛西", "name_ja": "西葛西", "label_rank": 72, "tags": ["tokyo", "v3"]}}, {"type": "Feature", "bbox": [139.995425, 35.450285, 139.995425, 35.450285], "geometry": {"type": "Point", "coordinates": [139.995425, 35.450285]}, "properties": {"id": "PS_557A86B9DD77", "station_group_id": "SG_733E2F3D94B6", "name_en": "長浦", "name_ja": "長浦", "label_rank": 72, "tags": ["tokyo", "v3"]}}]}