{"type": "FeatureCollection", "features": [{"type": "Feature", "bbox": [139.895515, 35.333645000000004, 139.895515, 35.333645000000004], "geometry": {"type": "Point", "coordinates": [139.895515, 35.333645000000004]}, "properties": {"id": "PS_36D71F57583E", "station_group_id": "SG_242331D738A1", "name_en": "君津", "name_ja": "君津", "label_rank": 72, "tags": ["tokyo", "v3"]}}, {"type": "Feature", "bbox": [139.926144, 35.38174, 139.926144, 35.38174], "geometry": {"type": "Point", "coordinates": [139.926144, 35.38174]}, "properties": {"id": "PS_A1CD46E7AD35", "station_group_id": "SG_8480F21F629A", "name_en": "木更津", "name_ja": "木更津", "label_rank": 72, "tags": ["tokyo", "v3"]}}, {"type": "Feature", "bbox": [139.926144, 35.38174, 139.926144, 35.38174], "geometry": {"type": "Point", "coordinates": [139.926144, 35.38174]}, "properties": {"id": "PS_1EE829E8CD03", "station_group_id": "SG_8480F21F629A", "name_en": "木更津", "name_ja": "木更津", "label_rank": 72, "tags": ["tokyo", "v3"]}}]}