{"type": "FeatureCollection", "features": [{"type": "Feature", "bbox": [139.91139500000003, 34.997515, 139.91139500000003, 34.997515], "geometry": {"type": "Point", "coordinates": [139.91139500000003, 34.997515]}, "properties": {"id": "PS_1871CFCA996C", "station_group_id": "SG_98EFDAB94EE1", "name_en": "九重", "name_ja": "九重", "label_rank": 72, "tags": ["tokyo", "v3"]}}, {"type": "Feature", "bbox": [139.95452, 34.976879999999994, 139.95452, 34.976879999999994], "geometry": {"type": "Point", "coordinates": [139.95452, 34.976879999999994]}, "properties": {"id": "PS_35BB15B23AD2", "station_group_id": "SG_BD3E69316E4E", "name_en": "千倉", "name_ja": "千倉", "label_rank": 72, "tags": ["tokyo", "v3"]}}, {"type": "Feature", "bbox": [139.96627999999998, 34.99135, 139.96627999999998, 34.99135], "geometry": {"type": "Point", "coordinates": [139.96627999999998, 34.99135]}, "properties": {"id": "PS_FB5700933CA2", "station_group_id": "SG_45F0615C22A4", "name_en": "千歳", "name_ja": "千歳", "label_rank": 72, "tags": ["tokyo", "v3"]}}, {"type": "Feature", "bbox": [139.97906999999998, 35.021195, 139.97906999999998, 35.021195], "geometry": {"type": "Point", "coordinates": [139.97906999999998, 35.021195]}, "properties": {"id": "PS_6DFB5974ECBA", "station_group_id": "SG_A57426E94FB4", "name_en": "南三原", "name_ja": "南三原", "label_rank": 72, "tags": ["tokyo", "v3"]}}, {"type": "Feature", "bbox": [140.01961, 35.04171, 140.01961, 35.04171], "geometry": {"type": "Point", "coordinates": [140.01961, 35.04171]}, "properties": {"id": "PS_6B59852428A7", "station_group_id": "SG_A748BBB830AB", "name_en": "和田浦", "name_ja": "和田浦", "label_rank": 72, "tags": ["tokyo", "v3"]}}, {"type": "Feature", "bbox": [140.09623, 35.081485, 140.09623, 35.081485], "geometry": {"type": "Point", "coordinates": [140.09623, 35.081485]}, "properties": {"id": "PS_F7FB884AF49D", "station_group_id": "SG_E95D2B5E5EB8", "name_en": "太海", "name_ja": "太海", "label_rank": 72, "tags": ["tokyo", "v3"]}}, {"type": "Feature", "bbox": [140.10370999999998, 35.10762, 140.10370999999998, 35.10762], "geometry": {"type": "Point", "coordinates": [140.10370999999998, 35.10762]}, "properties": {"id": "PS_E1867B18FA4E", "station_group_id": "SG_7B9486944487", "name_en": "安房鴨川", "name_ja": "安房鴨川", "label_rank": 72, "tags": ["tokyo", "v3"]}}, {"type": "Feature", "bbox": [140.10370999999998, 35.10762, 140.10370999999998, 35.10762], "geometry": {"type": "Point", "coordinates": [140.10370999999998, 35.10762]}, "properties": {"id": "PS_D8B983043EFF", "station_group_id": "SG_7B9486944487", "name_en": "安房鴨川", "name_ja": "安房鴨川", "label_rank": 72, "tags": ["tokyo", "v3"]}}, {"type": "Feature", "bbox": [140.06114, 35.0625, 140.06114, 35.0625], "geometry": {"type": "Point", "coordinates": [140.06114, 35.0625]}, "properties": {"id": "PS_8B3F91B5BA29", "station_group_id": "SG_873B4F7D741C", "name_en": "江見", "name_ja": "江見", "label_rank": 72, "tags": ["tokyo", "v3"]}}, {"type": "Feature", "bbox": [139.86199, 34.995915, 139.86199, 34.995915], "geometry": {"type": "Point", "coordinates": [139.86199, 34.995915]}, "properties": {"id": "PS_0864248CE3B4", "station_group_id": "SG_7989362C66F5", "name_en": "館山", "name_ja": "館山", "label_rank": 72, "tags": ["tokyo", "v3"]}}]}