{"type": "FeatureCollection", "features": [{"type": "Feature", "bbox": [130.2897, 31.81435, 130.36529, 32.08873], "geometry": {"type": "LineString", "coordinates": [[130.31218, 31.81435], [130.3091, 31.82438], [130.3088, 31.82559], [130.30854, 31.82658], [130.30801, 31.8292], [130.30749, 31.83315], [130.30719, 31.8345], [130.30673, 31.83598], [130.30542, 31.83934], [130.30365, 31.84319], [130.30275, 31.84512], [130.30174, 31.84693], [130.29894, 31.85233], [130.29585, 31.85795], [130.29503, 31.85944], [130.2946, 31.86042], [130.2934, 31.8635], [130.29134, 31.86908], [130.29086, 31.87089], [130.29057, 31.87211], [130.2904, 31.87318], [130.29007, 31.87501], [130.28988, 31.87772], [130.28978, 31.87996], [130.2897, 31.88133], [130.2897, 31.88228], [130.28977, 31.88392], [130.28978, 31.88409], [130.28993, 31.88595], [130.29008, 31.8877], [130.29027, 31.88955], [130.29049, 31.89128], [130.29064, 31.89218], [130.29095, 31.89406], [130.29112, 31.8951], [130.2912, 31.89556], [130.29131, 31.89617], [130.29155, 31.89737], [130.29158, 31.89751], [130.29256, 31.9033], [130.29408, 31.91223], [130.2941, 31.91235], [130.29479, 31.91659], [130.2948, 31.91664], [130.2958, 31.92291], [130.2966, 31.92788], [130.29759, 31.93434], [130.29919, 31.94375], [130.29984, 31.94755], [130.3005, 31.95195], [130.3009, 31.95507], [130.30172, 31.95991], [130.30253, 31.96436], [130.30281, 31.96602], [130.30333, 31.96936], [130.30445, 31.97608], [130.30473, 31.97774], [130.30509, 31.97935], [130.30569, 31.98169], [130.30596, 31.98248], [130.30682, 31.98467], [130.3081, 31.98728], [130.30902, 31.98891], [130.31037, 31.99114], [130.31166, 31.99286], [130.31655, 31.99976], [130.32038, 32.00525], [130.33882, 32.0306], [130.34139, 32.0346], [130.3455, 32.0405], [130.34713, 32.04279], [130.34813, 32.0443], [130.3535, 32.05153], [130.35442, 32.05271], [130.35948, 32.05872], [130.36086, 32.06066], [130.36219, 32.0628], [130.36332, 32.06514], [130.36444, 32.06794], [130.36492, 32.06947], [130.36518, 32.07065], [130.36529, 32.07215], [130.36526, 32.07326], [130.36516, 32.07481], [130.3651, 32.07537], [130.36504, 32.07604], [130.36486, 32.07682], [130.36463, 32.07763], [130.36434, 32.07848], [130.36418, 32.07899], [130.36402, 32.07946], [130.36385, 32.0799], [130.3637, 32.08029], [130.36286, 32.08221], [130.36199, 32.08398], [130.36192, 32.08408], [130.36175, 32.08431], [130.36143, 32.08468], [130.36098, 32.08529], [130.36078, 32.08554], [130.36042, 32.08596], [130.36022, 32.08623], [130.36003, 32.08654], [130.35991, 32.08677], [130.35963, 32.08722], [130.35951, 32.08742], [130.35906, 32.0882], [130.35879, 32.08873]]}, "properties": {"id": "TRACK_TOKYO_0452", "line_name": "九州新幹線", "station_group_ids": [], "mode": "shinkansen", "operator_id": "九州旅客鉄道", "tags": ["tokyo", "track_centerline"]}}]}