{"type": "FeatureCollection", "features": [{"type": "Feature", "bbox": [137.21489472, 36.69810703, 137.47997947, 36.87298002], "geometry": {"type": "LineString", "coordinates": [[137.47997947, 36.87298002], [137.47593365, 36.86925691], [137.47273327, 36.86629448], [137.4708535, 36.8644028], [137.46779589, 36.86102397], [137.46396496, 36.85662197], [137.45734609, 36.849041], [137.45546156, 36.84669961], [137.45435749, 36.84502447], [137.45123563, 36.83948509], [137.44794246, 36.83364113], [137.44306932, 36.82475147], [137.43709212, 36.81405341], [137.43467459, 36.8096752], [137.42671767, 36.7953794], [137.42447146, 36.79176262], [137.42277728, 36.78964966], [137.42138767, 36.78810777], [137.41872268, 36.78546181], [137.41660972, 36.78374859], [137.41415411, 36.78197828], [137.41034698, 36.77973206], [137.40052456, 36.77447821], [137.39058793, 36.76899594], [137.37730102, 36.76189562], [137.37349388, 36.75966845], [137.37124767, 36.75824077], [137.36898243, 36.75666081], [137.35145056, 36.74386883], [137.33332858, 36.73056288], [137.32156453, 36.72184454], [137.31830942, 36.71959833], [137.31613936, 36.71828486], [137.31356954, 36.7169714], [137.31130429, 36.71588637], [137.30791594, 36.71459194], [137.30450855, 36.71352594], [137.30062527, 36.7126503], [137.29700849, 36.71209826], [137.29348689, 36.71175562], [137.28929904, 36.71166044], [137.28591068, 36.7118508], [137.28343604, 36.71209826], [137.27921012, 36.71282162], [137.27228113, 36.71449676], [137.26276329, 36.71695237], [137.25922265, 36.71786608], [137.25735715, 36.71822776], [137.25551069, 36.71838004], [137.25309316, 36.71834197], [137.25113248, 36.71817065], [137.24890531, 36.71763765], [137.24736341, 36.71712369], [137.24509817, 36.71613383], [137.24367049, 36.71527722], [137.24224281, 36.71419219], [137.2404725, 36.71242187], [137.23957782, 36.71114648], [137.23803593, 36.70840534], [137.23586586, 36.7040652], [137.23512347, 36.70286596], [137.23424783, 36.70172381], [137.23272497, 36.70056264], [137.23143054, 36.69989639], [137.22979823, 36.6992349], [137.22835628, 36.69891367], [137.22292397, 36.69811417], [137.22263844, 36.69810703], [137.22205309, 36.69812488], [137.22152485, 36.69818199], [137.22098233, 36.69830334], [137.22005791, 36.69864598], [137.21644732, 36.70016289], [137.21489472, 36.70078155]]}, "properties": {"id": "GEOM_TOKYO_4087", "route_id": "R_CC6EF6BA", "route_name": null, "route_color": "#2C62C9", "route_text_color": null, "line_name": "北陸新幹線", "operator_id": "西日本旅客鉄道", "representation": "service_path", "min_zoom": 0, "max_zoom": 24, "offset_rank": 0}}]}