{"type": "FeatureCollection", "features": [{"type": "Feature", "bbox": [137.73368, 34.70293, 137.7375, 34.70472], "geometry": {"type": "LineString", "coordinates": [[137.73368, 34.70293], [137.73485, 34.70355], [137.73548, 34.70384], [137.7375, 34.70472]]}, "properties": {"id": "GEOM_TOKYO_0985", "route_id": "R_3B2E9FFD", "route_name": null, "route_color": "#1F78FF", "route_text_color": null, "line_name": "東海道新幹線", "operator_id": "東海旅客鉄道", "representation": "service_path", "min_zoom": 0, "max_zoom": 24, "offset_rank": 0}}, {"type": "Feature", "bbox": [137.7375, 34.70268, 138.01301, 34.76889], "geometry": {"type": "LineString", "coordinates": [[138.01301, 34.76889], [138.01296, 34.76889], [138.01183, 34.76876], [138.01103, 34.76867], [138.01051, 34.76862], [138.00954, 34.76851], [138.0082, 34.76836], [138.00803, 34.76834], [138.00782, 34.76832], [138.00707, 34.76822], [138.00696, 34.76821], [138.00636, 34.76812], [138.00607, 34.76808], [138.00586, 34.76805], [138.00534, 34.76794], [138.00446, 34.7677], [138.0036, 34.76744], [138.00349, 34.7674], [138.00336, 34.76737], [138.00257, 34.76713], [138.00232, 34.76705], [138.00218, 34.76701], [138.0011, 34.76668], [137.9989, 34.76605], [137.9985, 34.76594], [137.99823, 34.76587], [137.99733, 34.76562], [137.99695, 34.7655], [137.9963, 34.76531], [137.99491, 34.76486], [137.99462, 34.76477], [137.99453, 34.76474], [137.99231, 34.76404], [137.99136, 34.76371], [137.99023, 34.7633], [137.98854, 34.76274], [137.98795, 34.76253], [137.98437, 34.76114], [137.98418, 34.76107], [137.98285, 34.76055], [137.98267, 34.76048], [137.98074, 34.75973], [137.97688, 34.75822], [137.97357, 34.7569], [137.97331, 34.7568], [137.97326, 34.75678], [137.97275, 34.75658], [137.97255, 34.75651], [137.97209, 34.75633], [137.97021, 34.75559], [137.96619, 34.75403], [137.96598, 34.75395], [137.96557, 34.7538], [137.96529, 34.75368], [137.96505, 34.75358], [137.96453, 34.75331], [137.96342, 34.75287], [137.96194, 34.7523], [137.96134, 34.75206], [137.96102, 34.75194], [137.96056, 34.75176], [137.9599, 34.75149], [137.95914, 34.75124], [137.95784, 34.75081], [137.95662, 34.75046], [137.95428, 34.74976], [137.95409, 34.74971], [137.95377, 34.74962], [137.95097, 34.74878], [137.94982, 34.74844], [137.94726, 34.74766], [137.94533, 34.74708], [137.94429, 34.74676], [137.94253, 34.74625], [137.94232, 34.74615], [137.94192, 34.74599], [137.94152, 34.74581], [137.94071, 34.74541], [137.94055, 34.74533], [137.94051, 34.74532], [137.93986, 34.74497], [137.93976, 34.74491], [137.93922, 34.74462], [137.93775, 34.74382], [137.9375, 34.74369], [137.9373, 34.74358], [137.93694, 34.74339], [137.93585, 34.74281], [137.93482, 34.74225], [137.93437, 34.74201], [137.93412, 34.74187], [137.93359, 34.74157], [137.93309, 34.74127], [137.93177, 34.7405], [137.93122, 34.74017], [137.93114, 34.74013], [137.93112, 34.74012], [137.93056, 34.73983], [137.9304, 34.73976], [137.92972, 34.73942], [137.92878, 34.73895], [137.92851, 34.73882], [137.92794, 34.73857], [137.92623, 34.73775], [137.92576, 34.73755], [137.92496, 34.73719], [137.92373, 34.73672], [137.92361, 34.73668], [137.92214, 34.73611], [137.9211, 34.73572], [137.92098, 34.73567], [137.92082, 34.73561], [137.91976, 34.73522], [137.91968, 34.73518], [137.9196, 34.73516], [137.91943, 34.73509], [137.91816, 34.73462], [137.91796, 34.73455], [137.91772, 34.73446], [137.91659, 34.73403], [137.91654, 34.73401], [137.91601, 34.73382], [137.91515, 34.73351], [137.915, 34.73345], [137.91409, 34.7331], [137.9138, 34.733], [137.91295, 34.73268], [137.91281, 34.73263], [137.91251, 34.73252], [137.91116, 34.73204], [137.91091, 34.73194], [137.90981, 34.73152], [137.90931, 34.73133], [137.90917, 34.73128], [137.90833, 34.73097], [137.90706, 34.73048], [137.90682, 34.73039], [137.90667, 34.73033], [137.9064, 34.73022], [137.90572, 34.72995], [137.90565, 34.72992], [137.90467, 34.72953], [137.904, 34.72925], [137.90317, 34.7289], [137.90306, 34.72886], [137.90301, 34.72883], [137.90293, 34.7288], [137.90121, 34.72799], [137.90021, 34.7275], [137.89891, 34.7268], [137.89744, 34.72602], [137.89694, 34.72576], [137.89678, 34.72568], [137.89663, 34.72559], [137.89625, 34.7254], [137.89543, 34.72492], [137.89526, 34.72482], [137.8951, 34.72473], [137.89489, 34.72461], [137.89388, 34.724], [137.89368, 34.72387], [137.89289, 34.72339], [137.89159, 34.72252], [137.89143, 34.72241], [137.89046, 34.72175], [137.88958, 34.72113], [137.88916, 34.72082], [137.88851, 34.72034], [137.8881, 34.72006], [137.88648, 34.71879], [137.88514, 34.71772], [137.88428, 34.71696], [137.88347, 34.71628], [137.88337, 34.71619], [137.88264, 34.71557], [137.88248, 34.71544], [137.88109, 34.71429], [137.88055, 34.71386], [137.88018, 34.71357], [137.87963, 34.71317], [137.87954, 34.7131], [137.87947, 34.71306], [137.87882, 34.71263], [137.87845, 34.7124], [137.87816, 34.71221], [137.8779, 34.71206], [137.87692, 34.71147], [137.87623, 34.71111], [137.876, 34.71099], [137.87553, 34.71075], [137.87415, 34.71015], [137.87387, 34.71004], [137.87364, 34.70996], [137.87277, 34.70965], [137.87197, 34.7094], [137.87166, 34.70932], [137.87151, 34.70928], [137.87132, 34.70923], [137.87111, 34.70917], [137.87055, 34.70903], [137.87032, 34.70897], [137.86972, 34.70882], [137.8691, 34.70869], [137.86856, 34.70858], [137.86757, 34.7084], [137.86741, 34.70837], [137.86722, 34.70833], [137.86622, 34.70814], [137.86531, 34.708], [137.86516, 34.70798], [137.86504, 34.70796], [137.86446, 34.70787], [137.86405, 34.7078], [137.86329, 34.70768], [137.8626, 34.70758], [137.86136, 34.70738], [137.86097, 34.70732], [137.86016, 34.7072], [137.85787, 34.70684], [137.85509, 34.7064], [137.85424, 34.70627], [137.85344, 34.70615], [137.85227, 34.70598], [137.85194, 34.70593], [137.85088, 34.70577], [137.8505, 34.7057], [137.84934, 34.70551], [137.84808, 34.70531], [137.84662, 34.70509], [137.84611, 34.70501], [137.84401, 34.70469], [137.84254, 34.70445], [137.84233, 34.70442], [137.8421, 34.70439], [137.84107, 34.70424], [137.84087, 34.70421], [137.84006, 34.70405], [137.8388, 34.70388], [137.83856, 34.70385], [137.83827, 34.7038], [137.83687, 34.70361], [137.836, 34.70347], [137.83578, 34.70345], [137.83541, 34.70341], [137.83503, 34.70337], [137.83423, 34.70329], [137.83416, 34.70329], [137.8334, 34.70323], [137.83104, 34.70306], [137.82981, 34.70301], [137.82958, 34.703], [137.82925, 34.70299], [137.82702, 34.70291], [137.82641, 34.70289], [137.82625, 34.70289], [137.82537, 34.70286], [137.82293, 34.70278], [137.82289, 34.70278], [137.82286, 34.70278], [137.8225, 34.70277], [137.82137, 34.70273], [137.81966, 34.7027], [137.81823, 34.70268], [137.81782, 34.70268], [137.81621, 34.70272], [137.81583, 34.70274], [137.81483, 34.7028], [137.81377, 34.70289], [137.81306, 34.70299], [137.8122, 34.70312], [137.81167, 34.70321], [137.81142, 34.70325], [137.81119, 34.70329], [137.80963, 34.70359], [137.80958, 34.7036], [137.80919, 34.70368], [137.80768, 34.704], [137.80668, 34.70422], [137.80633, 34.7043], [137.80606, 34.70436], [137.80567, 34.70445], [137.8055, 34.70449], [137.80532, 34.70454], [137.80512, 34.70458], [137.80482, 34.70465], [137.80208, 34.70531], [137.80096, 34.70557], [137.80034, 34.70571], [137.79911, 34.70602], [137.79756, 34.70638], [137.79617, 34.70671], [137.79562, 34.70684], [137.79517, 34.70695], [137.79488, 34.70702], [137.79438, 34.70714], [137.79228, 34.7076], [137.79164, 34.70773], [137.79032, 34.70797], [137.79003, 34.70803], [137.78986, 34.70806], [137.78913, 34.70818], [137.78888, 34.70822], [137.78884, 34.70822], [137.78785, 34.70836], [137.78774, 34.70837], [137.78739, 34.70839], [137.78736, 34.7084], [137.7855, 34.70857], [137.78548, 34.70857], [137.78513, 34.70858], [137.78427, 34.70862], [137.7842, 34.70862], [137.7838, 34.70863], [137.78312, 34.70865], [137.78275, 34.70866], [137.78214, 34.70867], [137.78204, 34.70867], [137.78191, 34.70868], [137.78093, 34.70869], [137.78076, 34.70869], [137.7806, 34.70869], [137.78017, 34.7087], [137.77917, 34.70869], [137.77865, 34.70868], [137.77845, 34.70868], [137.77708, 34.70869], [137.77672, 34.7087], [137.7759, 34.7087], [137.77554, 34.70871], [137.77518, 34.70871], [137.77479, 34.70871], [137.77466, 34.70871], [137.77446, 34.70871], [137.77259, 34.70872], [137.77245, 34.70872], [137.77226, 34.70872], [137.7718, 34.70872], [137.76846, 34.70875], [137.7651, 34.70874], [137.76169, 34.70868], [137.76118, 34.70867], [137.76013, 34.70864], [137.75864, 34.70851], [137.75833, 34.70848], [137.75819, 34.70847], [137.75716, 34.70835], [137.75526, 34.70813], [137.75478, 34.70806], [137.75426, 34.70802], [137.75155, 34.70769], [137.75077, 34.7076], [137.75038, 34.70755], [137.74839, 34.70731], [137.74769, 34.70723], [137.74698, 34.70711], [137.74618, 34.70697], [137.74578, 34.7069], [137.74508, 34.70676], [137.74455, 34.70665], [137.74389, 34.70649], [137.74293, 34.70625], [137.74217, 34.70605], [137.74105, 34.70579], [137.74031, 34.7056], [137.73946, 34.70535], [137.73879, 34.70515], [137.73813, 34.70494], [137.73782, 34.70483], [137.7375, 34.70472]]}, "properties": {"id": "GEOM_TOKYO_0987", "route_id": "R_3B2E9FFD", "route_name": null, "route_color": "#1F78FF", "route_text_color": null, "line_name": "東海道新幹線", "operator_id": "東海旅客鉄道", "representation": "service_path", "min_zoom": 0, "max_zoom": 24, "offset_rank": 0}}, {"type": "Feature", "bbox": [137.38196, 34.68671, 137.73368, 34.76133], "geometry": {"type": "LineString", "coordinates": [[137.38196, 34.76133], [137.38247, 34.7603], [137.38256, 34.76012], [137.38367, 34.75789], [137.38468, 34.75605], [137.38599, 34.75399], [137.38627, 34.75359], [137.38645, 34.75329], [137.38662, 34.75305], [137.387, 34.75257], [137.38744, 34.75209], [137.38761, 34.75191], [137.38815, 34.7513], [137.38923, 34.7501], [137.39014, 34.74903], [137.39077, 34.74833], [137.3915, 34.7476], [137.39185, 34.74727], [137.39256, 34.74667], [137.39347, 34.74599], [137.39399, 34.74562], [137.39456, 34.74524], [137.39467, 34.74516], [137.39546, 34.74464], [137.39571, 34.74448], [137.39588, 34.74437], [137.39648, 34.744], [137.39667, 34.74388], [137.39733, 34.74347], [137.39747, 34.74339], [137.39765, 34.74329], [137.39767, 34.74328], [137.39909, 34.7424], [137.40032, 34.74163], [137.40135, 34.74099], [137.40345, 34.7397], [137.40356, 34.73963], [137.4037, 34.73955], [137.40676, 34.73766], [137.40699, 34.73751], [137.40713, 34.73743], [137.40833, 34.73671], [137.40932, 34.73608], [137.41143, 34.73477], [137.41199, 34.73444], [137.4122, 34.73432], [137.41231, 34.73425], [137.41435, 34.73297], [137.41446, 34.7329], [137.41508, 34.73253], [137.41596, 34.73205], [137.41631, 34.73185], [137.4168, 34.73162], [137.41738, 34.73135], [137.41858, 34.7308], [137.41924, 34.73052], [137.41975, 34.73034], [137.42066, 34.73007], [137.42184, 34.72972], [137.42416, 34.72909], [137.42426, 34.72907], [137.42543, 34.72878], [137.42719, 34.72832], [137.43045, 34.72753], [137.43247, 34.72703], [137.43487, 34.72645], [137.43522, 34.72637], [137.44051, 34.72509], [137.44232, 34.72466], [137.44253, 34.72462], [137.44433, 34.72419], [137.44448, 34.72416], [137.44457, 34.72413], [137.44682, 34.72363], [137.44705, 34.72357], [137.44789, 34.72338], [137.44842, 34.72324], [137.44862, 34.7232], [137.45137, 34.72255], [137.4516, 34.72249], [137.45519, 34.72165], [137.45525, 34.72164], [137.4554, 34.7216], [137.45609, 34.72144], [137.45712, 34.7212], [137.45942, 34.72066], [137.45962, 34.72061], [137.4597, 34.72059], [137.46074, 34.72035], [137.46135, 34.72021], [137.46343, 34.71971], [137.46371, 34.71965], [137.46411, 34.71955], [137.46562, 34.7192], [137.46582, 34.71916], [137.46684, 34.71892], [137.46705, 34.71887], [137.46793, 34.71867], [137.46801, 34.71865], [137.46814, 34.71862], [137.46904, 34.71841], [137.46926, 34.71835], [137.47141, 34.71785], [137.47161, 34.7178], [137.47162, 34.7178], [137.47304, 34.71746], [137.47328, 34.71741], [137.47431, 34.71716], [137.47452, 34.71711], [137.47559, 34.71686], [137.47581, 34.71681], [137.47668, 34.7166], [137.4771, 34.7165], [137.47731, 34.71646], [137.47883, 34.7161], [137.48009, 34.71578], [137.48142, 34.71549], [137.48162, 34.71545], [137.48487, 34.71469], [137.48522, 34.71461], [137.48584, 34.71446], [137.48609, 34.7144], [137.48713, 34.71416], [137.48735, 34.71411], [137.48766, 34.71404], [137.48854, 34.71382], [137.48882, 34.71375], [137.48903, 34.7137], [137.48976, 34.71353], [137.48999, 34.71348], [137.4914, 34.71315], [137.49164, 34.7131], [137.49167, 34.71309], [137.49414, 34.7125], [137.49468, 34.71237], [137.4949, 34.71232], [137.49593, 34.71208], [137.497, 34.71183], [137.49822, 34.71157], [137.49868, 34.71147], [137.49901, 34.7114], [137.49953, 34.71129], [137.50226, 34.71067], [137.5077, 34.70942], [137.50866, 34.70921], [137.50892, 34.70915], [137.50991, 34.70892], [137.51106, 34.70866], [137.51205, 34.70843], [137.5132, 34.70816], [137.5156, 34.70761], [137.51706, 34.70728], [137.51715, 34.70726], [137.51736, 34.70721], [137.51766, 34.70714], [137.51999, 34.70661], [137.52046, 34.70651], [137.52091, 34.7064], [137.52391, 34.70572], [137.52534, 34.70539], [137.52702, 34.70502], [137.52959, 34.70447], [137.53075, 34.70422], [137.5316, 34.70403], [137.53221, 34.7039], [137.53344, 34.70361], [137.53481, 34.70329], [137.53545, 34.70313], [137.53577, 34.70305], [137.53615, 34.70296], [137.53687, 34.70277], [137.53749, 34.70261], [137.53885, 34.70224], [137.54017, 34.70188], [137.54159, 34.70148], [137.54421, 34.70076], [137.54554, 34.7004], [137.5471, 34.69996], [137.54737, 34.69989], [137.54863, 34.69955], [137.5511, 34.69887], [137.5516, 34.69873], [137.55205, 34.6986], [137.55401, 34.69806], [137.55554, 34.69767], [137.5576, 34.69711], [137.55819, 34.69695], [137.55857, 34.69685], [137.55918, 34.69669], [137.55945, 34.69661], [137.56088, 34.69622], [137.56114, 34.69615], [137.56158, 34.69604], [137.56242, 34.69582], [137.56352, 34.69558], [137.56402, 34.69547], [137.56447, 34.69538], [137.56491, 34.69528], [137.56643, 34.69501], [137.56711, 34.6949], [137.56825, 34.69474], [137.56888, 34.69467], [137.57017, 34.69452], [137.57058, 34.6945], [137.57226, 34.69444], [137.57397, 34.69446], [137.57568, 34.6945], [137.57733, 34.69456], [137.57736, 34.69456], [137.57865, 34.69462], [137.57872, 34.69462], [137.57902, 34.69463], [137.58122, 34.69467], [137.58272, 34.6947], [137.58414, 34.69475], [137.58436, 34.69475], [137.58603, 34.69476], [137.58691, 34.69473], [137.58854, 34.69469], [137.58917, 34.69465], [137.58955, 34.69461], [137.58957, 34.69461], [137.5898, 34.69459], [137.5911, 34.6944], [137.59191, 34.69427], [137.59293, 34.69409], [137.59343, 34.69397], [137.59443, 34.6937], [137.59491, 34.69356], [137.59645, 34.69304], [137.59828, 34.69231], [137.59982, 34.6917], [137.60033, 34.6915], [137.60097, 34.69125], [137.60211, 34.69076], [137.60377, 34.69012], [137.6041, 34.68999], [137.60466, 34.68977], [137.6066, 34.68897], [137.6074, 34.68864], [137.60822, 34.68832], [137.6085, 34.68822], [137.60915, 34.68801], [137.61056, 34.68765], [137.61155, 34.68746], [137.61226, 34.68733], [137.61319, 34.68717], [137.61393, 34.68705], [137.61427, 34.687], [137.61511, 34.68688], [137.61559, 34.68683], [137.61606, 34.6868], [137.61672, 34.68674], [137.61739, 34.68671], [137.61797, 34.68671], [137.61872, 34.68673], [137.62119, 34.68682], [137.62199, 34.68686], [137.62243, 34.68688], [137.6229, 34.6869], [137.62313, 34.6869], [137.62384, 34.68692], [137.62499, 34.68694], [137.62526, 34.68695], [137.62661, 34.68696], [137.62761, 34.687], [137.62871, 34.68702], [137.62895, 34.68703], [137.62923, 34.68703], [137.62955, 34.68704], [137.63007, 34.68706], [137.63132, 34.68709], [137.63211, 34.68711], [137.6331, 34.68713], [137.6349, 34.68718], [137.63659, 34.68722], [137.63842, 34.68726], [137.63984, 34.68729], [137.64127, 34.68734], [137.64222, 34.68735], [137.64319, 34.68738], [137.64353, 34.6874], [137.64378, 34.68741], [137.6447, 34.68745], [137.64577, 34.68757], [137.64665, 34.68768], [137.64774, 34.68782], [137.64882, 34.68799], [137.64964, 34.68812], [137.65002, 34.68818], [137.65051, 34.68829], [137.65141, 34.68851], [137.65164, 34.68856], [137.65214, 34.68868], [137.65309, 34.68893], [137.65369, 34.6891], [137.65398, 34.68918], [137.65439, 34.6893], [137.65577, 34.68973], [137.65654, 34.68996], [137.65723, 34.69018], [137.6575, 34.69027], [137.65863, 34.69059], [137.66064, 34.69115], [137.66231, 34.69161], [137.66369, 34.69198], [137.66529, 34.69237], [137.6665, 34.69265], [137.66756, 34.69285], [137.66788, 34.69291], [137.66893, 34.69308], [137.66979, 34.69323], [137.67074, 34.69337], [137.67191, 34.69351], [137.67287, 34.69362], [137.67379, 34.6937], [137.67492, 34.69379], [137.67595, 34.69388], [137.67681, 34.69395], [137.67751, 34.69401], [137.67788, 34.69403], [137.67852, 34.69408], [137.67892, 34.6941], [137.67926, 34.69412], [137.68023, 34.69417], [137.68101, 34.69421], [137.6817, 34.69424], [137.68222, 34.69426], [137.68291, 34.69428], [137.6837, 34.6943], [137.68424, 34.6943], [137.68464, 34.6943], [137.68524, 34.69428], [137.68555, 34.69427], [137.68632, 34.69427], [137.68702, 34.69426], [137.68772, 34.69423], [137.68838, 34.6942], [137.68879, 34.69418], [137.68955, 34.69412], [137.69023, 34.69407], [137.6908, 34.69401], [137.69168, 34.69391], [137.69251, 34.69385], [137.6934, 34.69376], [137.69411, 34.69368], [137.69491, 34.69361], [137.69597, 34.69351], [137.69699, 34.69342], [137.69781, 34.69335], [137.69843, 34.6933], [137.69939, 34.6932], [137.69983, 34.69317], [137.70099, 34.69307], [137.70191, 34.69298], [137.70217, 34.69296], [137.70308, 34.69289], [137.70429, 34.69278], [137.70472, 34.69274], [137.70489, 34.69272], [137.70545, 34.69269], [137.70608, 34.69265], [137.70636, 34.69264], [137.70724, 34.69259], [137.70787, 34.69258], [137.70924, 34.69256], [137.70957, 34.69256], [137.7103, 34.69258], [137.71062, 34.69259], [137.71064, 34.69259], [137.71172, 34.69264], [137.71242, 34.69269], [137.71284, 34.69275], [137.71316, 34.6928], [137.71382, 34.69292], [137.71473, 34.6931], [137.715, 34.69317], [137.71582, 34.69336], [137.71701, 34.69364], [137.71759, 34.69378], [137.71796, 34.69387], [137.71875, 34.69409], [137.71944, 34.69431], [137.72005, 34.69452], [137.72064, 34.69475], [137.72136, 34.69506], [137.72192, 34.6953], [137.72253, 34.69558], [137.72311, 34.69587], [137.72391, 34.69628], [137.72472, 34.69673], [137.72543, 34.69714], [137.72621, 34.6976], [137.72689, 34.69807], [137.72713, 34.69824], [137.7274, 34.69844], [137.72791, 34.69881], [137.72865, 34.69936], [137.7294, 34.69992], [137.72986, 34.70026], [137.73062, 34.70083], [137.73123, 34.70128], [137.73174, 34.70165], [137.73225, 34.70201], [137.73267, 34.70231], [137.73298, 34.70251], [137.73334, 34.70273], [137.73368, 34.70293]]}, "properties": {"id": "GEOM_TOKYO_0988", "route_id": "R_3B2E9FFD", "route_name": null, "route_color": "#1F78FF", "route_text_color": null, "line_name": "東海道新幹線", "operator_id": "東海旅客鉄道", "representation": "service_path", "min_zoom": 0, "max_zoom": 24, "offset_rank": 0}}, {"type": "Feature", "bbox": [137.38034, 34.76133, 137.38196, 34.76445], "geometry": {"type": "LineString", "coordinates": [[137.38196, 34.76133], [137.38034, 34.76445]]}, "properties": {"id": "GEOM_TOKYO_0989", "route_id": "R_3B2E9FFD", "route_name": null, "route_color": "#1F78FF", "route_text_color": null, "line_name": "東海道新幹線", "operator_id": "東海旅客鉄道", "representation": "service_path", "min_zoom": 0, "max_zoom": 24, "offset_rank": 0}}, {"type": "Feature", "bbox": [137.15871, 34.76445, 137.38034, 34.86244], "geometry": {"type": "LineString", "coordinates": [[137.38034, 34.76445], [137.38018, 34.76476], [137.37977, 34.7655], [137.37935, 34.76626], [137.37888, 34.7671], [137.37849, 34.76781], [137.37808, 34.76852], [137.37801, 34.76864], [137.37787, 34.76888], [137.37773, 34.76911], [137.37736, 34.76974], [137.37707, 34.77019], [137.37679, 34.77062], [137.37648, 34.77106], [137.37632, 34.77129], [137.37614, 34.77153], [137.3759, 34.77184], [137.37576, 34.77201], [137.37561, 34.77219], [137.37532, 34.77254], [137.37479, 34.77312], [137.37437, 34.77359], [137.37402, 34.77396], [137.37362, 34.77438], [137.37322, 34.77475], [137.373, 34.77497], [137.37258, 34.77534], [137.37224, 34.7756], [137.37215, 34.77568], [137.37206, 34.77575], [137.37201, 34.77579], [137.37149, 34.77622], [137.3709, 34.77673], [137.37079, 34.77682], [137.37073, 34.77687], [137.37041, 34.77714], [137.36999, 34.77751], [137.36855, 34.77876], [137.36717, 34.77996], [137.36675, 34.78033], [137.36639, 34.78064], [137.36631, 34.78071], [137.36618, 34.78083], [137.36566, 34.78128], [137.36492, 34.78189], [137.36428, 34.78238], [137.3634, 34.78304], [137.36319, 34.7832], [137.3631, 34.78326], [137.36265, 34.78358], [137.36238, 34.78376], [137.3622, 34.78388], [137.3619, 34.78405], [137.36151, 34.78427], [137.36131, 34.78438], [137.36113, 34.78447], [137.36096, 34.78455], [137.36054, 34.78478], [137.35966, 34.78521], [137.35936, 34.78536], [137.35908, 34.7855], [137.35837, 34.78581], [137.35737, 34.78624], [137.35707, 34.78637], [137.35651, 34.78659], [137.35618, 34.78673], [137.35599, 34.78681], [137.35581, 34.78688], [137.35532, 34.78708], [137.35492, 34.78725], [137.35456, 34.7874], [137.35381, 34.78773], [137.35334, 34.78792], [137.353, 34.78807], [137.35249, 34.78826], [137.3517, 34.78859], [137.35085, 34.78894], [137.35028, 34.78917], [137.35013, 34.78923], [137.34992, 34.78932], [137.34965, 34.78944], [137.34941, 34.78953], [137.34932, 34.78957], [137.34918, 34.78962], [137.34883, 34.78977], [137.34841, 34.78995], [137.34822, 34.79003], [137.34772, 34.79023], [137.34739, 34.79037], [137.34691, 34.79057], [137.34685, 34.79059], [137.34673, 34.79064], [137.3465, 34.79073], [137.34608, 34.79091], [137.34591, 34.79098], [137.34516, 34.79127], [137.34476, 34.79144], [137.3446, 34.7915], [137.34415, 34.79169], [137.34349, 34.79197], [137.34294, 34.79219], [137.34281, 34.79224], [137.34256, 34.79234], [137.34231, 34.79245], [137.34214, 34.79252], [137.34187, 34.79263], [137.34164, 34.79272], [137.34134, 34.79284], [137.34115, 34.79293], [137.34086, 34.79306], [137.34052, 34.79318], [137.34002, 34.79338], [137.33956, 34.79358], [137.33935, 34.79366], [137.33909, 34.79377], [137.33877, 34.7939], [137.33853, 34.79401], [137.3381, 34.79417], [137.3372, 34.79455], [137.33655, 34.79481], [137.33595, 34.79507], [137.33522, 34.79537], [137.33461, 34.7956], [137.33409, 34.79582], [137.33371, 34.79599], [137.33341, 34.79611], [137.33314, 34.79621], [137.33295, 34.79629], [137.33282, 34.79634], [137.33264, 34.79642], [137.33225, 34.79657], [137.33175, 34.79677], [137.33141, 34.79692], [137.33095, 34.79711], [137.33073, 34.7972], [137.33057, 34.79727], [137.33037, 34.79735], [137.33023, 34.79741], [137.32996, 34.79751], [137.32958, 34.79767], [137.32928, 34.79779], [137.32919, 34.79783], [137.32913, 34.79786], [137.32906, 34.7979], [137.32868, 34.79804], [137.32832, 34.79819], [137.32813, 34.79828], [137.32803, 34.79832], [137.3279, 34.79837], [137.32741, 34.79858], [137.32699, 34.79875], [137.32679, 34.79884], [137.32666, 34.79888], [137.32634, 34.79902], [137.32592, 34.79919], [137.32565, 34.79931], [137.32549, 34.79937], [137.32518, 34.7995], [137.32473, 34.79969], [137.32447, 34.7998], [137.32435, 34.79985], [137.32401, 34.79999], [137.32354, 34.80019], [137.32325, 34.80031], [137.32311, 34.80037], [137.32276, 34.80051], [137.32246, 34.80063], [137.32216, 34.80076], [137.32161, 34.80103], [137.32133, 34.80116], [137.32103, 34.80131], [137.32069, 34.8015], [137.32049, 34.80161], [137.32006, 34.80185], [137.31985, 34.80197], [137.31972, 34.80204], [137.31957, 34.80213], [137.31926, 34.8023], [137.31865, 34.80264], [137.31852, 34.80271], [137.3183, 34.80283], [137.3179, 34.80305], [137.31757, 34.80324], [137.31744, 34.80331], [137.31714, 34.80348], [137.31673, 34.80371], [137.31658, 34.80379], [137.31609, 34.80407], [137.31492, 34.80472], [137.31441, 34.805], [137.31403, 34.80522], [137.31368, 34.80541], [137.31325, 34.80565], [137.31257, 34.80604], [137.31205, 34.80632], [137.3118, 34.80646], [137.31147, 34.80665], [137.3111, 34.80685], [137.31089, 34.80698], [137.3108, 34.80703], [137.31057, 34.80715], [137.3103, 34.8073], [137.30983, 34.80756], [137.30941, 34.8078], [137.3093, 34.80786], [137.30922, 34.8079], [137.30917, 34.80793], [137.30899, 34.80803], [137.30872, 34.80818], [137.30836, 34.80838], [137.30806, 34.80855], [137.30782, 34.80869], [137.30751, 34.80884], [137.30724, 34.809], [137.30692, 34.80918], [137.30678, 34.80926], [137.30652, 34.8094], [137.30612, 34.80962], [137.3056, 34.80991], [137.30528, 34.81009], [137.30507, 34.81021], [137.30486, 34.81033], [137.30416, 34.81072], [137.30362, 34.81101], [137.30297, 34.81136], [137.3026, 34.81154], [137.30229, 34.81168], [137.30182, 34.81189], [137.30138, 34.81209], [137.30117, 34.81219], [137.30101, 34.81226], [137.30082, 34.81234], [137.30062, 34.81243], [137.30049, 34.81249], [137.30033, 34.81255], [137.29983, 34.81275], [137.29953, 34.81287], [137.29926, 34.81296], [137.29909, 34.81302], [137.299, 34.81305], [137.2988, 34.81312], [137.29863, 34.81319], [137.29823, 34.81333], [137.29795, 34.81343], [137.29786, 34.81345], [137.29777, 34.81348], [137.2976, 34.81353], [137.29732, 34.81362], [137.29723, 34.81364], [137.29714, 34.81367], [137.29682, 34.81374], [137.29645, 34.81382], [137.29616, 34.81387], [137.29608, 34.81389], [137.29597, 34.81391], [137.29579, 34.81395], [137.29545, 34.81402], [137.2948, 34.81412], [137.29448, 34.81419], [137.29409, 34.81425], [137.29381, 34.81429], [137.29367, 34.81431], [137.29349, 34.81434], [137.29324, 34.81437], [137.29302, 34.81439], [137.29293, 34.81441], [137.29274, 34.81443], [137.29251, 34.81446], [137.29228, 34.81449], [137.29218, 34.8145], [137.29207, 34.81451], [137.29169, 34.81455], [137.29142, 34.81458], [137.29126, 34.8146], [137.29107, 34.81462], [137.29086, 34.81464], [137.29054, 34.81468], [137.29004, 34.81472], [137.28921, 34.81474], [137.28896, 34.81475], [137.28873, 34.81475], [137.28785, 34.81477], [137.28708, 34.81479], [137.28682, 34.8148], [137.2863, 34.81481], [137.28527, 34.81485], [137.28437, 34.81487], [137.28296, 34.8149], [137.28282, 34.81491], [137.28213, 34.81493], [137.28117, 34.81497], [137.28017, 34.81499], [137.27904, 34.81503], [137.27764, 34.81505], [137.2767, 34.81507], [137.2764, 34.81508], [137.27615, 34.81509], [137.27557, 34.8151], [137.27487, 34.81512], [137.27375, 34.81516], [137.27308, 34.81517], [137.27227, 34.81519], [137.27165, 34.8152], [137.27139, 34.81521], [137.27117, 34.81522], [137.27068, 34.81523], [137.27003, 34.81523], [137.2693, 34.81526], [137.26871, 34.81527], [137.26847, 34.81528], [137.26811, 34.81531], [137.26766, 34.81535], [137.26708, 34.81541], [137.26654, 34.81546], [137.26625, 34.81548], [137.266, 34.81551], [137.2657, 34.81556], [137.26554, 34.81558], [137.26544, 34.81558], [137.26517, 34.81562], [137.26488, 34.81566], [137.2646, 34.81571], [137.26414, 34.81578], [137.26395, 34.81581], [137.26348, 34.81593], [137.26315, 34.816], [137.26257, 34.81614], [137.26173, 34.81635], [137.26154, 34.8164], [137.26116, 34.8165], [137.26043, 34.81668], [137.25965, 34.81691], [137.25895, 34.8171], [137.25848, 34.81724], [137.25827, 34.8173], [137.2576, 34.81752], [137.25738, 34.81759], [137.25673, 34.81779], [137.25625, 34.81795], [137.25584, 34.8181], [137.25569, 34.81815], [137.25557, 34.8182], [137.25547, 34.81824], [137.25505, 34.81839], [137.25416, 34.81875], [137.25374, 34.81892], [137.25358, 34.81898], [137.25309, 34.81919], [137.25257, 34.8194], [137.25251, 34.81943], [137.25236, 34.8195], [137.25212, 34.8196], [137.25187, 34.81972], [137.2516, 34.81985], [137.25116, 34.82005], [137.25072, 34.82028], [137.25058, 34.82035], [137.25035, 34.82047], [137.25029, 34.8205], [137.25026, 34.82052], [137.2502, 34.82055], [137.24961, 34.82087], [137.24853, 34.82148], [137.24809, 34.82173], [137.24768, 34.82194], [137.24755, 34.82201], [137.24727, 34.82215], [137.24702, 34.82227], [137.2468, 34.8224], [137.24628, 34.82273], [137.24606, 34.82287], [137.24542, 34.8233], [137.24471, 34.82377], [137.24423, 34.82409], [137.24363, 34.8245], [137.24231, 34.82538], [137.24194, 34.82563], [137.24139, 34.82601], [137.24049, 34.8266], [137.23983, 34.82704], [137.23951, 34.82726], [137.23896, 34.82762], [137.2386, 34.82787], [137.23792, 34.82832], [137.23762, 34.82852], [137.2365, 34.82927], [137.23567, 34.82982], [137.2339, 34.83098], [137.23291, 34.83156], [137.2323, 34.83191], [137.23159, 34.83226], [137.23068, 34.83272], [137.22993, 34.83305], [137.22924, 34.83332], [137.2283, 34.83372], [137.22728, 34.83414], [137.2269, 34.8343], [137.22523, 34.83497], [137.22475, 34.83517], [137.2242, 34.83538], [137.22353, 34.83564], [137.22329, 34.83574], [137.22117, 34.83661], [137.2204, 34.83693], [137.22022, 34.837], [137.21892, 34.83752], [137.21786, 34.83793], [137.21731, 34.83816], [137.21629, 34.83855], [137.21605, 34.83865], [137.2153, 34.83894], [137.21422, 34.83937], [137.2135, 34.83967], [137.213, 34.83986], [137.21226, 34.84017], [137.21174, 34.84038], [137.21117, 34.84062], [137.21049, 34.84089], [137.21028, 34.84098], [137.20941, 34.84134], [137.20919, 34.84144], [137.20884, 34.84157], [137.20832, 34.84179], [137.20803, 34.8419], [137.20777, 34.84199], [137.20663, 34.8424], [137.20253, 34.84388], [137.19992, 34.84482], [137.19917, 34.84508], [137.19832, 34.8454], [137.1976, 34.84567], [137.19693, 34.84592], [137.19637, 34.84613], [137.19543, 34.84646], [137.19481, 34.84669], [137.19391, 34.84701], [137.19388, 34.84703], [137.19319, 34.84728], [137.19268, 34.84746], [137.19141, 34.84792], [137.19012, 34.84838], [137.18954, 34.84859], [137.18834, 34.84902], [137.18778, 34.84921], [137.18659, 34.84964], [137.18599, 34.84986], [137.18468, 34.85033], [137.18412, 34.85052], [137.18376, 34.85064], [137.18359, 34.8507], [137.18275, 34.85102], [137.18236, 34.85115], [137.18213, 34.85124], [137.18121, 34.85156], [137.18058, 34.85179], [137.18005, 34.85197], [137.17881, 34.85244], [137.17833, 34.85258], [137.17774, 34.85282], [137.17645, 34.85327], [137.17543, 34.85364], [137.17437, 34.85402], [137.17332, 34.8544], [137.17253, 34.85466], [137.1719, 34.85487], [137.17146, 34.85504], [137.17094, 34.85522], [137.17069, 34.85532], [137.16972, 34.85567], [137.16959, 34.85571], [137.16927, 34.85583], [137.16877, 34.85601], [137.16831, 34.85621], [137.16785, 34.85644], [137.16753, 34.85658], [137.16711, 34.85679], [137.16669, 34.85698], [137.16659, 34.85703], [137.16588, 34.85735], [137.1647, 34.85791], [137.16406, 34.85824], [137.16376, 34.8584], [137.16331, 34.85865], [137.1629, 34.85891], [137.16275, 34.85899], [137.16267, 34.85905], [137.16225, 34.85934], [137.16201, 34.85951], [137.16191, 34.85958], [137.16167, 34.85975], [137.16086, 34.86036], [137.16063, 34.86053], [137.16042, 34.86072], [137.16022, 34.86089], [137.16006, 34.86103], [137.16001, 34.86108], [137.15962, 34.86145], [137.15888, 34.86226], [137.15871, 34.86244]]}, "properties": {"id": "GEOM_TOKYO_0990", "route_id": "R_3B2E9FFD", "route_name": null, "route_color": "#1F78FF", "route_text_color": null, "line_name": "東海道新幹線", "operator_id": "東海旅客鉄道", "representation": "service_path", "min_zoom": 0, "max_zoom": 24, "offset_rank": 0}}, {"type": "Feature", "bbox": [137.48348, 34.72308, 137.48543, 34.72344], "geometry": {"type": "LineString", "coordinates": [[137.48348, 34.72344], [137.48543, 34.72308]]}, "properties": {"id": "GEOM_TOKYO_1127", "route_id": "R_A38B6B65", "route_name": null, "route_color": "#F28E1C", "route_text_color": null, "line_name": "東海道線", "operator_id": "東海旅客鉄道", "representation": "service_path", "min_zoom": 0, "max_zoom": 24, "offset_rank": 0}}, {"type": "Feature", "bbox": [137.48543, 34.72294, 137.48615, 34.72308], "geometry": {"type": "LineString", "coordinates": [[137.48615, 34.72294], [137.48564, 34.72304], [137.48543, 34.72308]]}, "properties": {"id": "GEOM_TOKYO_1128", "route_id": "R_A38B6B65", "route_name": null, "route_color": "#F28E1C", "route_text_color": null, "line_name": "東海道線", "operator_id": "東海旅客鉄道", "representation": "service_path", "min_zoom": 0, "max_zoom": 24, "offset_rank": 0}}, {"type": "Feature", "bbox": [137.81877, 34.71192, 137.82083, 34.71225], "geometry": {"type": "LineString", "coordinates": [[137.82083, 34.71192], [137.81877, 34.71225]]}, "properties": {"id": "GEOM_TOKYO_1130", "route_id": "R_A38B6B65", "route_name": null, "route_color": "#F28E1C", "route_text_color": null, "line_name": "東海道線", "operator_id": "東海旅客鉄道", "representation": "service_path", "min_zoom": 0, "max_zoom": 24, "offset_rank": 0}}, {"type": "Feature", "bbox": [137.47606, 34.7236, 137.48036, 34.72393], "geometry": {"type": "LineString", "coordinates": [[137.47606, 34.72368], [137.47666, 34.72362], [137.4773, 34.7236], [137.47841, 34.72361], [137.47899, 34.72364], [137.47944, 34.7237], [137.48008, 34.72386], [137.48036, 34.72393]]}, "properties": {"id": "GEOM_TOKYO_1131", "route_id": "R_A38B6B65", "route_name": null, "route_color": "#F28E1C", "route_text_color": null, "line_name": "東海道線", "operator_id": "東海旅客鉄道", "representation": "service_path", "min_zoom": 0, "max_zoom": 24, "offset_rank": 0}}, {"type": "Feature", "bbox": [137.57045, 34.69074, 137.60165, 34.69436], "geometry": {"type": "LineString", "coordinates": [[137.60165, 34.69074], [137.60134, 34.69086], [137.60023, 34.69129], [137.59947, 34.69159], [137.59833, 34.69204], [137.59812, 34.69212], [137.59761, 34.69233], [137.59557, 34.6931], [137.59521, 34.69324], [137.59453, 34.69345], [137.59378, 34.69365], [137.59241, 34.69397], [137.59134, 34.69414], [137.5904, 34.69425], [137.58995, 34.69428], [137.58954, 34.6943], [137.58914, 34.69431], [137.58746, 34.69432], [137.58498, 34.69431], [137.58439, 34.69432], [137.58258, 34.69433], [137.58153, 34.69434], [137.58075, 34.69435], [137.5789, 34.69436], [137.57706, 34.69432], [137.5752, 34.69432], [137.57146, 34.69428], [137.57045, 34.69428]]}, "properties": {"id": "GEOM_TOKYO_1132", "route_id": "R_A38B6B65", "route_name": null, "route_color": "#F28E1C", "route_text_color": null, "line_name": "東海道線", "operator_id": "東海旅客鉄道", "representation": "service_path", "min_zoom": 0, "max_zoom": 24, "offset_rank": 0}}, {"type": "Feature", "bbox": [137.60453, 34.68571, 137.62525, 34.68955], "geometry": {"type": "LineString", "coordinates": [[137.62525, 34.68571], [137.62502, 34.68571], [137.6239, 34.68572], [137.62388, 34.68572], [137.62282, 34.68573], [137.62199, 34.68574], [137.62006, 34.68576], [137.61836, 34.68576], [137.61794, 34.68576], [137.61764, 34.68576], [137.61629, 34.68576], [137.61525, 34.68582], [137.61443, 34.68589], [137.61359, 34.68605], [137.61274, 34.68625], [137.61218, 34.68642], [137.61121, 34.68678], [137.60923, 34.68761], [137.60808, 34.68808], [137.60727, 34.68842], [137.60705, 34.68851], [137.60652, 34.68873], [137.60506, 34.68933], [137.60453, 34.68955]]}, "properties": {"id": "GEOM_TOKYO_1133", "route_id": "R_A38B6B65", "route_name": null, "route_color": "#F28E1C", "route_text_color": null, "line_name": "東海道線", "operator_id": "東海旅客鉄道", "representation": "service_path", "min_zoom": 0, "max_zoom": 24, "offset_rank": 0}}, {"type": "Feature", "bbox": [137.47606, 34.72368, 137.48036, 34.72397], "geometry": {"type": "LineString", "coordinates": [[137.47606, 34.72368], [137.47903, 34.72395], [137.47993, 34.72397], [137.48036, 34.72393]]}, "properties": {"id": "GEOM_TOKYO_1135", "route_id": "R_A38B6B65", "route_name": null, "route_color": "#F28E1C", "route_text_color": null, "line_name": "東海道線", "operator_id": "東海旅客鉄道", "representation": "service_path", "min_zoom": 0, "max_zoom": 24, "offset_rank": 0}}, {"type": "Feature", "bbox": [137.60165, 34.68955, 137.60453, 34.69074], "geometry": {"type": "LineString", "coordinates": [[137.60453, 34.68955], [137.60396, 34.68978], [137.60375, 34.68988], [137.60318, 34.69011], [137.60165, 34.69074]]}, "properties": {"id": "GEOM_TOKYO_1136", "route_id": "R_A38B6B65", "route_name": null, "route_color": "#F28E1C", "route_text_color": null, "line_name": "東海道線", "operator_id": "東海旅客鉄道", "representation": "service_path", "min_zoom": 0, "max_zoom": 24, "offset_rank": 0}}, {"type": "Feature", "bbox": [137.7809, 34.71225, 137.81877, 34.71924], "geometry": {"type": "LineString", "coordinates": [[137.81877, 34.71225], [137.81812, 34.71237], [137.81732, 34.71254], [137.81652, 34.71273], [137.81546, 34.71295], [137.81369, 34.71335], [137.81202, 34.71372], [137.81171, 34.7138], [137.81136, 34.71388], [137.81119, 34.71393], [137.81034, 34.71418], [137.80981, 34.71433], [137.80915, 34.71456], [137.80866, 34.7147], [137.80794, 34.7149], [137.8075, 34.715], [137.80715, 34.71509], [137.80623, 34.7153], [137.80535, 34.71551], [137.80525, 34.71553], [137.80407, 34.7158], [137.80297, 34.71604], [137.80198, 34.71627], [137.80081, 34.71654], [137.79861, 34.71706], [137.79693, 34.71745], [137.79522, 34.71784], [137.79426, 34.71805], [137.7934, 34.71824], [137.79255, 34.71841], [137.79231, 34.71846], [137.79153, 34.71862], [137.7903, 34.71884], [137.78936, 34.71899], [137.78863, 34.71909], [137.78769, 34.71919], [137.78729, 34.71921], [137.78694, 34.71923], [137.78641, 34.71924], [137.78619, 34.71923], [137.78591, 34.71921], [137.78518, 34.71915], [137.78481, 34.71909], [137.78398, 34.71895], [137.78361, 34.71887], [137.7832, 34.71876], [137.78282, 34.71864], [137.78197, 34.71829], [137.7809, 34.71778]]}, "properties": {"id": "GEOM_TOKYO_1137", "route_id": "R_A38B6B65", "route_name": null, "route_color": "#F28E1C", "route_text_color": null, "line_name": "東海道線", "operator_id": "東海旅客鉄道", "representation": "service_path", "min_zoom": 0, "max_zoom": 24, "offset_rank": 0}}, {"type": "Feature", "bbox": [137.62741, 34.68523, 137.68, 34.69042], "geometry": {"type": "LineString", "coordinates": [[137.68, 34.69042], [137.67962, 34.69042], [137.6785, 34.69042], [137.67748, 34.6904], [137.67658, 34.69039], [137.6761, 34.69037], [137.67568, 34.69035], [137.6752, 34.69033], [137.67454, 34.69026], [137.67398, 34.6902], [137.67361, 34.69015], [137.67324, 34.69007], [137.67288, 34.68999], [137.6725, 34.6899], [137.67158, 34.68964], [137.67102, 34.68948], [137.67052, 34.68931], [137.66961, 34.68899], [137.6685, 34.68857], [137.66711, 34.68803], [137.66533, 34.68732], [137.665, 34.68719], [137.66391, 34.68677], [137.66292, 34.68639], [137.6623, 34.68615], [137.66176, 34.68595], [137.66123, 34.68573], [137.66064, 34.68555], [137.66013, 34.68543], [137.65944, 34.68531], [137.65877, 34.68525], [137.65842, 34.68524], [137.65687, 34.68523], [137.65538, 34.68525], [137.65477, 34.68525], [137.65339, 34.68527], [137.65161, 34.68529], [137.65028, 34.6853], [137.64852, 34.68532], [137.64732, 34.68533], [137.64559, 34.68535], [137.6444, 34.68537], [137.64369, 34.68539], [137.64336, 34.68539], [137.64292, 34.6854], [137.6412, 34.68543], [137.63931, 34.68545], [137.63849, 34.68545], [137.63793, 34.68545], [137.63623, 34.68546], [137.6345, 34.68551], [137.63271, 34.68554], [137.63129, 34.68558], [137.63014, 34.68561], [137.62911, 34.68563], [137.62741, 34.68567]]}, "properties": {"id": "GEOM_TOKYO_1139", "route_id": "R_A38B6B65", "route_name": null, "route_color": "#F28E1C", "route_text_color": null, "line_name": "東海道線", "operator_id": "東海旅客鉄道", "representation": "service_path", "min_zoom": 0, "max_zoom": 24, "offset_rank": 0}}, {"type": "Feature", "bbox": [137.54504, 34.71621, 137.54734, 34.71733], "geometry": {"type": "LineString", "coordinates": [[137.54734, 34.71621], [137.54504, 34.71733]]}, "properties": {"id": "GEOM_TOKYO_1140", "route_id": "R_A38B6B65", "route_name": null, "route_color": "#F28E1C", "route_text_color": null, "line_name": "東海道線", "operator_id": "東海旅客鉄道", "representation": "service_path", "min_zoom": 0, "max_zoom": 24, "offset_rank": 0}}, {"type": "Feature", "bbox": [137.56752, 34.69427, 137.57045, 34.69428], "geometry": {"type": "LineString", "coordinates": [[137.57045, 34.69428], [137.56959, 34.69428], [137.56773, 34.69427], [137.56752, 34.69427]]}, "properties": {"id": "GEOM_TOKYO_1142", "route_id": "R_A38B6B65", "route_name": null, "route_color": "#F28E1C", "route_text_color": null, "line_name": "東海道線", "operator_id": "東海旅客鉄道", "representation": "service_path", "min_zoom": 0, "max_zoom": 24, "offset_rank": 0}}, {"type": "Feature", "bbox": [137.82083, 34.71008, 137.85085, 34.71192], "geometry": {"type": "LineString", "coordinates": [[137.85085, 34.71017], [137.85041, 34.71015], [137.84939, 34.71013], [137.84872, 34.71012], [137.84733, 34.71008], [137.84571, 34.71009], [137.84526, 34.7101], [137.84476, 34.71008], [137.84366, 34.71012], [137.84212, 34.7102], [137.84029, 34.71037], [137.84009, 34.71039], [137.8395, 34.71044], [137.83863, 34.71051], [137.83705, 34.71063], [137.83693, 34.71064], [137.83676, 34.71066], [137.83559, 34.71076], [137.83529, 34.71078], [137.8344, 34.71085], [137.83429, 34.71086], [137.83417, 34.71087], [137.83395, 34.71089], [137.83359, 34.71091], [137.83196, 34.71107], [137.83068, 34.71117], [137.83031, 34.7112], [137.82867, 34.71134], [137.82525, 34.71152], [137.82402, 34.71159], [137.82357, 34.71163], [137.8232, 34.71166], [137.82279, 34.7117], [137.82241, 34.71175], [137.82156, 34.71184], [137.82122, 34.71188], [137.82083, 34.71192]]}, "properties": {"id": "GEOM_TOKYO_1143", "route_id": "R_A38B6B65", "route_name": null, "route_color": "#F28E1C", "route_text_color": null, "line_name": "東海道線", "operator_id": "東海旅客鉄道", "representation": "service_path", "min_zoom": 0, "max_zoom": 24, "offset_rank": 0}}, {"type": "Feature", "bbox": [137.73349, 34.70321, 137.7366, 34.70473], "geometry": {"type": "LineString", "coordinates": [[137.7366, 34.70473], [137.73624, 34.70462], [137.73588, 34.70448], [137.73546, 34.70428], [137.73513, 34.7041], [137.73431, 34.70366], [137.73383, 34.7034], [137.73349, 34.70321]]}, "properties": {"id": "GEOM_TOKYO_1144", "route_id": "R_A38B6B65", "route_name": null, "route_color": "#F28E1C", "route_text_color": null, "line_name": "東海道線", "operator_id": "東海旅客鉄道", "representation": "service_path", "min_zoom": 0, "max_zoom": 24, "offset_rank": 0}}, {"type": "Feature", "bbox": [137.68, 34.69042, 137.68269, 34.69043], "geometry": {"type": "LineString", "coordinates": [[137.68269, 34.69043], [137.68, 34.69042]]}, "properties": {"id": "GEOM_TOKYO_1147", "route_id": "R_A38B6B65", "route_name": null, "route_color": "#F28E1C", "route_text_color": null, "line_name": "東海道線", "operator_id": "東海旅客鉄道", "representation": "service_path", "min_zoom": 0, "max_zoom": 24, "offset_rank": 0}}, {"type": "Feature", "bbox": [137.62525, 34.68567, 137.62741, 34.68571], "geometry": {"type": "LineString", "coordinates": [[137.62741, 34.68567], [137.62525, 34.68571]]}, "properties": {"id": "GEOM_TOKYO_1148", "route_id": "R_A38B6B65", "route_name": null, "route_color": "#F28E1C", "route_text_color": null, "line_name": "東海道線", "operator_id": "東海旅客鉄道", "representation": "service_path", "min_zoom": 0, "max_zoom": 24, "offset_rank": 0}}, {"type": "Feature", "bbox": [137.48615, 34.71733, 137.54504, 34.72294], "geometry": {"type": "LineString", "coordinates": [[137.48615, 34.72294], [137.48839, 34.72249], [137.49385, 34.72144], [137.49519, 34.72119], [137.497, 34.72083], [137.49719, 34.72081], [137.49867, 34.72058], [137.49928, 34.72047], [137.50088, 34.72018], [137.50382, 34.7197], [137.50406, 34.71967], [137.50448, 34.71966], [137.50483, 34.71967], [137.50561, 34.71975], [137.51011, 34.72069], [137.51249, 34.72119], [137.51299, 34.72128], [137.51329, 34.72132], [137.51356, 34.72135], [137.51392, 34.72139], [137.51499, 34.72144], [137.51681, 34.72147], [137.5196, 34.7215], [137.52109, 34.72151], [137.52193, 34.72152], [137.5225, 34.72153], [137.52327, 34.72155], [137.52893, 34.72156], [137.52916, 34.72156], [137.52939, 34.72156], [137.53186, 34.72157], [137.53361, 34.72155], [137.53488, 34.72154], [137.53529, 34.72152], [137.5359, 34.72145], [137.5362, 34.72141], [137.53647, 34.72135], [137.53682, 34.72124], [137.53742, 34.72097], [137.53878, 34.72035], [137.53996, 34.71979], [137.54304, 34.7183], [137.54466, 34.71752], [137.54483, 34.71744], [137.54504, 34.71733]]}, "properties": {"id": "GEOM_TOKYO_1149", "route_id": "R_A38B6B65", "route_name": null, "route_color": "#F28E1C", "route_text_color": null, "line_name": "東海道線", "operator_id": "東海旅客鉄道", "representation": "service_path", "min_zoom": 0, "max_zoom": 24, "offset_rank": 0}}, {"type": "Feature", "bbox": [137.44036, 34.72207, 137.47606, 34.72545], "geometry": {"type": "LineString", "coordinates": [[137.44036, 34.72545], [137.44044, 34.72543], [137.44176, 34.72513], [137.44335, 34.72476], [137.44361, 34.7247], [137.44693, 34.72392], [137.4482, 34.72361], [137.45045, 34.72309], [137.45322, 34.72244], [137.45401, 34.72229], [137.4542, 34.72226], [137.45549, 34.7221], [137.45656, 34.72207], [137.45766, 34.72211], [137.45883, 34.7222], [137.46024, 34.72231], [137.46503, 34.72274], [137.46584, 34.72282], [137.472, 34.72333], [137.47346, 34.72345], [137.47606, 34.72368]]}, "properties": {"id": "GEOM_TOKYO_1151", "route_id": "R_A38B6B65", "route_name": null, "route_color": "#F28E1C", "route_text_color": null, "line_name": "東海道線", "operator_id": "東海旅客鉄道", "representation": "service_path", "min_zoom": 0, "max_zoom": 24, "offset_rank": 0}}, {"type": "Feature", "bbox": [137.54734, 34.69427, 137.56752, 34.71621], "geometry": {"type": "LineString", "coordinates": [[137.56752, 34.69427], [137.56644, 34.69428], [137.56485, 34.69436], [137.56466, 34.69439], [137.56405, 34.69448], [137.56389, 34.69451], [137.56362, 34.69457], [137.56354, 34.69459], [137.56347, 34.6946], [137.56275, 34.69481], [137.56224, 34.69498], [137.56143, 34.69526], [137.56131, 34.69531], [137.56092, 34.69544], [137.5608, 34.69549], [137.56039, 34.69567], [137.56009, 34.69581], [137.55979, 34.69596], [137.5595, 34.69616], [137.55912, 34.69649], [137.55777, 34.69782], [137.5571, 34.69855], [137.55652, 34.69923], [137.55633, 34.69954], [137.5562, 34.69991], [137.5561, 34.70027], [137.55604, 34.70048], [137.55596, 34.70076], [137.55594, 34.70086], [137.55589, 34.7011], [137.55579, 34.70151], [137.55517, 34.70395], [137.55471, 34.70583], [137.55443, 34.70695], [137.55421, 34.70792], [137.55403, 34.70861], [137.55388, 34.70923], [137.55381, 34.70949], [137.55372, 34.70981], [137.55355, 34.71053], [137.55345, 34.71085], [137.5533, 34.7112], [137.55322, 34.71138], [137.55307, 34.71162], [137.55281, 34.71199], [137.55203, 34.71296], [137.55158, 34.71347], [137.55125, 34.71381], [137.55075, 34.71428], [137.55031, 34.71461], [137.54968, 34.71503], [137.54897, 34.71548], [137.54826, 34.71584], [137.54734, 34.71621]]}, "properties": {"id": "GEOM_TOKYO_1152", "route_id": "R_A38B6B65", "route_name": null, "route_color": "#F28E1C", "route_text_color": null, "line_name": "東海道線", "operator_id": "東海旅客鉄道", "representation": "service_path", "min_zoom": 0, "max_zoom": 24, "offset_rank": 0}}, {"type": "Feature", "bbox": [137.77791, 34.71635, 137.7809, 34.71778], "geometry": {"type": "LineString", "coordinates": [[137.7809, 34.71778], [137.77791, 34.71635]]}, "properties": {"id": "GEOM_TOKYO_1153", "route_id": "R_A38B6B65", "route_name": null, "route_color": "#F28E1C", "route_text_color": null, "line_name": "東海道線", "operator_id": "東海旅客鉄道", "representation": "service_path", "min_zoom": 0, "max_zoom": 24, "offset_rank": 0}}, {"type": "Feature", "bbox": [137.68269, 34.69041, 137.73349, 34.70321], "geometry": {"type": "LineString", "coordinates": [[137.73349, 34.70321], [137.73304, 34.70291], [137.73253, 34.70257], [137.7323, 34.70239], [137.73197, 34.70216], [137.73164, 34.70191], [137.73109, 34.70149], [137.73064, 34.70115], [137.73014, 34.70077], [137.72955, 34.70032], [137.72895, 34.69987], [137.72851, 34.69953], [137.7279, 34.6991], [137.72748, 34.69879], [137.72702, 34.69848], [137.72694, 34.69843], [137.72669, 34.69829], [137.7266, 34.69823], [137.72616, 34.69798], [137.72556, 34.69769], [137.72511, 34.6975], [137.72455, 34.69728], [137.72399, 34.69708], [137.72351, 34.69693], [137.72292, 34.69677], [137.72247, 34.69665], [137.72182, 34.69647], [137.7212, 34.6963], [137.72051, 34.69611], [137.71991, 34.69595], [137.71934, 34.69579], [137.7191, 34.69572], [137.71856, 34.69557], [137.71793, 34.6954], [137.71728, 34.69522], [137.71642, 34.695], [137.71614, 34.69493], [137.71584, 34.69486], [137.71531, 34.6947], [137.71447, 34.69447], [137.71382, 34.69428], [137.71299, 34.69403], [137.71205, 34.69375], [137.71093, 34.69343], [137.71009, 34.69318], [137.70955, 34.69303], [137.70938, 34.69298], [137.7093, 34.69296], [137.70868, 34.69277], [137.7075, 34.69243], [137.70683, 34.69222], [137.70596, 34.69197], [137.70518, 34.69175], [137.70454, 34.69161], [137.70375, 34.69142], [137.70322, 34.6913], [137.70281, 34.69121], [137.70166, 34.69099], [137.70081, 34.69082], [137.69998, 34.69069], [137.69884, 34.69053], [137.69825, 34.69046], [137.69818, 34.69045], [137.69779, 34.69042], [137.69734, 34.69042], [137.69608, 34.69042], [137.69549, 34.69041], [137.69492, 34.69041], [137.69377, 34.69041], [137.69325, 34.69041], [137.69176, 34.69041], [137.69061, 34.69041], [137.68895, 34.69042], [137.68762, 34.69042], [137.68613, 34.69043], [137.685, 34.69043], [137.68388, 34.69044], [137.68269, 34.69043]]}, "properties": {"id": "GEOM_TOKYO_1154", "route_id": "R_A38B6B65", "route_name": null, "route_color": "#F28E1C", "route_text_color": null, "line_name": "東海道線", "operator_id": "東海旅客鉄道", "representation": "service_path", "min_zoom": 0, "max_zoom": 24, "offset_rank": 0}}, {"type": "Feature", "bbox": [137.43738, 34.72545, 137.44036, 34.72614], "geometry": {"type": "LineString", "coordinates": [[137.43738, 34.72614], [137.44036, 34.72545]]}, "properties": {"id": "GEOM_TOKYO_1155", "route_id": "R_A38B6B65", "route_name": null, "route_color": "#F28E1C", "route_text_color": null, "line_name": "東海道線", "operator_id": "東海旅客鉄道", "representation": "service_path", "min_zoom": 0, "max_zoom": 24, "offset_rank": 0}}, {"type": "Feature", "bbox": [137.7366, 34.70473, 137.77791, 34.71635], "geometry": {"type": "LineString", "coordinates": [[137.77791, 34.71635], [137.7769, 34.71585], [137.77523, 34.71503], [137.77501, 34.71492], [137.77355, 34.71417], [137.77186, 34.71337], [137.77026, 34.71257], [137.76997, 34.71243], [137.76849, 34.71171], [137.76722, 34.71112], [137.76513, 34.71029], [137.76427, 34.70999], [137.76358, 34.70979], [137.76308, 34.70964], [137.76173, 34.70927], [137.76016, 34.70891], [137.75985, 34.70885], [137.75962, 34.70881], [137.75953, 34.70879], [137.7587, 34.70866], [137.75822, 34.7086], [137.75806, 34.70858], [137.75564, 34.7083], [137.75485, 34.70822], [137.7534, 34.70804], [137.7516, 34.70782], [137.75068, 34.70772], [137.74993, 34.70764], [137.74826, 34.70742], [137.74698, 34.70727], [137.74679, 34.70724], [137.74618, 34.70716], [137.74565, 34.70708], [137.74506, 34.70699], [137.74446, 34.70689], [137.74404, 34.70681], [137.74364, 34.70674], [137.74316, 34.70664], [137.74264, 34.70653], [137.74197, 34.70637], [137.74158, 34.70627], [137.74123, 34.70618], [137.74064, 34.70601], [137.74, 34.70584], [137.73947, 34.70569], [137.73905, 34.70555], [137.73877, 34.70547], [137.73836, 34.70533], [137.73782, 34.70515], [137.73742, 34.70502], [137.73711, 34.70491], [137.7366, 34.70473]]}, "properties": {"id": "GEOM_TOKYO_1156", "route_id": "R_A38B6B65", "route_name": null, "route_color": "#F28E1C", "route_text_color": null, "line_name": "東海道線", "operator_id": "東海旅客鉄道", "representation": "service_path", "min_zoom": 0, "max_zoom": 24, "offset_rank": 0}}, {"type": "Feature", "bbox": [137.38333, 34.72614, 137.43738, 34.76105], "geometry": {"type": "LineString", "coordinates": [[137.38333, 34.76105], [137.38344, 34.76087], [137.38352, 34.76075], [137.38362, 34.7606], [137.38399, 34.76011], [137.38418, 34.7598], [137.38479, 34.75884], [137.38506, 34.75846], [137.38564, 34.75753], [137.38634, 34.75639], [137.38719, 34.75501], [137.38775, 34.75412], [137.38777, 34.7541], [137.38791, 34.75388], [137.38824, 34.75329], [137.38836, 34.75309], [137.38864, 34.7527], [137.38895, 34.75235], [137.38947, 34.75182], [137.39018, 34.75119], [137.39242, 34.74906], [137.39425, 34.74731], [137.39506, 34.74652], [137.39523, 34.74636], [137.39524, 34.74634], [137.39541, 34.74618], [137.39613, 34.7455], [137.39768, 34.74405], [137.39802, 34.74374], [137.39884, 34.74306], [137.39891, 34.74301], [137.39957, 34.74246], [137.40012, 34.74209], [137.40333, 34.7401], [137.40583, 34.73857], [137.40764, 34.73747], [137.40773, 34.73741], [137.41033, 34.7358], [137.414, 34.73354], [137.41525, 34.73278], [137.41648, 34.73204], [137.41709, 34.73173], [137.41763, 34.73147], [137.41829, 34.73119], [137.41933, 34.73079], [137.42005, 34.73056], [137.42105, 34.73029], [137.42276, 34.72986], [137.4268, 34.72882], [137.42877, 34.72832], [137.42948, 34.72815], [137.43202, 34.7275], [137.43382, 34.72704], [137.43612, 34.72646], [137.43738, 34.72614]]}, "properties": {"id": "GEOM_TOKYO_1157", "route_id": "R_A38B6B65", "route_name": null, "route_color": "#F28E1C", "route_text_color": null, "line_name": "東海道線", "operator_id": "東海旅客鉄道", "representation": "service_path", "min_zoom": 0, "max_zoom": 24, "offset_rank": 0}}, {"type": "Feature", "bbox": [137.31783, 34.79744, 137.35181, 34.81229], "geometry": {"type": "LineString", "coordinates": [[137.31783, 34.81229], [137.3181, 34.81222], [137.31955, 34.81187], [137.32108, 34.81149], [137.32145, 34.8114], [137.3218, 34.81131], [137.32197, 34.81128], [137.32217, 34.81123], [137.32234, 34.81119], [137.32285, 34.81107], [137.32319, 34.81097], [137.3235, 34.81088], [137.32378, 34.81078], [137.32398, 34.81072], [137.32425, 34.81061], [137.32457, 34.81049], [137.32484, 34.81038], [137.32504, 34.81029], [137.32522, 34.81021], [137.32541, 34.81013], [137.32572, 34.81], [137.32599, 34.80987], [137.32639, 34.80968], [137.32696, 34.80939], [137.32751, 34.80914], [137.32819, 34.80881], [137.32874, 34.80855], [137.32954, 34.80815], [137.32997, 34.80795], [137.33037, 34.80775], [137.33077, 34.80756], [137.33119, 34.80736], [137.33161, 34.80716], [137.33211, 34.80691], [137.33243, 34.80676], [137.3327, 34.80664], [137.33286, 34.80656], [137.33307, 34.80646], [137.33313, 34.80643], [137.3332, 34.80639], [137.33332, 34.80633], [137.33352, 34.80624], [137.33385, 34.80608], [137.33399, 34.80601], [137.33419, 34.8059], [137.33508, 34.80549], [137.3357, 34.80519], [137.33632, 34.8049], [137.33675, 34.8047], [137.33723, 34.80447], [137.33755, 34.80431], [137.33775, 34.80422], [137.33815, 34.80402], [137.33855, 34.80383], [137.33881, 34.80369], [137.33896, 34.80362], [137.33919, 34.80352], [137.33933, 34.80344], [137.33976, 34.80324], [137.34046, 34.80292], [137.34169, 34.80232], [137.34228, 34.80204], [137.34236, 34.802], [137.34324, 34.80158], [137.34411, 34.80117], [137.34477, 34.80085], [137.34571, 34.8004], [137.34637, 34.80009], [137.34735, 34.79962], [137.34801, 34.79929], [137.3488, 34.79892], [137.34931, 34.79866], [137.34994, 34.79836], [137.3504, 34.79813], [137.35091, 34.79789], [137.35151, 34.79759], [137.35181, 34.79744]]}, "properties": {"id": "GEOM_TOKYO_1160", "route_id": "R_A38B6B65", "route_name": null, "route_color": "#F28E1C", "route_text_color": null, "line_name": "東海道線", "operator_id": "東海旅客鉄道", "representation": "service_path", "min_zoom": 0, "max_zoom": 24, "offset_rank": 0}}, {"type": "Feature", "bbox": [137.35181, 34.79661, 137.35356, 34.79744], "geometry": {"type": "LineString", "coordinates": [[137.35356, 34.79661], [137.35312, 34.79684], [137.35243, 34.79716], [137.35181, 34.79744]]}, "properties": {"id": "GEOM_TOKYO_1163", "route_id": "R_A38B6B65", "route_name": null, "route_color": "#F28E1C", "route_text_color": null, "line_name": "東海道線", "operator_id": "東海旅客鉄道", "representation": "service_path", "min_zoom": 0, "max_zoom": 24, "offset_rank": 0}}, {"type": "Feature", "bbox": [137.28213, 34.81548, 137.28367, 34.81601], "geometry": {"type": "LineString", "coordinates": [[137.28367, 34.81601], [137.28338, 34.81593], [137.28308, 34.81582], [137.28252, 34.81562], [137.28213, 34.81548]]}, "properties": {"id": "GEOM_TOKYO_1165", "route_id": "R_A38B6B65", "route_name": null, "route_color": "#F28E1C", "route_text_color": null, "line_name": "東海道線", "operator_id": "東海旅客鉄道", "representation": "service_path", "min_zoom": 0, "max_zoom": 24, "offset_rank": 0}}, {"type": "Feature", "bbox": [137.24951, 34.81365, 137.28213, 34.81825], "geometry": {"type": "LineString", "coordinates": [[137.24951, 34.81825], [137.25003, 34.81816], [137.25038, 34.81809], [137.25104, 34.81796], [137.25162, 34.81785], [137.25243, 34.81769], [137.25291, 34.81761], [137.25337, 34.81752], [137.25376, 34.81744], [137.25414, 34.81737], [137.25451, 34.81729], [137.25476, 34.81724], [137.25492, 34.81722], [137.25509, 34.81719], [137.2553, 34.81715], [137.25567, 34.81708], [137.25633, 34.81699], [137.2568, 34.81692], [137.25708, 34.81687], [137.25741, 34.81683], [137.25783, 34.81678], [137.25818, 34.81673], [137.25873, 34.81667], [137.25942, 34.81658], [137.25991, 34.81651], [137.26048, 34.81642], [137.26108, 34.81633], [137.26114, 34.81631], [137.26138, 34.81626], [137.26173, 34.81618], [137.26205, 34.81609], [137.26225, 34.81603], [137.26272, 34.81587], [137.26306, 34.81578], [137.26336, 34.81567], [137.26362, 34.81559], [137.2638, 34.81553], [137.26389, 34.81549], [137.26415, 34.81541], [137.2644, 34.81532], [137.26466, 34.81523], [137.26491, 34.81515], [137.26516, 34.81505], [137.2654, 34.81496], [137.26564, 34.81487], [137.26591, 34.81478], [137.26662, 34.81451], [137.26687, 34.81442], [137.26705, 34.81436], [137.26725, 34.8143], [137.2677, 34.81416], [137.26814, 34.81401], [137.26851, 34.8139], [137.26898, 34.81378], [137.26921, 34.81374], [137.26944, 34.81369], [137.26971, 34.81367], [137.27001, 34.81366], [137.27037, 34.81365], [137.27101, 34.81366], [137.27156, 34.81368], [137.27192, 34.8137], [137.27215, 34.81372], [137.27262, 34.81377], [137.2732, 34.81382], [137.27388, 34.81389], [137.27466, 34.81396], [137.27521, 34.81401], [137.27567, 34.81406], [137.27586, 34.81408], [137.27618, 34.81411], [137.27652, 34.81415], [137.27663, 34.81415], [137.27692, 34.81418], [137.27702, 34.81419], [137.27712, 34.8142], [137.2776, 34.81426], [137.27804, 34.81435], [137.2784, 34.81441], [137.27907, 34.81453], [137.27962, 34.81465], [137.27983, 34.81471], [137.28024, 34.81483], [137.28041, 34.81489], [137.28087, 34.81505], [137.28173, 34.81534], [137.28213, 34.81548]]}, "properties": {"id": "GEOM_TOKYO_1168", "route_id": "R_A38B6B65", "route_name": null, "route_color": "#F28E1C", "route_text_color": null, "line_name": "東海道線", "operator_id": "東海旅客鉄道", "representation": "service_path", "min_zoom": 0, "max_zoom": 24, "offset_rank": 0}}, {"type": "Feature", "bbox": [137.28367, 34.81288, 137.31534, 34.81712], "geometry": {"type": "LineString", "coordinates": [[137.28367, 34.81601], [137.28394, 34.81609], [137.28431, 34.81617], [137.28464, 34.81623], [137.28507, 34.8163], [137.28565, 34.81637], [137.2865, 34.81646], [137.28715, 34.81651], [137.28825, 34.81659], [137.28892, 34.81664], [137.28953, 34.81668], [137.28976, 34.8167], [137.29019, 34.81673], [137.29048, 34.81675], [137.29089, 34.81677], [137.29118, 34.81679], [137.29145, 34.81681], [137.29171, 34.81682], [137.29189, 34.81684], [137.29212, 34.81686], [137.2924, 34.81688], [137.29249, 34.81688], [137.29258, 34.81688], [137.29298, 34.81692], [137.29337, 34.81695], [137.29349, 34.81696], [137.2938, 34.81698], [137.29415, 34.81701], [137.295, 34.81705], [137.29562, 34.8171], [137.29583, 34.81711], [137.29669, 34.81712], [137.29733, 34.81712], [137.29759, 34.81711], [137.29779, 34.8171], [137.29802, 34.81709], [137.29855, 34.81706], [137.29899, 34.817], [137.29939, 34.81693], [137.29949, 34.81691], [137.30035, 34.81673], [137.301, 34.81657], [137.30145, 34.81645], [137.30234, 34.81621], [137.30311, 34.81602], [137.30437, 34.8157], [137.30513, 34.81551], [137.30628, 34.81522], [137.30671, 34.81511], [137.30721, 34.81498], [137.30766, 34.81486], [137.30833, 34.8147], [137.30877, 34.81459], [137.30944, 34.81443], [137.3098, 34.81433], [137.30998, 34.81428], [137.31018, 34.81423], [137.31032, 34.8142], [137.3106, 34.81412], [137.31091, 34.81404], [137.31125, 34.81396], [137.31202, 34.81375], [137.31271, 34.81357], [137.31341, 34.81339], [137.3139, 34.81327], [137.31478, 34.81303], [137.31534, 34.81288]]}, "properties": {"id": "GEOM_TOKYO_1169", "route_id": "R_A38B6B65", "route_name": null, "route_color": "#F28E1C", "route_text_color": null, "line_name": "東海道線", "operator_id": "東海旅客鉄道", "representation": "service_path", "min_zoom": 0, "max_zoom": 24, "offset_rank": 0}}, {"type": "Feature", "bbox": [137.31534, 34.81229, 137.31783, 34.81288], "geometry": {"type": "LineString", "coordinates": [[137.31783, 34.81229], [137.31534, 34.81288]]}, "properties": {"id": "GEOM_TOKYO_1178", "route_id": "R_A38B6B65", "route_name": null, "route_color": "#F28E1C", "route_text_color": null, "line_name": "東海道線", "operator_id": "東海旅客鉄道", "representation": "service_path", "min_zoom": 0, "max_zoom": 24, "offset_rank": 0}}, {"type": "Feature", "bbox": [137.35356, 34.76404, 137.38141, 34.79661], "geometry": {"type": "LineString", "coordinates": [[137.35356, 34.79661], [137.35413, 34.79635], [137.35461, 34.79612], [137.35519, 34.79583], [137.3557, 34.79559], [137.35618, 34.79535], [137.35683, 34.79501], [137.35743, 34.79469], [137.35805, 34.79433], [137.35843, 34.7941], [137.35886, 34.79386], [137.3594, 34.79353], [137.35973, 34.79332], [137.35993, 34.79319], [137.36011, 34.79304], [137.3603, 34.7929], [137.36041, 34.79281], [137.36062, 34.79266], [137.36109, 34.7923], [137.36115, 34.79225], [137.36144, 34.79199], [137.36187, 34.79163], [137.36233, 34.79122], [137.36239, 34.79117], [137.36259, 34.79098], [137.36272, 34.79087], [137.36293, 34.79066], [137.36343, 34.7902], [137.36378, 34.78985], [137.36386, 34.78977], [137.36433, 34.7893], [137.36472, 34.78891], [137.36501, 34.7886], [137.3656, 34.78796], [137.36607, 34.78741], [137.36643, 34.78696], [137.36649, 34.78688], [137.36662, 34.78669], [137.36678, 34.78648], [137.36718, 34.78597], [137.36759, 34.78531], [137.3682, 34.78433], [137.36834, 34.78412], [137.36849, 34.78389], [137.36866, 34.78364], [137.369, 34.78312], [137.36916, 34.78287], [137.36919, 34.78282], [137.36965, 34.78211], [137.36972, 34.78201], [137.36983, 34.78185], [137.36985, 34.78181], [137.37037, 34.78101], [137.37058, 34.78067], [137.37066, 34.78056], [137.37074, 34.78041], [137.37079, 34.78033], [137.37119, 34.77972], [137.37169, 34.77897], [137.37194, 34.77858], [137.37201, 34.77848], [137.37223, 34.77816], [137.3728, 34.77731], [137.3737, 34.77594], [137.37425, 34.77511], [137.3744, 34.77487], [137.37471, 34.77441], [137.37583, 34.77268], [137.37678, 34.77123], [137.37786, 34.76955], [137.37823, 34.76898], [137.3784, 34.76873], [137.379, 34.76781], [137.3797, 34.76675], [137.37988, 34.76646], [137.38043, 34.7656], [137.38091, 34.76483], [137.38112, 34.76451], [137.38141, 34.76404]]}, "properties": {"id": "GEOM_TOKYO_1179", "route_id": "R_A38B6B65", "route_name": null, "route_color": "#F28E1C", "route_text_color": null, "line_name": "東海道線", "operator_id": "東海旅客鉄道", "representation": "service_path", "min_zoom": 0, "max_zoom": 24, "offset_rank": 0}}, {"type": "Feature", "bbox": [137.38175, 34.76105, 137.38333, 34.7635], "geometry": {"type": "LineString", "coordinates": [[137.38333, 34.76105], [137.38294, 34.76166], [137.38175, 34.7635]]}, "properties": {"id": "GEOM_TOKYO_1183", "route_id": "R_A38B6B65", "route_name": null, "route_color": "#F28E1C", "route_text_color": null, "line_name": "東海道線", "operator_id": "東海旅客鉄道", "representation": "service_path", "min_zoom": 0, "max_zoom": 24, "offset_rank": 0}}, {"type": "Feature", "bbox": [137.38141, 34.7635, 137.38175, 34.76404], "geometry": {"type": "LineString", "coordinates": [[137.38175, 34.7635], [137.38172, 34.76354], [137.38141, 34.76404]]}, "properties": {"id": "GEOM_TOKYO_1184", "route_id": "R_A38B6B65", "route_name": null, "route_color": "#F28E1C", "route_text_color": null, "line_name": "東海道線", "operator_id": "東海旅客鉄道", "representation": "service_path", "min_zoom": 0, "max_zoom": 24, "offset_rank": 0}}, {"type": "Feature", "bbox": [137.48036, 34.72347, 137.4833, 34.72413], "geometry": {"type": "LineString", "coordinates": [[137.48036, 34.72393], [137.48061, 34.72399], [137.48092, 34.72407], [137.48121, 34.72412], [137.4814, 34.72413], [137.48163, 34.72412], [137.48208, 34.72404], [137.4822, 34.724], [137.48236, 34.72394], [137.4833, 34.72347]]}, "properties": {"id": "GEOM_TOKYO_1225", "route_id": "R_A38B6B65", "route_name": null, "route_color": "#F28E1C", "route_text_color": null, "line_name": "東海道線", "operator_id": "東海旅客鉄道", "representation": "service_path", "min_zoom": 0, "max_zoom": 24, "offset_rank": 0}}, {"type": "Feature", "bbox": [137.48036, 34.72347, 137.4833, 34.72393], "geometry": {"type": "LineString", "coordinates": [[137.48036, 34.72393], [137.48068, 34.7239], [137.48213, 34.72365], [137.48223, 34.72364], [137.4833, 34.72347]]}, "properties": {"id": "GEOM_TOKYO_1226", "route_id": "R_A38B6B65", "route_name": null, "route_color": "#F28E1C", "route_text_color": null, "line_name": "東海道線", "operator_id": "東海旅客鉄道", "representation": "service_path", "min_zoom": 0, "max_zoom": 24, "offset_rank": 0}}, {"type": "Feature", "bbox": [137.4833, 34.72344, 137.48348, 34.72347], "geometry": {"type": "LineString", "coordinates": [[137.4833, 34.72347], [137.48348, 34.72344]]}, "properties": {"id": "GEOM_TOKYO_1227", "route_id": "R_A38B6B65", "route_name": null, "route_color": "#F28E1C", "route_text_color": null, "line_name": "東海道線", "operator_id": "東海旅客鉄道", "representation": "service_path", "min_zoom": 0, "max_zoom": 24, "offset_rank": 0}}]}