{"type": "FeatureCollection", "features": [{"type": "Feature", "bbox": [135.35233499999998, 34.78938, 135.35233499999998, 34.78938], "geometry": {"type": "Point", "coordinates": [135.35233499999998, 34.78938]}, "properties": {"id": "PS_6D4CC82DF9FA", "station_group_id": "SG_32522E1BA94F", "name_en": "小林", "name_ja": "小林", "label_rank": 72, "tags": ["tokyo", "v3"]}}, {"type": "Feature", "bbox": [135.500035, 34.73368000000001, 135.500035, 34.73368000000001], "geometry": {"type": "Point", "coordinates": [135.500035, 34.73368000000001]}, "properties": {"id": "PS_12E41191DEAB", "station_group_id": "SG_F229590C1982", "name_en": "新大阪", "name_ja": "新大阪", "label_rank": 92, "tags": ["tokyo", "v3"]}}, {"type": "Feature", "bbox": [135.50014499999997, 34.7334, 135.50014499999997, 34.7334], "geometry": {"type": "Point", "coordinates": [135.50014499999997, 34.7334]}, "properties": {"id": "PS_24E09494CFA1", "station_group_id": "SG_F229590C1982", "name_en": "新大阪", "name_ja": "新大阪", "label_rank": 92, "tags": ["tokyo", "v3"]}}, {"type": "Feature", "bbox": [135.50014499999997, 34.7334, 135.50014499999997, 34.7334], "geometry": {"type": "Point", "coordinates": [135.50014499999997, 34.7334]}, "properties": {"id": "PS_99F9EF82ACBF", "station_group_id": "SG_F229590C1982", "name_en": "新大阪", "name_ja": "新大阪", "label_rank": 92, "tags": ["tokyo", "v3"]}}, {"type": "Feature", "bbox": [135.500035, 34.73368000000001, 135.500035, 34.73368000000001], "geometry": {"type": "Point", "coordinates": [135.500035, 34.73368000000001]}, "properties": {"id": "PS_F07596128AB7", "station_group_id": "SG_F229590C1982", "name_en": "新大阪", "name_ja": "新大阪", "label_rank": 92, "tags": ["tokyo", "v3"]}}]}