{"type": "FeatureCollection", "features": [{"type": "Feature", "bbox": [141.21742, 39.960615000000004, 141.21742, 39.960615000000004], "geometry": {"type": "Point", "coordinates": [141.21742, 39.960615000000004]}, "properties": {"id": "PS_D0B1A3DBEC13", "station_group_id": "SG_E13E9DD69070", "name_en": "いわて沼宮内", "name_ja": "いわて沼宮内", "label_rank": 72, "tags": ["tokyo", "v3"]}}, {"type": "Feature", "bbox": [141.07157, 38.748850000000004, 141.07157, 38.748850000000004], "geometry": {"type": "Point", "coordinates": [141.07157, 38.748850000000004]}, "properties": {"id": "PS_A26741CC7C62", "station_group_id": "SG_0624C2FF41A6", "name_en": "くりこま高原", "name_ja": "くりこま高原", "label_rank": 72, "tags": ["tokyo", "v3"]}}, {"type": "Feature", "bbox": [140.38076, 38.42861, 140.38076, 38.42861], "geometry": {"type": "Point", "coordinates": [140.38076, 38.42861]}, "properties": {"id": "PS_8834BB419674", "station_group_id": "SG_B31E5634B6D9", "name_en": "さくらんぼ東根", "name_ja": "さくらんぼ東根", "label_rank": 72, "tags": ["tokyo", "v3"]}}, {"type": "Feature", "bbox": [141.13909999999998, 38.926445, 141.13909999999998, 38.926445], "geometry": {"type": "Point", "coordinates": [141.13909999999998, 38.926445]}, "properties": {"id": "PS_79E5B08F0D49", "station_group_id": "SG_F2A500ACF0A2", "name_en": "一ノ関", "name_ja": "一ノ関", "label_rank": 72, "tags": ["tokyo", "v3"]}}, {"type": "Feature", "bbox": [141.13814, 38.92661, 141.13814, 38.92661], "geometry": {"type": "Point", "coordinates": [141.13814, 38.92661]}, "properties": {"id": "PS_6B9B5F9E16CC", "station_group_id": "SG_F2A500ACF0A2", "name_en": "一ノ関", "name_ja": "一ノ関", "label_rank": 72, "tags": ["tokyo", "v3"]}}, {"type": "Feature", "bbox": [141.28559, 40.259775, 141.28559, 40.259775], "geometry": {"type": "Point", "coordinates": [141.28559, 40.259775]}, "properties": {"id": "PS_10FE12C64E74", "station_group_id": "SG_F45816E5FB70", "name_en": "二戸", "name_ja": "二戸", "label_rank": 72, "tags": ["tokyo", "v3"]}}, {"type": "Feature", "bbox": [141.14875, 39.68769, 141.14875, 39.68769], "geometry": {"type": "Point", "coordinates": [141.14875, 39.68769]}, "properties": {"id": "PS_E9711FAC5D5A", "station_group_id": "SG_A89DC012F456", "name_en": "仙北町", "name_ja": "仙北町", "label_rank": 72, "tags": ["tokyo", "v3"]}}, {"type": "Feature", "bbox": [140.88213000000002, 38.260540000000006, 140.88213000000002, 38.260540000000006], "geometry": {"type": "Point", "coordinates": [140.88213000000002, 38.260540000000006]}, "properties": {"id": "PS_6E9E8A2B3714", "station_group_id": "SG_844B0E4F7AF0", "name_en": "仙台", "name_ja": "仙台", "label_rank": 72, "tags": ["tokyo", "v3"]}}, {"type": "Feature", "bbox": [140.88250499999998, 38.259745, 140.88250499999998, 38.259745], "geometry": {"type": "Point", "coordinates": [140.88250499999998, 38.259745]}, "properties": {"id": "PS_E5F2E7A1D164", "station_group_id": "SG_844B0E4F7AF0", "name_en": "仙台", "name_ja": "仙台", "label_rank": 72, "tags": ["tokyo", "v3"]}}, {"type": "Feature", "bbox": [141.09780999999998, 39.227825, 141.09780999999998, 39.227825], "geometry": {"type": "Point", "coordinates": [141.09780999999998, 39.227825]}, "properties": {"id": "PS_15AEADEEE7D3", "station_group_id": "SG_D887D83365F9", "name_en": "六原", "name_ja": "六原", "label_rank": 72, "tags": ["tokyo", "v3"]}}, {"type": "Feature", "bbox": [140.9848, 38.32935, 140.9848, 38.32935], "geometry": {"type": "Point", "coordinates": [140.9848, 38.32935]}, "properties": {"id": "PS_2F438FAF082F", "station_group_id": "SG_6AD70C5DCD64", "name_en": "利府", "name_ja": "利府", "label_rank": 72, "tags": ["tokyo", "v3"]}}, {"type": "Feature", "bbox": [141.12625, 39.049275, 141.12625, 39.049275], "geometry": {"type": "Point", "coordinates": [141.12625, 39.049275]}, "properties": {"id": "PS_76A16AC337E5", "station_group_id": "SG_3D869A0E9DF7", "name_en": "前沢", "name_ja": "前沢", "label_rank": 72, "tags": ["tokyo", "v3"]}}, {"type": "Feature", "bbox": [141.12261999999998, 39.2822, 141.12261999999998, 39.2822], "geometry": {"type": "Point", "coordinates": [141.12261999999998, 39.2822]}, "properties": {"id": "PS_D9128A37D609", "station_group_id": "SG_82FBFA5C5623", "name_en": "北上", "name_ja": "北上", "label_rank": 72, "tags": ["tokyo", "v3"]}}, {"type": "Feature", "bbox": [141.12142, 39.28141, 141.12142, 39.28141], "geometry": {"type": "Point", "coordinates": [141.12142, 39.28141]}, "properties": {"id": "PS_1096FFCD3EB8", "station_group_id": "SG_82FBFA5C5623", "name_en": "北上", "name_ja": "北上", "label_rank": 72, "tags": ["tokyo", "v3"]}}, {"type": "Feature", "bbox": [140.96783, 38.570915, 140.96783, 38.570915], "geometry": {"type": "Point", "coordinates": [140.96783, 38.570915]}, "properties": {"id": "PS_5F08C3567AD0", "station_group_id": "SG_8BD52FFDB7DF", "name_en": "古川", "name_ja": "古川", "label_rank": 72, "tags": ["tokyo", "v3"]}}, {"type": "Feature", "bbox": [141.154625, 39.58086, 141.154625, 39.58086], "geometry": {"type": "Point", "coordinates": [141.154625, 39.58086]}, "properties": {"id": "PS_DDFD82232FD8", "station_group_id": "SG_35588DFF1A42", "name_en": "古館", "name_ja": "古館", "label_rank": 72, "tags": ["tokyo", "v3"]}}, {"type": "Feature", "bbox": [141.08227, 38.43157, 141.08227, 38.43157], "geometry": {"type": "Point", "coordinates": [141.08227, 38.43157]}, "properties": {"id": "PS_0CDB3E467399", "station_group_id": "SG_9FB73CA13B50", "name_en": "品井沼", "name_ja": "品井沼", "label_rank": 72, "tags": ["tokyo", "v3"]}}, {"type": "Feature", "bbox": [140.99478, 38.301114999999996, 140.99478, 38.301114999999996], "geometry": {"type": "Point", "coordinates": [140.99478, 38.301114999999996]}, "properties": {"id": "PS_ABA844E45A37", "station_group_id": "SG_3EF743708980", "name_en": "国府多賀城", "name_ja": "国府多賀城", "label_rank": 72, "tags": ["tokyo", "v3"]}}, {"type": "Feature", "bbox": [141.009545, 38.309665, 141.009545, 38.309665], "geometry": {"type": "Point", "coordinates": [141.009545, 38.309665]}, "properties": {"id": "PS_271D69D48DFE", "station_group_id": "SG_9F5D9B65F1E2", "name_en": "塩釜", "name_ja": "塩釜", "label_rank": 72, "tags": ["tokyo", "v3"]}}, {"type": "Feature", "bbox": [140.47954, 39.46586, 140.47954, 39.46586], "geometry": {"type": "Point", "coordinates": [140.47954, 39.46586]}, "properties": {"id": "PS_CA775DE09716", "station_group_id": "SG_3500DB0EA0FA", "name_en": "大曲", "name_ja": "大曲", "label_rank": 72, "tags": ["tokyo", "v3"]}}, {"type": "Feature", "bbox": [140.47954, 39.46586, 140.47954, 39.46586], "geometry": {"type": "Point", "coordinates": [140.47954, 39.46586]}, "properties": {"id": "PS_CF3DA5618AE3", "station_group_id": "SG_3500DB0EA0FA", "name_en": "大曲", "name_ja": "大曲", "label_rank": 72, "tags": ["tokyo", "v3"]}}, {"type": "Feature", "bbox": [140.375385, 38.59582, 140.375385, 38.59582], "geometry": {"type": "Point", "coordinates": [140.375385, 38.59582]}, "properties": {"id": "PS_8E9DFD9A0A18", "station_group_id": "SG_C0F15E3A6852", "name_en": "大石田", "name_ja": "大石田", "label_rank": 72, "tags": ["tokyo", "v3"]}}, {"type": "Feature", "bbox": [140.36943, 38.36005666666667, 140.36943, 38.36005666666667], "geometry": {"type": "Point", "coordinates": [140.36943, 38.36005666666667]}, "properties": {"id": "PS_E1648FE02591", "station_group_id": "SG_5C8D6B322EE9", "name_en": "天童", "name_ja": "天童", "label_rank": 72, "tags": ["tokyo", "v3"]}}, {"type": "Feature", "bbox": [141.064415, 38.54066, 141.064415, 38.54066], "geometry": {"type": "Point", "coordinates": [141.064415, 38.54066]}, "properties": {"id": "PS_ECB5B4C92D8C", "station_group_id": "SG_D5ABC48960B1", "name_en": "小牛田", "name_ja": "小牛田", "label_rank": 72, "tags": ["tokyo", "v3"]}}, {"type": "Feature", "bbox": [141.13197, 38.951325, 141.13197, 38.951325], "geometry": {"type": "Point", "coordinates": [141.13197, 38.951325]}, "properties": {"id": "PS_93BB740C3421", "station_group_id": "SG_054B2AE1A9F1", "name_en": "山ノ目", "name_ja": "山ノ目", "label_rank": 72, "tags": ["tokyo", "v3"]}}, {"type": "Feature", "bbox": [140.9555, 38.300985, 140.9555, 38.300985], "geometry": {"type": "Point", "coordinates": [140.9555, 38.300985]}, "properties": {"id": "PS_8F65422E1A49", "station_group_id": "SG_A232BBB2699E", "name_en": "岩切", "name_ja": "岩切", "label_rank": 72, "tags": ["tokyo", "v3"]}}, {"type": "Feature", "bbox": [141.14659, 39.65375, 141.14659, 39.65375], "geometry": {"type": "Point", "coordinates": [141.14659, 39.65375]}, "properties": {"id": "PS_B44AE8089B11", "station_group_id": "SG_5ED00ED4B4D1", "name_en": "岩手飯岡", "name_ja": "岩手飯岡", "label_rank": 72, "tags": ["tokyo", "v3"]}}, {"type": "Feature", "bbox": [141.117815, 38.987885, 141.117815, 38.987885], "geometry": {"type": "Point", "coordinates": [141.117815, 38.987885]}, "properties": {"id": "PS_538F621992C9", "station_group_id": "SG_4FF2BAA8EF4D", "name_en": "平泉", "name_ja": "平泉", "label_rank": 72, "tags": ["tokyo", "v3"]}}, {"type": "Feature", "bbox": [141.06518, 38.397645, 141.06518, 38.397645], "geometry": {"type": "Point", "coordinates": [141.06518, 38.397645]}, "properties": {"id": "PS_89FCF8ABAC87", "station_group_id": "SG_C1016CBB43D5", "name_en": "愛宕", "name_ja": "愛宕", "label_rank": 72, "tags": ["tokyo", "v3"]}}, {"type": "Feature", "bbox": [140.973175, 38.317315, 140.973175, 38.317315], "geometry": {"type": "Point", "coordinates": [140.973175, 38.317315]}, "properties": {"id": "PS_455C66C9FE7C", "station_group_id": "SG_3D4BFB9580DE", "name_en": "新利府", "name_ja": "新利府", "label_rank": 72, "tags": ["tokyo", "v3"]}}, {"type": "Feature", "bbox": [140.306105, 38.762515, 140.306105, 38.762515], "geometry": {"type": "Point", "coordinates": [140.306105, 38.762515]}, "properties": {"id": "PS_64495AFB190F", "station_group_id": "SG_D5BAA8712E45", "name_en": "新庄", "name_ja": "新庄", "label_rank": 72, "tags": ["tokyo", "v3"]}}, {"type": "Feature", "bbox": [140.306105, 38.762515, 140.306105, 38.762515], "geometry": {"type": "Point", "coordinates": [140.306105, 38.762515]}, "properties": {"id": "PS_7E3B156F27E8", "station_group_id": "SG_D5BAA8712E45", "name_en": "新庄", "name_ja": "新庄", "label_rank": 72, "tags": ["tokyo", "v3"]}}, {"type": "Feature", "bbox": [140.306105, 38.762515, 140.306105, 38.762515], "geometry": {"type": "Point", "coordinates": [140.306105, 38.762515]}, "properties": {"id": "PS_1D88D69573A3", "station_group_id": "SG_D5BAA8712E45", "name_en": "新庄", "name_ja": "新庄", "label_rank": 72, "tags": ["tokyo", "v3"]}}, {"type": "Feature", "bbox": [141.119465, 38.711515000000006, 141.119465, 38.711515000000006], "geometry": {"type": "Point", "coordinates": [141.119465, 38.711515000000006]}, "properties": {"id": "PS_478EB0A86310", "station_group_id": "SG_16B6358F85D9", "name_en": "新田", "name_ja": "新田", "label_rank": 72, "tags": ["tokyo", "v3"]}}, {"type": "Feature", "bbox": [141.17361499999998, 39.4065, 141.17361499999998, 39.4065], "geometry": {"type": "Point", "coordinates": [141.17361499999998, 39.4065]}, "properties": {"id": "PS_945B8A2A6E1B", "station_group_id": "SG_EB32FC73EBDC", "name_en": "新花巻", "name_ja": "新花巻", "label_rank": 72, "tags": ["tokyo", "v3"]}}, {"type": "Feature", "bbox": [141.16055, 39.538624999999996, 141.16055, 39.538624999999996], "geometry": {"type": "Point", "coordinates": [141.16055, 39.538624999999996]}, "properties": {"id": "PS_1533A853B5FE", "station_group_id": "SG_7F4F6609FEB5", "name_en": "日詰", "name_ja": "日詰", "label_rank": 72, "tags": ["tokyo", "v3"]}}, {"type": "Feature", "bbox": [141.120895, 38.86744, 141.120895, 38.86744], "geometry": {"type": "Point", "coordinates": [141.120895, 38.86744]}, "properties": {"id": "PS_E810F3AA882C", "station_group_id": "SG_075C09594C8F", "name_en": "有壁", "name_ja": "有壁", "label_rank": 72, "tags": ["tokyo", "v3"]}}, {"type": "Feature", "bbox": [140.38642, 38.4771, 140.38642, 38.4771], "geometry": {"type": "Point", "coordinates": [140.38642, 38.4771]}, "properties": {"id": "PS_5BB40DC1F96F", "station_group_id": "SG_884227D5452F", "name_en": "村山", "name_ja": "村山", "label_rank": 72, "tags": ["tokyo", "v3"]}}, {"type": "Feature", "bbox": [141.12049, 39.32265, 141.12049, 39.32265], "geometry": {"type": "Point", "coordinates": [141.12049, 39.32265]}, "properties": {"id": "PS_909046C54179", "station_group_id": "SG_F5A2FF0799C0", "name_en": "村崎野", "name_ja": "村崎野", "label_rank": 72, "tags": ["tokyo", "v3"]}}, {"type": "Feature", "bbox": [140.91985, 38.276365, 140.91985, 38.276365], "geometry": {"type": "Point", "coordinates": [140.91985, 38.276365]}, "properties": {"id": "PS_A18238ABAAC7", "station_group_id": "SG_E3A3E147C081", "name_en": "東仙台", "name_ja": "東仙台", "label_rank": 72, "tags": ["tokyo", "v3"]}}, {"type": "Feature", "bbox": [141.07492000000002, 38.512705, 141.07492000000002, 38.512705], "geometry": {"type": "Point", "coordinates": [141.07492000000002, 38.512705]}, "properties": {"id": "PS_978CA3A0E733", "station_group_id": "SG_D0C10272C97B", "name_en": "松山町", "name_ja": "松山町", "label_rank": 72, "tags": ["tokyo", "v3"]}}, {"type": "Feature", "bbox": [141.065405, 38.37944, 141.065405, 38.37944], "geometry": {"type": "Point", "coordinates": [141.065405, 38.37944]}, "properties": {"id": "PS_98CB772D90F8", "station_group_id": "SG_F8565F22DDF2", "name_en": "松島", "name_ja": "松島", "label_rank": 72, "tags": ["tokyo", "v3"]}}, {"type": "Feature", "bbox": [141.08529499999997, 38.681655, 141.08529499999997, 38.681655], "geometry": {"type": "Point", "coordinates": [141.08529499999997, 38.681655]}, "properties": {"id": "PS_FF4B78E46F04", "station_group_id": "SG_274A1E4CF015", "name_en": "梅ヶ沢", "name_ja": "梅ヶ沢", "label_rank": 72, "tags": ["tokyo", "v3"]}}, {"type": "Feature", "bbox": [141.14632, 39.13923, 141.14632, 39.13923], "geometry": {"type": "Point", "coordinates": [141.14632, 39.13923]}, "properties": {"id": "PS_A2FD7F19DB47", "station_group_id": "SG_6B569F75F24C", "name_en": "水沢", "name_ja": "水沢", "label_rank": 72, "tags": ["tokyo", "v3"]}}, {"type": "Feature", "bbox": [141.188705, 39.145160000000004, 141.188705, 39.145160000000004], "geometry": {"type": "Point", "coordinates": [141.188705, 39.145160000000004]}, "properties": {"id": "PS_128BCF37A0A3", "station_group_id": "SG_B703D83CE1F5", "name_en": "水沢江刺", "name_ja": "水沢江刺", "label_rank": 72, "tags": ["tokyo", "v3"]}}, {"type": "Feature", "bbox": [141.17572, 38.797105, 141.17572, 38.797105], "geometry": {"type": "Point", "coordinates": [141.17572, 38.797105]}, "properties": {"id": "PS_08A3AD0D910F", "station_group_id": "SG_F278EC91A035", "name_en": "油島", "name_ja": "油島", "label_rank": 72, "tags": ["tokyo", "v3"]}}, {"type": "Feature", "bbox": [141.15642, 38.8549, 141.15642, 38.8549], "geometry": {"type": "Point", "coordinates": [141.15642, 38.8549]}, "properties": {"id": "PS_2B82BCAB90D5", "station_group_id": "SG_3132982D91EA", "name_en": "清水原", "name_ja": "清水原", "label_rank": 72, "tags": ["tokyo", "v3"]}}, {"type": "Feature", "bbox": [141.07385499999998, 38.655609999999996, 141.07385499999998, 38.655609999999996], "geometry": {"type": "Point", "coordinates": [141.07385499999998, 38.655609999999996]}, "properties": {"id": "PS_79A1B8BBEE64", "station_group_id": "SG_A19471BE4963", "name_en": "瀬峰", "name_ja": "瀬峰", "label_rank": 72, "tags": ["tokyo", "v3"]}}, {"type": "Feature", "bbox": [141.059035, 38.596270000000004, 141.059035, 38.596270000000004], "geometry": {"type": "Point", "coordinates": [141.059035, 38.596270000000004]}, "properties": {"id": "PS_516611026A70", "station_group_id": "SG_256B6A639149", "name_en": "田尻", "name_ja": "田尻", "label_rank": 72, "tags": ["tokyo", "v3"]}}, {"type": "Feature", "bbox": [140.72229249999998, 39.7004425, 140.72229249999998, 39.7004425], "geometry": {"type": "Point", "coordinates": [140.72229249999998, 39.7004425]}, "properties": {"id": "PS_26B0A309683E", "station_group_id": "SG_FF89869BB89F", "name_en": "田沢湖", "name_ja": "田沢湖", "label_rank": 72, "tags": ["tokyo", "v3"]}}, {"type": "Feature", "bbox": [141.13653, 39.70155, 141.13653, 39.70155], "geometry": {"type": "Point", "coordinates": [141.13653, 39.70155]}, "properties": {"id": "PS_ED05054CCB1E", "station_group_id": "SG_AD1907A0B6B8", "name_en": "盛岡", "name_ja": "盛岡", "label_rank": 72, "tags": ["tokyo", "v3"]}}, {"type": "Feature", "bbox": [141.136375, 39.701195, 141.136375, 39.701195], "geometry": {"type": "Point", "coordinates": [141.136375, 39.701195]}, "properties": {"id": "PS_86490B7C7AC2", "station_group_id": "SG_AD1907A0B6B8", "name_en": "盛岡", "name_ja": "盛岡", "label_rank": 72, "tags": ["tokyo", "v3"]}}, {"type": "Feature", "bbox": [141.14811, 39.612804999999994, 141.14811, 39.612804999999994], "geometry": {"type": "Point", "coordinates": [141.14811, 39.612804999999994]}, "properties": {"id": "PS_E4EE7B11869F", "station_group_id": "SG_2AE85DE71CEA", "name_en": "矢幅", "name_ja": "矢幅", "label_rank": 72, "tags": ["tokyo", "v3"]}}, {"type": "Feature", "bbox": [141.15915999999999, 38.76882500000001, 141.15915999999999, 38.76882500000001], "geometry": {"type": "Point", "coordinates": [141.15915999999999, 38.76882500000001]}, "properties": {"id": "PS_4C44FC02EEDD", "station_group_id": "SG_B6C478E2326B", "name_en": "石越", "name_ja": "石越", "label_rank": 72, "tags": ["tokyo", "v3"]}}, {"type": "Feature", "bbox": [141.146885, 39.490895, 141.146885, 39.490895], "geometry": {"type": "Point", "coordinates": [141.146885, 39.490895]}, "properties": {"id": "PS_E043DC768D85", "station_group_id": "SG_E328162353DE", "name_en": "石鳥谷", "name_ja": "石鳥谷", "label_rank": 72, "tags": ["tokyo", "v3"]}}, {"type": "Feature", "bbox": [140.12949500000002, 39.717299999999994, 140.12949500000002, 39.717299999999994], "geometry": {"type": "Point", "coordinates": [140.12949500000002, 39.717299999999994]}, "properties": {"id": "PS_B804268591DB", "station_group_id": "SG_49DAAD54C1E9", "name_en": "秋田", "name_ja": "秋田", "label_rank": 72, "tags": ["tokyo", "v3"]}}, {"type": "Feature", "bbox": [140.12949500000002, 39.717299999999994, 140.12949500000002, 39.717299999999994], "geometry": {"type": "Point", "coordinates": [140.12949500000002, 39.717299999999994]}, "properties": {"id": "PS_894C8B641FA1", "station_group_id": "SG_49DAAD54C1E9", "name_en": "秋田", "name_ja": "秋田", "label_rank": 72, "tags": ["tokyo", "v3"]}}, {"type": "Feature", "bbox": [140.12975, 39.71755, 140.12975, 39.71755], "geometry": {"type": "Point", "coordinates": [140.12975, 39.71755]}, "properties": {"id": "PS_6EE8D7A6071A", "station_group_id": "SG_49DAAD54C1E9", "name_en": "秋田", "name_ja": "秋田", "label_rank": 72, "tags": ["tokyo", "v3"]}}, {"type": "Feature", "bbox": [141.159915, 39.55476, 141.159915, 39.55476], "geometry": {"type": "Point", "coordinates": [141.159915, 39.55476]}, "properties": {"id": "PS_3E96CB270DF9", "station_group_id": "SG_D7F3FAFD2245", "name_en": "紫波中央", "name_ja": "紫波中央", "label_rank": 72, "tags": ["tokyo", "v3"]}}, {"type": "Feature", "bbox": [141.110325, 39.393745, 141.110325, 39.393745], "geometry": {"type": "Point", "coordinates": [141.110325, 39.393745]}, "properties": {"id": "PS_B90600258A9A", "station_group_id": "SG_C4E5F67115E3", "name_en": "花巻", "name_ja": "花巻", "label_rank": 72, "tags": ["tokyo", "v3"]}}, {"type": "Feature", "bbox": [141.12731, 39.442255, 141.12731, 39.442255], "geometry": {"type": "Point", "coordinates": [141.12731, 39.442255]}, "properties": {"id": "PS_6A04A2AD69E5", "station_group_id": "SG_DA54FF0D69A8", "name_en": "花巻空港", "name_ja": "花巻空港", "label_rank": 72, "tags": ["tokyo", "v3"]}}, {"type": "Feature", "bbox": [141.18001500000003, 38.833365, 141.18001500000003, 38.833365], "geometry": {"type": "Point", "coordinates": [141.18001500000003, 38.833365]}, "properties": {"id": "PS_75B1E041C887", "station_group_id": "SG_4B4B0713D07C", "name_en": "花泉", "name_ja": "花泉", "label_rank": 72, "tags": ["tokyo", "v3"]}}, {"type": "Feature", "bbox": [140.57118, 39.591795000000005, 140.57118, 39.591795000000005], "geometry": {"type": "Point", "coordinates": [140.57118, 39.591795000000005]}, "properties": {"id": "PS_846759BF42A1", "station_group_id": "SG_42D36E0FFB32", "name_en": "角館", "name_ja": "角館", "label_rank": 72, "tags": ["tokyo", "v3"]}}, {"type": "Feature", "bbox": [140.57118, 39.591795000000005, 140.57118, 39.591795000000005], "geometry": {"type": "Point", "coordinates": [140.57118, 39.591795000000005]}, "properties": {"id": "PS_55FE7CED13C1", "station_group_id": "SG_42D36E0FFB32", "name_en": "角館", "name_ja": "角館", "label_rank": 72, "tags": ["tokyo", "v3"]}}, {"type": "Feature", "bbox": [141.11293999999998, 39.199585, 141.11293999999998, 39.199585], "geometry": {"type": "Point", "coordinates": [141.11293999999998, 39.199585]}, "properties": {"id": "PS_531B6AAB8BBF", "station_group_id": "SG_55A2059902C0", "name_en": "金ヶ崎", "name_ja": "金ヶ崎", "label_rank": 72, "tags": ["tokyo", "v3"]}}, {"type": "Feature", "bbox": [141.14094, 39.09398, 141.14094, 39.09398], "geometry": {"type": "Point", "coordinates": [141.14094, 39.09398]}, "properties": {"id": "PS_FB13EED636B3", "station_group_id": "SG_2148BE9ACBE7", "name_en": "陸中折居", "name_ja": "陸中折居", "label_rank": 72, "tags": ["tokyo", "v3"]}}, {"type": "Feature", "bbox": [140.979635, 38.2996, 140.979635, 38.2996], "geometry": {"type": "Point", "coordinates": [140.979635, 38.2996]}, "properties": {"id": "PS_81F31F708A49", "station_group_id": "SG_8503DC13E803", "name_en": "陸前山王", "name_ja": "陸前山王", "label_rank": 72, "tags": ["tokyo", "v3"]}}, {"type": "Feature", "bbox": [140.97481, 39.68923, 140.97481, 39.68923], "geometry": {"type": "Point", "coordinates": [140.97481, 39.68923]}, "properties": {"id": "PS_88629CF1C99C", "station_group_id": "SG_262D8EF493E1", "name_en": "雫石", "name_ja": "雫石", "label_rank": 72, "tags": ["tokyo", "v3"]}}, {"type": "Feature", "bbox": [141.07355, 38.382825, 141.07355, 38.382825], "geometry": {"type": "Point", "coordinates": [141.07355, 38.382825]}, "properties": {"id": "PS_B4D292BE3A96", "station_group_id": "SG_C5E90B64BEF3", "name_en": "高城町", "name_ja": "高城町", "label_rank": 72, "tags": ["tokyo", "v3"]}}, {"type": "Feature", "bbox": [141.097965, 38.474515, 141.097965, 38.474515], "geometry": {"type": "Point", "coordinates": [141.097965, 38.474515]}, "properties": {"id": "PS_D82175117D38", "station_group_id": "SG_C9B5BB354C07", "name_en": "鹿島台", "name_ja": "鹿島台", "label_rank": 72, "tags": ["tokyo", "v3"]}}]}