{"type": "FeatureCollection", "features": [{"type": "Feature", "bbox": [136.35081329240074, 36.320291138516325, 136.35081329240074, 36.320291138516325], "geometry": {"type": "Point", "coordinates": [136.35081329240074, 36.320291138516325]}, "properties": {"id": "PS_A70517D4BB81", "station_group_id": "SG_DA9DED004A3B", "name_en": "加賀温泉", "name_ja": "加賀温泉", "label_rank": 72, "tags": ["tokyo", "v3"]}}, {"type": "Feature", "bbox": [136.45309691865685, 36.40233999518651, 136.45309691865685, 36.40233999518651], "geometry": {"type": "Point", "coordinates": [136.45309691865685, 36.40233999518651]}, "properties": {"id": "PS_FA8FED829F89", "station_group_id": "SG_A4F4F60FC084", "name_en": "小松", "name_ja": "小松", "label_rank": 72, "tags": ["tokyo", "v3"]}}, {"type": "Feature", "bbox": [136.23536318581455, 36.215428335608834, 136.23536318581455, 36.215428335608834], "geometry": {"type": "Point", "coordinates": [136.23536318581455, 36.215428335608834]}, "properties": {"id": "PS_50A14DD6C996", "station_group_id": "SG_2C06CC9D7963", "name_en": "芦原温泉", "name_ja": "芦原温泉", "label_rank": 72, "tags": ["tokyo", "v3"]}}, {"type": "Feature", "bbox": [136.64804461, 36.57791512, 136.64804461, 36.57791512], "geometry": {"type": "Point", "coordinates": [136.64804461, 36.57791512]}, "properties": {"id": "PS_339025F6D58C", "station_group_id": "SG_A568A4AFB616", "name_en": "金沢", "name_ja": "金沢", "label_rank": 72, "tags": ["tokyo", "v3"]}}]}