{"type": "FeatureCollection", "features": [{"type": "Feature", "bbox": [136.2233831229724, 36.061648599641074, 136.2233831229724, 36.061648599641074], "geometry": {"type": "Point", "coordinates": [136.2233831229724, 36.061648599641074]}, "properties": {"id": "PS_5C03644C534F", "station_group_id": "SG_55D9C55A7223", "operator_id": "jr_west", "operator_ids": "jr_west", "name_en": "福井", "name_ja": "福井", "label_rank": 72, "tags": ["tokyo", "v3"]}}, {"type": "Feature", "bbox": [136.19891480177415, 35.895667999680825, 136.19891480177415, 35.895667999680825], "geometry": {"type": "Point", "coordinates": [136.19891480177415, 35.895667999680825]}, "properties": {"id": "PS_C60CABC966ED", "station_group_id": "SG_756586A1EB2D", "operator_id": "jr_west", "operator_ids": "jr_west", "name_en": "越前たけふ", "name_ja": "越前たけふ", "label_rank": 72, "tags": ["tokyo", "v3"]}}]}