{"type": "FeatureCollection", "features": [{"type": "Feature", "bbox": [136.530955, 35.369585, 136.530955, 35.369585], "geometry": {"type": "Point", "coordinates": [136.530955, 35.369585]}, "properties": {"id": "PS_F3FE4DB509D5", "station_group_id": "SG_CE627C82C923", "operator_id": "jr_central", "operator_ids": "jr_central", "name_en": "垂井", "name_ja": "垂井", "label_rank": 72, "tags": ["tokyo", "v3"]}}, {"type": "Feature", "bbox": [136.618265, 35.367104999999995, 136.618265, 35.367104999999995], "geometry": {"type": "Point", "coordinates": [136.618265, 35.367104999999995]}, "properties": {"id": "PS_BCCEB5BB2A8B", "station_group_id": "SG_3F823ED7169E", "operator_id": "jr_central", "operator_ids": "jr_central", "name_en": "大垣", "name_ja": "大垣", "label_rank": 72, "tags": ["tokyo", "v3"]}}, {"type": "Feature", "bbox": [136.40232500000002, 35.344595, 136.40232500000002, 35.344595], "geometry": {"type": "Point", "coordinates": [136.40232500000002, 35.344595]}, "properties": {"id": "PS_A4D8E534BBA7", "station_group_id": "SG_273B8C3C9221", "operator_id": "jr_central", "operator_ids": "jr_central", "name_en": "柏原", "name_ja": "柏原", "label_rank": 72, "tags": ["tokyo", "v3"]}}, {"type": "Feature", "bbox": [136.28947, 35.314989999999995, 136.28947, 35.314989999999995], "geometry": {"type": "Point", "coordinates": [136.28947, 35.314989999999995]}, "properties": {"id": "PS_F288D050E915", "station_group_id": "SG_DB75301C6C2A", "operator_id": "jr_central", "operator_ids": "jr_central", "name_en": "米原", "name_ja": "米原", "label_rank": 72, "tags": ["tokyo", "v3"]}}, {"type": "Feature", "bbox": [136.2902235, 35.3148405, 136.2902235, 35.3148405], "geometry": {"type": "Point", "coordinates": [136.2902235, 35.3148405]}, "properties": {"id": "PS_59231218530F", "station_group_id": "SG_DB75301C6C2A", "operator_id": "jr_central", "operator_ids": "jr_central", "name_en": "米原", "name_ja": "米原", "label_rank": 72, "tags": ["tokyo", "v3"]}}, {"type": "Feature", "bbox": [136.28950500000002, 35.313869999999994, 136.28950500000002, 35.313869999999994], "geometry": {"type": "Point", "coordinates": [136.28950500000002, 35.313869999999994]}, "properties": {"id": "PS_7B677BDBC827", "station_group_id": "SG_DB75301C6C2A", "operator_id": "jr_central", "operator_ids": "jr_central", "name_en": "米原", "name_ja": "米原", "label_rank": 72, "tags": ["tokyo", "v3"]}}, {"type": "Feature", "bbox": [136.582195, 35.386605, 136.582195, 35.386605], "geometry": {"type": "Point", "coordinates": [136.582195, 35.386605]}, "properties": {"id": "PS_2F6DB75F4981", "station_group_id": "SG_2E001FD4ED8B", "operator_id": "jr_central", "operator_ids": "jr_central", "name_en": "美濃赤坂", "name_ja": "美濃赤坂", "label_rank": 72, "tags": ["tokyo", "v3"]}}, {"type": "Feature", "bbox": [136.58337, 35.37346, 136.58337, 35.37346], "geometry": {"type": "Point", "coordinates": [136.58337, 35.37346]}, "properties": {"id": "PS_1903BBC6700A", "station_group_id": "SG_734744E7EEEF", "operator_id": "jr_central", "operator_ids": "jr_central", "name_en": "荒尾", "name_ja": "荒尾", "label_rank": 72, "tags": ["tokyo", "v3"]}}, {"type": "Feature", "bbox": [136.373985, 35.359030000000004, 136.373985, 35.359030000000004], "geometry": {"type": "Point", "coordinates": [136.373985, 35.359030000000004]}, "properties": {"id": "PS_58D5391A3EF2", "station_group_id": "SG_EB47685AFF93", "operator_id": "jr_central", "operator_ids": "jr_central", "name_en": "近江長岡", "name_ja": "近江長岡", "label_rank": 72, "tags": ["tokyo", "v3"]}}, {"type": "Feature", "bbox": [136.34519, 35.327705, 136.34519, 35.327705], "geometry": {"type": "Point", "coordinates": [136.34519, 35.327705]}, "properties": {"id": "PS_9F4EE572E326", "station_group_id": "SG_03D25D8817A5", "operator_id": "jr_central", "operator_ids": "jr_central", "name_en": "醒ヶ井", "name_ja": "醒ヶ井", "label_rank": 72, "tags": ["tokyo", "v3"]}}, {"type": "Feature", "bbox": [136.47052000000002, 35.363755, 136.47052000000002, 35.363755], "geometry": {"type": "Point", "coordinates": [136.47052000000002, 35.363755]}, "properties": {"id": "PS_D31549430045", "station_group_id": "SG_0F15F093C131", "operator_id": "jr_central", "operator_ids": "jr_central", "name_en": "関ヶ原", "name_ja": "関ヶ原", "label_rank": 72, "tags": ["tokyo", "v3"]}}]}