{"type": "FeatureCollection", "features": [{"type": "Feature", "bbox": [140.25047, 35.137215, 140.25047, 35.137215], "geometry": {"type": "Point", "coordinates": [140.25047, 35.137215]}, "properties": {"id": "PS_7E97B84C651C", "station_group_id": "SG_D19813015482", "name_en": "上総興津", "name_ja": "上総興津", "label_rank": 72, "tags": ["tokyo", "v3"]}}, {"type": "Feature", "bbox": [139.91139500000003, 34.997515, 139.91139500000003, 34.997515], "geometry": {"type": "Point", "coordinates": [139.91139500000003, 34.997515]}, "properties": {"id": "PS_1871CFCA996C", "station_group_id": "SG_98EFDAB94EE1", "name_en": "九重", "name_ja": "九重", "label_rank": 72, "tags": ["tokyo", "v3"]}}, {"type": "Feature", "bbox": [139.83816000000002, 35.141465, 139.83816000000002, 35.141465], "geometry": {"type": "Point", "coordinates": [139.83816000000002, 35.141465]}, "properties": {"id": "PS_5AC9AD33B6E5", "station_group_id": "SG_3E17EC4F9B79", "name_en": "保田", "name_ja": "保田", "label_rank": 72, "tags": ["tokyo", "v3"]}}, {"type": "Feature", "bbox": [140.31197, 35.15262, 140.31197, 35.15262], "geometry": {"type": "Point", "coordinates": [140.31197, 35.15262]}, "properties": {"id": "PS_54330DFBB8A9", "station_group_id": "SG_4EC6CAF7BAF1", "name_en": "勝浦", "name_ja": "勝浦", "label_rank": 72, "tags": ["tokyo", "v3"]}}, {"type": "Feature", "bbox": [139.95452, 34.976879999999994, 139.95452, 34.976879999999994], "geometry": {"type": "Point", "coordinates": [139.95452, 34.976879999999994]}, "properties": {"id": "PS_35BB15B23AD2", "station_group_id": "SG_BD3E69316E4E", "name_en": "千倉", "name_ja": "千倉", "label_rank": 72, "tags": ["tokyo", "v3"]}}, {"type": "Feature", "bbox": [139.96627999999998, 34.99135, 139.96627999999998, 34.99135], "geometry": {"type": "Point", "coordinates": [139.96627999999998, 34.99135]}, "properties": {"id": "PS_FB5700933CA2", "station_group_id": "SG_45F0615C22A4", "name_en": "千歳", "name_ja": "千歳", "label_rank": 72, "tags": ["tokyo", "v3"]}}, {"type": "Feature", "bbox": [139.97906999999998, 35.021195, 139.97906999999998, 35.021195], "geometry": {"type": "Point", "coordinates": [139.97906999999998, 35.021195]}, "properties": {"id": "PS_6DFB5974ECBA", "station_group_id": "SG_A57426E94FB4", "name_en": "南三原", "name_ja": "南三原", "label_rank": 72, "tags": ["tokyo", "v3"]}}, {"type": "Feature", "bbox": [140.01961, 35.04171, 140.01961, 35.04171], "geometry": {"type": "Point", "coordinates": [140.01961, 35.04171]}, "properties": {"id": "PS_6B59852428A7", "station_group_id": "SG_A748BBB830AB", "name_en": "和田浦", "name_ja": "和田浦", "label_rank": 72, "tags": ["tokyo", "v3"]}}, {"type": "Feature", "bbox": [140.09623, 35.081485, 140.09623, 35.081485], "geometry": {"type": "Point", "coordinates": [140.09623, 35.081485]}, "properties": {"id": "PS_F7FB884AF49D", "station_group_id": "SG_E95D2B5E5EB8", "name_en": "太海", "name_ja": "太海", "label_rank": 72, "tags": ["tokyo", "v3"]}}, {"type": "Feature", "bbox": [139.83341000000001, 35.114065, 139.83341000000001, 35.114065], "geometry": {"type": "Point", "coordinates": [139.83341000000001, 35.114065]}, "properties": {"id": "PS_9A41FD03C1E8", "station_group_id": "SG_F7414EE1DD86", "name_en": "安房勝山", "name_ja": "安房勝山", "label_rank": 72, "tags": ["tokyo", "v3"]}}, {"type": "Feature", "bbox": [140.15474, 35.125789999999995, 140.15474, 35.125789999999995], "geometry": {"type": "Point", "coordinates": [140.15474, 35.125789999999995]}, "properties": {"id": "PS_FA9147EC4044", "station_group_id": "SG_A911C29F97B7", "name_en": "安房天津", "name_ja": "安房天津", "label_rank": 72, "tags": ["tokyo", "v3"]}}, {"type": "Feature", "bbox": [140.18977, 35.128635, 140.18977, 35.128635], "geometry": {"type": "Point", "coordinates": [140.18977, 35.128635]}, "properties": {"id": "PS_7755151BC36D", "station_group_id": "SG_A6B5F2D0E90B", "name_en": "安房小湊", "name_ja": "安房小湊", "label_rank": 72, "tags": ["tokyo", "v3"]}}, {"type": "Feature", "bbox": [140.10370999999998, 35.10762, 140.10370999999998, 35.10762], "geometry": {"type": "Point", "coordinates": [140.10370999999998, 35.10762]}, "properties": {"id": "PS_E1867B18FA4E", "station_group_id": "SG_7B9486944487", "name_en": "安房鴨川", "name_ja": "安房鴨川", "label_rank": 72, "tags": ["tokyo", "v3"]}}, {"type": "Feature", "bbox": [140.10370999999998, 35.10762, 140.10370999999998, 35.10762], "geometry": {"type": "Point", "coordinates": [140.10370999999998, 35.10762]}, "properties": {"id": "PS_D8B983043EFF", "station_group_id": "SG_7B9486944487", "name_en": "安房鴨川", "name_ja": "安房鴨川", "label_rank": 72, "tags": ["tokyo", "v3"]}}, {"type": "Feature", "bbox": [139.83775500000002, 35.046229999999994, 139.83775500000002, 35.046229999999994], "geometry": {"type": "Point", "coordinates": [139.83775500000002, 35.046229999999994]}, "properties": {"id": "PS_F94B646D5F71", "station_group_id": "SG_A8AEC27B6AA6", "name_en": "富浦", "name_ja": "富浦", "label_rank": 72, "tags": ["tokyo", "v3"]}}, {"type": "Feature", "bbox": [139.84987, 35.093050000000005, 139.84987, 35.093050000000005], "geometry": {"type": "Point", "coordinates": [139.84987, 35.093050000000005]}, "properties": {"id": "PS_34043E450B83", "station_group_id": "SG_98EC8DF02CA1", "name_en": "岩井", "name_ja": "岩井", "label_rank": 72, "tags": ["tokyo", "v3"]}}, {"type": "Feature", "bbox": [140.06114, 35.0625, 140.06114, 35.0625], "geometry": {"type": "Point", "coordinates": [140.06114, 35.0625]}, "properties": {"id": "PS_8B3F91B5BA29", "station_group_id": "SG_873B4F7D741C", "name_en": "江見", "name_ja": "江見", "label_rank": 72, "tags": ["tokyo", "v3"]}}, {"type": "Feature", "bbox": [140.22571, 35.118255, 140.22571, 35.118255], "geometry": {"type": "Point", "coordinates": [140.22571, 35.118255]}, "properties": {"id": "PS_33FDE2ACAA92", "station_group_id": "SG_B3EF8A4E5F17", "name_en": "行川アイランド", "name_ja": "行川アイランド", "label_rank": 72, "tags": ["tokyo", "v3"]}}, {"type": "Feature", "bbox": [139.8514, 35.02904, 139.8514, 35.02904], "geometry": {"type": "Point", "coordinates": [139.8514, 35.02904]}, "properties": {"id": "PS_8D3FA3BA7EC7", "station_group_id": "SG_B4FAFC3D98C8", "name_en": "那古船形", "name_ja": "那古船形", "label_rank": 72, "tags": ["tokyo", "v3"]}}, {"type": "Feature", "bbox": [139.86199, 34.995915, 139.86199, 34.995915], "geometry": {"type": "Point", "coordinates": [139.86199, 34.995915]}, "properties": {"id": "PS_0864248CE3B4", "station_group_id": "SG_7989362C66F5", "name_en": "館山", "name_ja": "館山", "label_rank": 72, "tags": ["tokyo", "v3"]}}, {"type": "Feature", "bbox": [140.278965, 35.14125, 140.278965, 35.14125], "geometry": {"type": "Point", "coordinates": [140.278965, 35.14125]}, "properties": {"id": "PS_AC86CADA09AA", "station_group_id": "SG_FFD41F911683", "name_en": "鵜原", "name_ja": "鵜原", "label_rank": 72, "tags": ["tokyo", "v3"]}}]}