{"type": "FeatureCollection", "features": [{"type": "Feature", "bbox": [140.64864975, 41.90463233, 140.64864975, 41.90463233], "geometry": {"type": "Point", "coordinates": [140.64864975, 41.90463233]}, "properties": {"id": "PS_4B7012D681D2", "station_group_id": "SG_D33835DE45C4", "operator_id": "jr_hokkaido", "operator_ids": "jr_hokkaido", "name_en": "新函館北斗", "name_ja": "新函館北斗", "label_rank": 72, "tags": ["tokyo", "v3"]}}, {"type": "Feature", "bbox": [140.434152005, 41.678478319999996, 140.434152005, 41.678478319999996], "geometry": {"type": "Point", "coordinates": [140.434152005, 41.678478319999996]}, "properties": {"id": "PS_3EA43120173F", "station_group_id": "SG_3B60CE7050B0", "operator_id": "jr_hokkaido", "operator_ids": "jr_hokkaido", "name_en": "木古内", "name_ja": "木古内", "label_rank": 72, "tags": ["tokyo", "v3"]}}]}