{"type": "FeatureCollection", "features": [{"type": "Feature", "bbox": [140.51569741999998, 41.144845239999995, 140.51569741999998, 41.144845239999995], "geometry": {"type": "Point", "coordinates": [140.51569741999998, 41.144845239999995]}, "properties": {"id": "PS_DD48C05F85F3", "station_group_id": "SG_2A4DB84B639C", "name_en": "奥津軽いまべつ", "name_ja": "奥津軽いまべつ", "label_rank": 72, "tags": ["tokyo", "v3"]}}, {"type": "Feature", "bbox": [140.6934695, 40.828104, 140.6934695, 40.828104], "geometry": {"type": "Point", "coordinates": [140.6934695, 40.828104]}, "properties": {"id": "PS_6B64A2512EB0", "station_group_id": "SG_2BA2FF558574", "name_en": "新青森", "name_ja": "新青森", "label_rank": 72, "tags": ["tokyo", "v3"]}}, {"type": "Feature", "bbox": [140.6934695, 40.828104, 140.6934695, 40.828104], "geometry": {"type": "Point", "coordinates": [140.6934695, 40.828104]}, "properties": {"id": "PS_DDD2180DECBA", "station_group_id": "SG_2BA2FF558574", "name_en": "新青森", "name_ja": "新青森", "label_rank": 72, "tags": ["tokyo", "v3"]}}]}