{"type": "FeatureCollection", "features": [{"type": "Feature", "bbox": [140.47954, 39.46586, 140.47954, 39.46586], "geometry": {"type": "Point", "coordinates": [140.47954, 39.46586]}, "properties": {"id": "PS_CA775DE09716", "station_group_id": "SG_3500DB0EA0FA", "operator_id": "jr_east", "operator_ids": "jr_east", "name_en": "大曲", "name_ja": "大曲", "label_rank": 72, "tags": ["tokyo", "v3"]}}, {"type": "Feature", "bbox": [140.47954, 39.46586, 140.47954, 39.46586], "geometry": {"type": "Point", "coordinates": [140.47954, 39.46586]}, "properties": {"id": "PS_CF3DA5618AE3", "station_group_id": "SG_3500DB0EA0FA", "operator_id": "jr_east", "operator_ids": "jr_east", "name_en": "大曲", "name_ja": "大曲", "label_rank": 72, "tags": ["tokyo", "v3"]}}, {"type": "Feature", "bbox": [140.12949500000002, 39.717299999999994, 140.12949500000002, 39.717299999999994], "geometry": {"type": "Point", "coordinates": [140.12949500000002, 39.717299999999994]}, "properties": {"id": "PS_B804268591DB", "station_group_id": "SG_49DAAD54C1E9", "operator_id": "jr_east", "operator_ids": "jr_east", "name_en": "秋田", "name_ja": "秋田", "label_rank": 72, "tags": ["tokyo", "v3"]}}, {"type": "Feature", "bbox": [140.12949500000002, 39.717299999999994, 140.12949500000002, 39.717299999999994], "geometry": {"type": "Point", "coordinates": [140.12949500000002, 39.717299999999994]}, "properties": {"id": "PS_894C8B641FA1", "station_group_id": "SG_49DAAD54C1E9", "operator_id": "jr_east", "operator_ids": "jr_east", "name_en": "秋田", "name_ja": "秋田", "label_rank": 72, "tags": ["tokyo", "v3"]}}, {"type": "Feature", "bbox": [140.12975, 39.71755, 140.12975, 39.71755], "geometry": {"type": "Point", "coordinates": [140.12975, 39.71755]}, "properties": {"id": "PS_6EE8D7A6071A", "station_group_id": "SG_49DAAD54C1E9", "operator_id": "jr_east", "operator_ids": "jr_east", "name_en": "秋田", "name_ja": "秋田", "label_rank": 72, "tags": ["tokyo", "v3"]}}, {"type": "Feature", "bbox": [140.57118, 39.591795000000005, 140.57118, 39.591795000000005], "geometry": {"type": "Point", "coordinates": [140.57118, 39.591795000000005]}, "properties": {"id": "PS_846759BF42A1", "station_group_id": "SG_42D36E0FFB32", "operator_id": "秋田内陸縦貫鉄道", "operator_ids": "秋田内陸縦貫鉄道", "name_en": "角館", "name_ja": "角館", "label_rank": 72, "tags": ["tokyo", "v3"]}}, {"type": "Feature", "bbox": [140.57118, 39.591795000000005, 140.57118, 39.591795000000005], "geometry": {"type": "Point", "coordinates": [140.57118, 39.591795000000005]}, "properties": {"id": "PS_55FE7CED13C1", "station_group_id": "SG_42D36E0FFB32", "operator_id": "jr_east", "operator_ids": "jr_east", "name_en": "角館", "name_ja": "角館", "label_rank": 72, "tags": ["tokyo", "v3"]}}]}