{"type": "FeatureCollection", "features": [{"type": "Feature", "bbox": [140.27845000000002, 38.151905, 140.27845000000002, 38.151905], "geometry": {"type": "Point", "coordinates": [140.27845000000002, 38.151905]}, "properties": {"id": "PS_40EFA0D1EF2C", "station_group_id": "SG_7029595EE774", "name_en": "かみのやま温泉", "name_ja": "かみのやま温泉", "label_rank": 72, "tags": ["tokyo", "v3"]}}, {"type": "Feature", "bbox": [140.43552, 37.589465000000004, 140.43552, 37.589465000000004], "geometry": {"type": "Point", "coordinates": [140.43552, 37.589465000000004]}, "properties": {"id": "PS_2B99AC64B896", "station_group_id": "SG_1EB8D178FD8E", "name_en": "二本松", "name_ja": "二本松", "label_rank": 72, "tags": ["tokyo", "v3"]}}, {"type": "Feature", "bbox": [140.38774, 37.482445, 140.38774, 37.482445], "geometry": {"type": "Point", "coordinates": [140.38774, 37.482445]}, "properties": {"id": "PS_AE0AAB677446", "station_group_id": "SG_2FB3F70F9CC6", "name_en": "五百川", "name_ja": "五百川", "label_rank": 72, "tags": ["tokyo", "v3"]}}, {"type": "Feature", "bbox": [140.49338, 37.824275, 140.49338, 37.824275], "geometry": {"type": "Point", "coordinates": [140.49338, 37.824275]}, "properties": {"id": "PS_CA0F12E9972D", "station_group_id": "SG_7757E8024223", "name_en": "伊達", "name_ja": "伊達", "label_rank": 72, "tags": ["tokyo", "v3"]}}, {"type": "Feature", "bbox": [140.69255, 38.03245, 140.69255, 38.03245], "geometry": {"type": "Point", "coordinates": [140.69255, 38.03245]}, "properties": {"id": "PS_C4F0C1B807DE", "station_group_id": "SG_B2AAE9913BC0", "name_en": "北白川", "name_ja": "北白川", "label_rank": 72, "tags": ["tokyo", "v3"]}}, {"type": "Feature", "bbox": [140.455835, 37.723815, 140.455835, 37.723815], "geometry": {"type": "Point", "coordinates": [140.455835, 37.723815]}, "properties": {"id": "PS_D638112BFDBF", "station_group_id": "SG_5364A47AE1F1", "name_en": "南福島", "name_ja": "南福島", "label_rank": 72, "tags": ["tokyo", "v3"]}}, {"type": "Feature", "bbox": [140.36882, 37.35659, 140.36882, 37.35659], "geometry": {"type": "Point", "coordinates": [140.36882, 37.35659]}, "properties": {"id": "PS_22C456ECD5DA", "station_group_id": "SG_41256A82C046", "name_en": "安積永盛", "name_ja": "安積永盛", "label_rank": 72, "tags": ["tokyo", "v3"]}}, {"type": "Feature", "bbox": [140.46668, 37.61264, 140.46668, 37.61264], "geometry": {"type": "Point", "coordinates": [140.46668, 37.61264]}, "properties": {"id": "PS_29203F7741A2", "station_group_id": "SG_53693474F0DF", "name_en": "安達", "name_ja": "安達", "label_rank": 72, "tags": ["tokyo", "v3"]}}, {"type": "Feature", "bbox": [140.3274725, 38.24845, 140.3274725, 38.24845], "geometry": {"type": "Point", "coordinates": [140.3274725, 38.24845]}, "properties": {"id": "PS_DC63454C4DBC", "station_group_id": "SG_1C8A6E3CAB14", "name_en": "山形", "name_ja": "山形", "label_rank": 72, "tags": ["tokyo", "v3"]}}, {"type": "Feature", "bbox": [140.38836500000002, 37.44596, 140.38836500000002, 37.44596], "geometry": {"type": "Point", "coordinates": [140.38836500000002, 37.44596]}, "properties": {"id": "PS_763E4A2B2AEA", "station_group_id": "SG_27FEFAD9B0F6", "name_en": "日和田", "name_ja": "日和田", "label_rank": 72, "tags": ["tokyo", "v3"]}}, {"type": "Feature", "bbox": [140.399335, 37.513735, 140.399335, 37.513735], "geometry": {"type": "Point", "coordinates": [140.399335, 37.513735]}, "properties": {"id": "PS_3BB74D04B148", "station_group_id": "SG_3CE6CC0C9672", "name_en": "本宮", "name_ja": "本宮", "label_rank": 72, "tags": ["tokyo", "v3"]}}, {"type": "Feature", "bbox": [140.41391, 37.563445, 140.41391, 37.563445], "geometry": {"type": "Point", "coordinates": [140.41391, 37.563445]}, "properties": {"id": "PS_C7A1B3E7DB4C", "station_group_id": "SG_8F168A4339A2", "name_en": "杉田", "name_ja": "杉田", "label_rank": 92, "tags": ["tokyo", "v3"]}}, {"type": "Feature", "bbox": [140.65098, 38.035045, 140.65098, 38.035045], "geometry": {"type": "Point", "coordinates": [140.65098, 38.035045]}, "properties": {"id": "PS_8962A36667DD", "station_group_id": "SG_5D82AA87A9D2", "name_en": "東白石", "name_ja": "東白石", "label_rank": 72, "tags": ["tokyo", "v3"]}}, {"type": "Feature", "bbox": [140.477345, 37.799765, 140.477345, 37.799765], "geometry": {"type": "Point", "coordinates": [140.477345, 37.799765]}, "properties": {"id": "PS_7D5551495731", "station_group_id": "SG_DA8D7DE57E87", "name_en": "東福島", "name_ja": "東福島", "label_rank": 72, "tags": ["tokyo", "v3"]}}, {"type": "Feature", "bbox": [140.48416500000002, 37.653505, 140.48416500000002, 37.653505], "geometry": {"type": "Point", "coordinates": [140.48416500000002, 37.653505]}, "properties": {"id": "PS_51806C194C3C", "station_group_id": "SG_2432A6757735", "name_en": "松川", "name_ja": "松川", "label_rank": 72, "tags": ["tokyo", "v3"]}}, {"type": "Feature", "bbox": [140.517315, 37.85517, 140.517315, 37.85517], "geometry": {"type": "Point", "coordinates": [140.517315, 37.85517]}, "properties": {"id": "PS_0205129D3055", "station_group_id": "SG_1A88B7B777A9", "name_en": "桑折", "name_ja": "桑折", "label_rank": 72, "tags": ["tokyo", "v3"]}}, {"type": "Feature", "bbox": [140.62626, 38.003205, 140.62626, 38.003205], "geometry": {"type": "Point", "coordinates": [140.62626, 38.003205]}, "properties": {"id": "PS_BE81CC95D3A2", "station_group_id": "SG_FA159D98409E", "name_en": "白石", "name_ja": "白石", "label_rank": 72, "tags": ["tokyo", "v3"]}}, {"type": "Feature", "bbox": [140.632785, 37.994775000000004, 140.632785, 37.994775000000004], "geometry": {"type": "Point", "coordinates": [140.632785, 37.994775000000004]}, "properties": {"id": "PS_9DF405CC80C4", "station_group_id": "SG_7984EF6A3023", "name_en": "白石蔵王", "name_ja": "白石蔵王", "label_rank": 72, "tags": ["tokyo", "v3"]}}, {"type": "Feature", "bbox": [140.45861000000002, 37.754059999999996, 140.45861000000002, 37.754059999999996], "geometry": {"type": "Point", "coordinates": [140.45861000000002, 37.754059999999996]}, "properties": {"id": "PS_298BD06C6D16", "station_group_id": "SG_FE1E54A3D980", "name_en": "福島", "name_ja": "福島", "label_rank": 72, "tags": ["tokyo", "v3"]}}, {"type": "Feature", "bbox": [140.45992999999999, 37.754315000000005, 140.45992999999999, 37.754315000000005], "geometry": {"type": "Point", "coordinates": [140.45992999999999, 37.754315000000005]}, "properties": {"id": "PS_A108F63D57D7", "station_group_id": "SG_FE1E54A3D980", "name_en": "福島", "name_ja": "福島", "label_rank": 72, "tags": ["tokyo", "v3"]}}, {"type": "Feature", "bbox": [140.45976000000002, 37.754315000000005, 140.45976000000002, 37.754315000000005], "geometry": {"type": "Point", "coordinates": [140.45976000000002, 37.754315000000005]}, "properties": {"id": "PS_0AE2892A7FC0", "station_group_id": "SG_FE1E54A3D980", "name_en": "福島", "name_ja": "福島", "label_rank": 72, "tags": ["tokyo", "v3"]}}, {"type": "Feature", "bbox": [140.128285, 37.909414999999996, 140.128285, 37.909414999999996], "geometry": {"type": "Point", "coordinates": [140.128285, 37.909414999999996]}, "properties": {"id": "PS_14A56694A706", "station_group_id": "SG_192B2B4F3762", "name_en": "米沢", "name_ja": "米沢", "label_rank": 72, "tags": ["tokyo", "v3"]}}, {"type": "Feature", "bbox": [140.128285, 37.909414999999996, 140.128285, 37.909414999999996], "geometry": {"type": "Point", "coordinates": [140.128285, 37.909414999999996]}, "properties": {"id": "PS_BEA88701A1B1", "station_group_id": "SG_192B2B4F3762", "name_en": "米沢", "name_ja": "米沢", "label_rank": 72, "tags": ["tokyo", "v3"]}}, {"type": "Feature", "bbox": [140.53941500000002, 37.878879999999995, 140.53941500000002, 37.878879999999995], "geometry": {"type": "Point", "coordinates": [140.53941500000002, 37.878879999999995]}, "properties": {"id": "PS_81B4CD34C7B5", "station_group_id": "SG_DC302A38639F", "name_en": "藤田", "name_ja": "藤田", "label_rank": 72, "tags": ["tokyo", "v3"]}}, {"type": "Feature", "bbox": [140.58098, 37.90811, 140.58098, 37.90811], "geometry": {"type": "Point", "coordinates": [140.58098, 37.90811]}, "properties": {"id": "PS_ED3CA92E4127", "station_group_id": "SG_61112E64505B", "name_en": "貝田", "name_ja": "貝田", "label_rank": 72, "tags": ["tokyo", "v3"]}}, {"type": "Feature", "bbox": [140.14901, 38.04723, 140.14901, 38.04723], "geometry": {"type": "Point", "coordinates": [140.14901, 38.04723]}, "properties": {"id": "PS_0D4AF704EC7D", "station_group_id": "SG_4C8A7F521BC5", "name_en": "赤湯", "name_ja": "赤湯", "label_rank": 72, "tags": ["tokyo", "v3"]}}, {"type": "Feature", "bbox": [140.14901, 38.04723, 140.14901, 38.04723], "geometry": {"type": "Point", "coordinates": [140.14901, 38.04723]}, "properties": {"id": "PS_A185C75D233A", "station_group_id": "SG_4C8A7F521BC5", "name_en": "赤湯", "name_ja": "赤湯", "label_rank": 72, "tags": ["tokyo", "v3"]}}, {"type": "Feature", "bbox": [140.604425, 37.933555, 140.604425, 37.933555], "geometry": {"type": "Point", "coordinates": [140.604425, 37.933555]}, "properties": {"id": "PS_30665EEC7B48", "station_group_id": "SG_D83BB4B2BEBE", "name_en": "越河", "name_ja": "越河", "label_rank": 72, "tags": ["tokyo", "v3"]}}, {"type": "Feature", "bbox": [140.38862, 37.39862, 140.38862, 37.39862], "geometry": {"type": "Point", "coordinates": [140.38862, 37.39862]}, "properties": {"id": "PS_C02A086496EF", "station_group_id": "SG_0F07E72AEE8E", "name_en": "郡山", "name_ja": "郡山", "label_rank": 72, "tags": ["tokyo", "v3"]}}, {"type": "Feature", "bbox": [140.388865, 37.398145, 140.388865, 37.398145], "geometry": {"type": "Point", "coordinates": [140.388865, 37.398145]}, "properties": {"id": "PS_88A1D58EB164", "station_group_id": "SG_0F07E72AEE8E", "name_en": "郡山", "name_ja": "郡山", "label_rank": 72, "tags": ["tokyo", "v3"]}}, {"type": "Feature", "bbox": [140.45200499999999, 37.680710000000005, 140.45200499999999, 37.680710000000005], "geometry": {"type": "Point", "coordinates": [140.45200499999999, 37.680710000000005]}, "properties": {"id": "PS_ADB3B90C698B", "station_group_id": "SG_5976C42DA4AD", "name_en": "金谷川", "name_ja": "金谷川", "label_rank": 72, "tags": ["tokyo", "v3"]}}, {"type": "Feature", "bbox": [140.34684, 37.250564999999995, 140.34684, 37.250564999999995], "geometry": {"type": "Point", "coordinates": [140.34684, 37.250564999999995]}, "properties": {"id": "PS_BE40079D42CC", "station_group_id": "SG_8D94BD2DAAC6", "name_en": "鏡石", "name_ja": "鏡石", "label_rank": 72, "tags": ["tokyo", "v3"]}}, {"type": "Feature", "bbox": [140.37157000000002, 37.300435, 140.37157000000002, 37.300435], "geometry": {"type": "Point", "coordinates": [140.37157000000002, 37.300435]}, "properties": {"id": "PS_3F2176DE8D62", "station_group_id": "SG_813F30314B80", "name_en": "須賀川", "name_ja": "須賀川", "label_rank": 72, "tags": ["tokyo", "v3"]}}, {"type": "Feature", "bbox": [140.15281, 37.992335, 140.15281, 37.992335], "geometry": {"type": "Point", "coordinates": [140.15281, 37.992335]}, "properties": {"id": "PS_077E799E0E9B", "station_group_id": "SG_A51E2EC0A8CE", "name_en": "高畠", "name_ja": "高畠", "label_rank": 72, "tags": ["tokyo", "v3"]}}]}