{"type": "FeatureCollection", "features": [{"type": "Feature", "bbox": [139.82953500000002, 36.466745, 139.82953500000002, 36.466745], "geometry": {"type": "Point", "coordinates": [139.82953500000002, 36.466745]}, "properties": {"id": "PS_6CC48F9ECC5B", "station_group_id": "SG_FC0B0C633416", "name_en": "おもちゃのまち", "name_ja": "おもちゃのまち", "label_rank": 72, "tags": ["tokyo", "v3"]}}, {"type": "Feature", "bbox": [139.7273, 37.01438, 139.7273, 37.01438], "geometry": {"type": "Point", "coordinates": [139.7273, 37.01438]}, "properties": {"id": "PS_83B481CFA499", "station_group_id": "SG_D629A742A110", "name_en": "上三依塩原温泉口", "name_ja": "上三依塩原温泉口", "label_rank": 72, "tags": ["tokyo", "v3"]}}, {"type": "Feature", "bbox": [139.68086, 36.72801, 139.68086, 36.72801], "geometry": {"type": "Point", "coordinates": [139.68086, 36.72801]}, "properties": {"id": "PS_C9D6BEF5BCD7", "station_group_id": "SG_62ECE2C5ABEA", "name_en": "上今市", "name_ja": "上今市", "label_rank": 72, "tags": ["tokyo", "v3"]}}, {"type": "Feature", "bbox": [139.69277, 36.7256, 139.69277, 36.7256], "geometry": {"type": "Point", "coordinates": [139.69277, 36.7256]}, "properties": {"id": "PS_5D7DF056C166", "station_group_id": "SG_25AA8D611688", "name_en": "下今市", "name_ja": "下今市", "label_rank": 72, "tags": ["tokyo", "v3"]}}, {"type": "Feature", "bbox": [139.69277, 36.7256, 139.69277, 36.7256], "geometry": {"type": "Point", "coordinates": [139.69277, 36.7256]}, "properties": {"id": "PS_525340D89748", "station_group_id": "SG_25AA8D611688", "name_en": "下今市", "name_ja": "下今市", "label_rank": 72, "tags": ["tokyo", "v3"]}}, {"type": "Feature", "bbox": [139.713905, 36.651375, 139.713905, 36.651375], "geometry": {"type": "Point", "coordinates": [139.713905, 36.651375]}, "properties": {"id": "PS_C28AB1D8A1F1", "station_group_id": "SG_8E4E209FF0E7", "name_en": "下小代", "name_ja": "下小代", "label_rank": 72, "tags": ["tokyo", "v3"]}}, {"type": "Feature", "bbox": [139.699325, 36.9852, 139.699325, 36.9852], "geometry": {"type": "Point", "coordinates": [139.699325, 36.9852]}, "properties": {"id": "PS_CC46D4CD8DEE", "station_group_id": "SG_32452D74500E", "name_en": "中三依温泉", "name_ja": "中三依温泉", "label_rank": 72, "tags": ["tokyo", "v3"]}}, {"type": "Feature", "bbox": [140.260185, 37.137525, 140.260185, 37.137525], "geometry": {"type": "Point", "coordinates": [140.260185, 37.137525]}, "properties": {"id": "PS_3DE15486F29C", "station_group_id": "SG_B299DC7D6BF4", "name_en": "久田野", "name_ja": "久田野", "label_rank": 72, "tags": ["tokyo", "v3"]}}, {"type": "Feature", "bbox": [139.77431, 37.203265, 139.77431, 37.203265], "geometry": {"type": "Point", "coordinates": [139.77431, 37.203265]}, "properties": {"id": "PS_233BA1E5A3C6", "station_group_id": "SG_777891F094FF", "name_en": "会津田島", "name_ja": "会津田島", "label_rank": 72, "tags": ["tokyo", "v3"]}}, {"type": "Feature", "bbox": [139.70512333333332, 37.09002666666667, 139.70512333333332, 37.09002666666667], "geometry": {"type": "Point", "coordinates": [139.70512333333332, 37.09002666666667]}, "properties": {"id": "PS_EF9797A60666", "station_group_id": "SG_153D562DD6CD", "name_en": "会津高原尾瀬口", "name_ja": "会津高原尾瀬口", "label_rank": 72, "tags": ["tokyo", "v3"]}}, {"type": "Feature", "bbox": [139.70512333333332, 37.09002666666667, 139.70512333333332, 37.09002666666667], "geometry": {"type": "Point", "coordinates": [139.70512333333332, 37.09002666666667]}, "properties": {"id": "PS_3ABD52D58529", "station_group_id": "SG_153D562DD6CD", "name_en": "会津高原尾瀬口", "name_ja": "会津高原尾瀬口", "label_rank": 72, "tags": ["tokyo", "v3"]}}, {"type": "Feature", "bbox": [140.54050999999998, 36.43047, 140.54050999999998, 36.43047], "geometry": {"type": "Point", "coordinates": [140.54050999999998, 36.43047]}, "properties": {"id": "PS_E2378A8C67FD", "station_group_id": "SG_72073B67B5FB", "name_en": "佐和", "name_ja": "佐和", "label_rank": 72, "tags": ["tokyo", "v3"]}}, {"type": "Feature", "bbox": [139.579135, 36.316845, 139.579135, 36.316845], "geometry": {"type": "Point", "coordinates": [139.579135, 36.316845]}, "properties": {"id": "PS_2C08B82A95C9", "station_group_id": "SG_84B64714C355", "name_en": "佐野", "name_ja": "佐野", "label_rank": 72, "tags": ["tokyo", "v3"]}}, {"type": "Feature", "bbox": [139.5759, 36.30624, 139.5759, 36.30624], "geometry": {"type": "Point", "coordinates": [139.5759, 36.30624]}, "properties": {"id": "PS_63D8CDCEB5C3", "station_group_id": "SG_030D4CB89709", "name_en": "佐野市", "name_ja": "佐野市", "label_rank": 72, "tags": ["tokyo", "v3"]}}, {"type": "Feature", "bbox": [140.45634, 36.37303, 140.45634, 36.37303], "geometry": {"type": "Point", "coordinates": [140.45634, 36.37303]}, "properties": {"id": "PS_73C26537DE40", "station_group_id": "SG_BF2AC143F445", "name_en": "偕楽園", "name_ja": "偕楽園", "label_rank": 72, "tags": ["tokyo", "v3"]}}, {"type": "Feature", "bbox": [140.35262999999998, 36.370045, 140.35262999999998, 36.370045], "geometry": {"type": "Point", "coordinates": [140.35262999999998, 36.370045]}, "properties": {"id": "PS_97E53F063BEC", "station_group_id": "SG_D6FD5A19BC2C", "name_en": "内原", "name_ja": "内原", "label_rank": 72, "tags": ["tokyo", "v3"]}}, {"type": "Feature", "bbox": [140.524215, 36.394075, 140.524215, 36.394075], "geometry": {"type": "Point", "coordinates": [140.524215, 36.394075]}, "properties": {"id": "PS_7E2900E8DDA1", "station_group_id": "SG_04E69BC062CD", "name_en": "勝田", "name_ja": "勝田", "label_rank": 72, "tags": ["tokyo", "v3"]}}, {"type": "Feature", "bbox": [139.737665, 36.58078, 139.737665, 36.58078], "geometry": {"type": "Point", "coordinates": [139.737665, 36.58078]}, "properties": {"id": "PS_3F0A4DA4E6B0", "station_group_id": "SG_AF979F2911F3", "name_en": "北鹿沼", "name_ja": "北鹿沼", "label_rank": 72, "tags": ["tokyo", "v3"]}}, {"type": "Feature", "bbox": [140.685945, 36.67138, 140.685945, 36.67138], "geometry": {"type": "Point", "coordinates": [140.685945, 36.67138]}, "properties": {"id": "PS_4D0C8C6479E4", "station_group_id": "SG_883B42DF4469", "name_en": "十王", "name_ja": "十王", "label_rank": 72, "tags": ["tokyo", "v3"]}}, {"type": "Feature", "bbox": [139.87206500000002, 36.54378, 139.87206500000002, 36.54378], "geometry": {"type": "Point", "coordinates": [139.87206500000002, 36.54378]}, "properties": {"id": "PS_F881F5823AE5", "station_group_id": "SG_432A1A80AE6F", "name_en": "南宇都宮", "name_ja": "南宇都宮", "label_rank": 72, "tags": ["tokyo", "v3"]}}, {"type": "Feature", "bbox": [140.30602499999998, 36.35046, 140.30602499999998, 36.35046], "geometry": {"type": "Point", "coordinates": [140.30602499999998, 36.35046]}, "properties": {"id": "PS_E6DAA9358588", "station_group_id": "SG_2EED928BCE97", "name_en": "友部", "name_ja": "友部", "label_rank": 72, "tags": ["tokyo", "v3"]}}, {"type": "Feature", "bbox": [139.70971500000002, 36.194415, 139.70971500000002, 36.194415], "geometry": {"type": "Point", "coordinates": [139.70971500000002, 36.194415]}, "properties": {"id": "PS_92C0540053B8", "station_group_id": "SG_266FB858F670", "name_en": "古河", "name_ja": "古河", "label_rank": 72, "tags": ["tokyo", "v3"]}}, {"type": "Feature", "bbox": [139.74102, 36.407585, 139.74102, 36.407585], "geometry": {"type": "Point", "coordinates": [139.74102, 36.407585]}, "properties": {"id": "PS_098F7A9D2214", "station_group_id": "SG_8A0A887540B5", "name_en": "合戦場", "name_ja": "合戦場", "label_rank": 72, "tags": ["tokyo", "v3"]}}, {"type": "Feature", "bbox": [139.57934999999998, 36.345625, 139.57934999999998, 36.345625], "geometry": {"type": "Point", "coordinates": [139.57934999999998, 36.345625]}, "properties": {"id": "PS_32763CD990D4", "station_group_id": "SG_9C4395CE5E19", "name_en": "吉水", "name_ja": "吉水", "label_rank": 72, "tags": ["tokyo", "v3"]}}, {"type": "Feature", "bbox": [139.82385, 36.451454999999996, 139.82385, 36.451454999999996], "geometry": {"type": "Point", "coordinates": [139.82385, 36.451454999999996]}, "properties": {"id": "PS_9B38CE7778B6", "station_group_id": "SG_60F0E053D9AF", "name_en": "国谷", "name_ja": "国谷", "label_rank": 72, "tags": ["tokyo", "v3"]}}, {"type": "Feature", "bbox": [139.58033, 36.32844, 139.58033, 36.32844], "geometry": {"type": "Point", "coordinates": [139.58033, 36.32844]}, "properties": {"id": "PS_2AA64B9E449D", "station_group_id": "SG_CB12D68C06BF", "name_en": "堀米", "name_ja": "堀米", "label_rank": 72, "tags": ["tokyo", "v3"]}}, {"type": "Feature", "bbox": [139.80500999999998, 36.422435, 139.80500999999998, 36.422435], "geometry": {"type": "Point", "coordinates": [139.80500999999998, 36.422435]}, "properties": {"id": "PS_35457AA9B072", "station_group_id": "SG_8038022E4B81", "name_en": "壬生", "name_ja": "壬生", "label_rank": 72, "tags": ["tokyo", "v3"]}}, {"type": "Feature", "bbox": [139.59296, 36.378074999999995, 139.59296, 36.378074999999995], "geometry": {"type": "Point", "coordinates": [139.59296, 36.378074999999995]}, "properties": {"id": "PS_AA9DABEA98EC", "station_group_id": "SG_210F64358BF4", "name_en": "多田", "name_ja": "多田", "label_rank": 72, "tags": ["tokyo", "v3"]}}, {"type": "Feature", "bbox": [139.713575, 36.760795, 139.713575, 36.760795], "geometry": {"type": "Point", "coordinates": [139.713575, 36.760795]}, "properties": {"id": "PS_C9F58FC7E256", "station_group_id": "SG_CD23587964AD", "name_en": "大桑", "name_ja": "大桑", "label_rank": 72, "tags": ["tokyo", "v3"]}}, {"type": "Feature", "bbox": [140.619435, 36.512925, 140.619435, 36.512925], "geometry": {"type": "Point", "coordinates": [140.619435, 36.512925]}, "properties": {"id": "PS_F9782553A988", "station_group_id": "SG_A7AB79B75753", "name_en": "大甕", "name_ja": "大甕", "label_rank": 72, "tags": ["tokyo", "v3"]}}, {"type": "Feature", "bbox": [139.69194, 36.732275, 139.69194, 36.732275], "geometry": {"type": "Point", "coordinates": [139.69194, 36.732275]}, "properties": {"id": "PS_F373785FD434", "station_group_id": "SG_501FF6694869", "name_en": "大谷向", "name_ja": "大谷向", "label_rank": 72, "tags": ["tokyo", "v3"]}}, {"type": "Feature", "bbox": [139.89809, 36.558769999999996, 139.89809, 36.558769999999996], "geometry": {"type": "Point", "coordinates": [139.89809, 36.558769999999996]}, "properties": {"id": "PS_0393B1C5325D", "station_group_id": "SG_EA3A8AE9032A", "name_en": "宇都宮", "name_ja": "宇都宮", "label_rank": 72, "tags": ["tokyo", "v3"]}}, {"type": "Feature", "bbox": [139.898725, 36.55975, 139.898725, 36.55975], "geometry": {"type": "Point", "coordinates": [139.898725, 36.55975]}, "properties": {"id": "PS_ED8B396839B9", "station_group_id": "SG_EA3A8AE9032A", "name_en": "宇都宮", "name_ja": "宇都宮", "label_rank": 72, "tags": ["tokyo", "v3"]}}, {"type": "Feature", "bbox": [139.83562, 36.485645000000005, 139.83562, 36.485645000000005], "geometry": {"type": "Point", "coordinates": [139.83562, 36.485645000000005]}, "properties": {"id": "PS_53E66D83D153", "station_group_id": "SG_3F90A086BDEC", "name_en": "安塚", "name_ja": "安塚", "label_rank": 72, "tags": ["tokyo", "v3"]}}, {"type": "Feature", "bbox": [139.97952, 36.631625, 139.97952, 36.631625], "geometry": {"type": "Point", "coordinates": [139.97952, 36.631625]}, "properties": {"id": "PS_8D495829E3A1", "station_group_id": "SG_F414A0DC79DC", "name_en": "宝積寺", "name_ja": "宝積寺", "label_rank": 72, "tags": ["tokyo", "v3"]}}, {"type": "Feature", "bbox": [139.74745000000001, 36.42979, 139.74745000000001, 36.42979], "geometry": {"type": "Point", "coordinates": [139.74745000000001, 36.42979]}, "properties": {"id": "PS_D28351282465", "station_group_id": "SG_7242DD67AD35", "name_en": "家中", "name_ja": "家中", "label_rank": 72, "tags": ["tokyo", "v3"]}}, {"type": "Feature", "bbox": [139.7065, 36.80224, 139.7065, 36.80224], "geometry": {"type": "Point", "coordinates": [139.7065, 36.80224]}, "properties": {"id": "PS_3C420FA36279", "station_group_id": "SG_0187CD4C0DF4", "name_en": "小佐越", "name_ja": "小佐越", "label_rank": 72, "tags": ["tokyo", "v3"]}}, {"type": "Feature", "bbox": [139.806355, 36.313545000000005, 139.806355, 36.313545000000005], "geometry": {"type": "Point", "coordinates": [139.806355, 36.313545000000005]}, "properties": {"id": "PS_55DC775ADDB8", "station_group_id": "SG_8719975862DB", "name_en": "小山", "name_ja": "小山", "label_rank": 72, "tags": ["tokyo", "v3"]}}, {"type": "Feature", "bbox": [139.80662999999998, 36.31344, 139.80662999999998, 36.31344], "geometry": {"type": "Point", "coordinates": [139.80662999999998, 36.31344]}, "properties": {"id": "PS_7C63721FCE2D", "station_group_id": "SG_8719975862DB", "name_en": "小山", "name_ja": "小山", "label_rank": 72, "tags": ["tokyo", "v3"]}}, {"type": "Feature", "bbox": [140.675295, 36.63664, 140.675295, 36.63664], "geometry": {"type": "Point", "coordinates": [140.675295, 36.63664]}, "properties": {"id": "PS_CD79FD9F4B16", "station_group_id": "SG_72C6DFC10334", "name_en": "小木津", "name_ja": "小木津", "label_rank": 72, "tags": ["tokyo", "v3"]}}, {"type": "Feature", "bbox": [139.84228000000002, 36.374485, 139.84228000000002, 36.374485], "geometry": {"type": "Point", "coordinates": [139.84228000000002, 36.374485]}, "properties": {"id": "PS_21938516B643", "station_group_id": "SG_D8BB91CEF032", "name_en": "小金井", "name_ja": "小金井", "label_rank": 72, "tags": ["tokyo", "v3"]}}, {"type": "Feature", "bbox": [139.94425, 36.598265, 139.94425, 36.598265], "geometry": {"type": "Point", "coordinates": [139.94425, 36.598265]}, "properties": {"id": "PS_994B65B16754", "station_group_id": "SG_80913656979B", "name_en": "岡本", "name_ja": "岡本", "label_rank": 72, "tags": ["tokyo", "v3"]}}, {"type": "Feature", "bbox": [140.27651500000002, 36.295424999999994, 140.27651500000002, 36.295424999999994], "geometry": {"type": "Point", "coordinates": [140.27651500000002, 36.295424999999994]}, "properties": {"id": "PS_17921333E68C", "station_group_id": "SG_7BB4136F279A", "name_en": "岩間", "name_ja": "岩間", "label_rank": 72, "tags": ["tokyo", "v3"]}}, {"type": "Feature", "bbox": [139.70373999999998, 36.884145000000004, 139.70373999999998, 36.884145000000004], "geometry": {"type": "Point", "coordinates": [139.70373999999998, 36.884145000000004]}, "properties": {"id": "PS_72AABC96320E", "station_group_id": "SG_598A86BCBB9F", "name_en": "川治温泉", "name_ja": "川治温泉", "label_rank": 72, "tags": ["tokyo", "v3"]}}, {"type": "Feature", "bbox": [139.7027675, 36.895205000000004, 139.7027675, 36.895205000000004], "geometry": {"type": "Point", "coordinates": [139.7027675, 36.895205000000004]}, "properties": {"id": "PS_B7EED8CB2941", "station_group_id": "SG_B9A9493034CB", "name_en": "川治湯元", "name_ja": "川治湯元", "label_rank": 72, "tags": ["tokyo", "v3"]}}, {"type": "Feature", "bbox": [140.63272, 36.552115, 140.63272, 36.552115], "geometry": {"type": "Point", "coordinates": [140.63272, 36.552115]}, "properties": {"id": "PS_E1FC98C114E1", "station_group_id": "SG_96CA03569B6A", "name_en": "常陸多賀", "name_ja": "常陸多賀", "label_rank": 72, "tags": ["tokyo", "v3"]}}, {"type": "Feature", "bbox": [139.68701499999997, 36.1927, 139.68701499999997, 36.1927], "geometry": {"type": "Point", "coordinates": [139.68701499999997, 36.1927]}, "properties": {"id": "PS_2F27157BE09E", "station_group_id": "SG_DA72E50AB8C5", "name_en": "新古河", "name_ja": "新古河", "label_rank": 72, "tags": ["tokyo", "v3"]}}, {"type": "Feature", "bbox": [139.701865, 36.33897, 139.701865, 36.33897], "geometry": {"type": "Point", "coordinates": [139.701865, 36.33897]}, "properties": {"id": "PS_F68C89D4F008", "station_group_id": "SG_527967636727", "name_en": "新大平下", "name_ja": "新大平下", "label_rank": 72, "tags": ["tokyo", "v3"]}}, {"type": "Feature", "bbox": [139.74235, 36.390060000000005, 139.74235, 36.390060000000005], "geometry": {"type": "Point", "coordinates": [139.74235, 36.390060000000005]}, "properties": {"id": "PS_FED0BC9663F6", "station_group_id": "SG_7162360D271D", "name_en": "新栃木", "name_ja": "新栃木", "label_rank": 72, "tags": ["tokyo", "v3"]}}, {"type": "Feature", "bbox": [139.74235, 36.390060000000005, 139.74235, 36.390060000000005], "geometry": {"type": "Point", "coordinates": [139.74235, 36.390060000000005]}, "properties": {"id": "PS_F301BE8E80CC", "station_group_id": "SG_7162360D271D", "name_en": "新栃木", "name_ja": "新栃木", "label_rank": 72, "tags": ["tokyo", "v3"]}}, {"type": "Feature", "bbox": [140.188825, 37.123310000000004, 140.188825, 37.123310000000004], "geometry": {"type": "Point", "coordinates": [140.188825, 37.123310000000004]}, "properties": {"id": "PS_C7F25103F27A", "station_group_id": "SG_202A1F59BFCA", "name_en": "新白河", "name_ja": "新白河", "label_rank": 72, "tags": ["tokyo", "v3"]}}, {"type": "Feature", "bbox": [140.187535, 37.12254, 140.187535, 37.12254], "geometry": {"type": "Point", "coordinates": [140.187535, 37.12254]}, "properties": {"id": "PS_DDCEE70E7623", "station_group_id": "SG_202A1F59BFCA", "name_en": "新白河", "name_ja": "新白河", "label_rank": 72, "tags": ["tokyo", "v3"]}}, {"type": "Feature", "bbox": [139.73300999999998, 36.852455, 139.73300999999998, 36.852455], "geometry": {"type": "Point", "coordinates": [139.73300999999998, 36.852455]}, "properties": {"id": "PS_007CF9B61B69", "station_group_id": "SG_3A2B83E5E28E", "name_en": "新藤原", "name_ja": "新藤原", "label_rank": 72, "tags": ["tokyo", "v3"]}}, {"type": "Feature", "bbox": [139.71071, 36.77977, 139.71071, 36.77977], "geometry": {"type": "Point", "coordinates": [139.71071, 36.77977]}, "properties": {"id": "PS_58F142CF6411", "station_group_id": "SG_987B46147FE2", "name_en": "新高徳", "name_ja": "新高徳", "label_rank": 72, "tags": ["tokyo", "v3"]}}, {"type": "Feature", "bbox": [139.74475999999999, 36.556985, 139.74475999999999, 36.556985], "geometry": {"type": "Point", "coordinates": [139.74475999999999, 36.556985]}, "properties": {"id": "PS_B1B30291F353", "station_group_id": "SG_9FC4CEBFB2C8", "name_en": "新鹿沼", "name_ja": "新鹿沼", "label_rank": 72, "tags": ["tokyo", "v3"]}}, {"type": "Feature", "bbox": [140.66180000000003, 36.590325, 140.66180000000003, 36.590325], "geometry": {"type": "Point", "coordinates": [140.66180000000003, 36.590325]}, "properties": {"id": "PS_9823B580D83B", "station_group_id": "SG_08C5BB646B28", "name_en": "日立", "name_ja": "日立", "label_rank": 72, "tags": ["tokyo", "v3"]}}, {"type": "Feature", "bbox": [139.71220499999998, 36.676555, 139.71220499999998, 36.676555], "geometry": {"type": "Point", "coordinates": [139.71220499999998, 36.676555]}, "properties": {"id": "PS_90B3BA441541", "station_group_id": "SG_1DC6A0C27A2D", "name_en": "明神", "name_ja": "明神", "label_rank": 72, "tags": ["tokyo", "v3"]}}, {"type": "Feature", "bbox": [139.70897765222182, 36.80829970578461, 139.70897765222182, 36.80829970578461], "geometry": {"type": "Point", "coordinates": [139.70897765222182, 36.80829970578461]}, "properties": {"id": "PS_458F7C299C4A", "station_group_id": "SG_39245AF68FD5", "name_en": "東武ワールドスクウェア", "name_ja": "東武ワールドスクウェア", "label_rank": 72, "tags": ["tokyo", "v3"]}}, {"type": "Feature", "bbox": [139.88060000000002, 36.55866, 139.88060000000002, 36.55866], "geometry": {"type": "Point", "coordinates": [139.88060000000002, 36.55866]}, "properties": {"id": "PS_EC295A1AAF08", "station_group_id": "SG_C312C9E498B8", "name_en": "東武宇都宮", "name_ja": "東武宇都宮", "label_rank": 72, "tags": ["tokyo", "v3"]}}, {"type": "Feature", "bbox": [139.61972, 36.74824, 139.61972, 36.74824], "geometry": {"type": "Point", "coordinates": [139.61972, 36.74824]}, "properties": {"id": "PS_3F8FBB9829CE", "station_group_id": "SG_D95B6D4A55A2", "name_en": "東武日光", "name_ja": "東武日光", "label_rank": 72, "tags": ["tokyo", "v3"]}}, {"type": "Feature", "bbox": [139.62014, 36.747935, 139.62014, 36.747935], "geometry": {"type": "Point", "coordinates": [139.62014, 36.747935]}, "properties": {"id": "PS_3EF02A9DE2DA", "station_group_id": "SG_D95B6D4A55A2", "name_en": "東武日光", "name_ja": "東武日光", "label_rank": 72, "tags": ["tokyo", "v3"]}}, {"type": "Feature", "bbox": [139.749485, 36.466300000000004, 139.749485, 36.466300000000004], "geometry": {"type": "Point", "coordinates": [139.749485, 36.466300000000004]}, "properties": {"id": "PS_7E59606A88FA", "station_group_id": "SG_45047BC04F44", "name_en": "東武金崎", "name_ja": "東武金崎", "label_rank": 72, "tags": ["tokyo", "v3"]}}, {"type": "Feature", "bbox": [140.566035, 36.4655, 140.566035, 36.4655], "geometry": {"type": "Point", "coordinates": [140.566035, 36.4655]}, "properties": {"id": "PS_D50862C6A2E6", "station_group_id": "SG_0D6A9734FFE6", "name_en": "東海", "name_ja": "東海", "label_rank": 72, "tags": ["tokyo", "v3"]}}, {"type": "Feature", "bbox": [139.64862499999998, 36.222205, 139.64862499999998, 36.222205], "geometry": {"type": "Point", "coordinates": [139.64862499999998, 36.222205]}, "properties": {"id": "PS_3A325924C6AF", "station_group_id": "SG_F0B0E92F38CF", "name_en": "板倉東洋大前", "name_ja": "板倉東洋大前", "label_rank": 72, "tags": ["tokyo", "v3"]}}, {"type": "Feature", "bbox": [139.70778, 36.6194, 139.70778, 36.6194], "geometry": {"type": "Point", "coordinates": [139.70778, 36.6194]}, "properties": {"id": "PS_B9EC2C39316E", "station_group_id": "SG_A75FE6BC3BB5", "name_en": "板荷", "name_ja": "板荷", "label_rank": 72, "tags": ["tokyo", "v3"]}}, {"type": "Feature", "bbox": [139.659955, 36.20659, 139.659955, 36.20659], "geometry": {"type": "Point", "coordinates": [139.659955, 36.20659]}, "properties": {"id": "PS_5B79DE99010D", "station_group_id": "SG_6E1F3E727D32", "name_en": "柳生", "name_ja": "柳生", "label_rank": 72, "tags": ["tokyo", "v3"]}}, {"type": "Feature", "bbox": [139.73149, 36.371669999999995, 139.73149, 36.371669999999995], "geometry": {"type": "Point", "coordinates": [139.73149, 36.371669999999995]}, "properties": {"id": "PS_BDAD68DC7DAA", "station_group_id": "SG_3FFD70016DC5", "name_en": "栃木", "name_ja": "栃木", "label_rank": 72, "tags": ["tokyo", "v3"]}}, {"type": "Feature", "bbox": [139.74524000000002, 36.50706, 139.74524000000002, 36.50706], "geometry": {"type": "Point", "coordinates": [139.74524000000002, 36.50706]}, "properties": {"id": "PS_89D4FFAD1699", "station_group_id": "SG_BD8B089E2E62", "name_en": "楡木", "name_ja": "楡木", "label_rank": 72, "tags": ["tokyo", "v3"]}}, {"type": "Feature", "bbox": [139.74174499999998, 36.53324, 139.74174499999998, 36.53324], "geometry": {"type": "Point", "coordinates": [139.74174499999998, 36.53324]}, "properties": {"id": "PS_EE0975CDC8A0", "station_group_id": "SG_482FBE2D4C7D", "name_en": "樅山", "name_ja": "樅山", "label_rank": 72, "tags": ["tokyo", "v3"]}}, {"type": "Feature", "bbox": [139.96210000000002, 36.68169, 139.96210000000002, 36.68169], "geometry": {"type": "Point", "coordinates": [139.96210000000002, 36.68169]}, "properties": {"id": "PS_1B5A98F2745B", "station_group_id": "SG_30BEDCB60979", "name_en": "氏家", "name_ja": "氏家", "label_rank": 72, "tags": ["tokyo", "v3"]}}, {"type": "Feature", "bbox": [140.47721, 36.370865, 140.47721, 36.370865], "geometry": {"type": "Point", "coordinates": [140.47721, 36.370865]}, "properties": {"id": "PS_7B07BA42EB7E", "station_group_id": "SG_5316F04894B6", "name_en": "水戸", "name_ja": "水戸", "label_rank": 72, "tags": ["tokyo", "v3"]}}, {"type": "Feature", "bbox": [139.860815, 36.530955000000006, 139.860815, 36.530955000000006], "geometry": {"type": "Point", "coordinates": [139.860815, 36.530955000000006]}, "properties": {"id": "PS_F04BF6BB61B4", "station_group_id": "SG_1BF1C88FE582", "name_en": "江曾島", "name_ja": "江曾島", "label_rank": 72, "tags": ["tokyo", "v3"]}}, {"type": "Feature", "bbox": [140.29906, 37.158235000000005, 140.29906, 37.158235000000005], "geometry": {"type": "Point", "coordinates": [140.29906, 37.158235000000005]}, "properties": {"id": "PS_B6E3E59A3ADE", "station_group_id": "SG_B39A688538F1", "name_en": "泉崎", "name_ja": "泉崎", "label_rank": 72, "tags": ["tokyo", "v3"]}}, {"type": "Feature", "bbox": [139.68860999999998, 36.929545000000005, 139.68860999999998, 36.929545000000005], "geometry": {"type": "Point", "coordinates": [139.68860999999998, 36.929545000000005]}, "properties": {"id": "PS_6BE3618A9F1F", "station_group_id": "SG_060165B0E069", "name_en": "湯西川温泉", "name_ja": "湯西川温泉", "label_rank": 72, "tags": ["tokyo", "v3"]}}, {"type": "Feature", "bbox": [139.94554, 36.75468, 139.94554, 36.75468], "geometry": {"type": "Point", "coordinates": [139.94554, 36.75468]}, "properties": {"id": "PS_39625A89BAEA", "station_group_id": "SG_A8A7F4D7810D", "name_en": "片岡", "name_ja": "片岡", "label_rank": 72, "tags": ["tokyo", "v3"]}}, {"type": "Feature", "bbox": [139.564905, 36.290225, 139.564905, 36.290225], "geometry": {"type": "Point", "coordinates": [139.564905, 36.290225]}, "properties": {"id": "PS_CBCC907336CC", "station_group_id": "SG_08CB6AB7F33E", "name_en": "田島", "name_ja": "田島", "label_rank": 72, "tags": ["tokyo", "v3"]}}, {"type": "Feature", "bbox": [139.58191, 36.36707, 139.58191, 36.36707], "geometry": {"type": "Point", "coordinates": [139.58191, 36.36707]}, "properties": {"id": "PS_C808B2C1490A", "station_group_id": "SG_CEDCC149CB8F", "name_en": "田沼", "name_ja": "田沼", "label_rank": 72, "tags": ["tokyo", "v3"]}}, {"type": "Feature", "bbox": [140.184705, 37.095275, 140.184705, 37.095275], "geometry": {"type": "Point", "coordinates": [140.184705, 37.095275]}, "properties": {"id": "PS_C4E4E71DB051", "station_group_id": "SG_5A9C4FA6D55F", "name_en": "白坂", "name_ja": "白坂", "label_rank": 72, "tags": ["tokyo", "v3"]}}, {"type": "Feature", "bbox": [140.212425, 37.130219999999994, 140.212425, 37.130219999999994], "geometry": {"type": "Point", "coordinates": [140.212425, 37.130219999999994]}, "properties": {"id": "PS_FFCF8395D90D", "station_group_id": "SG_3E69FECA7D4D", "name_en": "白河", "name_ja": "白河", "label_rank": 72, "tags": ["tokyo", "v3"]}}, {"type": "Feature", "bbox": [140.32827500000002, 37.20575, 140.32827500000002, 37.20575], "geometry": {"type": "Point", "coordinates": [140.32827500000002, 37.20575]}, "properties": {"id": "PS_73E4D25BC464", "station_group_id": "SG_57499845C463", "name_en": "矢吹", "name_ja": "矢吹", "label_rank": 72, "tags": ["tokyo", "v3"]}}, {"type": "Feature", "bbox": [139.932975, 36.80662, 139.932975, 36.80662], "geometry": {"type": "Point", "coordinates": [139.932975, 36.80662]}, "properties": {"id": "PS_410C14912785", "station_group_id": "SG_6B93B2608CE0", "name_en": "矢板", "name_ja": "矢板", "label_rank": 72, "tags": ["tokyo", "v3"]}}, {"type": "Feature", "bbox": [140.279765, 36.191495, 140.279765, 36.191495], "geometry": {"type": "Point", "coordinates": [140.279765, 36.191495]}, "properties": {"id": "PS_652FEEAC5DE6", "station_group_id": "SG_87F2ACC7CDF3", "name_en": "石岡", "name_ja": "石岡", "label_rank": 72, "tags": ["tokyo", "v3"]}}, {"type": "Feature", "bbox": [139.86651, 36.43624, 139.86651, 36.43624], "geometry": {"type": "Point", "coordinates": [139.86651, 36.43624]}, "properties": {"id": "PS_7EAEE359C6C6", "station_group_id": "SG_222BCFA07604", "name_en": "石橋", "name_ja": "石橋", "label_rank": 72, "tags": ["tokyo", "v3"]}}, {"type": "Feature", "bbox": [140.28677499999998, 36.24754, 140.28677499999998, 36.24754], "geometry": {"type": "Point", "coordinates": [140.28677499999998, 36.24754]}, "properties": {"id": "PS_FEB29A705825", "station_group_id": "SG_A1F25DA5A066", "name_en": "羽鳥", "name_ja": "羽鳥", "label_rank": 72, "tags": ["tokyo", "v3"]}}, {"type": "Feature", "bbox": [139.854515, 36.39538, 139.854515, 36.39538], "geometry": {"type": "Point", "coordinates": [139.854515, 36.39538]}, "properties": {"id": "PS_26A761CDC756", "station_group_id": "SG_1E48EB7B5D87", "name_en": "自治医大", "name_ja": "自治医大", "label_rank": 72, "tags": ["tokyo", "v3"]}}, {"type": "Feature", "bbox": [139.609285, 36.397885, 139.609285, 36.397885], "geometry": {"type": "Point", "coordinates": [139.609285, 36.397885]}, "properties": {"id": "PS_5F0CCF1853CD", "station_group_id": "SG_1647D0473758", "name_en": "葛生", "name_ja": "葛生", "label_rank": 72, "tags": ["tokyo", "v3"]}}, {"type": "Feature", "bbox": [139.950405, 36.720745, 139.950405, 36.720745], "geometry": {"type": "Point", "coordinates": [139.950405, 36.720745]}, "properties": {"id": "PS_45549347BED3", "station_group_id": "SG_E5600E24AA70", "name_en": "蒲須坂", "name_ja": "蒲須坂", "label_rank": 72, "tags": ["tokyo", "v3"]}}, {"type": "Feature", "bbox": [139.6456, 36.255585, 139.6456, 36.255585], "geometry": {"type": "Point", "coordinates": [139.6456, 36.255585]}, "properties": {"id": "PS_99F5E343B237", "station_group_id": "SG_97390CBD2D1E", "name_en": "藤岡", "name_ja": "藤岡", "label_rank": 72, "tags": ["tokyo", "v3"]}}, {"type": "Feature", "bbox": [139.850305, 36.514250000000004, 139.850305, 36.514250000000004], "geometry": {"type": "Point", "coordinates": [139.850305, 36.514250000000004]}, "properties": {"id": "PS_423AFA23F577", "station_group_id": "SG_4D0AFDA05DEF", "name_en": "西川田", "name_ja": "西川田", "label_rank": 72, "tags": ["tokyo", "v3"]}}, {"type": "Feature", "bbox": [139.98639, 36.88374, 139.98639, 36.88374], "geometry": {"type": "Point", "coordinates": [139.98639, 36.88374]}, "properties": {"id": "PS_56B547094086", "station_group_id": "SG_BF3D6431433E", "name_en": "西那須野", "name_ja": "西那須野", "label_rank": 72, "tags": ["tokyo", "v3"]}}, {"type": "Feature", "bbox": [140.15509500000002, 37.054964999999996, 140.15509500000002, 37.054964999999996], "geometry": {"type": "Point", "coordinates": [140.15509500000002, 37.054964999999996]}, "properties": {"id": "PS_8820303B0B7E", "station_group_id": "SG_AF5F554E5A56", "name_en": "豊原", "name_ja": "豊原", "label_rank": 72, "tags": ["tokyo", "v3"]}}, {"type": "Feature", "bbox": [140.41516000000001, 36.381755, 140.41516000000001, 36.381755], "geometry": {"type": "Point", "coordinates": [140.41516000000001, 36.381755]}, "properties": {"id": "PS_7E348C0263AA", "station_group_id": "SG_D4A6707E68D1", "name_en": "赤塚", "name_ja": "赤塚", "label_rank": 72, "tags": ["tokyo", "v3"]}}, {"type": "Feature", "bbox": [140.02070500000002, 36.93166, 140.02070500000002, 36.93166], "geometry": {"type": "Point", "coordinates": [140.02070500000002, 36.93166]}, "properties": {"id": "PS_5661E6B8B645", "station_group_id": "SG_08C9F6E2A23D", "name_en": "那須塩原", "name_ja": "那須塩原", "label_rank": 72, "tags": ["tokyo", "v3"]}}, {"type": "Feature", "bbox": [140.02106, 36.931545, 140.02106, 36.931545], "geometry": {"type": "Point", "coordinates": [140.02106, 36.931545]}, "properties": {"id": "PS_3A595D1192EE", "station_group_id": "SG_08C9F6E2A23D", "name_en": "那須塩原", "name_ja": "那須塩原", "label_rank": 72, "tags": ["tokyo", "v3"]}}, {"type": "Feature", "bbox": [139.958105, 36.84381, 139.958105, 36.84381], "geometry": {"type": "Point", "coordinates": [139.958105, 36.84381]}, "properties": {"id": "PS_87A670D1577D", "station_group_id": "SG_0198FA5946E8", "name_en": "野崎", "name_ja": "野崎", "label_rank": 72, "tags": ["tokyo", "v3"]}}, {"type": "Feature", "bbox": [139.77259500000002, 36.408775, 139.77259500000002, 36.408775], "geometry": {"type": "Point", "coordinates": [139.77259500000002, 36.408775]}, "properties": {"id": "PS_381B8C6D561D", "station_group_id": "SG_9F81ACC9055A", "name_en": "野州大塚", "name_ja": "野州大塚", "label_rank": 72, "tags": ["tokyo", "v3"]}}, {"type": "Feature", "bbox": [139.75378, 36.40156, 139.75378, 36.40156], "geometry": {"type": "Point", "coordinates": [139.75378, 36.40156]}, "properties": {"id": "PS_00D7DD9DCCBC", "station_group_id": "SG_F899F6D6F033", "name_en": "野州平川", "name_ja": "野州平川", "label_rank": 72, "tags": ["tokyo", "v3"]}}, {"type": "Feature", "bbox": [139.73479500000002, 36.229905, 139.73479500000002, 36.229905], "geometry": {"type": "Point", "coordinates": [139.73479500000002, 36.229905]}, "properties": {"id": "PS_E12120E8430A", "station_group_id": "SG_D75EFED2E92D", "name_en": "野木", "name_ja": "野木", "label_rank": 72, "tags": ["tokyo", "v3"]}}, {"type": "Feature", "bbox": [139.7611, 36.257895000000005, 139.7611, 36.257895000000005], "geometry": {"type": "Point", "coordinates": [139.7611, 36.257895000000005]}, "properties": {"id": "PS_2ED00F4846F2", "station_group_id": "SG_A78A47E890FD", "name_en": "間々田", "name_ja": "間々田", "label_rank": 72, "tags": ["tokyo", "v3"]}}, {"type": "Feature", "bbox": [139.87708, 36.493905, 139.87708, 36.493905], "geometry": {"type": "Point", "coordinates": [139.87708, 36.493905]}, "properties": {"id": "PS_D85EBE7DFAF9", "station_group_id": "SG_06513827496B", "name_en": "雀宮", "name_ja": "雀宮", "label_rank": 72, "tags": ["tokyo", "v3"]}}, {"type": "Feature", "bbox": [139.68493, 36.31653, 139.68493, 36.31653], "geometry": {"type": "Point", "coordinates": [139.68493, 36.31653]}, "properties": {"id": "PS_D8143FA57CB7", "station_group_id": "SG_637DA4069FAF", "name_en": "静和", "name_ja": "静和", "label_rank": 72, "tags": ["tokyo", "v3"]}}, {"type": "Feature", "bbox": [140.08735, 36.99651, 140.08735, 36.99651], "geometry": {"type": "Point", "coordinates": [140.08735, 36.99651]}, "properties": {"id": "PS_4F2DB353201E", "station_group_id": "SG_63DD170EC29C", "name_en": "高久", "name_ja": "高久", "label_rank": 72, "tags": ["tokyo", "v3"]}}, {"type": "Feature", "bbox": [140.71695499999998, 36.71434, 140.71695499999998, 36.71434], "geometry": {"type": "Point", "coordinates": [140.71695499999998, 36.71434]}, "properties": {"id": "PS_10FF4C2E4D4A", "station_group_id": "SG_FDF8B5FAE7BC", "name_en": "高萩", "name_ja": "高萩", "label_rank": 72, "tags": ["tokyo", "v3"]}}, {"type": "Feature", "bbox": [139.722825, 36.841575, 139.722825, 36.841575], "geometry": {"type": "Point", "coordinates": [139.722825, 36.841575]}, "properties": {"id": "PS_6E7904B75B50", "station_group_id": "SG_18FF0320993E", "name_en": "鬼怒川公園", "name_ja": "鬼怒川公園", "label_rank": 72, "tags": ["tokyo", "v3"]}}, {"type": "Feature", "bbox": [139.71668, 36.822525, 139.71668, 36.822525], "geometry": {"type": "Point", "coordinates": [139.71668, 36.822525]}, "properties": {"id": "PS_8C2F96E96827", "station_group_id": "SG_0D8C24DFC00E", "name_en": "鬼怒川温泉", "name_ja": "鬼怒川温泉", "label_rank": 72, "tags": ["tokyo", "v3"]}}, {"type": "Feature", "bbox": [140.12079, 37.02344, 140.12079, 37.02344], "geometry": {"type": "Point", "coordinates": [140.12079, 37.02344]}, "properties": {"id": "PS_92D14F42DAD4", "station_group_id": "SG_57C9A1B84CFC", "name_en": "黒田原", "name_ja": "黒田原", "label_rank": 72, "tags": ["tokyo", "v3"]}}, {"type": "Feature", "bbox": [140.06015, 36.970119999999994, 140.06015, 36.970119999999994], "geometry": {"type": "Point", "coordinates": [140.06015, 36.970119999999994]}, "properties": {"id": "PS_DAA8AFC99F09", "station_group_id": "SG_73787EB8EEF3", "name_en": "黒磯", "name_ja": "黒磯", "label_rank": 72, "tags": ["tokyo", "v3"]}}, {"type": "Feature", "bbox": [139.71857333333332, 36.86094666666667, 139.71857333333332, 36.86094666666667], "geometry": {"type": "Point", "coordinates": [139.71857333333332, 36.86094666666667]}, "properties": {"id": "PS_C46946651617", "station_group_id": "SG_A581F6D04FFE", "name_en": "龍王峡", "name_ja": "龍王峡", "label_rank": 72, "tags": ["tokyo", "v3"]}}]}