{"type": "FeatureCollection", "features": [{"type": "Feature", "bbox": [141.28491, 40.25848, 141.28627, 40.26107], "geometry": {"type": "LineString", "coordinates": [[141.28627, 40.26107], [141.28491, 40.25848]]}, "properties": {"id": "TRACK_TOKYO_2962", "line_name": "東北新幹線", "station_group_ids": [], "mode": "shinkansen", "operator_id": "jr_east", "tags": ["tokyo", "track_centerline"]}}, {"type": "Feature", "bbox": [141.28627, 40.26107, 141.42981, 40.50822], "geometry": {"type": "LineString", "coordinates": [[141.28627, 40.26107], [141.28767, 40.2638], [141.28833, 40.26509], [141.28889, 40.26625], [141.28987, 40.26868], [141.29019, 40.26959], [141.29037, 40.27017], [141.29069, 40.27136], [141.29101, 40.27271], [141.29135, 40.27505], [141.29152, 40.27739], [141.29143, 40.27997], [141.29075, 40.28548], [141.29012, 40.2897], [141.28946, 40.29433], [141.28929, 40.29591], [141.28922, 40.29778], [141.2894, 40.30074], [141.28967, 40.30285], [141.2902, 40.30542], [141.29112, 40.30828], [141.29189, 40.31012], [141.29273, 40.31172], [141.294, 40.3139], [141.29623, 40.31702], [141.29773, 40.31897], [141.30181, 40.32438], [141.30268, 40.3255], [141.30474, 40.32828], [141.30668, 40.3309], [141.3092, 40.3342], [141.31154, 40.33729], [141.31285, 40.33904], [141.31657, 40.344], [141.3198, 40.34822], [141.32241, 40.35165], [141.32614, 40.35661], [141.33012, 40.36185], [141.33695, 40.37092], [141.34136, 40.37676], [141.34585, 40.38272], [141.34929, 40.38729], [141.35604, 40.39632], [141.35681, 40.39741], [141.36123, 40.40338], [141.36427, 40.4074], [141.36767, 40.41188], [141.36977, 40.41469], [141.37326, 40.41924], [141.37521, 40.42173], [141.3765, 40.42349], [141.37909, 40.42692], [141.38241, 40.43132], [141.38498, 40.43473], [141.38988, 40.44123], [141.39447, 40.44735], [141.39639, 40.45017], [141.39823, 40.45326], [141.39938, 40.45542], [141.40089, 40.45865], [141.40169, 40.4605], [141.40251, 40.46251], [141.40424, 40.46732], [141.40728, 40.47557], [141.40964, 40.48189], [141.41133, 40.48559], [141.41247, 40.48772], [141.4147, 40.49136], [141.4176, 40.49536], [141.41959, 40.49777], [141.42402, 40.50248], [141.42981, 40.50822]]}, "properties": {"id": "TRACK_TOKYO_2963", "line_name": "東北新幹線", "station_group_ids": [], "mode": "shinkansen", "operator_id": "jr_east", "tags": ["tokyo", "track_centerline"]}}, {"type": "Feature", "bbox": [141.13071, 39.70295, 141.13499, 39.70667], "geometry": {"type": "LineString", "coordinates": [[141.13499, 39.70295], [141.13448, 39.70341], [141.13287, 39.70481], [141.13253, 39.7051], [141.13117, 39.70627], [141.13071, 39.70667]]}, "properties": {"id": "TRACK_TOKYO_2965", "line_name": "東北新幹線", "station_group_ids": [], "mode": "shinkansen", "operator_id": "jr_east", "tags": ["tokyo", "track_centerline"]}}, {"type": "Feature", "bbox": [141.13499, 39.70015, 141.13807, 39.70295], "geometry": {"type": "LineString", "coordinates": [[141.13807, 39.70015], [141.13499, 39.70295]]}, "properties": {"id": "TRACK_TOKYO_2966", "line_name": "東北新幹線", "station_group_ids": [], "mode": "shinkansen", "operator_id": "jr_east", "tags": ["tokyo", "track_centerline"]}}, {"type": "Feature", "bbox": [141.21742, 39.96114, 141.28491, 40.25848], "geometry": {"type": "LineString", "coordinates": [[141.21742, 39.96114], [141.21748, 39.96202], [141.21772, 39.96434], [141.21814, 39.96805], [141.2185, 39.97168], [141.21871, 39.97301], [141.21912, 39.97511], [141.21971, 39.97698], [141.21999, 39.97785], [141.22065, 39.97956], [141.22111, 39.98059], [141.22167, 39.98168], [141.22236, 39.98297], [141.22307, 39.98418], [141.2235, 39.98488], [141.22555, 39.98763], [141.22683, 39.98911], [141.22963, 39.99196], [141.23008, 39.99238], [141.23099, 39.99318], [141.23413, 39.99582], [141.23512, 39.99669], [141.23698, 39.99838], [141.23833, 39.99959], [141.23987, 40.00097], [141.24098, 40.00197], [141.24219, 40.00317], [141.24301, 40.00399], [141.24461, 40.00584], [141.24536, 40.00684], [141.24606, 40.0078], [141.24672, 40.00884], [141.24788, 40.01073], [141.2486, 40.01209], [141.2497, 40.01459], [141.25078, 40.01791], [141.25146, 40.02065], [141.25216, 40.02391], [141.25293, 40.02761], [141.25479, 40.03622], [141.25611, 40.04242], [141.25709, 40.04698], [141.25849, 40.05338], [141.25914, 40.05651], [141.25948, 40.0581], [141.26003, 40.06058], [141.26069, 40.06358], [141.26145, 40.0672], [141.26232, 40.07118], [141.26308, 40.07462], [141.26393, 40.07858], [141.26459, 40.08168], [141.26548, 40.08574], [141.26561, 40.08651], [141.26612, 40.08876], [141.26774, 40.09623], [141.2689, 40.10165], [141.27046, 40.10905], [141.27253, 40.11848], [141.27332, 40.12244], [141.27406, 40.12554], [141.27503, 40.13026], [141.27549, 40.13258], [141.27617, 40.13672], [141.2764, 40.13986], [141.27654, 40.14409], [141.27622, 40.14884], [141.27562, 40.15363], [141.27319, 40.16935], [141.27239, 40.1744], [141.27159, 40.17987], [141.27092, 40.18443], [141.27056, 40.18705], [141.26901, 40.19755], [141.26732, 40.20946], [141.26717, 40.21078], [141.26701, 40.21307], [141.26697, 40.21428], [141.26698, 40.21657], [141.26706, 40.21858], [141.26723, 40.2204], [141.26749, 40.22244], [141.26786, 40.22458], [141.2682, 40.22624], [141.26861, 40.22792], [141.26925, 40.23018], [141.27004, 40.23246], [141.27107, 40.23503], [141.27159, 40.23623], [141.27261, 40.23839], [141.27349, 40.24006], [141.27441, 40.24165], [141.27615, 40.24441], [141.2798, 40.24988], [141.28082, 40.2515], [141.28227, 40.25378], [141.28362, 40.2562], [141.28491, 40.25848]]}, "properties": {"id": "TRACK_TOKYO_2967", "line_name": "東北新幹線", "station_group_ids": [], "mode": "shinkansen", "operator_id": "jr_east", "tags": ["tokyo", "track_centerline"]}}, {"type": "Feature", "bbox": [141.21742, 39.96009, 141.21742, 39.96114], "geometry": {"type": "LineString", "coordinates": [[141.21742, 39.96114], [141.21742, 39.96009]]}, "properties": {"id": "TRACK_TOKYO_2968", "line_name": "東北新幹線", "station_group_ids": [], "mode": "shinkansen", "operator_id": "jr_east", "tags": ["tokyo", "track_centerline"]}}, {"type": "Feature", "bbox": [141.13807, 39.40777, 141.17737, 39.70015], "geometry": {"type": "LineString", "coordinates": [[141.13807, 39.70015], [141.13859, 39.69963], [141.14066, 39.69741], [141.14121, 39.69678], [141.14154, 39.6964], [141.14179, 39.69609], [141.14209, 39.6957], [141.1424, 39.69526], [141.14373, 39.69331], [141.14394, 39.69301], [141.14418, 39.69265], [141.14506, 39.69132], [141.14605, 39.68985], [141.14665, 39.68873], [141.14703, 39.68803], [141.14735, 39.68723], [141.14765, 39.68646], [141.14797, 39.68552], [141.14817, 39.6848], [141.14828, 39.68433], [141.14838, 39.68389], [141.14851, 39.68329], [141.14868, 39.68222], [141.14877, 39.68134], [141.14881, 39.68001], [141.14874, 39.6784], [141.14861, 39.67667], [141.14853, 39.67535], [141.14843, 39.67368], [141.14817, 39.67036], [141.14811, 39.66948], [141.14802, 39.66798], [141.14793, 39.66666], [141.1476, 39.66191], [141.14738, 39.65898], [141.1472, 39.65656], [141.14676, 39.65036], [141.14673, 39.64998], [141.14644, 39.64566], [141.14609, 39.64098], [141.146, 39.63969], [141.14597, 39.63939], [141.14565, 39.63435], [141.14559, 39.63332], [141.1455, 39.6312], [141.14552, 39.63068], [141.14556, 39.62881], [141.14564, 39.62742], [141.14605, 39.62531], [141.14676, 39.62174], [141.14762, 39.61742], [141.14849, 39.61311], [141.14855, 39.61285], [141.14975, 39.60693], [141.15036, 39.60395], [141.15074, 39.6021], [141.15214, 39.59505], [141.1524, 39.59373], [141.1535, 39.58832], [141.15397, 39.58616], [141.15432, 39.58447], [141.15479, 39.58214], [141.15514, 39.58041], [141.1556, 39.57821], [141.15585, 39.57692], [141.15603, 39.57604], [141.15612, 39.57557], [141.15621, 39.57507], [141.15656, 39.57354], [141.15671, 39.57274], [141.15688, 39.57193], [141.157, 39.57139], [141.15724, 39.57015], [141.15738, 39.56939], [141.15773, 39.5677], [141.15806, 39.5662], [141.15836, 39.56467], [141.15865, 39.56312], [141.15888, 39.56195], [141.15919, 39.56049], [141.15928, 39.56001], [141.1595, 39.55898], [141.1597, 39.55798], [141.15987, 39.55714], [141.1601, 39.55606], [141.16025, 39.55533], [141.16031, 39.555], [141.16054, 39.55386], [141.16074, 39.55288], [141.16094, 39.55181], [141.16112, 39.55111], [141.16133, 39.55041], [141.16158, 39.54971], [141.16197, 39.54866], [141.16227, 39.54784], [141.1626, 39.54705], [141.1628, 39.54658], [141.16305, 39.54598], [141.16336, 39.54522], [141.16367, 39.54451], [141.16412, 39.54347], [141.16453, 39.54245], [141.16495, 39.54138], [141.1653, 39.54054], [141.16567, 39.53969], [141.16601, 39.53894], [141.16634, 39.53814], [141.16638, 39.53805], [141.16674, 39.5372], [141.16697, 39.5366], [141.16726, 39.53588], [141.16774, 39.53474], [141.16805, 39.53403], [141.16841, 39.53314], [141.16882, 39.53218], [141.1692, 39.53128], [141.16972, 39.52999], [141.16993, 39.52951], [141.17005, 39.52921], [141.17031, 39.52856], [141.17057, 39.52791], [141.17083, 39.52723], [141.17123, 39.52613], [141.17149, 39.52529], [141.17172, 39.52464], [141.1719, 39.52404], [141.17208, 39.52333], [141.17218, 39.52284], [141.17229, 39.52222], [141.17237, 39.52165], [141.17249, 39.52076], [141.17256, 39.52002], [141.17262, 39.5195], [141.17263, 39.51937], [141.17268, 39.51852], [141.17276, 39.51742], [141.17284, 39.51602], [141.17287, 39.5154], [141.17295, 39.51439], [141.17299, 39.51372], [141.17301, 39.51339], [141.17307, 39.51243], [141.1731, 39.51152], [141.17313, 39.5111], [141.17319, 39.51031], [141.17321, 39.50971], [141.17324, 39.50911], [141.17329, 39.50815], [141.17335, 39.50726], [141.17342, 39.50594], [141.17353, 39.50483], [141.17354, 39.50471], [141.17362, 39.50375], [141.17366, 39.50284], [141.17378, 39.5011], [141.17383, 39.49971], [141.17394, 39.4975], [141.17399, 39.49656], [141.17404, 39.4957], [141.17411, 39.49376], [141.17418, 39.49311], [141.17422, 39.49233], [141.17432, 39.49043], [141.17439, 39.48865], [141.17443, 39.48756], [141.17445, 39.48706], [141.1745, 39.48573], [141.1746, 39.48406], [141.17465, 39.48215], [141.17475, 39.47978], [141.1748, 39.47865], [141.1748, 39.47855], [141.17489, 39.4773], [141.17497, 39.4754], [141.17507, 39.47317], [141.17513, 39.47122], [141.1752, 39.47019], [141.17523, 39.46954], [141.1753, 39.46822], [141.17538, 39.46656], [141.17551, 39.46373], [141.17562, 39.46053], [141.17562, 39.46046], [141.17574, 39.45775], [141.17583, 39.45608], [141.17588, 39.45496], [141.17604, 39.45172], [141.17605, 39.45152], [141.17626, 39.44727], [141.1764, 39.44397], [141.17647, 39.44251], [141.1765, 39.44177], [141.17658, 39.4401], [141.17666, 39.43848], [141.17667, 39.43734], [141.17672, 39.43622], [141.17675, 39.43521], [141.17682, 39.43411], [141.17685, 39.4335], [141.17688, 39.43278], [141.17696, 39.43084], [141.17699, 39.42994], [141.17711, 39.42805], [141.17719, 39.42627], [141.17726, 39.42449], [141.17729, 39.42386], [141.17734, 39.42275], [141.17737, 39.42165], [141.17735, 39.42067], [141.17728, 39.41952], [141.17716, 39.41835], [141.17685, 39.41654], [141.17684, 39.41649], [141.17641, 39.41473], [141.1763, 39.41442], [141.17513, 39.41094], [141.17405, 39.40777]]}, "properties": {"id": "TRACK_TOKYO_2969", "line_name": "東北新幹線", "station_group_ids": [], "mode": "shinkansen", "operator_id": "jr_east", "tags": ["tokyo", "track_centerline"]}}, {"type": "Feature", "bbox": [141.17318, 39.40523, 141.17405, 39.40777], "geometry": {"type": "LineString", "coordinates": [[141.17405, 39.40777], [141.17318, 39.40523]]}, "properties": {"id": "TRACK_TOKYO_2970", "line_name": "東北新幹線", "station_group_ids": [], "mode": "shinkansen", "operator_id": "jr_east", "tags": ["tokyo", "track_centerline"]}}, {"type": "Feature", "bbox": [141.12356, 39.28386, 141.17318, 39.40523], "geometry": {"type": "LineString", "coordinates": [[141.17318, 39.40523], [141.17316, 39.40519], [141.17159, 39.40058], [141.17134, 39.39985], [141.17131, 39.39976], [141.16986, 39.39558], [141.16836, 39.39107], [141.1682, 39.39061], [141.16793, 39.38981], [141.16671, 39.38622], [141.16495, 39.38113], [141.16481, 39.38072], [141.16317, 39.37598], [141.16196, 39.37245], [141.1617, 39.37169], [141.1616, 39.37138], [141.16148, 39.37104], [141.16017, 39.36719], [141.15938, 39.36482], [141.15872, 39.36282], [141.15811, 39.36102], [141.15718, 39.35848], [141.15637, 39.35615], [141.15587, 39.35469], [141.15541, 39.35333], [141.15432, 39.35015], [141.15296, 39.34617], [141.15251, 39.34488], [141.15166, 39.34238], [141.14979, 39.33693], [141.14954, 39.33619], [141.14914, 39.33502], [141.14848, 39.33312], [141.14815, 39.33217], [141.14708, 39.32919], [141.14647, 39.32755], [141.1458, 39.32563], [141.1454, 39.32447], [141.14492, 39.32308], [141.14393, 39.32023], [141.14291, 39.31733], [141.14239, 39.31579], [141.1419, 39.31436], [141.14139, 39.31296], [141.14098, 39.31191], [141.14047, 39.31077], [141.13957, 39.30901], [141.13859, 39.30734], [141.13838, 39.30697], [141.13707, 39.30488], [141.13573, 39.30281], [141.13475, 39.30129], [141.1335, 39.29933], [141.1326, 39.29797], [141.13102, 39.29548], [141.12918, 39.29265], [141.12868, 39.29186], [141.12795, 39.29072], [141.12695, 39.28916], [141.12554, 39.28698], [141.12445, 39.28528], [141.12356, 39.28386]]}, "properties": {"id": "TRACK_TOKYO_2971", "line_name": "東北新幹線", "station_group_ids": [], "mode": "shinkansen", "operator_id": "jr_east", "tags": ["tokyo", "track_centerline"]}}, {"type": "Feature", "bbox": [141.12168, 39.28054, 141.12356, 39.28386], "geometry": {"type": "LineString", "coordinates": [[141.12356, 39.28386], [141.12285, 39.28272], [141.12234, 39.28188], [141.12168, 39.28054]]}, "properties": {"id": "TRACK_TOKYO_2972", "line_name": "東北新幹線", "station_group_ids": [], "mode": "shinkansen", "operator_id": "jr_east", "tags": ["tokyo", "track_centerline"]}}, {"type": "Feature", "bbox": [141.11752, 39.70667, 141.21965, 39.96009], "geometry": {"type": "LineString", "coordinates": [[141.13071, 39.70667], [141.12994, 39.70737], [141.12953, 39.70774], [141.12888, 39.70834], [141.12886, 39.70836], [141.12765, 39.7094], [141.12665, 39.71026], [141.12555, 39.71125], [141.12402, 39.71267], [141.12365, 39.71303], [141.12277, 39.71386], [141.12148, 39.71508], [141.12119, 39.71536], [141.12108, 39.71546], [141.12045, 39.71604], [141.11971, 39.71677], [141.11902, 39.71754], [141.11853, 39.71826], [141.11824, 39.71877], [141.11803, 39.71918], [141.11775, 39.71997], [141.11763, 39.7205], [141.11756, 39.72098], [141.11752, 39.72148], [141.11752, 39.72198], [141.11756, 39.72251], [141.11766, 39.72325], [141.11769, 39.72351], [141.11772, 39.72363], [141.11791, 39.72418], [141.11829, 39.72523], [141.1185, 39.7258], [141.11886, 39.72657], [141.11932, 39.72748], [141.12009, 39.72889], [141.12073, 39.73007], [141.12077, 39.73013], [141.12092, 39.73041], [141.12106, 39.73065], [141.12148, 39.73144], [141.12335, 39.73491], [141.124, 39.73617], [141.12518, 39.73833], [141.12817, 39.74353], [141.12962, 39.74612], [141.13256, 39.75176], [141.13542, 39.75687], [141.13822, 39.76228], [141.1416, 39.76856], [141.14255, 39.77033], [141.14408, 39.77322], [141.1449, 39.77518], [141.14535, 39.77649], [141.14589, 39.77829], [141.14621, 39.7796], [141.14696, 39.78216], [141.14738, 39.78362], [141.14779, 39.78491], [141.14822, 39.78615], [141.14854, 39.78703], [141.14883, 39.78784], [141.15025, 39.79116], [141.15139, 39.79344], [141.15274, 39.79586], [141.15373, 39.79743], [141.15472, 39.79901], [141.15618, 39.80102], [141.15724, 39.80244], [141.15918, 39.80478], [141.16271, 39.80873], [141.16552, 39.81186], [141.16861, 39.81533], [141.17016, 39.81708], [141.17238, 39.81946], [141.17435, 39.8217], [141.17589, 39.82353], [141.1768, 39.82465], [141.17796, 39.82617], [141.17926, 39.828], [141.18083, 39.8303], [141.18194, 39.83214], [141.18321, 39.83435], [141.18416, 39.83629], [141.1859, 39.84038], [141.19021, 39.85085], [141.19106, 39.85301], [141.19607, 39.86538], [141.19897, 39.87249], [141.20128, 39.87803], [141.20264, 39.88144], [141.20395, 39.88452], [141.20528, 39.88782], [141.20699, 39.89212], [141.20781, 39.89409], [141.20932, 39.898], [141.21264, 39.90624], [141.21657, 39.91585], [141.21789, 39.9197], [141.21831, 39.92125], [141.21904, 39.9246], [141.21955, 39.92848], [141.21965, 39.93032], [141.21964, 39.93414], [141.2195, 39.93749], [141.21928, 39.93932], [141.21848, 39.94857], [141.21764, 39.95838], [141.21742, 39.96009]]}, "properties": {"id": "TRACK_TOKYO_3008", "line_name": "東北新幹線", "station_group_ids": [], "mode": "shinkansen", "operator_id": "jr_east", "tags": ["tokyo", "track_centerline"]}}, {"type": "Feature", "bbox": [141.13473, 39.69969, 141.13802, 39.7027], "geometry": {"type": "LineString", "coordinates": [[141.13802, 39.69969], [141.13473, 39.7027]]}, "properties": {"id": "TRACK_TOKYO_3009", "line_name": "東北線", "station_group_ids": [], "mode": "rail", "operator_id": "jr_east", "tags": ["tokyo", "track_centerline"]}}, {"type": "Feature", "bbox": [141.14862, 39.687, 141.14888, 39.68838], "geometry": {"type": "LineString", "coordinates": [[141.14888, 39.687], [141.14862, 39.68838]]}, "properties": {"id": "TRACK_TOKYO_3010", "line_name": "東北線", "station_group_ids": [], "mode": "rail", "operator_id": "jr_east", "tags": ["tokyo", "track_centerline"]}}, {"type": "Feature", "bbox": [141.13802, 39.68838, 141.14862, 39.69969], "geometry": {"type": "LineString", "coordinates": [[141.14862, 39.68838], [141.14832, 39.6892], [141.14803, 39.68978], [141.14744, 39.69064], [141.14699, 39.69121], [141.14666, 39.69162], [141.14661, 39.69169], [141.14608, 39.69229], [141.14528, 39.69306], [141.14466, 39.69362], [141.14293, 39.69525], [141.14259, 39.69553], [141.14232, 39.69573], [141.14193, 39.69596], [141.14151, 39.69614], [141.14125, 39.69632], [141.14093, 39.69661], [141.14027, 39.6973], [141.1399, 39.6977], [141.13935, 39.6983], [141.13915, 39.69852], [141.1382, 39.69952], [141.13802, 39.69969]]}, "properties": {"id": "TRACK_TOKYO_3011", "line_name": "東北線", "station_group_ids": [], "mode": "rail", "operator_id": "jr_east", "tags": ["tokyo", "track_centerline"]}}, {"type": "Feature", "bbox": [141.14651, 39.65257, 141.14667, 39.65493], "geometry": {"type": "LineString", "coordinates": [[141.14667, 39.65493], [141.14651, 39.65257]]}, "properties": {"id": "TRACK_TOKYO_3012", "line_name": "東北線", "station_group_ids": [], "mode": "rail", "operator_id": "jr_east", "tags": ["tokyo", "track_centerline"]}}, {"type": "Feature", "bbox": [141.14557, 39.63948, 141.14651, 39.65257], "geometry": {"type": "LineString", "coordinates": [[141.14557, 39.63948], [141.14568, 39.64099], [141.14586, 39.64357], [141.14641, 39.65108], [141.14651, 39.65257]]}, "properties": {"id": "TRACK_TOKYO_3013", "line_name": "東北線", "station_group_ids": [], "mode": "rail", "operator_id": "jr_east", "tags": ["tokyo", "track_centerline"]}}, {"type": "Feature", "bbox": [141.14667, 39.65493, 141.14899, 39.687], "geometry": {"type": "LineString", "coordinates": [[141.14667, 39.65493], [141.14681, 39.65692], [141.14684, 39.65728], [141.14708, 39.66048], [141.1475, 39.66595], [141.14775, 39.66948], [141.14782, 39.67093], [141.14783, 39.67112], [141.14805, 39.674], [141.14822, 39.67701], [141.14846, 39.68012], [141.14881, 39.6832], [141.1489, 39.68429], [141.14899, 39.68589], [141.14893, 39.68649], [141.14888, 39.687]]}, "properties": {"id": "TRACK_TOKYO_3014", "line_name": "東北線", "station_group_ids": [], "mode": "rail", "operator_id": "jr_east", "tags": ["tokyo", "track_centerline"]}}, {"type": "Feature", "bbox": [141.12101, 39.2804, 141.12183, 39.28242], "geometry": {"type": "LineString", "coordinates": [[141.12183, 39.28242], [141.1215, 39.28162], [141.12101, 39.2804]]}, "properties": {"id": "TRACK_TOKYO_3015", "line_name": "東北線", "station_group_ids": [], "mode": "rail", "operator_id": "jr_east", "tags": ["tokyo", "track_centerline"]}}, {"type": "Feature", "bbox": [141.10983, 39.3952, 141.10998, 39.39594], "geometry": {"type": "LineString", "coordinates": [[141.10998, 39.3952], [141.10995, 39.39527], [141.10986, 39.39564], [141.10983, 39.39594]]}, "properties": {"id": "TRACK_TOKYO_3016", "line_name": "東北線", "station_group_ids": [], "mode": "rail", "operator_id": "jr_east", "tags": ["tokyo", "track_centerline"]}}, {"type": "Feature", "bbox": [141.10998, 39.39229, 141.11067, 39.3952], "geometry": {"type": "LineString", "coordinates": [[141.11067, 39.39229], [141.10998, 39.3952]]}, "properties": {"id": "TRACK_TOKYO_3017", "line_name": "東北線", "station_group_ids": [], "mode": "rail", "operator_id": "jr_east", "tags": ["tokyo", "track_centerline"]}}, {"type": "Feature", "bbox": [141.10968, 39.39594, 141.12687, 39.44121], "geometry": {"type": "LineString", "coordinates": [[141.12687, 39.44121], [141.12662, 39.44064], [141.1262, 39.43967], [141.12613, 39.4395], [141.1255, 39.43799], [141.12444, 39.43549], [141.1237, 39.43371], [141.12275, 39.4315], [141.12184, 39.42932], [141.12158, 39.42869], [141.12149, 39.4284], [141.11825, 39.42091], [141.11765, 39.41951], [141.11575, 39.41507], [141.11536, 39.41419], [141.11354, 39.40999], [141.1129, 39.40857], [141.11237, 39.40731], [141.11214, 39.40671], [141.11183, 39.4059], [141.11108, 39.40422], [141.11096, 39.40399], [141.11082, 39.40374], [141.11065, 39.40334], [141.11048, 39.40288], [141.11031, 39.40235], [141.11021, 39.40203], [141.11011, 39.40172], [141.11001, 39.40129], [141.10983, 39.40028], [141.1098, 39.39994], [141.10971, 39.39884], [141.10968, 39.39782], [141.10972, 39.39704], [141.10976, 39.39647], [141.10983, 39.39594]]}, "properties": {"id": "TRACK_TOKYO_3018", "line_name": "東北線", "station_group_ids": [], "mode": "rail", "operator_id": "jr_east", "tags": ["tokyo", "track_centerline"]}}, {"type": "Feature", "bbox": [141.16036, 39.53788, 141.16074, 39.53937], "geometry": {"type": "LineString", "coordinates": [[141.16074, 39.53937], [141.16036, 39.53788]]}, "properties": {"id": "TRACK_TOKYO_3019", "line_name": "東北線", "station_group_ids": [], "mode": "rail", "operator_id": "jr_east", "tags": ["tokyo", "track_centerline"]}}, {"type": "Feature", "bbox": [141.1598, 39.55421, 141.16003, 39.55531], "geometry": {"type": "LineString", "coordinates": [[141.1598, 39.55531], [141.16003, 39.55421]]}, "properties": {"id": "TRACK_TOKYO_3021", "line_name": "東北線", "station_group_ids": [], "mode": "rail", "operator_id": "jr_east", "tags": ["tokyo", "track_centerline"]}}, {"type": "Feature", "bbox": [141.14514, 39.62591, 141.14557, 39.63948], "geometry": {"type": "LineString", "coordinates": [[141.14553, 39.62591], [141.14525, 39.62767], [141.14514, 39.62884], [141.14516, 39.63325], [141.14522, 39.63434], [141.14537, 39.63671], [141.14557, 39.63948]]}, "properties": {"id": "TRACK_TOKYO_3022", "line_name": "東北線", "station_group_ids": [], "mode": "rail", "operator_id": "jr_east", "tags": ["tokyo", "track_centerline"]}}, {"type": "Feature", "bbox": [141.14553, 39.6136, 141.14795, 39.62591], "geometry": {"type": "LineString", "coordinates": [[141.14795, 39.6136], [141.14752, 39.61571], [141.14733, 39.61668], [141.14724, 39.61714], [141.14645, 39.6212], [141.14638, 39.6215], [141.14553, 39.62591]]}, "properties": {"id": "TRACK_TOKYO_3023", "line_name": "東北線", "station_group_ids": [], "mode": "rail", "operator_id": "jr_east", "tags": ["tokyo", "track_centerline"]}}, {"type": "Feature", "bbox": [141.12775, 39.4433, 141.14656, 39.48978], "geometry": {"type": "LineString", "coordinates": [[141.14656, 39.48978], [141.14605, 39.48797], [141.14591, 39.48748], [141.14569, 39.48672], [141.14498, 39.48413], [141.14458, 39.48274], [141.14416, 39.48123], [141.1437, 39.47989], [141.14326, 39.47873], [141.14228, 39.47648], [141.14216, 39.47618], [141.14202, 39.47587], [141.14127, 39.47417], [141.14056, 39.47254], [141.13979, 39.47078], [141.13921, 39.46944], [141.13898, 39.46891], [141.13824, 39.4672], [141.13788, 39.46637], [141.13766, 39.46587], [141.13696, 39.46428], [141.13688, 39.4641], [141.13682, 39.46395], [141.13652, 39.46324], [141.13562, 39.46123], [141.13545, 39.46083], [141.13459, 39.4589], [141.134, 39.45755], [141.13352, 39.45648], [141.13346, 39.45632], [141.13338, 39.45615], [141.13249, 39.45406], [141.13152, 39.45187], [141.13128, 39.45133], [141.1311, 39.45092], [141.13037, 39.44926], [141.12917, 39.44655], [141.12876, 39.44559], [141.12854, 39.44507], [141.12775, 39.4433]]}, "properties": {"id": "TRACK_TOKYO_3026", "line_name": "東北線", "station_group_ids": [], "mode": "rail", "operator_id": "jr_east", "tags": ["tokyo", "track_centerline"]}}, {"type": "Feature", "bbox": [141.14827, 39.58146, 141.1545, 39.61201], "geometry": {"type": "LineString", "coordinates": [[141.14827, 39.61201], [141.14946, 39.60622], [141.15006, 39.60329], [141.1501, 39.60311], [141.15166, 39.59534], [141.1517, 39.59513], [141.15213, 39.59304], [141.1522, 39.5927], [141.15297, 39.58885], [141.15353, 39.58616], [141.15384, 39.58466], [141.1539, 39.58433], [141.1539, 39.58431], [141.15396, 39.58403], [141.15411, 39.58335], [141.15429, 39.58245], [141.1545, 39.58146]]}, "properties": {"id": "TRACK_TOKYO_3028", "line_name": "東北線", "station_group_ids": [], "mode": "rail", "operator_id": "jr_east", "tags": ["tokyo", "track_centerline"]}}, {"type": "Feature", "bbox": [141.12687, 39.44121, 141.12775, 39.4433], "geometry": {"type": "LineString", "coordinates": [[141.12775, 39.4433], [141.12687, 39.44121]]}, "properties": {"id": "TRACK_TOKYO_3029", "line_name": "東北線", "station_group_ids": [], "mode": "rail", "operator_id": "jr_east", "tags": ["tokyo", "track_centerline"]}}, {"type": "Feature", "bbox": [141.11067, 39.32386, 141.1204, 39.39229], "geometry": {"type": "LineString", "coordinates": [[141.1204, 39.32386], [141.12038, 39.3241], [141.1201, 39.32827], [141.11968, 39.33456], [141.11957, 39.33619], [141.1193, 39.33941], [141.11891, 39.34474], [141.11888, 39.34503], [141.11877, 39.34634], [141.11845, 39.35111], [141.1183, 39.35325], [141.11822, 39.35426], [141.11784, 39.35945], [141.11765, 39.36199], [141.11765, 39.36201], [141.11761, 39.36234], [141.11744, 39.36332], [141.11676, 39.36626], [141.11626, 39.36841], [141.11609, 39.3691], [141.11558, 39.37142], [141.11486, 39.37451], [141.11427, 39.37699], [141.11349, 39.38032], [141.11304, 39.38221], [141.11286, 39.38296], [141.1128, 39.3832], [141.1126, 39.38404], [141.11255, 39.38428], [141.11251, 39.38443], [141.11245, 39.38477], [141.11154, 39.38862], [141.11128, 39.38971], [141.11123, 39.38999], [141.11067, 39.39229]]}, "properties": {"id": "TRACK_TOKYO_3030", "line_name": "東北線", "station_group_ids": [], "mode": "rail", "operator_id": "jr_east", "tags": ["tokyo", "track_centerline"]}}, {"type": "Feature", "bbox": [141.15475, 39.55531, 141.1598, 39.58026], "geometry": {"type": "LineString", "coordinates": [[141.15475, 39.58026], [141.15491, 39.57951], [141.15509, 39.57851], [141.15517, 39.57818], [141.15525, 39.57776], [141.15555, 39.57627], [141.1557, 39.57545], [141.15594, 39.57429], [141.15625, 39.57272], [141.15656, 39.57123], [141.15661, 39.57098], [141.15666, 39.57077], [141.15688, 39.56966], [141.15712, 39.56853], [141.15733, 39.56752], [141.15748, 39.56687], [141.15763, 39.56599], [141.15782, 39.56505], [141.15802, 39.56406], [141.15827, 39.56277], [141.15849, 39.56166], [141.15859, 39.5611], [141.15872, 39.56047], [141.15887, 39.55975], [141.15902, 39.55907], [141.15919, 39.5583], [141.15929, 39.55773], [141.15942, 39.55712], [141.15963, 39.55616], [141.15969, 39.55589], [141.1598, 39.55531]]}, "properties": {"id": "TRACK_TOKYO_3032", "line_name": "東北線", "station_group_ids": [], "mode": "rail", "operator_id": "jr_east", "tags": ["tokyo", "track_centerline"]}}, {"type": "Feature", "bbox": [141.14795, 39.61201, 141.14827, 39.6136], "geometry": {"type": "LineString", "coordinates": [[141.14827, 39.61201], [141.14795, 39.6136]]}, "properties": {"id": "TRACK_TOKYO_3034", "line_name": "東北線", "station_group_ids": [], "mode": "rail", "operator_id": "jr_east", "tags": ["tokyo", "track_centerline"]}}, {"type": "Feature", "bbox": [141.12058, 39.28854, 141.12295, 39.32144], "geometry": {"type": "LineString", "coordinates": [[141.12058, 39.32144], [141.1208, 39.31853], [141.12123, 39.31244], [141.12136, 39.31047], [141.1215, 39.30864], [141.12156, 39.30796], [141.12161, 39.30719], [141.12169, 39.30571], [141.1218, 39.30407], [141.12189, 39.30266], [141.12198, 39.3014], [141.12201, 39.30102], [141.12206, 39.3004], [141.12213, 39.29943], [141.12225, 39.29809], [141.12234, 39.29747], [141.1224, 39.29644], [141.12246, 39.29558], [141.12255, 39.29456], [141.12263, 39.29368], [141.12273, 39.29241], [141.12275, 39.29201], [141.12279, 39.29111], [141.12289, 39.28979], [141.12295, 39.28854]]}, "properties": {"id": "TRACK_TOKYO_3036", "line_name": "東北線", "station_group_ids": [], "mode": "rail", "operator_id": "jr_east", "tags": ["tokyo", "track_centerline"]}}, {"type": "Feature", "bbox": [141.12183, 39.28242, 141.12309, 39.28854], "geometry": {"type": "LineString", "coordinates": [[141.12295, 39.28854], [141.12297, 39.28825], [141.12306, 39.28701], [141.12309, 39.28638], [141.12307, 39.28601], [141.12299, 39.28548], [141.1229, 39.28504], [141.12283, 39.28484], [141.12271, 39.2844], [141.12238, 39.2837], [141.12183, 39.28242]]}, "properties": {"id": "TRACK_TOKYO_3037", "line_name": "東北線", "station_group_ids": [], "mode": "rail", "operator_id": "jr_east", "tags": ["tokyo", "track_centerline"]}}, {"type": "Feature", "bbox": [141.14439, 39.62591, 141.14557, 39.63948], "geometry": {"type": "LineString", "coordinates": [[141.14557, 39.63948], [141.14538, 39.63882], [141.14508, 39.63758], [141.14489, 39.63681], [141.14482, 39.6365], [141.14464, 39.63481], [141.14454, 39.63386], [141.1444, 39.63122], [141.14439, 39.63009], [141.14444, 39.62985], [141.14477, 39.62856], [141.14501, 39.62765], [141.14547, 39.62606], [141.14553, 39.62591]]}, "properties": {"id": "TRACK_TOKYO_3038", "line_name": "東北線", "station_group_ids": [], "mode": "rail", "operator_id": "jr_east", "tags": ["tokyo", "track_centerline"]}}, {"type": "Feature", "bbox": [141.1545, 39.58026, 141.15475, 39.58146], "geometry": {"type": "LineString", "coordinates": [[141.1545, 39.58146], [141.15475, 39.58026]]}, "properties": {"id": "TRACK_TOKYO_3039", "line_name": "東北線", "station_group_ids": [], "mode": "rail", "operator_id": "jr_east", "tags": ["tokyo", "track_centerline"]}}, {"type": "Feature", "bbox": [141.14656, 39.48978, 141.14721, 39.49201], "geometry": {"type": "LineString", "coordinates": [[141.14721, 39.49201], [141.14656, 39.48978]]}, "properties": {"id": "TRACK_TOKYO_3040", "line_name": "東北線", "station_group_ids": [], "mode": "rail", "operator_id": "jr_east", "tags": ["tokyo", "track_centerline"]}}, {"type": "Feature", "bbox": [141.16003, 39.53937, 141.16194, 39.55421], "geometry": {"type": "LineString", "coordinates": [[141.16003, 39.55421], [141.16007, 39.55403], [141.1602, 39.55333], [141.16033, 39.55286], [141.16042, 39.55238], [141.16057, 39.55163], [141.16064, 39.55127], [141.16079, 39.55059], [141.16087, 39.55023], [141.16103, 39.54937], [141.16117, 39.54871], [141.16121, 39.54852], [141.16131, 39.54803], [141.16149, 39.54717], [141.16167, 39.54619], [141.16176, 39.54575], [141.16179, 39.54562], [141.1619, 39.54494], [141.16194, 39.54449], [141.16194, 39.54392], [141.16192, 39.54354], [141.16189, 39.54313], [141.16181, 39.54275], [141.16172, 39.54248], [141.16166, 39.54214], [141.16149, 39.5416], [141.16126, 39.54084], [141.16103, 39.54019], [141.16074, 39.53937]]}, "properties": {"id": "TRACK_TOKYO_3041", "line_name": "東北線", "station_group_ids": [], "mode": "rail", "operator_id": "jr_east", "tags": ["tokyo", "track_centerline"]}}, {"type": "Feature", "bbox": [141.14721, 39.49201, 141.16036, 39.53788], "geometry": {"type": "LineString", "coordinates": [[141.16036, 39.53788], [141.16013, 39.53702], [141.15987, 39.53599], [141.15969, 39.53526], [141.15963, 39.53502], [141.1594, 39.53421], [141.15911, 39.53307], [141.15881, 39.53196], [141.15843, 39.53048], [141.15811, 39.5294], [141.15773, 39.52808], [141.1577, 39.52799], [141.15746, 39.52716], [141.15713, 39.52604], [141.15687, 39.52519], [141.15657, 39.52416], [141.15638, 39.52354], [141.15593, 39.52195], [141.15583, 39.52167], [141.15562, 39.52089], [141.15534, 39.51996], [141.15503, 39.51886], [141.15474, 39.51787], [141.1547, 39.51775], [141.15462, 39.51747], [141.1544, 39.51666], [141.15417, 39.5159], [141.15397, 39.51517], [141.15364, 39.51406], [141.15338, 39.51315], [141.15314, 39.51231], [141.15279, 39.51115], [141.15252, 39.51014], [141.15217, 39.50895], [141.1521, 39.50869], [141.15182, 39.50774], [141.1515, 39.50663], [141.15137, 39.50617], [141.15118, 39.50547], [141.15088, 39.50445], [141.15043, 39.50284], [141.14987, 39.50092], [141.14923, 39.49876], [141.14889, 39.49758], [141.14878, 39.49725], [141.14853, 39.4964], [141.14816, 39.49522], [141.14808, 39.49497], [141.14801, 39.4947], [141.14721, 39.49201]]}, "properties": {"id": "TRACK_TOKYO_3043", "line_name": "東北線", "station_group_ids": [], "mode": "rail", "operator_id": "jr_east", "tags": ["tokyo", "track_centerline"]}}, {"type": "Feature", "bbox": [141.1204, 39.32144, 141.12058, 39.32386], "geometry": {"type": "LineString", "coordinates": [[141.12058, 39.32144], [141.1204, 39.32386]]}, "properties": {"id": "TRACK_TOKYO_3044", "line_name": "東北線", "station_group_ids": [], "mode": "rail", "operator_id": "jr_east", "tags": ["tokyo", "track_centerline"]}}]}