{"type": "FeatureCollection", "features": [{"type": "Feature", "bbox": [133.08329, 34.400825, 133.08329, 34.400825], "geometry": {"type": "Point", "coordinates": [133.08329, 34.400825]}, "properties": {"id": "PS_90F327C1AC49", "station_group_id": "SG_0606E9317776", "name_en": "三原", "name_ja": "三原", "label_rank": 72, "tags": ["tokyo", "v3"]}}, {"type": "Feature", "bbox": [133.19021500000002, 34.430080000000004, 133.19021500000002, 34.430080000000004], "geometry": {"type": "Point", "coordinates": [133.19021500000002, 34.430080000000004]}, "properties": {"id": "PS_8C5F9423538E", "station_group_id": "SG_15B71C4DED8E", "name_en": "新尾道", "name_ja": "新尾道", "label_rank": 72, "tags": ["tokyo", "v3"]}}]}