{"type": "FeatureCollection", "features": [{"type": "Feature", "bbox": [141.21742, 39.96114, 141.28491, 40.25848], "geometry": {"type": "LineString", "coordinates": [[141.21742, 39.96114], [141.21748, 39.96202], [141.21772, 39.96434], [141.21814, 39.96805], [141.2185, 39.97168], [141.21871, 39.97301], [141.21912, 39.97511], [141.21971, 39.97698], [141.21999, 39.97785], [141.22065, 39.97956], [141.22111, 39.98059], [141.22167, 39.98168], [141.22236, 39.98297], [141.22307, 39.98418], [141.2235, 39.98488], [141.22555, 39.98763], [141.22683, 39.98911], [141.22963, 39.99196], [141.23008, 39.99238], [141.23099, 39.99318], [141.23413, 39.99582], [141.23512, 39.99669], [141.23698, 39.99838], [141.23833, 39.99959], [141.23987, 40.00097], [141.24098, 40.00197], [141.24219, 40.00317], [141.24301, 40.00399], [141.24461, 40.00584], [141.24536, 40.00684], [141.24606, 40.0078], [141.24672, 40.00884], [141.24788, 40.01073], [141.2486, 40.01209], [141.2497, 40.01459], [141.25078, 40.01791], [141.25146, 40.02065], [141.25216, 40.02391], [141.25293, 40.02761], [141.25479, 40.03622], [141.25611, 40.04242], [141.25709, 40.04698], [141.25849, 40.05338], [141.25914, 40.05651], [141.25948, 40.0581], [141.26003, 40.06058], [141.26069, 40.06358], [141.26145, 40.0672], [141.26232, 40.07118], [141.26308, 40.07462], [141.26393, 40.07858], [141.26459, 40.08168], [141.26548, 40.08574], [141.26561, 40.08651], [141.26612, 40.08876], [141.26774, 40.09623], [141.2689, 40.10165], [141.27046, 40.10905], [141.27253, 40.11848], [141.27332, 40.12244], [141.27406, 40.12554], [141.27503, 40.13026], [141.27549, 40.13258], [141.27617, 40.13672], [141.2764, 40.13986], [141.27654, 40.14409], [141.27622, 40.14884], [141.27562, 40.15363], [141.27319, 40.16935], [141.27239, 40.1744], [141.27159, 40.17987], [141.27092, 40.18443], [141.27056, 40.18705], [141.26901, 40.19755], [141.26732, 40.20946], [141.26717, 40.21078], [141.26701, 40.21307], [141.26697, 40.21428], [141.26698, 40.21657], [141.26706, 40.21858], [141.26723, 40.2204], [141.26749, 40.22244], [141.26786, 40.22458], [141.2682, 40.22624], [141.26861, 40.22792], [141.26925, 40.23018], [141.27004, 40.23246], [141.27107, 40.23503], [141.27159, 40.23623], [141.27261, 40.23839], [141.27349, 40.24006], [141.27441, 40.24165], [141.27615, 40.24441], [141.2798, 40.24988], [141.28082, 40.2515], [141.28227, 40.25378], [141.28362, 40.2562], [141.28491, 40.25848]]}, "properties": {"id": "GEOM_TOKYO_2967", "route_id": "R_86450D72", "route_name": null, "route_color": "#2D9C5B", "route_text_color": null, "line_name": "東北新幹線", "operator_id": "jr_east", "representation": "service_path", "min_zoom": 0, "max_zoom": 24, "offset_rank": 0}}, {"type": "Feature", "bbox": [141.21742, 39.96009, 141.21742, 39.96114], "geometry": {"type": "LineString", "coordinates": [[141.21742, 39.96114], [141.21742, 39.96009]]}, "properties": {"id": "GEOM_TOKYO_2968", "route_id": "R_86450D72", "route_name": null, "route_color": "#2D9C5B", "route_text_color": null, "line_name": "東北新幹線", "operator_id": "jr_east", "representation": "service_path", "min_zoom": 0, "max_zoom": 24, "offset_rank": 0}}, {"type": "Feature", "bbox": [141.11752, 39.70667, 141.21965, 39.96009], "geometry": {"type": "LineString", "coordinates": [[141.13071, 39.70667], [141.12994, 39.70737], [141.12953, 39.70774], [141.12888, 39.70834], [141.12886, 39.70836], [141.12765, 39.7094], [141.12665, 39.71026], [141.12555, 39.71125], [141.12402, 39.71267], [141.12365, 39.71303], [141.12277, 39.71386], [141.12148, 39.71508], [141.12119, 39.71536], [141.12108, 39.71546], [141.12045, 39.71604], [141.11971, 39.71677], [141.11902, 39.71754], [141.11853, 39.71826], [141.11824, 39.71877], [141.11803, 39.71918], [141.11775, 39.71997], [141.11763, 39.7205], [141.11756, 39.72098], [141.11752, 39.72148], [141.11752, 39.72198], [141.11756, 39.72251], [141.11766, 39.72325], [141.11769, 39.72351], [141.11772, 39.72363], [141.11791, 39.72418], [141.11829, 39.72523], [141.1185, 39.7258], [141.11886, 39.72657], [141.11932, 39.72748], [141.12009, 39.72889], [141.12073, 39.73007], [141.12077, 39.73013], [141.12092, 39.73041], [141.12106, 39.73065], [141.12148, 39.73144], [141.12335, 39.73491], [141.124, 39.73617], [141.12518, 39.73833], [141.12817, 39.74353], [141.12962, 39.74612], [141.13256, 39.75176], [141.13542, 39.75687], [141.13822, 39.76228], [141.1416, 39.76856], [141.14255, 39.77033], [141.14408, 39.77322], [141.1449, 39.77518], [141.14535, 39.77649], [141.14589, 39.77829], [141.14621, 39.7796], [141.14696, 39.78216], [141.14738, 39.78362], [141.14779, 39.78491], [141.14822, 39.78615], [141.14854, 39.78703], [141.14883, 39.78784], [141.15025, 39.79116], [141.15139, 39.79344], [141.15274, 39.79586], [141.15373, 39.79743], [141.15472, 39.79901], [141.15618, 39.80102], [141.15724, 39.80244], [141.15918, 39.80478], [141.16271, 39.80873], [141.16552, 39.81186], [141.16861, 39.81533], [141.17016, 39.81708], [141.17238, 39.81946], [141.17435, 39.8217], [141.17589, 39.82353], [141.1768, 39.82465], [141.17796, 39.82617], [141.17926, 39.828], [141.18083, 39.8303], [141.18194, 39.83214], [141.18321, 39.83435], [141.18416, 39.83629], [141.1859, 39.84038], [141.19021, 39.85085], [141.19106, 39.85301], [141.19607, 39.86538], [141.19897, 39.87249], [141.20128, 39.87803], [141.20264, 39.88144], [141.20395, 39.88452], [141.20528, 39.88782], [141.20699, 39.89212], [141.20781, 39.89409], [141.20932, 39.898], [141.21264, 39.90624], [141.21657, 39.91585], [141.21789, 39.9197], [141.21831, 39.92125], [141.21904, 39.9246], [141.21955, 39.92848], [141.21965, 39.93032], [141.21964, 39.93414], [141.2195, 39.93749], [141.21928, 39.93932], [141.21848, 39.94857], [141.21764, 39.95838], [141.21742, 39.96009]]}, "properties": {"id": "GEOM_TOKYO_3008", "route_id": "R_86450D72", "route_name": null, "route_color": "#2D9C5B", "route_text_color": null, "line_name": "東北新幹線", "operator_id": "jr_east", "representation": "service_path", "min_zoom": 0, "max_zoom": 24, "offset_rank": 0}}]}