{"type": "FeatureCollection", "features": [{"type": "Feature", "bbox": [141.07552, 38.47541, 141.09912, 38.51191], "geometry": {"type": "LineString", "coordinates": [[141.07552, 38.51191], [141.07645, 38.51065], [141.07659, 38.51045], [141.07717, 38.50965], [141.07857, 38.50783], [141.08007, 38.50584], [141.08155, 38.50384], [141.08221, 38.50295], [141.0823, 38.50282], [141.08247, 38.5026], [141.08333, 38.50142], [141.08444, 38.49992], [141.08576, 38.49816], [141.08619, 38.49757], [141.08671, 38.49685], [141.08715, 38.49627], [141.08734, 38.49597], [141.08747, 38.49577], [141.08757, 38.49555], [141.08765, 38.49531], [141.08775, 38.4949], [141.08785, 38.49444], [141.08788, 38.49408], [141.08789, 38.49371], [141.0879, 38.49292], [141.08792, 38.49262], [141.08796, 38.4923], [141.08802, 38.49202], [141.08814, 38.49155], [141.08823, 38.49131], [141.08839, 38.49094], [141.08853, 38.49068], [141.08875, 38.49035], [141.08913, 38.48985], [141.08926, 38.48971], [141.08933, 38.48964], [141.08961, 38.48939], [141.08999, 38.4891], [141.09041, 38.48886], [141.09152, 38.48823], [141.09312, 38.48734], [141.09494, 38.48631], [141.09569, 38.48587], [141.09654, 38.48535], [141.09723, 38.48485], [141.09747, 38.48464], [141.09778, 38.48434], [141.09792, 38.48416], [141.09809, 38.48395], [141.09844, 38.48342], [141.09873, 38.48292], [141.09891, 38.48255], [141.09902, 38.4822], [141.09908, 38.48181], [141.09912, 38.48142], [141.09912, 38.48102], [141.09907, 38.48042], [141.09895, 38.47972], [141.09884, 38.4791], [141.09866, 38.4782], [141.09844, 38.47708], [141.09828, 38.47628], [141.09811, 38.47541]]}, "properties": {"id": "GEOM_TOKYO_3064", "route_id": "R_20E64CE3", "route_name": null, "route_color": "#3AA76D", "route_text_color": null, "line_name": "東北線", "operator_id": "jr_east", "representation": "service_path", "min_zoom": 0, "max_zoom": 24, "offset_rank": 0}}, {"type": "Feature", "bbox": [141.09782, 38.47362, 141.09811, 38.47541], "geometry": {"type": "LineString", "coordinates": [[141.09811, 38.47541], [141.09782, 38.47362]]}, "properties": {"id": "GEOM_TOKYO_3065", "route_id": "R_20E64CE3", "route_name": null, "route_color": "#3AA76D", "route_text_color": null, "line_name": "東北線", "operator_id": "jr_east", "representation": "service_path", "min_zoom": 0, "max_zoom": 24, "offset_rank": 0}}, {"type": "Feature", "bbox": [141.08126, 38.43063, 141.08328, 38.43251], "geometry": {"type": "LineString", "coordinates": [[141.08328, 38.43251], [141.08292, 38.43201], [141.08267, 38.43173], [141.08237, 38.43145], [141.08203, 38.43117], [141.08169, 38.43093], [141.08126, 38.43063]]}, "properties": {"id": "GEOM_TOKYO_3066", "route_id": "R_20E64CE3", "route_name": null, "route_color": "#3AA76D", "route_text_color": null, "line_name": "東北線", "operator_id": "jr_east", "representation": "service_path", "min_zoom": 0, "max_zoom": 24, "offset_rank": 0}}, {"type": "Feature", "bbox": [141.08328, 38.43251, 141.09782, 38.47362], "geometry": {"type": "LineString", "coordinates": [[141.09782, 38.47362], [141.09759, 38.47241], [141.09744, 38.47166], [141.09728, 38.47085], [141.09713, 38.47012], [141.09698, 38.46933], [141.09681, 38.4685], [141.09666, 38.46779], [141.09654, 38.46709], [141.09635, 38.46605], [141.09629, 38.46577], [141.09613, 38.46495], [141.09592, 38.46383], [141.09574, 38.46298], [141.09557, 38.46211], [141.0955, 38.46165], [141.0954, 38.46104], [141.09531, 38.46043], [141.09517, 38.45964], [141.09495, 38.45829], [141.09468, 38.45685], [141.09466, 38.45676], [141.09463, 38.45659], [141.0943, 38.45496], [141.09427, 38.45482], [141.09405, 38.45368], [141.09394, 38.45307], [141.09383, 38.45252], [141.09366, 38.45159], [141.09334, 38.44989], [141.09309, 38.44871], [141.09292, 38.44813], [141.09281, 38.44783], [141.09249, 38.44717], [141.09225, 38.44673], [141.09189, 38.44616], [141.09185, 38.44608], [141.09125, 38.44509], [141.09123, 38.44505], [141.09102, 38.44472], [141.09065, 38.44412], [141.08963, 38.44246], [141.08859, 38.44081], [141.08839, 38.4405], [141.08768, 38.43938], [141.08669, 38.43786], [141.08561, 38.43622], [141.08506, 38.4354], [141.08438, 38.43435], [141.08392, 38.43363], [141.08362, 38.43313], [141.08328, 38.43251]]}, "properties": {"id": "GEOM_TOKYO_3071", "route_id": "R_20E64CE3", "route_name": null, "route_color": "#3AA76D", "route_text_color": null, "line_name": "東北線", "operator_id": "jr_east", "representation": "service_path", "min_zoom": 0, "max_zoom": 24, "offset_rank": 0}}, {"type": "Feature", "bbox": [141.06488, 38.3968, 141.06548, 38.39849], "geometry": {"type": "LineString", "coordinates": [[141.06488, 38.3968], [141.06498, 38.39712], [141.06548, 38.39849]]}, "properties": {"id": "GEOM_TOKYO_3110", "route_id": "R_20E64CE3", "route_name": null, "route_color": "#3AA76D", "route_text_color": null, "line_name": "東北線", "operator_id": "jr_east", "representation": "service_path", "min_zoom": 0, "max_zoom": 24, "offset_rank": 0}}, {"type": "Feature", "bbox": [140.99565, 38.30131, 141.0095, 38.30933], "geometry": {"type": "LineString", "coordinates": [[141.0095, 38.30933], [141.00947, 38.30921], [141.00945, 38.30914], [141.00942, 38.30903], [141.00935, 38.30877], [141.00928, 38.30855], [141.00901, 38.308], [141.00893, 38.30784], [141.0089, 38.30778], [141.00885, 38.3077], [141.00877, 38.30755], [141.00875, 38.30751], [141.00855, 38.30715], [141.0082, 38.30658], [141.00783, 38.30611], [141.00756, 38.30583], [141.00748, 38.30575], [141.00714, 38.30545], [141.00667, 38.30512], [141.00651, 38.30501], [141.00573, 38.30448], [141.00534, 38.30427], [141.00493, 38.30407], [141.00441, 38.30388], [141.0034, 38.30359], [141.00158, 38.30308], [140.9998, 38.30255], [140.99786, 38.30197], [140.99656, 38.30159], [140.99634, 38.30153], [140.99582, 38.30138], [140.99565, 38.30131]]}, "properties": {"id": "GEOM_TOKYO_3113", "route_id": "R_20E64CE3", "route_name": null, "route_color": "#3AA76D", "route_text_color": null, "line_name": "東北線", "operator_id": "jr_east", "representation": "service_path", "min_zoom": 0, "max_zoom": 24, "offset_rank": 0}}, {"type": "Feature", "bbox": [141.00915, 38.31, 141.06469, 38.37869], "geometry": {"type": "LineString", "coordinates": [[141.00959, 38.31], [141.00968, 38.31062], [141.00968, 38.3109], [141.00958, 38.31241], [141.00944, 38.31431], [141.00924, 38.31608], [141.00922, 38.31649], [141.00919, 38.31701], [141.00915, 38.31846], [141.00918, 38.31891], [141.00928, 38.31932], [141.00942, 38.3197], [141.00947, 38.31984], [141.00956, 38.32002], [141.00964, 38.32017], [141.00966, 38.32021], [141.00969, 38.32026], [141.00996, 38.32052], [141.0103, 38.3209], [141.01075, 38.3213], [141.01122, 38.32168], [141.01163, 38.322], [141.01216, 38.32235], [141.01288, 38.32278], [141.01435, 38.32378], [141.01554, 38.32458], [141.01639, 38.32506], [141.01706, 38.32542], [141.01754, 38.32564], [141.01815, 38.32587], [141.01824, 38.3259], [141.01901, 38.32618], [141.02068, 38.32669], [141.02093, 38.32678], [141.02163, 38.32711], [141.02224, 38.32744], [141.02262, 38.32772], [141.02282, 38.32789], [141.02296, 38.32801], [141.0233, 38.32832], [141.02378, 38.32876], [141.02434, 38.32935], [141.02495, 38.32994], [141.02513, 38.33018], [141.02653, 38.33162], [141.02704, 38.33213], [141.02756, 38.33251], [141.02797, 38.33276], [141.02957, 38.33379], [141.0307, 38.3345], [141.03214, 38.33542], [141.03303, 38.33597], [141.03352, 38.3363], [141.03399, 38.3366], [141.03413, 38.3367], [141.03458, 38.33712], [141.03484, 38.33741], [141.03508, 38.33775], [141.03526, 38.33807], [141.03547, 38.33865], [141.03555, 38.33898], [141.03568, 38.33944], [141.03572, 38.3396], [141.03576, 38.33978], [141.03606, 38.34056], [141.0364, 38.34152], [141.03654, 38.34202], [141.03666, 38.3425], [141.03682, 38.34317], [141.03699, 38.34395], [141.03704, 38.34429], [141.03707, 38.34467], [141.0371, 38.34508], [141.03722, 38.34546], [141.03732, 38.34575], [141.03763, 38.34623], [141.03821, 38.34702], [141.03892, 38.34795], [141.04033, 38.34978], [141.04108, 38.3508], [141.04196, 38.35194], [141.04223, 38.35228], [141.04278, 38.3529], [141.04311, 38.35322], [141.04351, 38.35357], [141.04453, 38.35427], [141.04524, 38.35475], [141.0457, 38.35505], [141.04649, 38.35553], [141.04688, 38.35576], [141.04718, 38.35589], [141.04819, 38.35634], [141.04867, 38.35659], [141.04888, 38.35669], [141.04914, 38.35685], [141.04974, 38.35724], [141.04996, 38.35741], [141.05012, 38.35754], [141.05042, 38.35774], [141.05096, 38.35818], [141.05131, 38.35854], [141.05248, 38.35969], [141.05285, 38.36001], [141.05332, 38.36038], [141.05363, 38.36059], [141.05473, 38.3612], [141.05535, 38.36159], [141.05574, 38.36187], [141.05634, 38.36235], [141.05684, 38.36275], [141.05752, 38.36349], [141.05787, 38.36398], [141.05813, 38.36441], [141.05829, 38.36484], [141.05841, 38.36529], [141.05847, 38.36567], [141.05848, 38.36598], [141.05845, 38.36683], [141.05838, 38.36727], [141.05825, 38.36769], [141.05806, 38.36818], [141.05761, 38.36919], [141.05723, 38.37014], [141.05711, 38.37051], [141.05707, 38.37102], [141.05711, 38.37153], [141.05717, 38.37188], [141.05726, 38.37241], [141.05727, 38.37249], [141.0574, 38.37295], [141.05753, 38.3733], [141.05766, 38.37362], [141.05778, 38.37382], [141.05793, 38.37401], [141.05823, 38.37436], [141.05887, 38.37505], [141.05934, 38.37553], [141.05978, 38.37595], [141.06022, 38.37627], [141.06116, 38.37683], [141.06233, 38.37749], [141.06285, 38.37775], [141.06344, 38.37805], [141.06427, 38.37844], [141.06451, 38.37856], [141.06469, 38.37869]]}, "properties": {"id": "GEOM_TOKYO_3122", "route_id": "R_20E64CE3", "route_name": null, "route_color": "#3AA76D", "route_text_color": null, "line_name": "東北線", "operator_id": "jr_east", "representation": "service_path", "min_zoom": 0, "max_zoom": 24, "offset_rank": 0}}, {"type": "Feature", "bbox": [141.06472, 38.38019, 141.06737, 38.3968], "geometry": {"type": "LineString", "coordinates": [[141.06612, 38.38019], [141.06634, 38.38047], [141.06653, 38.38078], [141.0667, 38.38122], [141.06687, 38.38182], [141.06706, 38.38265], [141.06728, 38.38426], [141.0673, 38.38448], [141.06737, 38.38522], [141.06737, 38.38562], [141.06736, 38.38601], [141.0673, 38.38634], [141.06723, 38.38664], [141.06689, 38.38777], [141.06642, 38.38924], [141.06575, 38.39136], [141.06513, 38.39327], [141.06503, 38.39362], [141.06496, 38.39381], [141.06482, 38.39441], [141.06475, 38.39496], [141.06472, 38.3958], [141.06475, 38.39617], [141.06479, 38.39635], [141.06483, 38.39662], [141.06488, 38.3968]]}, "properties": {"id": "GEOM_TOKYO_3127", "route_id": "R_20E64CE3", "route_name": null, "route_color": "#3AA76D", "route_text_color": null, "line_name": "東北線", "operator_id": "jr_east", "representation": "service_path", "min_zoom": 0, "max_zoom": 24, "offset_rank": 0}}, {"type": "Feature", "bbox": [141.0095, 38.30933, 141.00959, 38.31], "geometry": {"type": "LineString", "coordinates": [[141.00959, 38.31], [141.00953, 38.30961], [141.0095, 38.30933]]}, "properties": {"id": "GEOM_TOKYO_3134", "route_id": "R_20E64CE3", "route_name": null, "route_color": "#3AA76D", "route_text_color": null, "line_name": "東北線", "operator_id": "jr_east", "representation": "service_path", "min_zoom": 0, "max_zoom": 24, "offset_rank": 0}}, {"type": "Feature", "bbox": [141.06469, 38.37869, 141.06612, 38.38019], "geometry": {"type": "LineString", "coordinates": [[141.06469, 38.37869], [141.06513, 38.37907], [141.06537, 38.3793], [141.06612, 38.38019]]}, "properties": {"id": "GEOM_TOKYO_3144", "route_id": "R_20E64CE3", "route_name": null, "route_color": "#3AA76D", "route_text_color": null, "line_name": "東北線", "operator_id": "jr_east", "representation": "service_path", "min_zoom": 0, "max_zoom": 24, "offset_rank": 0}}, {"type": "Feature", "bbox": [141.06527, 38.39849, 141.08126, 38.43063], "geometry": {"type": "LineString", "coordinates": [[141.08126, 38.43063], [141.08039, 38.43012], [141.07817, 38.42891], [141.07746, 38.42848], [141.07688, 38.42816], [141.07638, 38.4279], [141.07615, 38.42777], [141.07591, 38.42763], [141.07549, 38.42734], [141.07512, 38.42702], [141.07481, 38.42671], [141.07447, 38.42634], [141.07418, 38.42598], [141.07381, 38.42541], [141.07355, 38.42492], [141.07334, 38.42428], [141.07321, 38.42367], [141.07315, 38.42306], [141.07311, 38.4225], [141.07315, 38.42198], [141.07322, 38.42157], [141.07341, 38.42098], [141.07376, 38.42012], [141.07386, 38.41984], [141.07391, 38.41963], [141.074, 38.41916], [141.07405, 38.41857], [141.07408, 38.41818], [141.07409, 38.41749], [141.07408, 38.41723], [141.07406, 38.41686], [141.07397, 38.41634], [141.07391, 38.41604], [141.07377, 38.41564], [141.07356, 38.41511], [141.07345, 38.41487], [141.07332, 38.41462], [141.07318, 38.41434], [141.07294, 38.41397], [141.07265, 38.41357], [141.07226, 38.41308], [141.07197, 38.41274], [141.0716, 38.41236], [141.07144, 38.41222], [141.07095, 38.41176], [141.07051, 38.41143], [141.07014, 38.41117], [141.06985, 38.4109], [141.06952, 38.4106], [141.06891, 38.40991], [141.06827, 38.40917], [141.06749, 38.40831], [141.06698, 38.40772], [141.06619, 38.40687], [141.06594, 38.40657], [141.06576, 38.40627], [141.06556, 38.40575], [141.06544, 38.40525], [141.06529, 38.40457], [141.06527, 38.40424], [141.06527, 38.40382], [141.06543, 38.40274], [141.06566, 38.40187], [141.06579, 38.40127], [141.06582, 38.40103], [141.06582, 38.40054], [141.06579, 38.40002], [141.06576, 38.39963], [141.06572, 38.39944], [141.06563, 38.39896], [141.06548, 38.39849]]}, "properties": {"id": "GEOM_TOKYO_3153", "route_id": "R_20E64CE3", "route_name": null, "route_color": "#3AA76D", "route_text_color": null, "line_name": "東北線", "operator_id": "jr_east", "representation": "service_path", "min_zoom": 0, "max_zoom": 24, "offset_rank": 0}}, {"type": "Feature", "bbox": [141.06201716000012, 38.37675905000009, 141.07331, 38.38256], "geometry": {"type": "LineString", "coordinates": [[141.06201716000012, 38.37675905000009], [141.06487, 38.37771], [141.06704527286686, 38.378447508183605], [141.06779, 38.3787], [141.06902, 38.37912], [141.06955, 38.3793], [141.07038, 38.3796], [141.07056, 38.37967], [141.07066, 38.37974], [141.07083, 38.37985], [141.07101, 38.38], [141.07119, 38.38018], [141.07126, 38.38025], [141.0713451995511, 38.380346006817], [141.07142812964977, 38.38044101996771], [141.0715795413763, 38.380611511386704], [141.07178044775702, 38.38083773375918], [141.07201480663275, 38.381101623044756], [141.072228993959, 38.38135074589363], [141.07286, 38.38207], [141.07331, 38.38256]]}, "properties": {"id": "GEOM_TOKYO_4093", "route_id": "R_20E64CE3", "route_name": null, "route_color": "#3AA76D", "route_text_color": null, "line_name": "東北線", "operator_id": "jr_east", "representation": "service_path", "min_zoom": 0, "max_zoom": 24, "offset_rank": 0}}, {"type": "Feature", "bbox": [141.07331, 38.38256, 141.07379, 38.38309], "geometry": {"type": "LineString", "coordinates": [[141.07379, 38.38309], [141.07331, 38.38256]]}, "properties": {"id": "GEOM_TOKYO_4124", "route_id": "R_20E64CE3", "route_name": null, "route_color": "#3AA76D", "route_text_color": null, "line_name": "東北線", "operator_id": "jr_east", "representation": "service_path", "min_zoom": 0, "max_zoom": 24, "offset_rank": 0}}, {"type": "Feature", "bbox": [141.05874363, 38.374913759999956, 141.06201716000012, 38.37675905000009], "geometry": {"type": "LineString", "coordinates": [[141.05874363, 38.374913759999956], [141.05957693, 38.375662410000245], [141.06027292000002, 38.37617399000003], [141.06087967999997, 38.37646548000005], [141.06146265000015, 38.37663799000007], [141.06201716000012, 38.37675905000009]]}, "properties": {"id": "GEOM_TOKYO_4132", "route_id": "R_20E64CE3", "route_name": null, "route_color": "#3AA76D", "route_text_color": null, "line_name": "東北線", "operator_id": "jr_east", "representation": "service_path", "min_zoom": 0, "max_zoom": 24, "offset_rank": 0}}]}