{"type": "FeatureCollection", "features": [{"type": "Feature", "bbox": [140.99105, 37.45454, 141.00942, 37.49155], "geometry": {"type": "LineString", "coordinates": [[141.00641, 37.45454], [141.00689, 37.45526], [141.00723, 37.45577], [141.00737, 37.45599], [141.00743, 37.45609], [141.00767, 37.45646], [141.00823, 37.45732], [141.00879, 37.45816], [141.00881, 37.45819], [141.00915, 37.45872], [141.00927, 37.45897], [141.00936, 37.45924], [141.00941, 37.45952], [141.00942, 37.46012], [141.00939, 37.46043], [141.00935, 37.46072], [141.00908, 37.4624], [141.0089, 37.46356], [141.00871, 37.46472], [141.00866, 37.465], [141.00849, 37.46596], [141.00831, 37.46705], [141.00823, 37.4675], [141.00809, 37.46826], [141.00792, 37.46929], [141.00776, 37.47021], [141.00754, 37.47153], [141.00746, 37.47195], [141.00741, 37.47239], [141.00741, 37.47259], [141.00728, 37.47427], [141.00726, 37.47456], [141.00723, 37.47479], [141.00717, 37.47511], [141.00709, 37.47539], [141.00698, 37.47571], [141.00696, 37.47576], [141.00673, 37.47638], [141.00668, 37.47648], [141.00652, 37.4768], [141.00633, 37.47709], [141.00621, 37.47727], [141.00556, 37.47806], [141.00515, 37.47857], [141.00458, 37.47927], [141.00414, 37.47979], [141.00338, 37.48071], [141.00215, 37.48219], [141.00143, 37.48308], [141.00057, 37.48415], [140.99982, 37.48507], [140.99899, 37.48607], [140.99875, 37.48637], [140.99803, 37.48721], [140.99775, 37.48753], [140.99751, 37.48776], [140.99715, 37.48808], [140.99685, 37.48837], [140.99659, 37.48857], [140.99603, 37.48886], [140.99408, 37.48992], [140.99105, 37.49155]]}, "properties": {"id": "GEOM_TOKYO_2359", "route_id": "R_06E4D384", "route_name": null, "route_color": "#22A6B3", "route_text_color": null, "line_name": "常磐線", "operator_id": "jr_east", "representation": "service_path", "min_zoom": 0, "max_zoom": 24, "offset_rank": 0}}]}