{"type": "FeatureCollection", "features": [{"type": "Feature", "bbox": [137.28289999999998, 34.815745, 137.28289999999998, 34.815745], "geometry": {"type": "Point", "coordinates": [137.28289999999998, 34.815745]}, "properties": {"id": "PS_6E3B1086F432", "station_group_id": "SG_4AB5B0308DE7", "name_en": "三河大塚", "name_ja": "三河大塚", "label_rank": 72, "tags": ["tokyo", "v3"]}}, {"type": "Feature", "bbox": [137.43887, 34.725795000000005, 137.43887, 34.725795000000005], "geometry": {"type": "Point", "coordinates": [137.43887, 34.725795000000005]}, "properties": {"id": "PS_1F189D978587", "station_group_id": "SG_97A5DBD60D5C", "name_en": "二川", "name_ja": "二川", "label_rank": 72, "tags": ["tokyo", "v3"]}}, {"type": "Feature", "bbox": [137.779405, 34.717065, 137.779405, 34.717065], "geometry": {"type": "Point", "coordinates": [137.779405, 34.717065]}, "properties": {"id": "PS_C0E3C97D2280", "station_group_id": "SG_20EDFCE95D4F", "name_en": "天竜川", "name_ja": "天竜川", "label_rank": 72, "tags": ["tokyo", "v3"]}}, {"type": "Feature", "bbox": [137.60309, 34.690145, 137.60309, 34.690145], "geometry": {"type": "Point", "coordinates": [137.60309, 34.690145]}, "properties": {"id": "PS_FA945C172117", "station_group_id": "SG_A4EB759164EE", "name_en": "弁天島", "name_ja": "弁天島", "label_rank": 72, "tags": ["tokyo", "v3"]}}, {"type": "Feature", "bbox": [137.31658499999998, 34.812585, 137.31658499999998, 34.812585], "geometry": {"type": "Point", "coordinates": [137.31658499999998, 34.812585]}, "properties": {"id": "PS_166D66A68816", "station_group_id": "SG_230D096BDBF5", "name_en": "愛知御津", "name_ja": "愛知御津", "label_rank": 72, "tags": ["tokyo", "v3"]}}, {"type": "Feature", "bbox": [137.568985, 34.694275000000005, 137.568985, 34.694275000000005], "geometry": {"type": "Point", "coordinates": [137.568985, 34.694275000000005]}, "properties": {"id": "PS_0ECBBC26D2FE", "station_group_id": "SG_B75AD794D18A", "name_en": "新居町", "name_ja": "新居町", "label_rank": 72, "tags": ["tokyo", "v3"]}}, {"type": "Feature", "bbox": [137.484455, 34.723259999999996, 137.484455, 34.723259999999996], "geometry": {"type": "Point", "coordinates": [137.484455, 34.723259999999996]}, "properties": {"id": "PS_47E067852F80", "station_group_id": "SG_D5ACCD32BF3B", "name_en": "新所原", "name_ja": "新所原", "label_rank": 72, "tags": ["tokyo", "v3"]}}, {"type": "Feature", "bbox": [137.73559, 34.703825, 137.73559, 34.703825], "geometry": {"type": "Point", "coordinates": [137.73559, 34.703825]}, "properties": {"id": "PS_0F4BD3D4CCC2", "station_group_id": "SG_A744F35C60FF", "name_en": "浜松", "name_ja": "浜松", "label_rank": 72, "tags": ["tokyo", "v3"]}}, {"type": "Feature", "bbox": [137.735045, 34.70397, 137.735045, 34.70397], "geometry": {"type": "Point", "coordinates": [137.735045, 34.70397]}, "properties": {"id": "PS_9D19CFF1C518", "station_group_id": "SG_A744F35C60FF", "name_en": "浜松", "name_ja": "浜松", "label_rank": 72, "tags": ["tokyo", "v3"]}}, {"type": "Feature", "bbox": [137.62633, 34.68569, 137.62633, 34.68569], "geometry": {"type": "Point", "coordinates": [137.62633, 34.68569]}, "properties": {"id": "PS_55DDDD371342", "station_group_id": "SG_F95DE0C6C372", "name_en": "舞阪", "name_ja": "舞阪", "label_rank": 72, "tags": ["tokyo", "v3"]}}, {"type": "Feature", "bbox": [137.352685, 34.797025000000005, 137.352685, 34.797025000000005], "geometry": {"type": "Point", "coordinates": [137.352685, 34.797025000000005]}, "properties": {"id": "PS_260B561B00F2", "station_group_id": "SG_AC1682A156B6", "name_en": "西小坂井", "name_ja": "西小坂井", "label_rank": 72, "tags": ["tokyo", "v3"]}}, {"type": "Feature", "bbox": [137.38115, 34.76289, 137.38115, 34.76289], "geometry": {"type": "Point", "coordinates": [137.38115, 34.76289]}, "properties": {"id": "PS_5B7FCBE16BB1", "station_group_id": "SG_D326CA497DB4", "name_en": "豊橋", "name_ja": "豊橋", "label_rank": 72, "tags": ["tokyo", "v3"]}}, {"type": "Feature", "bbox": [137.38254, 34.762275, 137.38254, 34.762275], "geometry": {"type": "Point", "coordinates": [137.38254, 34.762275]}, "properties": {"id": "PS_01A0DB5168F3", "station_group_id": "SG_D326CA497DB4", "name_en": "豊橋", "name_ja": "豊橋", "label_rank": 72, "tags": ["tokyo", "v3"]}}, {"type": "Feature", "bbox": [137.8198, 34.712085, 137.8198, 34.712085], "geometry": {"type": "Point", "coordinates": [137.8198, 34.712085]}, "properties": {"id": "PS_40994378BA5D", "station_group_id": "SG_F5BDA6032607", "name_en": "豊田町", "name_ja": "豊田町", "label_rank": 72, "tags": ["tokyo", "v3"]}}, {"type": "Feature", "bbox": [137.68134500000002, 34.690425000000005, 137.68134500000002, 34.690425000000005], "geometry": {"type": "Point", "coordinates": [137.68134500000002, 34.690425000000005]}, "properties": {"id": "PS_C55446A6BF4E", "station_group_id": "SG_43E11407893B", "name_en": "高塚", "name_ja": "高塚", "label_rank": 72, "tags": ["tokyo", "v3"]}}, {"type": "Feature", "bbox": [137.54619, 34.71677, 137.54619, 34.71677], "geometry": {"type": "Point", "coordinates": [137.54619, 34.71677]}, "properties": {"id": "PS_515F030B9466", "station_group_id": "SG_43C9037E9CB2", "name_en": "鷲津", "name_ja": "鷲津", "label_rank": 72, "tags": ["tokyo", "v3"]}}]}