{"type": "FeatureCollection", "features": [{"type": "Feature", "bbox": [138.85472, 37.44968, 138.93767, 37.64588], "geometry": {"type": "LineString", "coordinates": [[138.85472, 37.44968], [138.85526, 37.45104], [138.85567, 37.45207], [138.85693, 37.45532], [138.8581, 37.45828], [138.85845, 37.45915], [138.85864, 37.45963], [138.85966, 37.46227], [138.86071, 37.46498], [138.86091, 37.46541], [138.86147, 37.46689], [138.86199, 37.46822], [138.86333, 37.47164], [138.86454, 37.47473], [138.86485, 37.47552], [138.86496, 37.4758], [138.86567, 37.4776], [138.8657, 37.47769], [138.86689, 37.48064], [138.86812, 37.48379], [138.86896, 37.48597], [138.86905, 37.48618], [138.86935, 37.48694], [138.87003, 37.4887], [138.87057, 37.49009], [138.87179, 37.49316], [138.87202, 37.49373], [138.87263, 37.49522], [138.87321, 37.49666], [138.87395, 37.49853], [138.87466, 37.5002], [138.87526, 37.50172], [138.87527, 37.50175], [138.87574, 37.503], [138.8761, 37.50394], [138.87643, 37.50477], [138.87655, 37.50507], [138.87696, 37.50612], [138.87741, 37.50728], [138.87772, 37.50811], [138.87827, 37.50949], [138.87851, 37.51011], [138.87929, 37.51212], [138.87978, 37.51337], [138.88007, 37.51412], [138.88085, 37.51613], [138.88163, 37.51813], [138.88184, 37.51868], [138.88233, 37.51994], [138.8824, 37.52014], [138.88277, 37.52106], [138.88319, 37.52214], [138.88397, 37.52413], [138.8846, 37.52554], [138.88507, 37.52662], [138.88571, 37.52812], [138.88634, 37.52959], [138.88657, 37.53014], [138.8874, 37.53209], [138.88827, 37.53411], [138.88913, 37.53613], [138.88997, 37.53811], [138.88999, 37.53815], [138.89084, 37.54016], [138.8917, 37.54218], [138.89248, 37.54398], [138.89257, 37.5442], [138.89288, 37.54493], [138.89343, 37.54622], [138.89429, 37.54824], [138.89516, 37.55026], [138.89602, 37.55227], [138.89652, 37.55345], [138.89688, 37.55429], [138.89774, 37.55631], [138.89859, 37.5583], [138.89944, 37.5603], [138.90015, 37.56197], [138.90029, 37.5623], [138.90114, 37.5643], [138.90198, 37.56631], [138.90284, 37.56832], [138.9037, 37.57033], [138.90377, 37.57049], [138.90442, 37.57202], [138.90456, 37.57235], [138.90542, 37.57436], [138.90628, 37.57638], [138.90713, 37.5784], [138.90799, 37.58041], [138.90804, 37.58054], [138.90885, 37.58243], [138.90971, 37.58446], [138.91051, 37.58633], [138.91241, 37.59067], [138.9126, 37.59112], [138.91383, 37.594], [138.91596, 37.5989], [138.91627, 37.59962], [138.91787, 37.60336], [138.91857, 37.60501], [138.91976, 37.60778], [138.91992, 37.60814], [138.92099, 37.61051], [138.92286, 37.61486], [138.92364, 37.61663], [138.92382, 37.61704], [138.92524, 37.62034], [138.92567, 37.62135], [138.92616, 37.62251], [138.92625, 37.62272], [138.9274, 37.62527], [138.92789, 37.62636], [138.92842, 37.62748], [138.93025, 37.63112], [138.93032, 37.63127], [138.93167, 37.63395], [138.93248, 37.63556], [138.93322, 37.63703], [138.93328, 37.63715], [138.93407, 37.63874], [138.93473, 37.64006], [138.93486, 37.64028], [138.93599, 37.64256], [138.93767, 37.64588]]}, "properties": {"id": "GEOM_TOKYO_2311", "route_id": "R_D6BC8A01", "route_name": null, "route_color": "#E65045", "route_text_color": null, "line_name": "上越新幹線", "operator_id": "jr_east", "representation": "service_path", "min_zoom": 0, "max_zoom": 24, "offset_rank": 0}}, {"type": "Feature", "bbox": [138.93949, 37.64956, 139.05937, 37.91144], "geometry": {"type": "LineString", "coordinates": [[138.93949, 37.64956], [138.94073, 37.65196], [138.94122, 37.65296], [138.94286, 37.65626], [138.94504, 37.66058], [138.94541, 37.66131], [138.94686, 37.66425], [138.94962, 37.66965], [138.94978, 37.66999], [138.9501, 37.67062], [138.95113, 37.67256], [138.95236, 37.67494], [138.95309, 37.67635], [138.95365, 37.67742], [138.95393, 37.67796], [138.95433, 37.67874], [138.95477, 37.67956], [138.95497, 37.67995], [138.95526, 37.68052], [138.95552, 37.681], [138.95565, 37.68127], [138.9559, 37.68176], [138.95619, 37.68231], [138.95659, 37.68312], [138.95688, 37.68368], [138.95722, 37.68433], [138.9575, 37.68486], [138.95808, 37.68601], [138.95822, 37.68627], [138.95861, 37.68702], [138.95883, 37.68743], [138.96009, 37.6899], [138.96044, 37.69059], [138.9612, 37.69208], [138.96139, 37.69245], [138.96148, 37.69264], [138.96261, 37.69487], [138.96355, 37.69666], [138.96422, 37.698], [138.96464, 37.69882], [138.96506, 37.69965], [138.96574, 37.70097], [138.96576, 37.70101], [138.96588, 37.70125], [138.9663, 37.70208], [138.96716, 37.70371], [138.96761, 37.70462], [138.96875, 37.70694], [138.96886, 37.70719], [138.96943, 37.70835], [138.96988, 37.70938], [138.96993, 37.70949], [138.97004, 37.70976], [138.97092, 37.71196], [138.97106, 37.71231], [138.97205, 37.7148], [138.97301, 37.71718], [138.97328, 37.71796], [138.97342, 37.71838], [138.9736, 37.71894], [138.97383, 37.71969], [138.97421, 37.72095], [138.97451, 37.72209], [138.97501, 37.72437], [138.97505, 37.72463], [138.97546, 37.72679], [138.97549, 37.72695], [138.97555, 37.72723], [138.97597, 37.72971], [138.9764, 37.7322], [138.97682, 37.7346], [138.97692, 37.73516], [138.97726, 37.737], [138.9777, 37.73945], [138.97811, 37.74176], [138.97851, 37.74408], [138.97856, 37.74436], [138.97901, 37.74691], [138.97945, 37.74946], [138.97966, 37.75066], [138.97976, 37.75125], [138.9801, 37.75298], [138.98048, 37.75503], [138.98113, 37.75859], [138.98174, 37.76189], [138.98202, 37.76339], [138.98228, 37.76494], [138.98271, 37.76735], [138.98334, 37.77081], [138.98379, 37.77331], [138.98418, 37.77542], [138.9846, 37.77782], [138.98464, 37.77808], [138.98481, 37.77889], [138.98506, 37.78041], [138.98521, 37.78127], [138.98545, 37.78259], [138.98559, 37.78334], [138.98595, 37.78537], [138.98627, 37.78707], [138.98663, 37.7891], [138.98712, 37.79184], [138.98719, 37.79226], [138.98749, 37.79395], [138.98808, 37.79727], [138.98876, 37.80101], [138.98879, 37.80118], [138.98934, 37.80426], [138.98951, 37.80524], [138.98998, 37.80728], [138.99035, 37.80894], [138.99063, 37.80998], [138.99065, 37.81006], [138.99108, 37.8115], [138.99154, 37.81286], [138.99196, 37.81411], [138.99265, 37.81618], [138.99302, 37.81719], [138.99373, 37.81898], [138.9947, 37.82147], [138.99471, 37.8215], [138.99558, 37.82359], [138.99676, 37.82637], [138.99724, 37.82758], [138.99732, 37.82776], [138.99766, 37.82862], [138.99798, 37.82935], [138.99859, 37.83085], [138.99975, 37.83357], [139.00088, 37.8363], [139.00173, 37.83837], [139.00233, 37.83986], [139.00392, 37.84377], [139.00521, 37.84693], [139.00539, 37.84736], [139.00672, 37.85057], [139.00788, 37.85341], [139.00873, 37.85548], [139.00907, 37.8563], [139.01052, 37.85977], [139.01177, 37.86288], [139.01224, 37.86403], [139.01299, 37.86588], [139.01386, 37.86801], [139.01498, 37.87073], [139.01569, 37.87239], [139.01578, 37.87257], [139.01617, 37.87341], [139.01679, 37.8746], [139.01753, 37.87595], [139.01835, 37.87729], [139.01868, 37.87781], [139.0191, 37.87842], [139.02035, 37.88009], [139.02076, 37.88061], [139.02123, 37.8812], [139.02207, 37.88216], [139.02336, 37.88366], [139.02438, 37.88484], [139.02476, 37.88528], [139.02544, 37.88606], [139.02702, 37.88787], [139.02712, 37.88799], [139.02801, 37.88901], [139.03048, 37.89187], [139.03193, 37.89357], [139.03287, 37.89462], [139.03351, 37.89535], [139.03431, 37.89626], [139.03476, 37.89675], [139.03534, 37.89732], [139.03606, 37.89802], [139.03701, 37.89891], [139.03874, 37.90049], [139.04077, 37.90215], [139.04175, 37.90296], [139.04355, 37.90439], [139.04572, 37.90609], [139.0461, 37.90636], [139.04657, 37.90668], [139.04727, 37.9071], [139.04799, 37.90748], [139.04858, 37.90775], [139.04915, 37.90798], [139.04979, 37.90824], [139.05394, 37.90977], [139.05576, 37.91042], [139.05642, 37.91063], [139.05822, 37.91114], [139.05937, 37.91144]]}, "properties": {"id": "GEOM_TOKYO_2312", "route_id": "R_D6BC8A01", "route_name": null, "route_color": "#E65045", "route_text_color": null, "line_name": "上越新幹線", "operator_id": "jr_east", "representation": "service_path", "min_zoom": 0, "max_zoom": 24, "offset_rank": 0}}, {"type": "Feature", "bbox": [138.93767, 37.64588, 138.93949, 37.64956], "geometry": {"type": "LineString", "coordinates": [[138.93767, 37.64588], [138.93879, 37.64814], [138.93949, 37.64956]]}, "properties": {"id": "GEOM_TOKYO_2315", "route_id": "R_D6BC8A01", "route_name": null, "route_color": "#E65045", "route_text_color": null, "line_name": "上越新幹線", "operator_id": "jr_east", "representation": "service_path", "min_zoom": 0, "max_zoom": 24, "offset_rank": 0}}]}