{"type": "FeatureCollection", "features": [{"type": "Feature", "bbox": [138.81079, 36.69495, 138.97724, 36.93397], "geometry": {"type": "LineString", "coordinates": [[138.81079, 36.93397], [138.81231, 36.93224], [138.81262, 36.93191], [138.81437, 36.92983], [138.81597, 36.92801], [138.81659, 36.92729], [138.81756, 36.92618], [138.81923, 36.92425], [138.82038, 36.92289], [138.82096, 36.92214], [138.82207, 36.92056], [138.82262, 36.91974], [138.82273, 36.91956], [138.82289, 36.91933], [138.82296, 36.91921], [138.82306, 36.91904], [138.82323, 36.91873], [138.82347, 36.91833], [138.8236, 36.91812], [138.82379, 36.91782], [138.82405, 36.91742], [138.82424, 36.91711], [138.82436, 36.91693], [138.82459, 36.91658], [138.82482, 36.91621], [138.82522, 36.91557], [138.82543, 36.91523], [138.82582, 36.91457], [138.82603, 36.91422], [138.82635, 36.9137], [138.82658, 36.91329], [138.82678, 36.913], [138.827, 36.91265], [138.82727, 36.91218], [138.82754, 36.91176], [138.82759, 36.91168], [138.82773, 36.91145], [138.82778, 36.91136], [138.82795, 36.91107], [138.82803, 36.91096], [138.82828, 36.91055], [138.82857, 36.91005], [138.82888, 36.90957], [138.82929, 36.90891], [138.82953, 36.90852], [138.82979, 36.90809], [138.83005, 36.90768], [138.83037, 36.90715], [138.83079, 36.90649], [138.83101, 36.90612], [138.83113, 36.90596], [138.83134, 36.90562], [138.83156, 36.90521], [138.83181, 36.90481], [138.83206, 36.90438], [138.83232, 36.90394], [138.83252, 36.90361], [138.8326, 36.90348], [138.83282, 36.9031], [138.83314, 36.90257], [138.83337, 36.90224], [138.83368, 36.90176], [138.83384, 36.90149], [138.83407, 36.9011], [138.83442, 36.90056], [138.83474, 36.90009], [138.83502, 36.89957], [138.83525, 36.89918], [138.83555, 36.89871], [138.83579, 36.89833], [138.83603, 36.89792], [138.83633, 36.89739], [138.83666, 36.89689], [138.83692, 36.89649], [138.8372, 36.89604], [138.83746, 36.89561], [138.8375, 36.89556], [138.83765, 36.8953], [138.83782, 36.89503], [138.83799, 36.89471], [138.83814, 36.89442], [138.83839, 36.89399], [138.83856, 36.89372], [138.83874, 36.89343], [138.83885, 36.89325], [138.83901, 36.89306], [138.83916, 36.89281], [138.83937, 36.89245], [138.83963, 36.89204], [138.83992, 36.89157], [138.84014, 36.89124], [138.84038, 36.89085], [138.84062, 36.89048], [138.8409, 36.89006], [138.84125, 36.88955], [138.84153, 36.88913], [138.84175, 36.88883], [138.84202, 36.88842], [138.84223, 36.88811], [138.8425, 36.8877], [138.84259, 36.88756], [138.84276, 36.8873], [138.84284, 36.88718], [138.84306, 36.88687], [138.8433, 36.88657], [138.8435, 36.88632], [138.84378, 36.88601], [138.84396, 36.88579], [138.84417, 36.88552], [138.84433, 36.88538], [138.84454, 36.88511], [138.84472, 36.88492], [138.8449, 36.88469], [138.84525, 36.8843], [138.84556, 36.88397], [138.84569, 36.88381], [138.84603, 36.88345], [138.84629, 36.88316], [138.8466, 36.88284], [138.84691, 36.8825], [138.84711, 36.8823], [138.84739, 36.88203], [138.84768, 36.88173], [138.84796, 36.88147], [138.84819, 36.88125], [138.84844, 36.88098], [138.84878, 36.88059], [138.84904, 36.88031], [138.84908, 36.88027], [138.84927, 36.88008], [138.84943, 36.87988], [138.84965, 36.87963], [138.84982, 36.87947], [138.85016, 36.87916], [138.85044, 36.87881], [138.8508, 36.87846], [138.85107, 36.87819], [138.85131, 36.878], [138.85164, 36.87771], [138.85191, 36.87748], [138.85209, 36.87732], [138.85232, 36.87709], [138.8526, 36.87682], [138.85288, 36.87656], [138.85306, 36.87637], [138.85333, 36.87611], [138.85346, 36.87599], [138.85395, 36.87552], [138.85427, 36.87528], [138.85489, 36.87476], [138.85516, 36.87453], [138.85555, 36.87422], [138.85598, 36.87384], [138.85628, 36.87359], [138.85638, 36.87351], [138.85675, 36.8732], [138.85729, 36.87273], [138.85778, 36.87233], [138.85827, 36.87193], [138.85868, 36.87165], [138.85918, 36.87125], [138.85957, 36.87094], [138.86, 36.87063], [138.86038, 36.87035], [138.86075, 36.8701], [138.86111, 36.86984], [138.86149, 36.86956], [138.86185, 36.86931], [138.86225, 36.86902], [138.86247, 36.86886], [138.86271, 36.86867], [138.86312, 36.86835], [138.86345, 36.86811], [138.86372, 36.86791], [138.86424, 36.86753], [138.86449, 36.86736], [138.86465, 36.86725], [138.86504, 36.86697], [138.86578, 36.86641], [138.86627, 36.86607], [138.86666, 36.86579], [138.86712, 36.86544], [138.86758, 36.86512], [138.86798, 36.86484], [138.86861, 36.86435], [138.86916, 36.86395], [138.86951, 36.86371], [138.87005, 36.86334], [138.87071, 36.86285], [138.87134, 36.86238], [138.87181, 36.86199], [138.87232, 36.86162], [138.87334, 36.86086], [138.87411, 36.86032], [138.87513, 36.85956], [138.8762, 36.85876], [138.87697, 36.8582], [138.87819, 36.85731], [138.87981, 36.85612], [138.88004, 36.85595], [138.88132, 36.85503], [138.88259, 36.8541], [138.88374, 36.85329], [138.8851, 36.85229], [138.88673, 36.85108], [138.88829, 36.84993], [138.89022, 36.84854], [138.89209, 36.84717], [138.89369, 36.846], [138.89529, 36.84481], [138.89653, 36.8439], [138.89729, 36.84334], [138.89957, 36.8417], [138.90164, 36.84018], [138.90305, 36.8391], [138.90462, 36.83796], [138.90475, 36.83786], [138.90623, 36.83676], [138.90672, 36.83642], [138.9069, 36.83627], [138.9073, 36.83598], [138.90774, 36.83565], [138.90805, 36.83543], [138.90853, 36.83508], [138.90895, 36.83476], [138.90963, 36.83427], [138.91018, 36.83386], [138.9111, 36.83318], [138.91173, 36.83272], [138.9123, 36.8323], [138.91271, 36.83201], [138.91321, 36.83163], [138.91363, 36.83132], [138.91425, 36.83087], [138.91469, 36.83055], [138.91494, 36.83037], [138.91518, 36.83019], [138.91553, 36.82993], [138.91571, 36.8298], [138.91609, 36.82951], [138.91649, 36.82922], [138.91685, 36.82895], [138.91727, 36.82865], [138.91791, 36.82819], [138.91891, 36.82744], [138.91976, 36.82681], [138.92107, 36.82587], [138.92252, 36.82479], [138.92345, 36.82411], [138.92393, 36.82376], [138.92421, 36.82355], [138.92517, 36.82287], [138.92622, 36.82207], [138.92719, 36.82138], [138.92816, 36.82066], [138.9288, 36.82018], [138.92965, 36.81954], [138.93016, 36.81919], [138.93076, 36.81874], [138.93132, 36.81831], [138.93165, 36.81808], [138.93216, 36.81771], [138.93248, 36.81747], [138.93307, 36.81702], [138.93364, 36.8166], [138.93423, 36.81618], [138.9353, 36.8154], [138.9363, 36.81468], [138.93683, 36.81428], [138.93785, 36.81353], [138.93866, 36.81294], [138.93996, 36.81198], [138.94038, 36.81167], [138.94095, 36.81125], [138.94202, 36.81047], [138.94296, 36.80978], [138.94403, 36.80899], [138.94491, 36.80836], [138.94584, 36.80768], [138.94646, 36.80721], [138.94694, 36.80687], [138.94744, 36.80645], [138.94804, 36.80597], [138.94853, 36.80556], [138.94853, 36.80555], [138.94923, 36.80494], [138.94996, 36.80425], [138.95075, 36.80351], [138.95111, 36.80314], [138.95166, 36.80256], [138.95209, 36.8021], [138.95276, 36.80139], [138.95311, 36.80099], [138.95341, 36.80062], [138.95376, 36.80021], [138.95417, 36.79972], [138.95437, 36.79947], [138.95481, 36.79893], [138.95499, 36.79868], [138.9552, 36.79839], [138.95555, 36.79793], [138.95621, 36.79702], [138.95663, 36.79641], [138.95695, 36.79595], [138.95761, 36.79493], [138.95824, 36.79389], [138.95869, 36.79308], [138.95911, 36.79231], [138.95949, 36.79156], [138.96006, 36.7903], [138.9601, 36.79021], [138.96082, 36.7885], [138.96124, 36.7874], [138.96137, 36.78697], [138.96159, 36.78634], [138.96181, 36.78567], [138.96234, 36.78384], [138.96271, 36.78232], [138.96285, 36.78159], [138.96297, 36.78101], [138.96314, 36.78011], [138.96324, 36.77943], [138.96335, 36.77842], [138.96343, 36.77785], [138.96346, 36.77757], [138.96355, 36.77635], [138.96362, 36.77528], [138.96369, 36.77434], [138.96376, 36.77347], [138.96383, 36.77257], [138.96391, 36.77142], [138.96396, 36.77083], [138.96399, 36.77026], [138.96409, 36.76921], [138.96419, 36.76781], [138.96432, 36.76649], [138.96446, 36.76431], [138.96453, 36.76346], [138.96459, 36.76255], [138.96471, 36.76106], [138.96485, 36.75987], [138.96502, 36.75843], [138.96522, 36.75704], [138.96527, 36.75655], [138.96534, 36.75619], [138.96548, 36.75528], [138.9656, 36.75448], [138.96576, 36.75368], [138.96578, 36.75359], [138.96585, 36.75309], [138.96589, 36.75285], [138.96594, 36.75251], [138.966, 36.75225], [138.96635, 36.75052], [138.96675, 36.74849], [138.96708, 36.74698], [138.9671, 36.74688], [138.96743, 36.7452], [138.96792, 36.74266], [138.96838, 36.74036], [138.96884, 36.73797], [138.96897, 36.73732], [138.96949, 36.73465], [138.9699, 36.73247], [138.97024, 36.7307], [138.97056, 36.72907], [138.97067, 36.72851], [138.97092, 36.72724], [138.97145, 36.72457], [138.97154, 36.72414], [138.97197, 36.72192], [138.97231, 36.72017], [138.97239, 36.71973], [138.97276, 36.71794], [138.97293, 36.71707], [138.97302, 36.71661], [138.97311, 36.71616], [138.97319, 36.71584], [138.97353, 36.71399], [138.97359, 36.71367], [138.97378, 36.71272], [138.974, 36.71153], [138.97406, 36.71126], [138.97424, 36.71036], [138.97432, 36.70986], [138.97457, 36.70854], [138.97469, 36.70793], [138.97493, 36.70673], [138.97502, 36.70625], [138.97507, 36.70603], [138.97547, 36.70399], [138.97578, 36.70236], [138.97584, 36.70207], [138.976, 36.70124], [138.97607, 36.70084], [138.97623, 36.69995], [138.97637, 36.69931], [138.97646, 36.69886], [138.97663, 36.69805], [138.97672, 36.69762], [138.97675, 36.69741], [138.97678, 36.69725], [138.97688, 36.69677], [138.977, 36.69616], [138.97724, 36.69495]]}, "properties": {"id": "GEOM_TOKYO_2405", "route_id": "R_D6BC8A01", "route_name": null, "route_color": "#E65045", "route_text_color": null, "line_name": "上越新幹線", "operator_id": "jr_east", "representation": "service_path", "min_zoom": 0, "max_zoom": 24, "offset_rank": 0}}, {"type": "Feature", "bbox": [138.78768, 36.93901, 138.92253, 37.16568], "geometry": {"type": "LineString", "coordinates": [[138.80646, 36.93901], [138.80587, 36.93969], [138.80557, 36.94001], [138.80546, 36.94015], [138.80472, 36.94101], [138.804, 36.94185], [138.80362, 36.94229], [138.80274, 36.9433], [138.80249, 36.94361], [138.8022, 36.94397], [138.80178, 36.94448], [138.80138, 36.94501], [138.80112, 36.94535], [138.80059, 36.94611], [138.80026, 36.9466], [138.79956, 36.94761], [138.79884, 36.94867], [138.79764, 36.95053], [138.79716, 36.95131], [138.79637, 36.95249], [138.79561, 36.95368], [138.79516, 36.95435], [138.7946, 36.95521], [138.79452, 36.95533], [138.79393, 36.95627], [138.79331, 36.95727], [138.79277, 36.95821], [138.79212, 36.95943], [138.79141, 36.96082], [138.79074, 36.96228], [138.79023, 36.96348], [138.79009, 36.96382], [138.78961, 36.96516], [138.78902, 36.96687], [138.78874, 36.96778], [138.78857, 36.96838], [138.78842, 36.96895], [138.78839, 36.96908], [138.78836, 36.9693], [138.78826, 36.96989], [138.78809, 36.97096], [138.788, 36.9716], [138.78788, 36.97237], [138.78779, 36.97317], [138.78772, 36.97383], [138.7877, 36.97422], [138.78768, 36.97477], [138.78768, 36.97525], [138.7877, 36.97582], [138.78774, 36.97658], [138.78779, 36.97731], [138.78785, 36.9778], [138.78788, 36.97806], [138.78794, 36.97842], [138.78807, 36.97922], [138.7882, 36.97984], [138.78836, 36.9805], [138.78851, 36.98111], [138.78866, 36.98169], [138.78888, 36.98244], [138.78928, 36.98356], [138.78946, 36.98401], [138.78982, 36.98485], [138.79006, 36.98539], [138.79025, 36.98578], [138.79044, 36.98613], [138.79068, 36.98665], [138.79071, 36.98674], [138.79142, 36.9881], [138.79173, 36.98866], [138.79239, 36.98979], [138.79304, 36.99083], [138.79358, 36.99161], [138.79385, 36.99201], [138.79417, 36.99253], [138.79464, 36.9932], [138.79493, 36.99367], [138.79502, 36.99377], [138.79564, 36.99472], [138.79599, 36.99532], [138.79659, 36.99618], [138.79733, 36.99733], [138.79812, 36.99849], [138.79942, 37.00049], [138.79998, 37.00133], [138.80083, 37.00262], [138.8011, 37.00306], [138.80136, 37.00346], [138.80166, 37.0039], [138.80204, 37.00448], [138.80213, 37.00462], [138.80335, 37.00649], [138.80362, 37.0069], [138.80417, 37.00772], [138.80466, 37.00847], [138.80495, 37.00891], [138.80522, 37.00931], [138.80546, 37.00968], [138.80548, 37.00971], [138.806, 37.0105], [138.8061, 37.01064], [138.80628, 37.01091], [138.80643, 37.01114], [138.80659, 37.01138], [138.80731, 37.01246], [138.80756, 37.01283], [138.80763, 37.01294], [138.80845, 37.01415], [138.809, 37.01499], [138.80959, 37.01585], [138.81011, 37.01661], [138.81092, 37.01785], [138.81177, 37.01911], [138.81287, 37.02075], [138.81325, 37.02134], [138.81359, 37.02186], [138.81435, 37.02298], [138.81458, 37.02331], [138.81545, 37.02461], [138.81567, 37.02494], [138.81677, 37.02657], [138.8172, 37.02721], [138.81728, 37.02738], [138.81797, 37.02837], [138.81823, 37.02879], [138.81839, 37.02904], [138.81879, 37.02967], [138.81963, 37.03088], [138.82145, 37.03364], [138.82192, 37.03433], [138.82233, 37.03493], [138.82279, 37.03563], [138.82323, 37.03629], [138.82359, 37.03683], [138.82391, 37.03731], [138.82443, 37.03807], [138.82487, 37.03875], [138.82548, 37.03966], [138.82605, 37.0405], [138.82621, 37.04074], [138.82687, 37.04173], [138.82788, 37.04323], [138.82796, 37.04334], [138.82827, 37.0438], [138.82879, 37.04458], [138.82963, 37.04585], [138.82992, 37.04628], [138.83007, 37.0465], [138.83057, 37.04724], [138.83076, 37.04752], [138.8315, 37.04864], [138.83193, 37.04925], [138.8326, 37.05023], [138.83313, 37.05103], [138.83363, 37.05176], [138.8339, 37.05216], [138.83434, 37.05282], [138.83474, 37.05343], [138.83556, 37.05465], [138.83611, 37.05545], [138.83636, 37.05584], [138.83688, 37.05662], [138.83739, 37.05738], [138.83765, 37.05777], [138.83782, 37.05801], [138.83874, 37.05938], [138.83879, 37.05946], [138.83897, 37.05974], [138.83985, 37.06104], [138.84034, 37.06177], [138.8409, 37.0626], [138.8412, 37.06304], [138.84198, 37.06421], [138.84255, 37.06504], [138.84312, 37.0659], [138.84391, 37.06707], [138.84411, 37.06737], [138.84491, 37.06854], [138.84512, 37.06886], [138.84604, 37.07021], [138.84664, 37.07111], [138.8468, 37.07136], [138.84715, 37.07188], [138.84739, 37.07224], [138.84784, 37.07292], [138.84801, 37.07319], [138.84839, 37.07377], [138.84872, 37.07424], [138.84929, 37.07509], [138.84939, 37.07523], [138.85002, 37.07617], [138.85049, 37.07687], [138.85101, 37.07765], [138.85157, 37.07849], [138.85202, 37.07915], [138.85264, 37.08006], [138.85362, 37.08151], [138.85396, 37.08204], [138.85462, 37.083], [138.85473, 37.08316], [138.85519, 37.08384], [138.85592, 37.0849], [138.85666, 37.086], [138.85692, 37.08639], [138.85804, 37.08801], [138.85866, 37.08887], [138.86014, 37.09086], [138.86169, 37.09281], [138.8628, 37.09402], [138.86325, 37.09451], [138.86422, 37.09553], [138.86567, 37.0969], [138.86778, 37.09891], [138.86998, 37.10088], [138.8718, 37.10252], [138.87205, 37.10276], [138.8728, 37.10347], [138.87457, 37.10502], [138.87504, 37.10545], [138.87661, 37.10687], [138.87846, 37.10852], [138.8795, 37.10943], [138.88019, 37.11003], [138.8819, 37.11162], [138.88372, 37.11323], [138.88553, 37.11484], [138.88693, 37.11611], [138.88737, 37.11651], [138.88922, 37.11816], [138.89104, 37.11978], [138.89285, 37.1214], [138.89439, 37.12279], [138.89461, 37.12299], [138.89637, 37.12462], [138.89835, 37.12633], [138.90005, 37.12786], [138.90136, 37.12904], [138.90184, 37.12946], [138.90258, 37.13011], [138.90406, 37.13143], [138.90481, 37.13209], [138.90517, 37.13243], [138.9068, 37.13388], [138.90823, 37.13511], [138.90853, 37.13537], [138.91023, 37.13693], [138.91053, 37.13721], [138.91227, 37.13881], [138.91396, 37.14052], [138.9152, 37.1419], [138.91531, 37.14203], [138.91536, 37.1421], [138.91588, 37.14269], [138.91654, 37.14358], [138.91764, 37.14514], [138.91782, 37.14546], [138.91876, 37.14708], [138.91952, 37.14872], [138.92007, 37.15009], [138.92008, 37.15013], [138.92027, 37.15068], [138.92063, 37.15187], [138.92078, 37.15241], [138.92108, 37.15364], [138.92137, 37.15496], [138.92141, 37.15517], [138.92148, 37.15554], [138.92157, 37.15635], [138.92164, 37.15707], [138.9218, 37.15845], [138.92187, 37.15901], [138.92193, 37.15992], [138.9221, 37.16132], [138.92212, 37.16174], [138.92227, 37.16305], [138.92235, 37.16399], [138.92251, 37.16553], [138.92253, 37.16568]]}, "properties": {"id": "GEOM_TOKYO_2406", "route_id": "R_D6BC8A01", "route_name": null, "route_color": "#E65045", "route_text_color": null, "line_name": "上越新幹線", "operator_id": "jr_east", "representation": "service_path", "min_zoom": 0, "max_zoom": 24, "offset_rank": 0}}, {"type": "Feature", "bbox": [138.80646, 36.93694, 138.80824, 36.93901], "geometry": {"type": "LineString", "coordinates": [[138.80824, 36.93694], [138.80744, 36.93787], [138.80646, 36.93901]]}, "properties": {"id": "GEOM_TOKYO_2407", "route_id": "R_D6BC8A01", "route_name": null, "route_color": "#E65045", "route_text_color": null, "line_name": "上越新幹線", "operator_id": "jr_east", "representation": "service_path", "min_zoom": 0, "max_zoom": 24, "offset_rank": 0}}, {"type": "Feature", "bbox": [138.80824, 36.93397, 138.81079, 36.93694], "geometry": {"type": "LineString", "coordinates": [[138.80824, 36.93694], [138.80879, 36.93625], [138.81079, 36.93397]]}, "properties": {"id": "GEOM_TOKYO_2408", "route_id": "R_D6BC8A01", "route_name": null, "route_color": "#E65045", "route_text_color": null, "line_name": "上越新幹線", "operator_id": "jr_east", "representation": "service_path", "min_zoom": 0, "max_zoom": 24, "offset_rank": 0}}, {"type": "Feature", "bbox": [138.80824, 36.93397, 138.81079, 36.93694], "geometry": {"type": "LineString", "coordinates": [[138.80824, 36.93694], [138.80879, 36.93625], [138.81079, 36.93397]]}, "properties": {"id": "GEOM_TOKYO_2455", "route_id": "R_C0AFF1D8", "route_name": null, "route_color": "#00A7E3", "route_text_color": null, "line_name": "上越線", "operator_id": "jr_east", "representation": "service_path", "min_zoom": 0, "max_zoom": 24, "offset_rank": 0}}, {"type": "Feature", "bbox": [138.80646, 36.93694, 138.80824, 36.93901], "geometry": {"type": "LineString", "coordinates": [[138.80824, 36.93694], [138.80744, 36.93787], [138.80646, 36.93901]]}, "properties": {"id": "GEOM_TOKYO_2456", "route_id": "R_C0AFF1D8", "route_name": null, "route_color": "#00A7E3", "route_text_color": null, "line_name": "上越線", "operator_id": "jr_east", "representation": "service_path", "min_zoom": 0, "max_zoom": 24, "offset_rank": 0}}, {"type": "Feature", "bbox": [138.96842, 36.80593, 138.98873, 36.83027], "geometry": {"type": "LineString", "coordinates": [[138.96842, 36.83027], [138.96876, 36.82994], [138.96908, 36.82964], [138.96952, 36.82919], [138.96998, 36.82873], [138.97065, 36.82805], [138.97136, 36.82733], [138.9716, 36.82711], [138.97268, 36.82605], [138.97353, 36.82522], [138.97403, 36.8248], [138.9747, 36.8243], [138.97497, 36.82412], [138.97553, 36.82378], [138.97616, 36.82342], [138.97695, 36.823], [138.97796, 36.82256], [138.97885, 36.82218], [138.97943, 36.82192], [138.98012, 36.82162], [138.98019, 36.8216], [138.98049, 36.82149], [138.98114, 36.82121], [138.98168, 36.82097], [138.98203, 36.82082], [138.98325, 36.82032], [138.98409, 36.81996], [138.98506, 36.81955], [138.98532, 36.81943], [138.98552, 36.81935], [138.98619, 36.81906], [138.98628, 36.81903], [138.98634, 36.81901], [138.98639, 36.81899], [138.98668, 36.81885], [138.98716, 36.81866], [138.98736, 36.81855], [138.98759, 36.81838], [138.98792, 36.8181], [138.98818, 36.81776], [138.98838, 36.81741], [138.98848, 36.81716], [138.98853, 36.8169], [138.98858, 36.81649], [138.98855, 36.81614], [138.98851, 36.81559], [138.98844, 36.81506], [138.98839, 36.81461], [138.98827, 36.81348], [138.98821, 36.81291], [138.98819, 36.81252], [138.98808, 36.81149], [138.98806, 36.81128], [138.988, 36.81074], [138.98793, 36.81014], [138.98789, 36.80963], [138.9878, 36.80895], [138.98776, 36.80857], [138.98774, 36.80824], [138.98774, 36.80797], [138.98778, 36.80769], [138.98784, 36.80745], [138.98794, 36.80719], [138.98802, 36.80698], [138.98814, 36.80676], [138.98824, 36.8066], [138.98839, 36.8064], [138.98858, 36.80612], [138.98868, 36.806], [138.98873, 36.80593]]}, "properties": {"id": "GEOM_TOKYO_2459", "route_id": "R_C0AFF1D8", "route_name": null, "route_color": "#00A7E3", "route_text_color": null, "line_name": "上越線", "operator_id": "jr_east", "representation": "service_path", "min_zoom": 0, "max_zoom": 24, "offset_rank": 0}}, {"type": "Feature", "bbox": [138.81083, 36.92427, 138.83788, 36.93526], "geometry": {"type": "LineString", "coordinates": [[138.83788, 36.92427], [138.83671, 36.92444], [138.83577, 36.9246], [138.83479, 36.92476], [138.83412, 36.92488], [138.83271, 36.9251], [138.83178, 36.92525], [138.83079, 36.92533], [138.83038, 36.92533], [138.82969, 36.92525], [138.82913, 36.92513], [138.82911, 36.92513], [138.82844, 36.92508], [138.82726, 36.92519], [138.8266, 36.92534], [138.82615, 36.92547], [138.82569, 36.92571], [138.82542, 36.92586], [138.82521, 36.926], [138.82489, 36.92626], [138.82455, 36.92657], [138.82413, 36.92706], [138.8237, 36.92784], [138.82344, 36.9282], [138.82307, 36.92871], [138.82268, 36.92918], [138.82227, 36.92949], [138.82184, 36.92973], [138.82126, 36.92998], [138.82083, 36.93014], [138.82038, 36.93029], [138.82016, 36.93033], [138.81999, 36.93039], [138.81956, 36.93054], [138.81918, 36.93071], [138.81885, 36.93092], [138.81858, 36.93113], [138.81777, 36.93175], [138.81722, 36.9321], [138.81669, 36.93233], [138.81611, 36.93252], [138.81539, 36.93271], [138.81473, 36.93292], [138.81394, 36.93324], [138.81332, 36.93348], [138.81296, 36.93366], [138.81248, 36.93399], [138.81138, 36.93481], [138.81083, 36.93526]]}, "properties": {"id": "GEOM_TOKYO_2460", "route_id": "R_C0AFF1D8", "route_name": null, "route_color": "#00A7E3", "route_text_color": null, "line_name": "上越線", "operator_id": "jr_east", "representation": "service_path", "min_zoom": 0, "max_zoom": 24, "offset_rank": 0}}, {"type": "Feature", "bbox": [138.96901, 36.77808, 138.9696, 36.78009], "geometry": {"type": "LineString", "coordinates": [[138.9696, 36.78009], [138.96941, 36.77967], [138.96919, 36.77907], [138.96901, 36.77808]]}, "properties": {"id": "GEOM_TOKYO_2461", "route_id": "R_C0AFF1D8", "route_name": null, "route_color": "#00A7E3", "route_text_color": null, "line_name": "上越線", "operator_id": "jr_east", "representation": "service_path", "min_zoom": 0, "max_zoom": 24, "offset_rank": 0}}, {"type": "Feature", "bbox": [138.97943, 36.68015, 138.99929, 36.73466], "geometry": {"type": "LineString", "coordinates": [[138.99929, 36.68015], [138.99845, 36.68079], [138.99799, 36.68114], [138.99785, 36.68125], [138.99772, 36.68136], [138.99759, 36.68147], [138.99748, 36.68158], [138.99742, 36.68164], [138.99739, 36.68168], [138.99733, 36.68175], [138.99727, 36.68184], [138.9968, 36.6824], [138.99666, 36.6826], [138.99656, 36.68283], [138.9964, 36.68334], [138.99619, 36.68401], [138.99599, 36.6847], [138.99598, 36.68476], [138.99583, 36.6852], [138.99566, 36.68571], [138.99524, 36.68679], [138.99505, 36.68725], [138.99489, 36.68772], [138.99465, 36.68832], [138.99448, 36.68879], [138.99428, 36.68925], [138.99411, 36.68971], [138.9938, 36.69029], [138.99352, 36.69073], [138.99304, 36.69151], [138.99276, 36.69198], [138.99255, 36.69241], [138.99235, 36.69288], [138.99227, 36.69317], [138.99221, 36.69341], [138.99197, 36.69405], [138.99174, 36.69452], [138.99149, 36.69491], [138.99117, 36.69529], [138.99087, 36.69559], [138.99045, 36.69594], [138.99013, 36.69616], [138.9898, 36.69637], [138.98948, 36.69653], [138.9892, 36.69665], [138.98902, 36.69672], [138.98849, 36.69688], [138.98799, 36.697], [138.98746, 36.69712], [138.98678, 36.69742], [138.98639, 36.69759], [138.98523, 36.69837], [138.98441, 36.69892], [138.98416, 36.69909], [138.98394, 36.69926], [138.9839, 36.69929], [138.98328, 36.69987], [138.9829, 36.70033], [138.98252, 36.70089], [138.982, 36.70186], [138.98192, 36.702], [138.98161, 36.70254], [138.981, 36.70362], [138.98072, 36.70415], [138.98061, 36.70434], [138.98055, 36.70446], [138.98023, 36.70499], [138.98021, 36.70503], [138.97988, 36.70561], [138.97949, 36.70667], [138.97943, 36.70741], [138.97943, 36.7079], [138.97949, 36.7084], [138.97955, 36.70887], [138.97972, 36.71], [138.97982, 36.71065], [138.97986, 36.71083], [138.97989, 36.71097], [138.97994, 36.71114], [138.98013, 36.71164], [138.98021, 36.7119], [138.98025, 36.71206], [138.98031, 36.71234], [138.98036, 36.713], [138.9804, 36.71357], [138.98042, 36.71387], [138.98046, 36.71447], [138.98046, 36.71462], [138.98055, 36.71569], [138.9807, 36.71649], [138.98085, 36.71694], [138.98091, 36.71714], [138.98101, 36.71732], [138.98115, 36.71759], [138.98135, 36.71788], [138.98158, 36.71817], [138.98194, 36.71859], [138.98209, 36.71879], [138.98223, 36.71903], [138.98242, 36.71939], [138.983, 36.72066], [138.98305, 36.72078], [138.98329, 36.72128], [138.98343, 36.72162], [138.98354, 36.72196], [138.98359, 36.72209], [138.98363, 36.72225], [138.98366, 36.7225], [138.98365, 36.72284], [138.98363, 36.72303], [138.98357, 36.72321], [138.98351, 36.72336], [138.98339, 36.72361], [138.98332, 36.72376], [138.98317, 36.72402], [138.98294, 36.72439], [138.98266, 36.72492], [138.9825, 36.72524], [138.98238, 36.72557], [138.98227, 36.72595], [138.98214, 36.72642], [138.98211, 36.72678], [138.98213, 36.72719], [138.98221, 36.72763], [138.98231, 36.72795], [138.98238, 36.72812], [138.98245, 36.72828], [138.98256, 36.72846], [138.98263, 36.72856], [138.98285, 36.72887], [138.98298, 36.72906], [138.98316, 36.72935], [138.98327, 36.72954], [138.98338, 36.72976], [138.98345, 36.72992], [138.98353, 36.73012], [138.98361, 36.73036], [138.9837, 36.73071], [138.98374, 36.73091], [138.98394, 36.73205], [138.98439, 36.73466]]}, "properties": {"id": "GEOM_TOKYO_2462", "route_id": "R_C0AFF1D8", "route_name": null, "route_color": "#00A7E3", "route_text_color": null, "line_name": "上越線", "operator_id": "jr_east", "representation": "service_path", "min_zoom": 0, "max_zoom": 24, "offset_rank": 0}}, {"type": "Feature", "bbox": [138.86419, 36.83122, 138.96748, 36.87312], "geometry": {"type": "LineString", "coordinates": [[138.86419, 36.87312], [138.86508, 36.87266], [138.86569, 36.87235], [138.86623, 36.87213], [138.86686, 36.87189], [138.86726, 36.87176], [138.8676, 36.87161], [138.86816, 36.8714], [138.86883, 36.87116], [138.86954, 36.87089], [138.87021, 36.87063], [138.87129, 36.87023], [138.87181, 36.87003], [138.87262, 36.8697], [138.87318, 36.86949], [138.87415, 36.8691], [138.8749, 36.8688], [138.87584, 36.86842], [138.8766, 36.86812], [138.87801, 36.86756], [138.87919, 36.86709], [138.87986, 36.86682], [138.88131, 36.86624], [138.88176, 36.86606], [138.88234, 36.86583], [138.88388, 36.86522], [138.88562, 36.86453], [138.88733, 36.86386], [138.88903, 36.86318], [138.89132, 36.86228], [138.89173, 36.86211], [138.89291, 36.86164], [138.89479, 36.86087], [138.89656, 36.86018], [138.89738, 36.85985], [138.89884, 36.85928], [138.8998, 36.8589], [138.90142, 36.85825], [138.90168, 36.85815], [138.90295, 36.85764], [138.90397, 36.85724], [138.90558, 36.85661], [138.90659, 36.85621], [138.90891, 36.85528], [138.91045, 36.85467], [138.91164, 36.85419], [138.91318, 36.85358], [138.9154, 36.8527], [138.91621, 36.85238], [138.91692, 36.85209], [138.91899, 36.85128], [138.91999, 36.85087], [138.92142, 36.85031], [138.92204, 36.85008], [138.92333, 36.84956], [138.92541, 36.84873], [138.92617, 36.84843], [138.92747, 36.84791], [138.92869, 36.84742], [138.9307, 36.84663], [138.93158, 36.84628], [138.93352, 36.84549], [138.93542, 36.84475], [138.93613, 36.84447], [138.9375, 36.84392], [138.94012, 36.84289], [138.9415, 36.84234], [138.94325, 36.84164], [138.9457, 36.84067], [138.94609, 36.84052], [138.94761, 36.83991], [138.94971, 36.83908], [138.95103, 36.83856], [138.95244, 36.838], [138.95407, 36.83734], [138.95579, 36.83667], [138.95605, 36.83656], [138.9564, 36.83642], [138.95711, 36.83611], [138.95804, 36.83573], [138.9594, 36.8352], [138.96016, 36.8349], [138.96087, 36.8346], [138.96178, 36.83425], [138.96263, 36.83392], [138.96333, 36.83362], [138.96417, 36.83332], [138.96466, 36.83312], [138.96524, 36.83285], [138.96561, 36.83265], [138.96581, 36.83251], [138.96638, 36.83213], [138.96658, 36.83199], [138.96695, 36.8317], [138.96709, 36.83156], [138.96748, 36.83122]]}, "properties": {"id": "GEOM_TOKYO_2464", "route_id": "R_C0AFF1D8", "route_name": null, "route_color": "#00A7E3", "route_text_color": null, "line_name": "上越線", "operator_id": "jr_east", "representation": "service_path", "min_zoom": 0, "max_zoom": 24, "offset_rank": 0}}, {"type": "Feature", "bbox": [138.96923, 36.75755, 138.97706, 36.77657], "geometry": {"type": "LineString", "coordinates": [[138.96923, 36.77657], [138.96939, 36.77618], [138.96964, 36.77567], [138.96971, 36.77555], [138.96993, 36.7752], [138.97003, 36.77502], [138.97025, 36.77464], [138.97052, 36.77421], [138.97072, 36.7739], [138.97095, 36.77351], [138.97114, 36.77311], [138.97128, 36.77273], [138.97135, 36.77255], [138.97141, 36.77228], [138.97151, 36.77184], [138.9716, 36.77143], [138.97167, 36.77116], [138.97179, 36.77067], [138.97184, 36.77042], [138.97188, 36.77015], [138.97193, 36.76985], [138.97198, 36.76947], [138.97202, 36.76906], [138.97203, 36.76854], [138.97203, 36.76831], [138.97198, 36.76799], [138.97195, 36.76783], [138.97191, 36.76766], [138.97184, 36.76743], [138.97179, 36.76726], [138.97162, 36.76692], [138.97149, 36.76672], [138.97129, 36.76643], [138.97125, 36.7664], [138.97122, 36.76634], [138.97117, 36.76625], [138.97113, 36.76618], [138.97107, 36.76605], [138.97101, 36.7659], [138.97085, 36.76549], [138.97082, 36.76516], [138.97082, 36.7648], [138.97084, 36.76438], [138.97084, 36.76431], [138.97094, 36.76377], [138.97098, 36.7635], [138.97104, 36.76311], [138.97113, 36.7627], [138.97124, 36.76236], [138.97136, 36.76209], [138.97148, 36.76182], [138.97159, 36.76162], [138.97179, 36.76137], [138.97197, 36.76117], [138.97223, 36.76091], [138.97253, 36.76067], [138.97284, 36.76047], [138.97308, 36.76033], [138.97337, 36.76021], [138.97365, 36.76009], [138.97416, 36.75989], [138.9747, 36.75968], [138.97519, 36.75943], [138.97563, 36.75917], [138.97596, 36.7589], [138.97631, 36.75858], [138.97651, 36.75838], [138.97677, 36.75802], [138.97706, 36.75755]]}, "properties": {"id": "GEOM_TOKYO_2468", "route_id": "R_C0AFF1D8", "route_name": null, "route_color": "#00A7E3", "route_text_color": null, "line_name": "上越線", "operator_id": "jr_east", "representation": "service_path", "min_zoom": 0, "max_zoom": 24, "offset_rank": 0}}, {"type": "Feature", "bbox": [138.9786, 36.78514, 138.98848, 36.8009], "geometry": {"type": "LineString", "coordinates": [[138.9786, 36.78514], [138.9787, 36.7853], [138.97907, 36.78578], [138.97939, 36.78622], [138.97988, 36.78689], [138.98019, 36.78729], [138.98065, 36.78791], [138.98095, 36.7883], [138.98133, 36.78882], [138.98158, 36.78917], [138.98181, 36.78945], [138.98213, 36.78981], [138.98228, 36.78995], [138.98256, 36.79019], [138.98297, 36.79048], [138.98302, 36.79052], [138.98341, 36.7908], [138.98371, 36.79096], [138.98438, 36.79128], [138.98491, 36.7915], [138.98524, 36.79166], [138.98562, 36.79183], [138.98595, 36.79197], [138.98631, 36.79213], [138.98649, 36.79222], [138.98686, 36.79246], [138.98705, 36.79259], [138.98742, 36.79289], [138.98769, 36.79315], [138.98796, 36.79351], [138.98812, 36.79373], [138.98826, 36.79397], [138.98837, 36.7943], [138.98843, 36.7946], [138.98846, 36.79486], [138.98848, 36.79534], [138.98842, 36.79572], [138.98827, 36.79622], [138.98805, 36.79667], [138.98789, 36.79694], [138.9877, 36.79722], [138.98768, 36.79725], [138.98751, 36.79747], [138.98724, 36.79775], [138.98703, 36.79798], [138.98679, 36.79825], [138.98657, 36.79853], [138.98638, 36.7988], [138.98625, 36.79901], [138.98611, 36.79924], [138.986, 36.79951], [138.9859, 36.79981], [138.98585, 36.80004], [138.9858, 36.80033], [138.98574, 36.80064], [138.98572, 36.8009]]}, "properties": {"id": "GEOM_TOKYO_2469", "route_id": "R_C0AFF1D8", "route_name": null, "route_color": "#00A7E3", "route_text_color": null, "line_name": "上越線", "operator_id": "jr_east", "representation": "service_path", "min_zoom": 0, "max_zoom": 24, "offset_rank": 0}}, {"type": "Feature", "bbox": [138.84847, 36.90913, 138.84856, 36.91151], "geometry": {"type": "LineString", "coordinates": [[138.84856, 36.90913], [138.84849, 36.91055], [138.84847, 36.91151]]}, "properties": {"id": "GEOM_TOKYO_2473", "route_id": "R_C0AFF1D8", "route_name": null, "route_color": "#00A7E3", "route_text_color": null, "line_name": "上越線", "operator_id": "jr_east", "representation": "service_path", "min_zoom": 0, "max_zoom": 24, "offset_rank": 0}}, {"type": "Feature", "bbox": [138.84083, 36.91151, 138.85265, 36.93008], "geometry": {"type": "LineString", "coordinates": [[138.84847, 36.91151], [138.84844, 36.91209], [138.84842, 36.91271], [138.8484, 36.91321], [138.84841, 36.9136], [138.84843, 36.91377], [138.84847, 36.91397], [138.84854, 36.91422], [138.84859, 36.91437], [138.84875, 36.91472], [138.84889, 36.915], [138.84898, 36.91521], [138.84921, 36.91563], [138.84923, 36.91567], [138.84934, 36.91587], [138.84938, 36.91595], [138.84961, 36.91629], [138.84976, 36.91653], [138.8499, 36.91678], [138.85011, 36.91717], [138.85021, 36.91734], [138.85033, 36.91756], [138.85042, 36.91775], [138.85056, 36.918], [138.85067, 36.91821], [138.85082, 36.91846], [138.85091, 36.91866], [138.851, 36.91891], [138.85106, 36.91908], [138.85113, 36.91936], [138.8512, 36.91974], [138.85125, 36.92008], [138.85126, 36.92027], [138.85128, 36.9206], [138.85127, 36.92107], [138.85122, 36.92163], [138.85116, 36.92225], [138.85114, 36.92265], [138.85119, 36.92293], [138.85131, 36.92334], [138.85155, 36.92388], [138.8518, 36.92435], [138.8521, 36.92482], [138.85237, 36.9254], [138.85247, 36.92564], [138.85265, 36.92638], [138.85263, 36.92691], [138.85245, 36.92754], [138.85212, 36.92812], [138.85184, 36.92847], [138.8515, 36.92882], [138.85145, 36.92888], [138.85092, 36.92924], [138.85035, 36.92954], [138.84986, 36.92974], [138.84924, 36.92994], [138.84885, 36.93002], [138.84833, 36.93008], [138.84773, 36.93006], [138.84718, 36.92997], [138.84676, 36.92987], [138.84622, 36.92971], [138.84576, 36.92952], [138.84522, 36.92922], [138.84496, 36.92903], [138.8444, 36.92854], [138.84409, 36.92812], [138.84368, 36.92741], [138.84349, 36.92704], [138.84309, 36.92638], [138.84294, 36.92611], [138.84276, 36.9258], [138.84263, 36.92565], [138.84252, 36.92552], [138.84224, 36.92524], [138.8418, 36.92491], [138.84132, 36.92463], [138.84083, 36.92442]]}, "properties": {"id": "GEOM_TOKYO_2474", "route_id": "R_C0AFF1D8", "route_name": null, "route_color": "#00A7E3", "route_text_color": null, "line_name": "上越線", "operator_id": "jr_east", "representation": "service_path", "min_zoom": 0, "max_zoom": 24, "offset_rank": 0}}, {"type": "Feature", "bbox": [138.96748, 36.83027, 138.96842, 36.83122], "geometry": {"type": "LineString", "coordinates": [[138.96748, 36.83122], [138.96842, 36.83027]]}, "properties": {"id": "GEOM_TOKYO_2475", "route_id": "R_C0AFF1D8", "route_name": null, "route_color": "#00A7E3", "route_text_color": null, "line_name": "上越線", "operator_id": "jr_east", "representation": "service_path", "min_zoom": 0, "max_zoom": 24, "offset_rank": 0}}, {"type": "Feature", "bbox": [138.84231, 36.89637, 138.84732, 36.90423], "geometry": {"type": "LineString", "coordinates": [[138.84231, 36.89637], [138.84252, 36.89659], [138.8429, 36.89699], [138.84334, 36.8974], [138.84375, 36.89783], [138.84432, 36.89847], [138.84481, 36.89911], [138.84523, 36.89981], [138.84554, 36.90054], [138.84586, 36.90116], [138.84647, 36.90249], [138.84654, 36.90261], [138.84681, 36.90317], [138.84732, 36.90423]]}, "properties": {"id": "GEOM_TOKYO_2476", "route_id": "R_C0AFF1D8", "route_name": null, "route_color": "#00A7E3", "route_text_color": null, "line_name": "上越線", "operator_id": "jr_east", "representation": "service_path", "min_zoom": 0, "max_zoom": 24, "offset_rank": 0}}, {"type": "Feature", "bbox": [138.83279, 36.88558, 138.84962, 36.90045], "geometry": {"type": "LineString", "coordinates": [[138.84231, 36.89637], [138.84221, 36.89626], [138.84208, 36.89613], [138.84174, 36.89578], [138.84143, 36.89546], [138.84114, 36.89516], [138.84076, 36.89477], [138.84037, 36.89437], [138.84006, 36.89404], [138.83965, 36.89365], [138.83937, 36.89336], [138.83909, 36.89312], [138.83875, 36.89289], [138.83845, 36.89276], [138.83787, 36.89258], [138.83783, 36.89257], [138.8374, 36.89247], [138.83702, 36.89242], [138.83662, 36.89244], [138.83608, 36.8925], [138.8355, 36.89267], [138.83512, 36.89282], [138.83478, 36.893], [138.83442, 36.89324], [138.8341, 36.89357], [138.83383, 36.89386], [138.83355, 36.89425], [138.83335, 36.89462], [138.83323, 36.89484], [138.83309, 36.89518], [138.83296, 36.89548], [138.83282, 36.89603], [138.8328, 36.89621], [138.8328, 36.89649], [138.83279, 36.89674], [138.8328, 36.89703], [138.83287, 36.89748], [138.83295, 36.89782], [138.83305, 36.89812], [138.83313, 36.89837], [138.83322, 36.89858], [138.83339, 36.89886], [138.83364, 36.89918], [138.83398, 36.89946], [138.83436, 36.89971], [138.83458, 36.89983], [138.83488, 36.89999], [138.8352, 36.90013], [138.83556, 36.90026], [138.83596, 36.90034], [138.83649, 36.90043], [138.83699, 36.90045], [138.83747, 36.90043], [138.83813, 36.90036], [138.83874, 36.90024], [138.83892, 36.90017], [138.83961, 36.89987], [138.84011, 36.8996], [138.84036, 36.89944], [138.84057, 36.89928], [138.84079, 36.89911], [138.84093, 36.89898], [138.84114, 36.89871], [138.84133, 36.89846], [138.84152, 36.8981], [138.84172, 36.89771], [138.84192, 36.89723], [138.84215, 36.89674], [138.84225, 36.89652], [138.84231, 36.89637], [138.84251, 36.89593], [138.84276, 36.89543], [138.84297, 36.89495], [138.84318, 36.89451], [138.8433, 36.89422], [138.8435, 36.8938], [138.84368, 36.89345], [138.84393, 36.89291], [138.8441, 36.89255], [138.84411, 36.89252], [138.8443, 36.89212], [138.84452, 36.89166], [138.84472, 36.89125], [138.84492, 36.89084], [138.8451, 36.89044], [138.84544, 36.88976], [138.84566, 36.8894], [138.84589, 36.88908], [138.84611, 36.88878], [138.84645, 36.88839], [138.84676, 36.88811], [138.84705, 36.88782], [138.84741, 36.88753], [138.84775, 36.88723], [138.84811, 36.88694], [138.84841, 36.88669], [138.84864, 36.88647], [138.84915, 36.886], [138.84962, 36.88558]]}, "properties": {"id": "GEOM_TOKYO_2479", "route_id": "R_C0AFF1D8", "route_name": null, "route_color": "#00A7E3", "route_text_color": null, "line_name": "上越線", "operator_id": "jr_east", "representation": "service_path", "min_zoom": 0, "max_zoom": 24, "offset_rank": 0}}, {"type": "Feature", "bbox": [138.86249, 36.87312, 138.86419, 36.87451], "geometry": {"type": "LineString", "coordinates": [[138.86249, 36.87451], [138.86288, 36.87417], [138.86351, 36.87367], [138.86385, 36.87336], [138.86419, 36.87312]]}, "properties": {"id": "GEOM_TOKYO_2480", "route_id": "R_C0AFF1D8", "route_name": null, "route_color": "#00A7E3", "route_text_color": null, "line_name": "上越線", "operator_id": "jr_east", "representation": "service_path", "min_zoom": 0, "max_zoom": 24, "offset_rank": 0}}, {"type": "Feature", "bbox": [138.82958, 36.88558, 138.84962, 36.90423], "geometry": {"type": "LineString", "coordinates": [[138.84732, 36.90423], [138.84699, 36.90387], [138.84672, 36.90363], [138.84641, 36.90337], [138.84603, 36.90308], [138.84591, 36.903], [138.84584, 36.90297], [138.84568, 36.90288], [138.84559, 36.90283], [138.84541, 36.90274], [138.84525, 36.90266], [138.84509, 36.9026], [138.84498, 36.90255], [138.84473, 36.90244], [138.8445, 36.90236], [138.84417, 36.90225], [138.84389, 36.90217], [138.84375, 36.90213], [138.84361, 36.90211], [138.84349, 36.90209], [138.84339, 36.90207], [138.84322, 36.90205], [138.843, 36.90204], [138.84286, 36.90204], [138.84235, 36.90205], [138.84182, 36.90206], [138.84119, 36.90206], [138.84052, 36.90208], [138.84005, 36.90211], [138.83907, 36.9021], [138.83828, 36.90196], [138.83772, 36.90184], [138.83717, 36.90169], [138.83672, 36.90155], [138.83641, 36.90144], [138.83609, 36.90132], [138.83555, 36.9011], [138.83522, 36.90091], [138.83478, 36.90064], [138.83464, 36.90056], [138.83416, 36.90018], [138.83385, 36.89995], [138.83338, 36.89954], [138.83292, 36.89914], [138.8327, 36.89893], [138.83231, 36.89841], [138.83198, 36.89802], [138.83166, 36.89762], [138.83133, 36.8972], [138.83107, 36.8969], [138.83074, 36.89652], [138.83051, 36.89617], [138.83036, 36.89591], [138.83013, 36.89543], [138.82991, 36.89491], [138.82977, 36.89447], [138.82967, 36.89414], [138.82961, 36.89385], [138.82958, 36.89345], [138.8296, 36.89294], [138.82964, 36.89245], [138.82971, 36.89196], [138.82984, 36.89147], [138.82996, 36.89112], [138.83011, 36.89076], [138.83014, 36.89067], [138.83032, 36.89027], [138.83048, 36.88985], [138.83061, 36.88955], [138.83081, 36.88906], [138.831, 36.88877], [138.83116, 36.88855], [138.83149, 36.88817], [138.83184, 36.88785], [138.83211, 36.88766], [138.83261, 36.8873], [138.83298, 36.88709], [138.83352, 36.88684], [138.83393, 36.88668], [138.8345, 36.88651], [138.83494, 36.88638], [138.83536, 36.88631], [138.83598, 36.88624], [138.83643, 36.88621], [138.83695, 36.88622], [138.83743, 36.88627], [138.83788, 36.88635], [138.83834, 36.88642], [138.83839, 36.88643], [138.83888, 36.88652], [138.8394, 36.88662], [138.83979, 36.88669], [138.84031, 36.8868], [138.84087, 36.88692], [138.84157, 36.88703], [138.84195, 36.88706], [138.8423, 36.88709], [138.84253, 36.8871], [138.84318, 36.8871], [138.84353, 36.8871], [138.84392, 36.88708], [138.84422, 36.88707], [138.84489, 36.88698], [138.84507, 36.88697], [138.84555, 36.88691], [138.84598, 36.88682], [138.84663, 36.88667], [138.84707, 36.88654], [138.84748, 36.88641], [138.8479, 36.88628], [138.8482, 36.88616], [138.84862, 36.88599], [138.84906, 36.88582], [138.8492, 36.88575], [138.84932, 36.88569], [138.84947, 36.88562], [138.84962, 36.88558]]}, "properties": {"id": "GEOM_TOKYO_2481", "route_id": "R_C0AFF1D8", "route_name": null, "route_color": "#00A7E3", "route_text_color": null, "line_name": "上越線", "operator_id": "jr_east", "representation": "service_path", "min_zoom": 0, "max_zoom": 24, "offset_rank": 0}}, {"type": "Feature", "bbox": [138.96899, 36.77657, 138.96923, 36.77808], "geometry": {"type": "LineString", "coordinates": [[138.96901, 36.77808], [138.96899, 36.7778], [138.96903, 36.77723], [138.9692, 36.77663], [138.96923, 36.77657]]}, "properties": {"id": "GEOM_TOKYO_2482", "route_id": "R_C0AFF1D8", "route_name": null, "route_color": "#00A7E3", "route_text_color": null, "line_name": "上越線", "operator_id": "jr_east", "representation": "service_path", "min_zoom": 0, "max_zoom": 24, "offset_rank": 0}}, {"type": "Feature", "bbox": [138.86419, 36.8304, 138.96174, 36.87312], "geometry": {"type": "LineString", "coordinates": [[138.96174, 36.8304], [138.96172, 36.83041], [138.96134, 36.8308], [138.96089, 36.83124], [138.96018, 36.83195], [138.9596, 36.83252], [138.95919, 36.83293], [138.95846, 36.83357], [138.95788, 36.83403], [138.9574, 36.83436], [138.95691, 36.83467], [138.95625, 36.83506], [138.9556, 36.83543], [138.955, 36.83573], [138.95464, 36.83589], [138.95397, 36.83621], [138.9536, 36.83642], [138.95252, 36.83686], [138.95175, 36.83716], [138.95006, 36.83785], [138.94886, 36.83834], [138.94699, 36.8391], [138.9462, 36.83942], [138.9459, 36.83954], [138.94429, 36.8402], [138.94197, 36.84113], [138.94022, 36.84185], [138.93773, 36.84285], [138.93597, 36.84355], [138.93561, 36.84369], [138.93307, 36.84471], [138.93061, 36.84572], [138.92803, 36.84677], [138.92688, 36.84723], [138.92605, 36.84757], [138.92516, 36.84793], [138.92268, 36.84893], [138.92025, 36.84991], [138.91791, 36.85086], [138.91612, 36.85158], [138.91563, 36.85178], [138.91369, 36.85256], [138.91152, 36.85343], [138.9115, 36.85344], [138.90958, 36.85422], [138.90794, 36.85488], [138.90573, 36.85578], [138.90451, 36.85628], [138.90376, 36.85658], [138.90204, 36.85728], [138.90158, 36.85746], [138.90092, 36.85772], [138.89963, 36.85825], [138.89851, 36.85869], [138.89711, 36.85927], [138.89634, 36.85957], [138.89491, 36.86015], [138.89415, 36.86046], [138.89298, 36.86094], [138.89166, 36.86148], [138.89154, 36.86153], [138.89, 36.86214], [138.88849, 36.86276], [138.88673, 36.86347], [138.88511, 36.86412], [138.88354, 36.86476], [138.88182, 36.86544], [138.88173, 36.86548], [138.88113, 36.86572], [138.87941, 36.86642], [138.87765, 36.86714], [138.8755, 36.86801], [138.8741, 36.86858], [138.87279, 36.86911], [138.87181, 36.86951], [138.87136, 36.86969], [138.8704, 36.87005], [138.86958, 36.87038], [138.86904, 36.87058], [138.86858, 36.87075], [138.86764, 36.87111], [138.8671, 36.87132], [138.86695, 36.87139], [138.86645, 36.87166], [138.86586, 36.87198], [138.86556, 36.87215], [138.86494, 36.87255], [138.86456, 36.87281], [138.86419, 36.87312]]}, "properties": {"id": "GEOM_TOKYO_2484", "route_id": "R_C0AFF1D8", "route_name": null, "route_color": "#00A7E3", "route_text_color": null, "line_name": "上越線", "operator_id": "jr_east", "representation": "service_path", "min_zoom": 0, "max_zoom": 24, "offset_rank": 0}}, {"type": "Feature", "bbox": [138.86069, 36.87451, 138.86249, 36.87604], "geometry": {"type": "LineString", "coordinates": [[138.86069, 36.87604], [138.86127, 36.87554], [138.86161, 36.87525], [138.86249, 36.87451]]}, "properties": {"id": "GEOM_TOKYO_2485", "route_id": "R_C0AFF1D8", "route_name": null, "route_color": "#00A7E3", "route_text_color": null, "line_name": "上越線", "operator_id": "jr_east", "representation": "service_path", "min_zoom": 0, "max_zoom": 24, "offset_rank": 0}}, {"type": "Feature", "bbox": [138.97706, 36.7366, 138.98645, 36.75755], "geometry": {"type": "LineString", "coordinates": [[138.98474, 36.7366], [138.98477, 36.73679], [138.98492, 36.73751], [138.98499, 36.73792], [138.98506, 36.73831], [138.98507, 36.73835], [138.98511, 36.73858], [138.98517, 36.73892], [138.9853, 36.73937], [138.98541, 36.73966], [138.98551, 36.73986], [138.9857, 36.74023], [138.98589, 36.74057], [138.98611, 36.74098], [138.98616, 36.74111], [138.98627, 36.74141], [138.9863, 36.74152], [138.98636, 36.74175], [138.9864, 36.74196], [138.98643, 36.74221], [138.98645, 36.74255], [138.98644, 36.74297], [138.98641, 36.74338], [138.98637, 36.74365], [138.98635, 36.74372], [138.98632, 36.74383], [138.98628, 36.74394], [138.98618, 36.74419], [138.98609, 36.7444], [138.98587, 36.74476], [138.9857, 36.74497], [138.9855, 36.74517], [138.98518, 36.74546], [138.9851, 36.74554], [138.98508, 36.74556], [138.98498, 36.74564], [138.9849, 36.7457], [138.98469, 36.74587], [138.98427, 36.74618], [138.98396, 36.74638], [138.98369, 36.74654], [138.98353, 36.74662], [138.9834, 36.74669], [138.98321, 36.74679], [138.98299, 36.7469], [138.98263, 36.74709], [138.98196, 36.74745], [138.98133, 36.7479], [138.98102, 36.74815], [138.98078, 36.74838], [138.98059, 36.74857], [138.98039, 36.74879], [138.9802, 36.749], [138.97992, 36.74939], [138.97922, 36.75036], [138.97871, 36.7511], [138.97839, 36.75157], [138.97816, 36.75187], [138.97806, 36.75202], [138.97793, 36.75233], [138.97789, 36.75241], [138.97787, 36.75246], [138.9778, 36.75271], [138.97776, 36.75287], [138.97771, 36.75309], [138.97765, 36.75343], [138.97762, 36.75361], [138.9776, 36.75382], [138.97759, 36.75394], [138.97758, 36.75414], [138.9776, 36.7544], [138.97763, 36.75456], [138.97764, 36.75473], [138.97766, 36.7549], [138.97769, 36.75509], [138.97767, 36.75539], [138.97763, 36.75572], [138.97756, 36.75603], [138.97741, 36.7565], [138.97729, 36.75692], [138.9771, 36.75742], [138.97706, 36.75755]]}, "properties": {"id": "GEOM_TOKYO_2487", "route_id": "R_C0AFF1D8", "route_name": null, "route_color": "#00A7E3", "route_text_color": null, "line_name": "上越線", "operator_id": "jr_east", "representation": "service_path", "min_zoom": 0, "max_zoom": 24, "offset_rank": 0}}, {"type": "Feature", "bbox": [138.97151, 36.78221, 138.9786, 36.78514], "geometry": {"type": "LineString", "coordinates": [[138.97151, 36.78221], [138.97203, 36.78238], [138.97252, 36.78251], [138.97352, 36.78271], [138.97401, 36.78281], [138.97434, 36.78287], [138.97471, 36.78295], [138.97536, 36.7831], [138.97612, 36.78327], [138.97621, 36.78329], [138.97648, 36.78337], [138.97658, 36.7834], [138.97682, 36.78348], [138.97692, 36.78352], [138.97716, 36.78365], [138.97731, 36.78373], [138.9775, 36.78385], [138.97762, 36.78393], [138.97773, 36.78403], [138.978, 36.78426], [138.97839, 36.78473], [138.9786, 36.78514]]}, "properties": {"id": "GEOM_TOKYO_2488", "route_id": "R_C0AFF1D8", "route_name": null, "route_color": "#00A7E3", "route_text_color": null, "line_name": "上越線", "operator_id": "jr_east", "representation": "service_path", "min_zoom": 0, "max_zoom": 24, "offset_rank": 0}}, {"type": "Feature", "bbox": [138.79903, 36.94879, 138.79996, 36.95154], "geometry": {"type": "LineString", "coordinates": [[138.79903, 36.95154], [138.79996, 36.94879]]}, "properties": {"id": "GEOM_TOKYO_2490", "route_id": "R_C0AFF1D8", "route_name": null, "route_color": "#00A7E3", "route_text_color": null, "line_name": "上越線", "operator_id": "jr_east", "representation": "service_path", "min_zoom": 0, "max_zoom": 24, "offset_rank": 0}}, {"type": "Feature", "bbox": [138.97151, 36.78221, 138.9786, 36.78514], "geometry": {"type": "LineString", "coordinates": [[138.97151, 36.78221], [138.97172, 36.78234], [138.972, 36.78252], [138.97255, 36.78272], [138.97295, 36.78281], [138.97346, 36.78291], [138.97405, 36.78302], [138.97466, 36.78313], [138.97489, 36.78319], [138.97553, 36.78332], [138.97605, 36.78343], [138.97616, 36.78346], [138.97644, 36.78354], [138.97654, 36.78358], [138.97668, 36.78363], [138.97677, 36.78366], [138.97707, 36.78382], [138.97712, 36.78384], [138.97741, 36.78403], [138.97753, 36.7841], [138.97771, 36.78424], [138.97787, 36.78436], [138.97832, 36.78481], [138.9786, 36.78514]]}, "properties": {"id": "GEOM_TOKYO_2491", "route_id": "R_C0AFF1D8", "route_name": null, "route_color": "#00A7E3", "route_text_color": null, "line_name": "上越線", "operator_id": "jr_east", "representation": "service_path", "min_zoom": 0, "max_zoom": 24, "offset_rank": 0}}, {"type": "Feature", "bbox": [138.79996, 36.93901, 138.80646, 36.94879], "geometry": {"type": "LineString", "coordinates": [[138.80646, 36.93901], [138.8062, 36.93947], [138.80612, 36.93961], [138.80588, 36.94002], [138.80529, 36.94079], [138.80471, 36.94143], [138.80408, 36.94215], [138.80359, 36.94263], [138.80345, 36.94277], [138.80318, 36.94299], [138.80289, 36.94326], [138.80247, 36.94364], [138.80155, 36.94481], [138.80126, 36.94536], [138.80106, 36.94602], [138.80085, 36.94669], [138.80082, 36.9468], [138.80032, 36.94787], [138.80016, 36.94828], [138.79996, 36.94879]]}, "properties": {"id": "GEOM_TOKYO_2492", "route_id": "R_C0AFF1D8", "route_name": null, "route_color": "#00A7E3", "route_text_color": null, "line_name": "上越線", "operator_id": "jr_east", "representation": "service_path", "min_zoom": 0, "max_zoom": 24, "offset_rank": 0}}, {"type": "Feature", "bbox": [138.96262000000013, 36.80419640000009, 138.98521501000008, 36.82953], "geometry": {"type": "LineString", "coordinates": [[138.98521501000008, 36.80419640000009], [138.98509754000008, 36.804503860000125], [138.98491753999997, 36.80501011000007], [138.98471504000008, 36.80555011000001], [138.98449004000008, 36.80616634], [138.98423629, 36.8068438200001], [138.98403378, 36.80740755], [138.98386502000005, 36.80789627000013], [138.98371249000002, 36.808291279999935], [138.98355000000015, 36.80861], [138.98266, 36.80949], [138.9812, 36.81095], [138.98088, 36.81125], [138.98009, 36.81206], [138.97940000000028, 36.81275000000011], [138.97904000000017, 36.81312000000014], [138.97827, 36.8139], [138.9771300000001, 36.81505], [138.97662000000014, 36.81556], [138.97611, 36.81607], [138.97540000000026, 36.81676], [138.97448, 36.81769], [138.97401, 36.81817], [138.97327, 36.81891000000013], [138.97252, 36.81967], [138.9719, 36.82028], [138.97065, 36.82153], [138.97004000000015, 36.82214], [138.96962, 36.82255], [138.96926, 36.82291], [138.96779000000015, 36.82437], [138.96703, 36.82513], [138.96592, 36.82624], [138.96539, 36.82677], [138.9648000000002, 36.82735], [138.96412, 36.828030000000126], [138.96338000000014, 36.82875], [138.96262000000013, 36.82953]]}, "properties": {"id": "GEOM_TOKYO_2493", "route_id": "R_C0AFF1D8", "route_name": null, "route_color": "#00A7E3", "route_text_color": null, "line_name": "上越線", "operator_id": "jr_east", "representation": "service_path", "min_zoom": 0, "max_zoom": 24, "offset_rank": 0}}, {"type": "Feature", "bbox": [138.96174, 36.82953, 138.96262, 36.8304], "geometry": {"type": "LineString", "coordinates": [[138.96262, 36.82953], [138.9625, 36.82966], [138.9622, 36.82996], [138.96174, 36.8304]]}, "properties": {"id": "GEOM_TOKYO_2495", "route_id": "R_C0AFF1D8", "route_name": null, "route_color": "#00A7E3", "route_text_color": null, "line_name": "上越線", "operator_id": "jr_east", "representation": "service_path", "min_zoom": 0, "max_zoom": 24, "offset_rank": 0}}, {"type": "Feature", "bbox": [138.83788, 36.92414, 138.84083, 36.92442], "geometry": {"type": "LineString", "coordinates": [[138.84083, 36.92442], [138.84047, 36.92431], [138.84017, 36.92425], [138.83975, 36.92416], [138.8393, 36.92414], [138.83853, 36.92418], [138.83788, 36.92427]]}, "properties": {"id": "GEOM_TOKYO_2496", "route_id": "R_C0AFF1D8", "route_name": null, "route_color": "#00A7E3", "route_text_color": null, "line_name": "上越線", "operator_id": "jr_east", "representation": "service_path", "min_zoom": 0, "max_zoom": 24, "offset_rank": 0}}, {"type": "Feature", "bbox": [138.84732, 36.90423, 138.84861, 36.90913], "geometry": {"type": "LineString", "coordinates": [[138.84732, 36.90423], [138.84755, 36.90463], [138.84779, 36.90516], [138.8479, 36.90542], [138.84808, 36.9058], [138.84827, 36.90626], [138.84841, 36.90671], [138.8485, 36.90714], [138.84856, 36.90766], [138.84861, 36.90811], [138.84856, 36.90913]]}, "properties": {"id": "GEOM_TOKYO_2498", "route_id": "R_C0AFF1D8", "route_name": null, "route_color": "#00A7E3", "route_text_color": null, "line_name": "上越線", "operator_id": "jr_east", "representation": "service_path", "min_zoom": 0, "max_zoom": 24, "offset_rank": 0}}, {"type": "Feature", "bbox": [138.80863, 36.93526, 138.81083, 36.93711], "geometry": {"type": "LineString", "coordinates": [[138.81083, 36.93526], [138.81074, 36.93533], [138.81028, 36.93572], [138.80962, 36.93628], [138.80863, 36.93711]]}, "properties": {"id": "GEOM_TOKYO_2500", "route_id": "R_C0AFF1D8", "route_name": null, "route_color": "#00A7E3", "route_text_color": null, "line_name": "上越線", "operator_id": "jr_east", "representation": "service_path", "min_zoom": 0, "max_zoom": 24, "offset_rank": 0}}, {"type": "Feature", "bbox": [138.96923, 36.75755, 138.97706, 36.77657], "geometry": {"type": "LineString", "coordinates": [[138.96923, 36.77657], [138.96944, 36.77628], [138.9698, 36.77573], [138.96989, 36.77561], [138.97017, 36.77519], [138.97047, 36.77464], [138.97087, 36.77397], [138.97118, 36.77349], [138.97152, 36.7728], [138.97202, 36.7717], [138.9722, 36.77137], [138.97238, 36.77088], [138.97267, 36.76991], [138.97307, 36.76858], [138.97322, 36.76807], [138.97339, 36.76748], [138.97388, 36.76589], [138.97415, 36.76497], [138.97419, 36.76483], [138.97469, 36.76326], [138.9751, 36.76187], [138.97526, 36.76137], [138.97543, 36.76085], [138.97568, 36.76028], [138.9761, 36.75953], [138.97641, 36.75883], [138.97648, 36.75873], [138.97656, 36.7586], [138.97664, 36.75847], [138.97671, 36.75836], [138.97679, 36.75821], [138.97695, 36.75784], [138.97706, 36.75755]]}, "properties": {"id": "GEOM_TOKYO_2501", "route_id": "R_C0AFF1D8", "route_name": null, "route_color": "#00A7E3", "route_text_color": null, "line_name": "上越線", "operator_id": "jr_east", "representation": "service_path", "min_zoom": 0, "max_zoom": 24, "offset_rank": 0}}, {"type": "Feature", "bbox": [138.9696, 36.78009, 138.97151, 36.78221], "geometry": {"type": "LineString", "coordinates": [[138.9696, 36.78009], [138.9698, 36.78046], [138.97007, 36.78083], [138.97015, 36.78094], [138.97047, 36.78133], [138.97082, 36.78167], [138.97117, 36.78197], [138.97151, 36.78221]]}, "properties": {"id": "GEOM_TOKYO_2502", "route_id": "R_C0AFF1D8", "route_name": null, "route_color": "#00A7E3", "route_text_color": null, "line_name": "上越線", "operator_id": "jr_east", "representation": "service_path", "min_zoom": 0, "max_zoom": 24, "offset_rank": 0}}, {"type": "Feature", "bbox": [138.84962, 36.87604, 138.86069, 36.88558], "geometry": {"type": "LineString", "coordinates": [[138.84962, 36.88558], [138.84992, 36.88533], [138.85033, 36.88497], [138.85071, 36.88462], [138.85089, 36.88443], [138.85106, 36.88414], [138.85118, 36.8839], [138.8513, 36.88352], [138.85139, 36.88314], [138.85142, 36.88284], [138.85143, 36.88275], [138.85142, 36.88257], [138.85137, 36.88209], [138.85137, 36.88169], [138.85142, 36.88099], [138.85149, 36.88071], [138.85161, 36.88044], [138.85177, 36.88013], [138.85193, 36.87989], [138.85202, 36.87976], [138.85212, 36.87964], [138.85227, 36.87947], [138.8524, 36.87935], [138.85248, 36.87926], [138.85264, 36.87912], [138.85283, 36.87899], [138.85319, 36.87876], [138.85364, 36.87852], [138.85419, 36.87828], [138.85437, 36.87822], [138.85461, 36.87815], [138.85489, 36.8781], [138.85511, 36.87807], [138.85564, 36.87805], [138.85653, 36.87799], [138.85731, 36.87791], [138.85768, 36.87784], [138.85802, 36.87776], [138.8585, 36.87759], [138.85867, 36.87753], [138.85891, 36.87741], [138.85907, 36.87731], [138.85933, 36.87711], [138.86022, 36.87641], [138.86069, 36.87604]]}, "properties": {"id": "GEOM_TOKYO_2503", "route_id": "R_C0AFF1D8", "route_name": null, "route_color": "#00A7E3", "route_text_color": null, "line_name": "上越線", "operator_id": "jr_east", "representation": "service_path", "min_zoom": 0, "max_zoom": 24, "offset_rank": 0}}, {"type": "Feature", "bbox": [138.79937, 36.93711, 138.80863, 36.97473], "geometry": {"type": "LineString", "coordinates": [[138.80088, 36.97473], [138.80083, 36.97452], [138.80077, 36.97422], [138.80076, 36.97399], [138.80081, 36.97362], [138.80089, 36.97335], [138.80117, 36.97277], [138.80168, 36.97204], [138.80191, 36.97176], [138.80235, 36.9712], [138.80268, 36.97071], [138.80293, 36.97008], [138.80301, 36.96968], [138.80305, 36.96902], [138.80295, 36.96854], [138.8027, 36.96782], [138.80236, 36.96691], [138.80226, 36.96649], [138.80228, 36.96609], [138.80242, 36.96533], [138.8026, 36.96444], [138.80265, 36.9642], [138.80271, 36.96369], [138.80256, 36.96298], [138.80248, 36.96278], [138.80234, 36.96245], [138.80213, 36.96212], [138.80185, 36.96171], [138.80163, 36.96139], [138.80147, 36.96116], [138.801, 36.96047], [138.80077, 36.9601], [138.8002, 36.95911], [138.80007, 36.95884], [138.7999, 36.95853], [138.79976, 36.95827], [138.79965, 36.95809], [138.79952, 36.95779], [138.79941, 36.95746], [138.79938, 36.95717], [138.79937, 36.95686], [138.7994, 36.95656], [138.79949, 36.95552], [138.79958, 36.95455], [138.79967, 36.95355], [138.79969, 36.9533], [138.79976, 36.9528], [138.79997, 36.95224], [138.80015, 36.95189], [138.8002, 36.9518], [138.8003, 36.95163], [138.80063, 36.95121], [138.80112, 36.95066], [138.80164, 36.94996], [138.80193, 36.94936], [138.80202, 36.94904], [138.80208, 36.94862], [138.80208, 36.94839], [138.802, 36.94789], [138.80182, 36.94697], [138.80175, 36.94653], [138.8017, 36.9462], [138.80175, 36.94567], [138.80184, 36.94516], [138.80187, 36.94502], [138.80197, 36.94474], [138.80213, 36.94448], [138.80231, 36.94425], [138.80256, 36.94398], [138.80301, 36.94355], [138.80373, 36.94285], [138.80469, 36.94191], [138.80505, 36.94156], [138.80543, 36.94114], [138.8058, 36.94067], [138.8062, 36.94001], [138.80656, 36.93948], [138.80682, 36.93912], [138.807, 36.93887], [138.80774, 36.93796], [138.80826, 36.93741], [138.80863, 36.93711]]}, "properties": {"id": "GEOM_TOKYO_2533", "route_id": "R_C0AFF1D8", "route_name": null, "route_color": "#00A7E3", "route_text_color": null, "line_name": "上越線", "operator_id": "jr_east", "representation": "service_path", "min_zoom": 0, "max_zoom": 24, "offset_rank": 0}}]}