{"type": "FeatureCollection", "features": [{"type": "Feature", "bbox": [138.97724, 36.69118, 138.97794, 36.69495], "geometry": {"type": "LineString", "coordinates": [[138.97794, 36.69118], [138.97772, 36.69229], [138.97749, 36.69354], [138.97724, 36.69495]]}, "properties": {"id": "GEOM_TOKYO_2316", "route_id": "R_D6BC8A01", "route_name": null, "route_color": "#E65045", "route_text_color": null, "line_name": "上越新幹線", "operator_id": "jr_east", "representation": "service_path", "min_zoom": 0, "max_zoom": 24, "offset_rank": 0}}, {"type": "Feature", "bbox": [138.81079, 36.69495, 138.97724, 36.93397], "geometry": {"type": "LineString", "coordinates": [[138.81079, 36.93397], [138.81231, 36.93224], [138.81262, 36.93191], [138.81437, 36.92983], [138.81597, 36.92801], [138.81659, 36.92729], [138.81756, 36.92618], [138.81923, 36.92425], [138.82038, 36.92289], [138.82096, 36.92214], [138.82207, 36.92056], [138.82262, 36.91974], [138.82273, 36.91956], [138.82289, 36.91933], [138.82296, 36.91921], [138.82306, 36.91904], [138.82323, 36.91873], [138.82347, 36.91833], [138.8236, 36.91812], [138.82379, 36.91782], [138.82405, 36.91742], [138.82424, 36.91711], [138.82436, 36.91693], [138.82459, 36.91658], [138.82482, 36.91621], [138.82522, 36.91557], [138.82543, 36.91523], [138.82582, 36.91457], [138.82603, 36.91422], [138.82635, 36.9137], [138.82658, 36.91329], [138.82678, 36.913], [138.827, 36.91265], [138.82727, 36.91218], [138.82754, 36.91176], [138.82759, 36.91168], [138.82773, 36.91145], [138.82778, 36.91136], [138.82795, 36.91107], [138.82803, 36.91096], [138.82828, 36.91055], [138.82857, 36.91005], [138.82888, 36.90957], [138.82929, 36.90891], [138.82953, 36.90852], [138.82979, 36.90809], [138.83005, 36.90768], [138.83037, 36.90715], [138.83079, 36.90649], [138.83101, 36.90612], [138.83113, 36.90596], [138.83134, 36.90562], [138.83156, 36.90521], [138.83181, 36.90481], [138.83206, 36.90438], [138.83232, 36.90394], [138.83252, 36.90361], [138.8326, 36.90348], [138.83282, 36.9031], [138.83314, 36.90257], [138.83337, 36.90224], [138.83368, 36.90176], [138.83384, 36.90149], [138.83407, 36.9011], [138.83442, 36.90056], [138.83474, 36.90009], [138.83502, 36.89957], [138.83525, 36.89918], [138.83555, 36.89871], [138.83579, 36.89833], [138.83603, 36.89792], [138.83633, 36.89739], [138.83666, 36.89689], [138.83692, 36.89649], [138.8372, 36.89604], [138.83746, 36.89561], [138.8375, 36.89556], [138.83765, 36.8953], [138.83782, 36.89503], [138.83799, 36.89471], [138.83814, 36.89442], [138.83839, 36.89399], [138.83856, 36.89372], [138.83874, 36.89343], [138.83885, 36.89325], [138.83901, 36.89306], [138.83916, 36.89281], [138.83937, 36.89245], [138.83963, 36.89204], [138.83992, 36.89157], [138.84014, 36.89124], [138.84038, 36.89085], [138.84062, 36.89048], [138.8409, 36.89006], [138.84125, 36.88955], [138.84153, 36.88913], [138.84175, 36.88883], [138.84202, 36.88842], [138.84223, 36.88811], [138.8425, 36.8877], [138.84259, 36.88756], [138.84276, 36.8873], [138.84284, 36.88718], [138.84306, 36.88687], [138.8433, 36.88657], [138.8435, 36.88632], [138.84378, 36.88601], [138.84396, 36.88579], [138.84417, 36.88552], [138.84433, 36.88538], [138.84454, 36.88511], [138.84472, 36.88492], [138.8449, 36.88469], [138.84525, 36.8843], [138.84556, 36.88397], [138.84569, 36.88381], [138.84603, 36.88345], [138.84629, 36.88316], [138.8466, 36.88284], [138.84691, 36.8825], [138.84711, 36.8823], [138.84739, 36.88203], [138.84768, 36.88173], [138.84796, 36.88147], [138.84819, 36.88125], [138.84844, 36.88098], [138.84878, 36.88059], [138.84904, 36.88031], [138.84908, 36.88027], [138.84927, 36.88008], [138.84943, 36.87988], [138.84965, 36.87963], [138.84982, 36.87947], [138.85016, 36.87916], [138.85044, 36.87881], [138.8508, 36.87846], [138.85107, 36.87819], [138.85131, 36.878], [138.85164, 36.87771], [138.85191, 36.87748], [138.85209, 36.87732], [138.85232, 36.87709], [138.8526, 36.87682], [138.85288, 36.87656], [138.85306, 36.87637], [138.85333, 36.87611], [138.85346, 36.87599], [138.85395, 36.87552], [138.85427, 36.87528], [138.85489, 36.87476], [138.85516, 36.87453], [138.85555, 36.87422], [138.85598, 36.87384], [138.85628, 36.87359], [138.85638, 36.87351], [138.85675, 36.8732], [138.85729, 36.87273], [138.85778, 36.87233], [138.85827, 36.87193], [138.85868, 36.87165], [138.85918, 36.87125], [138.85957, 36.87094], [138.86, 36.87063], [138.86038, 36.87035], [138.86075, 36.8701], [138.86111, 36.86984], [138.86149, 36.86956], [138.86185, 36.86931], [138.86225, 36.86902], [138.86247, 36.86886], [138.86271, 36.86867], [138.86312, 36.86835], [138.86345, 36.86811], [138.86372, 36.86791], [138.86424, 36.86753], [138.86449, 36.86736], [138.86465, 36.86725], [138.86504, 36.86697], [138.86578, 36.86641], [138.86627, 36.86607], [138.86666, 36.86579], [138.86712, 36.86544], [138.86758, 36.86512], [138.86798, 36.86484], [138.86861, 36.86435], [138.86916, 36.86395], [138.86951, 36.86371], [138.87005, 36.86334], [138.87071, 36.86285], [138.87134, 36.86238], [138.87181, 36.86199], [138.87232, 36.86162], [138.87334, 36.86086], [138.87411, 36.86032], [138.87513, 36.85956], [138.8762, 36.85876], [138.87697, 36.8582], [138.87819, 36.85731], [138.87981, 36.85612], [138.88004, 36.85595], [138.88132, 36.85503], [138.88259, 36.8541], [138.88374, 36.85329], [138.8851, 36.85229], [138.88673, 36.85108], [138.88829, 36.84993], [138.89022, 36.84854], [138.89209, 36.84717], [138.89369, 36.846], [138.89529, 36.84481], [138.89653, 36.8439], [138.89729, 36.84334], [138.89957, 36.8417], [138.90164, 36.84018], [138.90305, 36.8391], [138.90462, 36.83796], [138.90475, 36.83786], [138.90623, 36.83676], [138.90672, 36.83642], [138.9069, 36.83627], [138.9073, 36.83598], [138.90774, 36.83565], [138.90805, 36.83543], [138.90853, 36.83508], [138.90895, 36.83476], [138.90963, 36.83427], [138.91018, 36.83386], [138.9111, 36.83318], [138.91173, 36.83272], [138.9123, 36.8323], [138.91271, 36.83201], [138.91321, 36.83163], [138.91363, 36.83132], [138.91425, 36.83087], [138.91469, 36.83055], [138.91494, 36.83037], [138.91518, 36.83019], [138.91553, 36.82993], [138.91571, 36.8298], [138.91609, 36.82951], [138.91649, 36.82922], [138.91685, 36.82895], [138.91727, 36.82865], [138.91791, 36.82819], [138.91891, 36.82744], [138.91976, 36.82681], [138.92107, 36.82587], [138.92252, 36.82479], [138.92345, 36.82411], [138.92393, 36.82376], [138.92421, 36.82355], [138.92517, 36.82287], [138.92622, 36.82207], [138.92719, 36.82138], [138.92816, 36.82066], [138.9288, 36.82018], [138.92965, 36.81954], [138.93016, 36.81919], [138.93076, 36.81874], [138.93132, 36.81831], [138.93165, 36.81808], [138.93216, 36.81771], [138.93248, 36.81747], [138.93307, 36.81702], [138.93364, 36.8166], [138.93423, 36.81618], [138.9353, 36.8154], [138.9363, 36.81468], [138.93683, 36.81428], [138.93785, 36.81353], [138.93866, 36.81294], [138.93996, 36.81198], [138.94038, 36.81167], [138.94095, 36.81125], [138.94202, 36.81047], [138.94296, 36.80978], [138.94403, 36.80899], [138.94491, 36.80836], [138.94584, 36.80768], [138.94646, 36.80721], [138.94694, 36.80687], [138.94744, 36.80645], [138.94804, 36.80597], [138.94853, 36.80556], [138.94853, 36.80555], [138.94923, 36.80494], [138.94996, 36.80425], [138.95075, 36.80351], [138.95111, 36.80314], [138.95166, 36.80256], [138.95209, 36.8021], [138.95276, 36.80139], [138.95311, 36.80099], [138.95341, 36.80062], [138.95376, 36.80021], [138.95417, 36.79972], [138.95437, 36.79947], [138.95481, 36.79893], [138.95499, 36.79868], [138.9552, 36.79839], [138.95555, 36.79793], [138.95621, 36.79702], [138.95663, 36.79641], [138.95695, 36.79595], [138.95761, 36.79493], [138.95824, 36.79389], [138.95869, 36.79308], [138.95911, 36.79231], [138.95949, 36.79156], [138.96006, 36.7903], [138.9601, 36.79021], [138.96082, 36.7885], [138.96124, 36.7874], [138.96137, 36.78697], [138.96159, 36.78634], [138.96181, 36.78567], [138.96234, 36.78384], [138.96271, 36.78232], [138.96285, 36.78159], [138.96297, 36.78101], [138.96314, 36.78011], [138.96324, 36.77943], [138.96335, 36.77842], [138.96343, 36.77785], [138.96346, 36.77757], [138.96355, 36.77635], [138.96362, 36.77528], [138.96369, 36.77434], [138.96376, 36.77347], [138.96383, 36.77257], [138.96391, 36.77142], [138.96396, 36.77083], [138.96399, 36.77026], [138.96409, 36.76921], [138.96419, 36.76781], [138.96432, 36.76649], [138.96446, 36.76431], [138.96453, 36.76346], [138.96459, 36.76255], [138.96471, 36.76106], [138.96485, 36.75987], [138.96502, 36.75843], [138.96522, 36.75704], [138.96527, 36.75655], [138.96534, 36.75619], [138.96548, 36.75528], [138.9656, 36.75448], [138.96576, 36.75368], [138.96578, 36.75359], [138.96585, 36.75309], [138.96589, 36.75285], [138.96594, 36.75251], [138.966, 36.75225], [138.96635, 36.75052], [138.96675, 36.74849], [138.96708, 36.74698], [138.9671, 36.74688], [138.96743, 36.7452], [138.96792, 36.74266], [138.96838, 36.74036], [138.96884, 36.73797], [138.96897, 36.73732], [138.96949, 36.73465], [138.9699, 36.73247], [138.97024, 36.7307], [138.97056, 36.72907], [138.97067, 36.72851], [138.97092, 36.72724], [138.97145, 36.72457], [138.97154, 36.72414], [138.97197, 36.72192], [138.97231, 36.72017], [138.97239, 36.71973], [138.97276, 36.71794], [138.97293, 36.71707], [138.97302, 36.71661], [138.97311, 36.71616], [138.97319, 36.71584], [138.97353, 36.71399], [138.97359, 36.71367], [138.97378, 36.71272], [138.974, 36.71153], [138.97406, 36.71126], [138.97424, 36.71036], [138.97432, 36.70986], [138.97457, 36.70854], [138.97469, 36.70793], [138.97493, 36.70673], [138.97502, 36.70625], [138.97507, 36.70603], [138.97547, 36.70399], [138.97578, 36.70236], [138.97584, 36.70207], [138.976, 36.70124], [138.97607, 36.70084], [138.97623, 36.69995], [138.97637, 36.69931], [138.97646, 36.69886], [138.97663, 36.69805], [138.97672, 36.69762], [138.97675, 36.69741], [138.97678, 36.69725], [138.97688, 36.69677], [138.977, 36.69616], [138.97724, 36.69495]]}, "properties": {"id": "GEOM_TOKYO_2317", "route_id": "R_D6BC8A01", "route_name": null, "route_color": "#E65045", "route_text_color": null, "line_name": "上越新幹線", "operator_id": "jr_east", "representation": "service_path", "min_zoom": 0, "max_zoom": 24, "offset_rank": 0}}, {"type": "Feature", "bbox": [138.96582, 36.3548, 138.99996, 36.6856], "geometry": {"type": "LineString", "coordinates": [[138.99996, 36.3548], [138.99878, 36.3564], [138.99827, 36.35718], [138.99794, 36.35774], [138.99785, 36.35787], [138.99757, 36.35832], [138.99728, 36.3588], [138.99681, 36.35957], [138.99667, 36.35976], [138.9966, 36.35989], [138.99648, 36.36008], [138.99637, 36.36031], [138.99626, 36.3605], [138.99617, 36.36069], [138.99604, 36.36093], [138.99587, 36.36129], [138.99573, 36.36159], [138.99564, 36.36178], [138.99558, 36.36192], [138.99541, 36.36229], [138.99533, 36.36247], [138.99527, 36.36265], [138.99518, 36.36286], [138.99513, 36.36298], [138.99499, 36.36332], [138.99483, 36.36375], [138.99475, 36.36397], [138.9946, 36.36439], [138.99451, 36.36465], [138.99435, 36.36509], [138.99423, 36.36547], [138.99408, 36.36597], [138.99398, 36.36631], [138.99388, 36.36667], [138.99373, 36.36727], [138.99364, 36.36769], [138.99355, 36.36812], [138.99347, 36.36853], [138.99339, 36.36895], [138.99325, 36.36974], [138.99312, 36.37047], [138.99304, 36.37097], [138.99295, 36.3716], [138.99294, 36.37167], [138.99289, 36.37197], [138.9928, 36.37255], [138.99276, 36.37282], [138.99269, 36.37333], [138.99262, 36.37369], [138.99256, 36.3741], [138.99249, 36.37456], [138.99242, 36.37507], [138.99233, 36.37558], [138.99227, 36.37598], [138.99217, 36.37668], [138.99206, 36.37745], [138.992, 36.37789], [138.9919, 36.37847], [138.99181, 36.37907], [138.99172, 36.37967], [138.99167, 36.38003], [138.99161, 36.38045], [138.99158, 36.38062], [138.99154, 36.38086], [138.99145, 36.38147], [138.99134, 36.38215], [138.99128, 36.38266], [138.99122, 36.3831], [138.99114, 36.38355], [138.99112, 36.38372], [138.99104, 36.38424], [138.991, 36.38452], [138.99094, 36.3849], [138.99089, 36.38519], [138.99083, 36.38558], [138.99079, 36.38585], [138.99074, 36.38622], [138.99067, 36.3866], [138.99064, 36.38679], [138.9906, 36.38711], [138.99049, 36.38778], [138.99043, 36.38816], [138.99033, 36.38894], [138.99019, 36.38977], [138.99013, 36.39015], [138.99003, 36.39088], [138.98997, 36.3913], [138.98979, 36.39247], [138.98975, 36.39274], [138.98972, 36.39294], [138.98968, 36.39322], [138.98948, 36.39457], [138.98942, 36.39494], [138.98937, 36.39522], [138.98931, 36.39556], [138.98924, 36.39606], [138.98917, 36.39658], [138.98905, 36.39734], [138.98895, 36.3978], [138.98889, 36.39834], [138.98884, 36.39872], [138.98871, 36.39963], [138.98864, 36.40005], [138.98857, 36.40051], [138.98825, 36.40261], [138.98797, 36.4044], [138.98774, 36.4059], [138.98762, 36.40676], [138.98756, 36.40712], [138.9875, 36.40757], [138.98749, 36.40767], [138.98745, 36.4079], [138.98733, 36.40859], [138.98709, 36.41025], [138.98701, 36.41077], [138.98694, 36.41122], [138.9869, 36.41152], [138.9868, 36.41211], [138.98673, 36.41252], [138.98652, 36.41392], [138.98645, 36.41438], [138.9864, 36.41474], [138.98632, 36.41522], [138.98611, 36.41656], [138.98611, 36.41661], [138.98608, 36.41679], [138.98602, 36.41726], [138.98593, 36.4178], [138.98585, 36.41827], [138.9858, 36.41858], [138.98568, 36.41932], [138.98564, 36.4198], [138.98547, 36.42092], [138.98535, 36.42181], [138.98508, 36.42359], [138.98493, 36.42435], [138.9848, 36.42528], [138.98476, 36.42556], [138.98468, 36.42609], [138.98467, 36.42613], [138.98462, 36.4265], [138.98443, 36.4279], [138.98431, 36.42864], [138.98417, 36.42963], [138.9841, 36.4301], [138.98381, 36.43184], [138.98354, 36.43369], [138.98343, 36.4344], [138.98314, 36.43636], [138.98295, 36.43758], [138.98279, 36.43858], [138.98275, 36.43887], [138.9826, 36.4398], [138.98235, 36.44147], [138.9822, 36.44243], [138.98195, 36.44429], [138.98189, 36.44464], [138.98151, 36.4473], [138.98148, 36.44753], [138.98133, 36.44847], [138.98107, 36.45004], [138.98098, 36.45066], [138.98066, 36.45269], [138.98054, 36.45349], [138.98027, 36.45534], [138.98015, 36.45628], [138.98011, 36.45647], [138.9799, 36.45775], [138.97984, 36.45828], [138.97952, 36.46028], [138.97942, 36.46106], [138.97912, 36.46292], [138.97899, 36.46382], [138.97879, 36.46518], [138.97867, 36.46597], [138.97856, 36.4667], [138.97847, 36.46733], [138.97815, 36.46946], [138.97812, 36.4697], [138.97772, 36.4722], [138.97765, 36.47265], [138.97732, 36.47485], [138.97729, 36.47506], [138.9771, 36.47628], [138.97704, 36.47667], [138.97697, 36.47718], [138.97681, 36.47821], [138.97674, 36.47869], [138.97646, 36.48038], [138.97635, 36.48116], [138.97619, 36.48228], [138.97605, 36.4832], [138.97593, 36.48386], [138.97575, 36.48521], [138.97574, 36.48523], [138.97568, 36.48556], [138.97563, 36.48587], [138.97545, 36.48713], [138.97526, 36.48834], [138.97508, 36.48959], [138.97502, 36.49003], [138.97485, 36.49104], [138.97465, 36.49247], [138.97439, 36.49414], [138.97439, 36.49418], [138.9742, 36.49538], [138.97402, 36.49657], [138.97379, 36.49817], [138.97359, 36.4995], [138.97334, 36.50093], [138.97314, 36.50224], [138.97302, 36.50312], [138.97292, 36.50362], [138.97279, 36.50453], [138.97271, 36.50507], [138.97258, 36.50588], [138.97248, 36.50655], [138.97239, 36.507], [138.97224, 36.50815], [138.97212, 36.50883], [138.97208, 36.50904], [138.97201, 36.50947], [138.97194, 36.51005], [138.97188, 36.51046], [138.97178, 36.51097], [138.97174, 36.51129], [138.9717, 36.5116], [138.97161, 36.51208], [138.97156, 36.51249], [138.9715, 36.51285], [138.97145, 36.5132], [138.97137, 36.51359], [138.9713, 36.51401], [138.97127, 36.51437], [138.97119, 36.51517], [138.97115, 36.51575], [138.9711, 36.51642], [138.97108, 36.51678], [138.97103, 36.51749], [138.97101, 36.51793], [138.97101, 36.51801], [138.97098, 36.51857], [138.97093, 36.51907], [138.97089, 36.51955], [138.97089, 36.52012], [138.97086, 36.52053], [138.9708, 36.52107], [138.97077, 36.52167], [138.97075, 36.52207], [138.97071, 36.5227], [138.97068, 36.52333], [138.97065, 36.52379], [138.97062, 36.52423], [138.9706, 36.52464], [138.97056, 36.52518], [138.97053, 36.52564], [138.97049, 36.52617], [138.97046, 36.52672], [138.97043, 36.52701], [138.9704, 36.52745], [138.97038, 36.52791], [138.97034, 36.52854], [138.97031, 36.52893], [138.97027, 36.52957], [138.97027, 36.52962], [138.97023, 36.53014], [138.97021, 36.5307], [138.97017, 36.53121], [138.97012, 36.53179], [138.97009, 36.53235], [138.97004, 36.53311], [138.97001, 36.53369], [138.96997, 36.53423], [138.96992, 36.53514], [138.96988, 36.53564], [138.96986, 36.53608], [138.9698, 36.53709], [138.96979, 36.53743], [138.96974, 36.53794], [138.96973, 36.53848], [138.96972, 36.53858], [138.9697, 36.53889], [138.96967, 36.53935], [138.96963, 36.5398], [138.96961, 36.54022], [138.96958, 36.54069], [138.96956, 36.54105], [138.96952, 36.54151], [138.96951, 36.54185], [138.96947, 36.54239], [138.96945, 36.5429], [138.96943, 36.54306], [138.96941, 36.54345], [138.9694, 36.54371], [138.96933, 36.54436], [138.9693, 36.54467], [138.9693, 36.54474], [138.9693, 36.54517], [138.96928, 36.54538], [138.96925, 36.54571], [138.96922, 36.54629], [138.96919, 36.54674], [138.96916, 36.54732], [138.96913, 36.54773], [138.96911, 36.54813], [138.96908, 36.54856], [138.96904, 36.5493], [138.969, 36.54963], [138.969, 36.54984], [138.96897, 36.55036], [138.96894, 36.55076], [138.96892, 36.55111], [138.96889, 36.55168], [138.96885, 36.55211], [138.96882, 36.55252], [138.9688, 36.55297], [138.96877, 36.55343], [138.96876, 36.55368], [138.96875, 36.55392], [138.96872, 36.55432], [138.96869, 36.55475], [138.96867, 36.55511], [138.96865, 36.55553], [138.96862, 36.55594], [138.96858, 36.55648], [138.96855, 36.55697], [138.96851, 36.5576], [138.96847, 36.55815], [138.96845, 36.55863], [138.9684, 36.55919], [138.96838, 36.55973], [138.96833, 36.5602], [138.9683, 36.56062], [138.96827, 36.56118], [138.96824, 36.5617], [138.96821, 36.56239], [138.96819, 36.56268], [138.96818, 36.56281], [138.96814, 36.56335], [138.96811, 36.56378], [138.96808, 36.56419], [138.96805, 36.56471], [138.96802, 36.56523], [138.96798, 36.56575], [138.96795, 36.56626], [138.96793, 36.56672], [138.96788, 36.56716], [138.96787, 36.56762], [138.96783, 36.568], [138.96781, 36.56846], [138.9678, 36.56881], [138.96776, 36.56927], [138.96773, 36.56968], [138.96771, 36.56998], [138.9677, 36.5703], [138.96767, 36.57063], [138.96765, 36.57096], [138.96764, 36.57124], [138.96761, 36.57157], [138.96761, 36.57168], [138.9676, 36.57189], [138.96756, 36.57232], [138.96754, 36.57271], [138.96754, 36.57304], [138.96749, 36.57352], [138.96747, 36.57381], [138.96745, 36.57434], [138.96743, 36.57471], [138.96743, 36.57495], [138.96742, 36.57546], [138.96742, 36.5759], [138.96742, 36.57634], [138.96742, 36.57688], [138.96744, 36.57752], [138.96743, 36.57792], [138.96746, 36.57834], [138.9675, 36.57873], [138.96751, 36.57905], [138.96754, 36.57952], [138.96757, 36.57986], [138.9676, 36.58024], [138.96761, 36.58053], [138.96764, 36.58069], [138.96768, 36.58092], [138.96775, 36.58152], [138.96783, 36.58224], [138.96789, 36.58265], [138.96797, 36.58314], [138.96803, 36.58354], [138.9681, 36.58401], [138.96817, 36.58442], [138.96823, 36.58482], [138.96827, 36.58513], [138.96833, 36.58556], [138.96838, 36.58594], [138.96843, 36.58627], [138.96846, 36.58645], [138.96849, 36.58682], [138.96851, 36.58737], [138.9685, 36.58778], [138.9684, 36.5891], [138.96828, 36.58969], [138.96801, 36.59058], [138.96753, 36.59182], [138.96701, 36.59331], [138.96671, 36.59439], [138.96664, 36.59462], [138.96629, 36.59596], [138.96614, 36.59707], [138.96598, 36.5986], [138.96592, 36.59956], [138.96589, 36.59999], [138.96586, 36.60046], [138.96585, 36.601], [138.96583, 36.60153], [138.96582, 36.60216], [138.96582, 36.60293], [138.96583, 36.60335], [138.96585, 36.60398], [138.96592, 36.60535], [138.96596, 36.60593], [138.96604, 36.6071], [138.96612, 36.60774], [138.96625, 36.60891], [138.96645, 36.61018], [138.96657, 36.61086], [138.96687, 36.61226], [138.96688, 36.61232], [138.96702, 36.61296], [138.96727, 36.61409], [138.96746, 36.61489], [138.96771, 36.61592], [138.9679, 36.61674], [138.96817, 36.61786], [138.96845, 36.61907], [138.96877, 36.62046], [138.96895, 36.62117], [138.96906, 36.62165], [138.96928, 36.62258], [138.96971, 36.6244], [138.97003, 36.62574], [138.97026, 36.62681], [138.97033, 36.62702], [138.97046, 36.62766], [138.97084, 36.62913], [138.97103, 36.63006], [138.97121, 36.63076], [138.97144, 36.63174], [138.97164, 36.6326], [138.97195, 36.63387], [138.97214, 36.63466], [138.97237, 36.6357], [138.97251, 36.63626], [138.97262, 36.63679], [138.97275, 36.6373], [138.9728, 36.63749], [138.97303, 36.63846], [138.97332, 36.63969], [138.97349, 36.64044], [138.97366, 36.64113], [138.97402, 36.64271], [138.97447, 36.64452], [138.97472, 36.64561], [138.97484, 36.64616], [138.97513, 36.64738], [138.97552, 36.64898], [138.97596, 36.65086], [138.97623, 36.65203], [138.97637, 36.65266], [138.97676, 36.65425], [138.97698, 36.65519], [138.97723, 36.65626], [138.97742, 36.65711], [138.97758, 36.65778], [138.97764, 36.65801], [138.97804, 36.65973], [138.97836, 36.66108], [138.97867, 36.66244], [138.97906, 36.66404], [138.97929, 36.66501], [138.97944, 36.66567], [138.97967, 36.66664], [138.97988, 36.66753], [138.97994, 36.66774], [138.98012, 36.66859], [138.98039, 36.66977], [138.9805, 36.67008], [138.98059, 36.6718], [138.98065, 36.67359], [138.98064, 36.67456], [138.98061, 36.67553], [138.98052, 36.67678], [138.98041, 36.67762], [138.98032, 36.67833], [138.98013, 36.67942], [138.97969, 36.6818], [138.97955, 36.68255], [138.97937, 36.68355], [138.97911, 36.68493], [138.97897, 36.6856]]}, "properties": {"id": "GEOM_TOKYO_2323", "route_id": "R_D6BC8A01", "route_name": null, "route_color": "#E65045", "route_text_color": null, "line_name": "上越新幹線", "operator_id": "jr_east", "representation": "service_path", "min_zoom": 0, "max_zoom": 24, "offset_rank": 0}}, {"type": "Feature", "bbox": [138.97794, 36.6856, 138.97897, 36.69118], "geometry": {"type": "LineString", "coordinates": [[138.97897, 36.6856], [138.97886, 36.68618], [138.97865, 36.68743], [138.97842, 36.68862], [138.97829, 36.68938], [138.978, 36.69094], [138.97794, 36.69118]]}, "properties": {"id": "GEOM_TOKYO_2324", "route_id": "R_D6BC8A01", "route_name": null, "route_color": "#E65045", "route_text_color": null, "line_name": "上越新幹線", "operator_id": "jr_east", "representation": "service_path", "min_zoom": 0, "max_zoom": 24, "offset_rank": 0}}]}