{"type": "FeatureCollection", "features": [{"type": "Feature", "bbox": [130.421175, 33.589574999999996, 130.421175, 33.589574999999996], "geometry": {"type": "Point", "coordinates": [130.421175, 33.589574999999996]}, "properties": {"id": "PS_A8F93C50157E", "station_group_id": "SG_91C721B8DCF1", "name_en": "博多", "name_ja": "博多", "label_rank": 72, "tags": ["tokyo", "v3"]}}, {"type": "Feature", "bbox": [130.421175, 33.589574999999996, 130.421175, 33.589574999999996], "geometry": {"type": "Point", "coordinates": [130.421175, 33.589574999999996]}, "properties": {"id": "PS_12A36A84944E", "station_group_id": "SG_91C721B8DCF1", "name_en": "博多", "name_ja": "博多", "label_rank": 72, "tags": ["tokyo", "v3"]}}, {"type": "Feature", "bbox": [130.49109750000002, 33.3704365, 130.49109750000002, 33.3704365], "geometry": {"type": "Point", "coordinates": [130.49109750000002, 33.3704365]}, "properties": {"id": "PS_0A0BA8190E1E", "station_group_id": "SG_12178E5C8FDE", "name_en": "新鳥栖", "name_ja": "新鳥栖", "label_rank": 72, "tags": ["tokyo", "v3"]}}]}