{"type": "FeatureCollection", "features": [{"type": "Feature", "bbox": [130.5010945, 33.3205875, 130.5010945, 33.3205875], "geometry": {"type": "Point", "coordinates": [130.5010945, 33.3205875]}, "properties": {"id": "PS_435871BFE411", "station_group_id": "SG_FCB073C83506", "name_en": "久留米", "name_ja": "久留米", "label_rank": 72, "tags": ["tokyo", "v3"]}}, {"type": "Feature", "bbox": [130.4923975, 33.177694, 130.4923975, 33.177694], "geometry": {"type": "Point", "coordinates": [130.4923975, 33.177694]}, "properties": {"id": "PS_844D5612F835", "station_group_id": "SG_92C95F7F2B5A", "name_en": "筑後船小屋", "name_ja": "筑後船小屋", "label_rank": 72, "tags": ["tokyo", "v3"]}}]}