{"type": "FeatureCollection", "features": [{"type": "Feature", "bbox": [130.358385, 32.08959, 130.358385, 32.08959], "geometry": {"type": "Point", "coordinates": [130.358385, 32.08959]}, "properties": {"id": "PS_29D17EE6DA8F", "station_group_id": "SG_8D75863A6C61", "operator_id": "jr_kyushu", "operator_ids": "jr_kyushu", "name_en": "出水", "name_ja": "出水", "label_rank": 72, "tags": ["tokyo", "v3"]}}, {"type": "Feature", "bbox": [130.428765, 32.210645, 130.428765, 32.210645], "geometry": {"type": "Point", "coordinates": [130.428765, 32.210645]}, "properties": {"id": "PS_CFE8C9EBB2D1", "station_group_id": "SG_F8A4D643F288", "operator_id": "jr_kyushu", "operator_ids": "jr_kyushu", "name_en": "新水俣", "name_ja": "新水俣", "label_rank": 72, "tags": ["tokyo", "v3"]}}]}