{"type": "FeatureCollection", "features": [{"type": "Feature", "bbox": [138.24960275, 36.846302, 138.35804003, 37.08026308], "geometry": {"type": "LineString", "coordinates": [[138.35804003, 36.846302], [138.35162471, 36.85394869], [138.3448718, 36.86201507], [138.3398321, 36.86801131], [138.33096623, 36.87854756], [138.32381357, 36.88705651], [138.31499053, 36.89756421], [138.30710975, 36.9069726], [138.30562497, 36.9088143], [138.30375471, 36.91145551], [138.30172741, 36.91499614], [138.30067093, 36.9172376], [138.29947168, 36.92027855], [138.29874357, 36.92259138], [138.29824388, 36.92470434], [138.29768709, 36.92833064], [138.29745866, 36.93178562], [138.29713029, 36.93918099], [138.29671627, 36.94808969], [138.29625941, 36.95839751], [138.2961452, 36.96099588], [138.29613092, 36.96380841], [138.29625941, 36.96616407], [138.29655922, 36.96883383], [138.2978013, 36.97658611], [138.29947168, 36.98712237], [138.30168458, 37.00101366], [138.30328358, 37.01127865], [138.30348345, 37.01277771], [138.30354056, 37.01494778], [138.30348345, 37.01760326], [138.30314081, 37.02031585], [138.3024127, 37.02341391], [138.30164175, 37.02572674], [138.30035684, 37.02869631], [138.29865791, 37.03169443], [138.29601671, 37.03539211], [138.29056298, 37.0429588], [138.28606398, 37.04919505], [138.28397005, 37.05180056], [138.28166197, 37.05437038], [138.27913974, 37.05676173], [138.27553486, 37.05972416], [138.27026064, 37.06328413], [138.26330845, 37.0677947], [138.26146198, 37.06918431], [138.25896831, 37.0713163], [138.25559899, 37.07453333], [138.24960275, 37.08026308]]}, "properties": {"id": "GEOM_TOKYO_4066", "route_id": "R_F3B5B6DF", "route_name": null, "route_color": null, "route_text_color": null, "representation": "service_path", "min_zoom": 0, "max_zoom": 24, "offset_rank": 0}}, {"type": "Feature", "bbox": [138.24733988, 37.08026308, 138.24960275, 37.08247122], "geometry": {"type": "LineString", "coordinates": [[138.24960275, 37.08026308], [138.24733988, 37.08247122]]}, "properties": {"id": "GEOM_TOKYO_4067", "route_id": "R_F3B5B6DF", "route_name": null, "route_color": null, "route_text_color": null, "representation": "service_path", "min_zoom": 0, "max_zoom": 24, "offset_rank": 0}}, {"type": "Feature", "bbox": [137.86292785, 37.04357131, 138.24733988, 37.111691], "geometry": {"type": "LineString", "coordinates": [[138.24733988, 37.08247122], [138.24303008, 37.08659244], [138.24125025, 37.08824855], [138.23807129, 37.09084692], [138.23510172, 37.09303602], [138.22969559, 37.0968622], [138.22421331, 37.10076451], [138.22111049, 37.10270615], [138.21798864, 37.10447647], [138.21458125, 37.10607547], [138.21090736, 37.10756025], [138.2068718, 37.10889275], [138.20300755, 37.10990164], [138.19821056, 37.11087246], [138.19501256, 37.11127221], [138.18861657, 37.111691], [138.18494268, 37.11159582], [138.18227769, 37.11146257], [138.17843248, 37.11108185], [138.17202459, 37.11006107], [138.16374406, 37.10861435], [138.15491151, 37.10707246], [138.13695609, 37.10396917], [138.11475572, 37.10022152], [138.10212078, 37.09882953], [138.08398929, 37.09565295], [138.0667144, 37.09269052], [138.06007571, 37.09151269], [138.05707759, 37.091013], [138.03387784, 37.08865734], [138.00157666, 37.08540937], [137.9925466, 37.08451708], [137.98426608, 37.08358909], [137.97259482, 37.08144757], [137.96270816, 37.07969867], [137.95956727, 37.07902052], [137.9550344, 37.07787838], [137.95067999, 37.07612948], [137.94639696, 37.07398796], [137.94000811, 37.06981201], [137.93051406, 37.06328039], [137.92715902, 37.0610318], [137.92341136, 37.05871182], [137.91905695, 37.05649892], [137.9162016, 37.05532109], [137.91281087, 37.05421464], [137.90727862, 37.05282266], [137.90210329, 37.05214451], [137.89318031, 37.05100237], [137.88796929, 37.05032422], [137.88437155, 37.04958183], [137.88171607, 37.0489251], [137.86952371, 37.04545584], [137.86292785, 37.04357131]]}, "properties": {"id": "GEOM_TOKYO_4068", "route_id": "R_CC6EF6BA", "route_name": null, "route_color": null, "route_text_color": null, "representation": "service_path", "min_zoom": 0, "max_zoom": 24, "offset_rank": 0}}, {"type": "Feature", "bbox": [138.24733988, 37.08026308, 138.24960275, 37.08247122], "geometry": {"type": "LineString", "coordinates": [[138.24960275, 37.08026308], [138.24733988, 37.08247122]]}, "properties": {"id": "GEOM_TOKYO_4079", "route_id": "R_CC6EF6BA", "route_name": null, "route_color": null, "route_text_color": null, "representation": "service_path", "min_zoom": 0, "max_zoom": 24, "offset_rank": 0}}]}