{"type": "FeatureCollection", "features": [{"type": "Feature", "bbox": [138.19025, 36.64375, 138.3740657, 36.8439844], "geometry": {"type": "LineString", "coordinates": [[138.19025, 36.64375], [138.19073342, 36.64407387], [138.19241094, 36.6454718], [138.19318724, 36.6461321], [138.19368395, 36.64650984], [138.19572957, 36.64784091], [138.19621926, 36.64817737], [138.19697439, 36.6487526], [138.19827714, 36.64978172], [138.19856178, 36.6499926], [138.1993946, 36.65056367], [138.20057957, 36.65131082], [138.20326931, 36.65310779], [138.20472554, 36.65411668], [138.20658152, 36.65531593], [138.21396213, 36.66004582], [138.22300329, 36.66568911], [138.23042721, 36.67049562], [138.23492439, 36.67332242], [138.23777974, 36.67504991], [138.24525482, 36.67940536], [138.24733685, 36.68078545], [138.24851468, 36.68163016], [138.25010892, 36.68286748], [138.25282151, 36.68524694], [138.26143991, 36.69309916], [138.26762651, 36.69863855], [138.26871155, 36.6995713], [138.27095776, 36.70126547], [138.27312783, 36.70265508], [138.28053271, 36.70731882], [138.29456201, 36.71617042], [138.29789326, 36.71824531], [138.30107222, 36.72014888], [138.30390853, 36.72167173], [138.30571692, 36.7225093], [138.31036163, 36.72452708], [138.31822337, 36.72801061], [138.32100258, 36.72955251], [138.32319169, 36.73103729], [138.326028, 36.73307411], [138.32901661, 36.73585332], [138.33086307, 36.73769978], [138.33312831, 36.74063128], [138.33444178, 36.74266809], [138.33615499, 36.74588513], [138.33691642, 36.74763641], [138.33773495, 36.75001587], [138.33826795, 36.75201462], [138.33859156, 36.75370879], [138.33899131, 36.7569639], [138.33958141, 36.76195125], [138.34001923, 36.76438781], [138.3405332, 36.76657692], [138.34114234, 36.76851856], [138.34201798, 36.77078381], [138.34340759, 36.77356302], [138.34487333, 36.77599958], [138.34668287, 36.77835411], [138.34821048, 36.7801387], [138.34996652, 36.78198041], [138.35199382, 36.78377928], [138.35393546, 36.78532117], [138.35807573, 36.78847634], [138.36080259, 36.79056074], [138.36210177, 36.79166005], [138.36335813, 36.79278792], [138.36482864, 36.79424415], [138.36634197, 36.79591453], [138.36742701, 36.79731365], [138.3684121, 36.79866995], [138.37002538, 36.80116838], [138.37078205, 36.80265316], [138.37172431, 36.80469474], [138.37273796, 36.8074216], [138.37336614, 36.80977727], [138.37378017, 36.81214721], [138.3740086, 36.81431728], [138.3740657, 36.81643024], [138.37392294, 36.81885729], [138.37375161, 36.82042774], [138.37338042, 36.82246932], [138.37285218, 36.82441096], [138.3724096, 36.82588146], [138.37165293, 36.82790876], [138.37008249, 36.83106393], [138.36886896, 36.83296274], [138.36819795, 36.83400494], [138.36568524, 36.83723149], [138.36181624, 36.84181433], [138.35998167, 36.8439844]]}, "properties": {"id": "GEOM_TOKYO_4064", "route_id": "R_F3B5B6DF", "route_name": null, "route_color": null, "route_text_color": null, "representation": "service_path", "min_zoom": 0, "max_zoom": 24, "offset_rank": 0}}, {"type": "Feature", "bbox": [138.35804003, 36.8439844, 138.35998167, 36.846302], "geometry": {"type": "LineString", "coordinates": [[138.35998167, 36.8439844], [138.35804003, 36.846302]]}, "properties": {"id": "GEOM_TOKYO_4065", "route_id": "R_F3B5B6DF", "route_name": null, "route_color": null, "route_text_color": null, "representation": "service_path", "min_zoom": 0, "max_zoom": 24, "offset_rank": 0}}, {"type": "Feature", "bbox": [138.24960275, 36.846302, 138.35804003, 37.08026308], "geometry": {"type": "LineString", "coordinates": [[138.35804003, 36.846302], [138.35162471, 36.85394869], [138.3448718, 36.86201507], [138.3398321, 36.86801131], [138.33096623, 36.87854756], [138.32381357, 36.88705651], [138.31499053, 36.89756421], [138.30710975, 36.9069726], [138.30562497, 36.9088143], [138.30375471, 36.91145551], [138.30172741, 36.91499614], [138.30067093, 36.9172376], [138.29947168, 36.92027855], [138.29874357, 36.92259138], [138.29824388, 36.92470434], [138.29768709, 36.92833064], [138.29745866, 36.93178562], [138.29713029, 36.93918099], [138.29671627, 36.94808969], [138.29625941, 36.95839751], [138.2961452, 36.96099588], [138.29613092, 36.96380841], [138.29625941, 36.96616407], [138.29655922, 36.96883383], [138.2978013, 36.97658611], [138.29947168, 36.98712237], [138.30168458, 37.00101366], [138.30328358, 37.01127865], [138.30348345, 37.01277771], [138.30354056, 37.01494778], [138.30348345, 37.01760326], [138.30314081, 37.02031585], [138.3024127, 37.02341391], [138.30164175, 37.02572674], [138.30035684, 37.02869631], [138.29865791, 37.03169443], [138.29601671, 37.03539211], [138.29056298, 37.0429588], [138.28606398, 37.04919505], [138.28397005, 37.05180056], [138.28166197, 37.05437038], [138.27913974, 37.05676173], [138.27553486, 37.05972416], [138.27026064, 37.06328413], [138.26330845, 37.0677947], [138.26146198, 37.06918431], [138.25896831, 37.0713163], [138.25559899, 37.07453333], [138.24960275, 37.08026308]]}, "properties": {"id": "GEOM_TOKYO_4066", "route_id": "R_F3B5B6DF", "route_name": null, "route_color": null, "route_text_color": null, "representation": "service_path", "min_zoom": 0, "max_zoom": 24, "offset_rank": 0}}]}