{"type": "FeatureCollection", "features": [{"type": "Feature", "bbox": [138.21089, 35.92955, 138.21271, 35.93125], "geometry": {"type": "LineString", "coordinates": [[138.21271, 35.92955], [138.21193, 35.93034], [138.21186, 35.93042], [138.21181, 35.93046], [138.21171, 35.93056], [138.21163, 35.93063], [138.21089, 35.93125]]}, "properties": {"id": "GEOM_TOKYO_3048", "route_id": "R_3F47F0D7", "route_name": null, "route_color": "#F15A24", "route_text_color": null, "line_name": "中央線", "operator_id": "jr_east", "representation": "service_path", "min_zoom": 0, "max_zoom": 24, "offset_rank": 0}}, {"type": "Feature", "bbox": [138.19652, 35.94167, 138.19841, 35.94389], "geometry": {"type": "LineString", "coordinates": [[138.19841, 35.94167], [138.19765, 35.94257], [138.19652, 35.94389]]}, "properties": {"id": "GEOM_TOKYO_3056", "route_id": "R_3F47F0D7", "route_name": null, "route_color": "#F15A24", "route_text_color": null, "line_name": "中央線", "operator_id": "jr_east", "representation": "service_path", "min_zoom": 0, "max_zoom": 24, "offset_rank": 0}}, {"type": "Feature", "bbox": [138.11652, 35.99608, 138.15088, 36.04572], "geometry": {"type": "LineString", "coordinates": [[138.15088, 35.99608], [138.15068, 35.99634], [138.15064, 35.9964], [138.15046, 35.99662], [138.14978, 35.99748], [138.14893, 35.99853], [138.14819, 35.99945], [138.14805, 35.99962], [138.1479, 35.99981], [138.14737, 36.00045], [138.14651, 36.00153], [138.14636, 36.00172], [138.14628, 36.00182], [138.14523, 36.00316], [138.14492, 36.00355], [138.14456, 36.004], [138.1443, 36.00434], [138.14335, 36.00555], [138.14226, 36.00695], [138.14133, 36.00812], [138.14113, 36.00838], [138.1406, 36.00906], [138.14045, 36.00924], [138.1399, 36.00994], [138.13916, 36.0109], [138.13904, 36.01105], [138.13899, 36.01111], [138.13854, 36.01168], [138.13841, 36.01184], [138.13778, 36.01264], [138.13738, 36.01316], [138.13722, 36.01348], [138.13639, 36.01533], [138.13574, 36.01678], [138.13548, 36.01738], [138.13541, 36.01753], [138.13508, 36.01829], [138.13477, 36.01897], [138.13412, 36.02043], [138.13371, 36.02135], [138.13339, 36.02198], [138.13318, 36.02234], [138.13283, 36.02279], [138.13268, 36.02297], [138.13252, 36.02316], [138.13193, 36.02382], [138.13115, 36.02468], [138.13099, 36.02486], [138.13008, 36.02587], [138.12939, 36.02663], [138.12849, 36.02763], [138.12727, 36.02899], [138.12633, 36.03001], [138.12543, 36.03101], [138.12367, 36.03295], [138.12191, 36.03489], [138.12126, 36.03558], [138.1204, 36.03653], [138.11997, 36.037], [138.11962, 36.03736], [138.1195, 36.0375], [138.11917, 36.03782], [138.11905, 36.03796], [138.1189, 36.03816], [138.11867, 36.03846], [138.11861, 36.03857], [138.11849, 36.03877], [138.11828, 36.03917], [138.11814, 36.03947], [138.11807, 36.03967], [138.11805, 36.03974], [138.118, 36.03987], [138.11793, 36.04013], [138.11764, 36.04127], [138.11734, 36.04244], [138.11705, 36.04358], [138.11674, 36.0448], [138.11652, 36.04572]]}, "properties": {"id": "GEOM_TOKYO_3068", "route_id": "R_3F47F0D7", "route_name": null, "route_color": "#F15A24", "route_text_color": null, "line_name": "中央線", "operator_id": "jr_east", "representation": "service_path", "min_zoom": 0, "max_zoom": 24, "offset_rank": 0}}, {"type": "Feature", "bbox": [138.19841, 35.93125, 138.21089, 35.94167], "geometry": {"type": "LineString", "coordinates": [[138.21089, 35.93125], [138.21074, 35.93137], [138.21049, 35.93156], [138.21006, 35.93185], [138.20967, 35.93207], [138.20923, 35.9323], [138.2086, 35.93258], [138.20729, 35.93308], [138.20656, 35.93339], [138.20593, 35.93371], [138.20528, 35.93406], [138.20517, 35.93414], [138.20506, 35.93423], [138.20488, 35.93439], [138.20469, 35.93455], [138.20453, 35.93471], [138.20443, 35.93482], [138.20434, 35.93492], [138.20423, 35.93504], [138.2038, 35.93562], [138.2032, 35.93647], [138.20309, 35.93664], [138.20301, 35.93675], [138.20292, 35.93686], [138.20283, 35.93698], [138.20264, 35.93718], [138.20239, 35.93748], [138.20222, 35.93765], [138.20221, 35.93767], [138.20206, 35.93781], [138.20202, 35.93784], [138.20101, 35.93871], [138.20088, 35.93885], [138.20066, 35.93909], [138.19985, 35.93998], [138.19841, 35.94167]]}, "properties": {"id": "GEOM_TOKYO_3091", "route_id": "R_3F47F0D7", "route_name": null, "route_color": "#F15A24", "route_text_color": null, "line_name": "中央線", "operator_id": "jr_east", "representation": "service_path", "min_zoom": 0, "max_zoom": 24, "offset_rank": 0}}, {"type": "Feature", "bbox": [138.15088, 35.99392, 138.15264, 35.99608], "geometry": {"type": "LineString", "coordinates": [[138.15264, 35.99392], [138.15248, 35.99411], [138.1518, 35.99494], [138.15088, 35.99608]]}, "properties": {"id": "GEOM_TOKYO_3094", "route_id": "R_3F47F0D7", "route_name": null, "route_color": "#F15A24", "route_text_color": null, "line_name": "中央線", "operator_id": "jr_east", "representation": "service_path", "min_zoom": 0, "max_zoom": 24, "offset_rank": 0}}, {"type": "Feature", "bbox": [138.15264, 35.94389, 138.19652, 35.99392], "geometry": {"type": "LineString", "coordinates": [[138.19652, 35.94389], [138.1955, 35.94503], [138.19532, 35.94523], [138.19517, 35.94541], [138.19497, 35.94563], [138.1949, 35.9457], [138.19411, 35.94661], [138.19381, 35.94694], [138.19351, 35.94722], [138.19314, 35.94754], [138.19297, 35.94769], [138.19204, 35.94847], [138.19159, 35.9488], [138.19055, 35.94956], [138.1903, 35.94975], [138.19008, 35.94996], [138.18981, 35.95027], [138.1896, 35.95055], [138.18905, 35.95132], [138.18864, 35.95193], [138.18817, 35.95266], [138.1881, 35.95278], [138.18807, 35.95281], [138.18793, 35.95299], [138.18778, 35.95319], [138.18757, 35.95342], [138.18755, 35.95344], [138.18732, 35.95366], [138.18712, 35.95384], [138.18566, 35.9551], [138.1842, 35.95637], [138.18369, 35.95682], [138.18276, 35.95764], [138.18125, 35.95904], [138.18012, 35.96013], [138.17969, 35.96054], [138.17916, 35.96105], [138.17895, 35.96127], [138.17871, 35.96155], [138.17856, 35.96177], [138.17796, 35.96264], [138.17741, 35.96351], [138.1771, 35.96401], [138.17697, 35.96421], [138.17694, 35.96426], [138.17686, 35.96439], [138.17666, 35.9647], [138.17633, 35.96517], [138.17555, 35.96625], [138.1753, 35.96658], [138.17524, 35.96666], [138.17517, 35.96676], [138.17452, 35.96768], [138.17414, 35.96818], [138.1739, 35.96852], [138.17375, 35.96874], [138.17371, 35.9688], [138.17362, 35.96894], [138.17345, 35.9693], [138.17331, 35.96965], [138.17305, 35.97049], [138.17281, 35.97149], [138.17255, 35.97279], [138.17242, 35.97348], [138.17231, 35.974], [138.17223, 35.97422], [138.17211, 35.97444], [138.17189, 35.97474], [138.1717, 35.97495], [138.17144, 35.97526], [138.17115, 35.97559], [138.17081, 35.97595], [138.17041, 35.97638], [138.17027, 35.97652], [138.16985, 35.97699], [138.16978, 35.97706], [138.16961, 35.97726], [138.16939, 35.97749], [138.16907, 35.97786], [138.16871, 35.97825], [138.16847, 35.97851], [138.16748, 35.97959], [138.16734, 35.97974], [138.1671, 35.98], [138.16683, 35.98029], [138.16663, 35.98051], [138.16643, 35.98069], [138.16619, 35.98089], [138.16594, 35.98107], [138.16563, 35.98126], [138.1653, 35.98143], [138.16503, 35.98157], [138.16469, 35.98174], [138.16446, 35.98188], [138.16442, 35.9819], [138.16413, 35.9821], [138.16393, 35.98226], [138.16374, 35.98241], [138.16351, 35.98265], [138.16201, 35.98419], [138.16197, 35.98424], [138.16144, 35.9848], [138.1614, 35.98483], [138.16119, 35.98505], [138.16095, 35.9853], [138.16055, 35.98572], [138.16029, 35.986], [138.16008, 35.98621], [138.15966, 35.98658], [138.15939, 35.98677], [138.15919, 35.98692], [138.1589, 35.98709], [138.15865, 35.98723], [138.15843, 35.98735], [138.15811, 35.98751], [138.15777, 35.98766], [138.1575, 35.9878], [138.15744, 35.98784], [138.15723, 35.98797], [138.15718, 35.988], [138.15701, 35.98813], [138.15683, 35.98827], [138.15664, 35.98843], [138.15646, 35.98863], [138.15609, 35.98906], [138.15563, 35.98967], [138.15556, 35.98977], [138.15543, 35.98997], [138.15522, 35.99028], [138.15487, 35.99079], [138.15476, 35.99095], [138.15466, 35.99109], [138.15455, 35.99126], [138.15444, 35.99141], [138.15434, 35.99156], [138.15425, 35.99168], [138.15389, 35.99221], [138.15319, 35.99319], [138.15264, 35.99392]]}, "properties": {"id": "GEOM_TOKYO_3096", "route_id": "R_3F47F0D7", "route_name": null, "route_color": "#F15A24", "route_text_color": null, "line_name": "中央線", "operator_id": "jr_east", "representation": "service_path", "min_zoom": 0, "max_zoom": 24, "offset_rank": 0}}]}