{"type": "FeatureCollection", "features": [{"type": "Feature", "bbox": [138.01727, 34.76941, 138.36282, 34.93126], "geometry": {"type": "LineString", "coordinates": [[138.01727, 34.76941], [138.01731, 34.76941], [138.01816, 34.76957], [138.01868, 34.76967], [138.01889, 34.76971], [138.01901, 34.76973], [138.0193, 34.76979], [138.01969, 34.76987], [138.02041, 34.7701], [138.02164, 34.77046], [138.02211, 34.77061], [138.02248, 34.77072], [138.02292, 34.77085], [138.02385, 34.77113], [138.02559, 34.77167], [138.02576, 34.77172], [138.02581, 34.77174], [138.02594, 34.77177], [138.02713, 34.77214], [138.02779, 34.77234], [138.0279, 34.77238], [138.02817, 34.77246], [138.02875, 34.77264], [138.03089, 34.7733], [138.03161, 34.77349], [138.03234, 34.77364], [138.03343, 34.77382], [138.03396, 34.7739], [138.03414, 34.77392], [138.03467, 34.77398], [138.03541, 34.77403], [138.03635, 34.77411], [138.03717, 34.77412], [138.03725, 34.77412], [138.03797, 34.77415], [138.03944, 34.7742], [138.04034, 34.77422], [138.04065, 34.7742], [138.04124, 34.77414], [138.04134, 34.77413], [138.04147, 34.77412], [138.04161, 34.7741], [138.04291, 34.77395], [138.04406, 34.77375], [138.04422, 34.77372], [138.04437, 34.77369], [138.04466, 34.77364], [138.04536, 34.77349], [138.04695, 34.7731], [138.04827, 34.77277], [138.05001, 34.77235], [138.05105, 34.77213], [138.05141, 34.77205], [138.05221, 34.77189], [138.05344, 34.77162], [138.05415, 34.77149], [138.05457, 34.77144], [138.05518, 34.77138], [138.05585, 34.77134], [138.05635, 34.77132], [138.05708, 34.77131], [138.05914, 34.77128], [138.0607, 34.77126], [138.06127, 34.77126], [138.0617, 34.77127], [138.06228, 34.77128], [138.0623, 34.77128], [138.06278, 34.77129], [138.06314, 34.7713], [138.06409, 34.77132], [138.0643, 34.77132], [138.06445, 34.77132], [138.06448, 34.77132], [138.06457, 34.77133], [138.06508, 34.77134], [138.06529, 34.77134], [138.06692, 34.77138], [138.06718, 34.77138], [138.06755, 34.77139], [138.06785, 34.7714], [138.06827, 34.77141], [138.06833, 34.77142], [138.06853, 34.77142], [138.06907, 34.77143], [138.06919, 34.77144], [138.06956, 34.77144], [138.07038, 34.77146], [138.07154, 34.77148], [138.07356, 34.77154], [138.07457, 34.77156], [138.07479, 34.77157], [138.07664, 34.77167], [138.0776, 34.77172], [138.0783, 34.77176], [138.07841, 34.77177], [138.0791, 34.77183], [138.07982, 34.77191], [138.0806, 34.77199], [138.08075, 34.772], [138.0809, 34.77202], [138.08104, 34.77203], [138.08272, 34.77221], [138.08446, 34.77239], [138.08479, 34.77242], [138.08559, 34.7725], [138.08666, 34.7726], [138.0869, 34.77263], [138.08741, 34.77268], [138.08902, 34.77285], [138.09105, 34.77306], [138.09147, 34.7731], [138.09178, 34.77313], [138.09211, 34.77317], [138.09307, 34.77325], [138.09316, 34.77326], [138.09446, 34.7734], [138.09459, 34.7734], [138.09696, 34.77364], [138.09758, 34.77369], [138.09779, 34.77371], [138.09816, 34.77377], [138.09981, 34.77397], [138.10008, 34.77401], [138.10015, 34.77401], [138.10097, 34.77411], [138.10113, 34.77413], [138.10153, 34.77418], [138.10167, 34.77419], [138.10191, 34.77422], [138.10205, 34.77424], [138.10275, 34.77433], [138.10303, 34.77437], [138.10333, 34.77442], [138.10349, 34.77445], [138.1037, 34.77449], [138.10375, 34.7745], [138.10483, 34.77472], [138.10746, 34.77532], [138.10795, 34.77542], [138.10822, 34.77552], [138.11001, 34.77602], [138.11008, 34.77605], [138.11095, 34.77629], [138.11464, 34.77735], [138.11511, 34.77748], [138.11553, 34.7776], [138.1191, 34.77859], [138.11932, 34.77866], [138.12125, 34.77922], [138.12194, 34.77941], [138.12393, 34.77999], [138.12534, 34.78039], [138.12649, 34.78073], [138.12751, 34.78101], [138.12896, 34.78144], [138.13052, 34.78189], [138.13063, 34.78192], [138.13266, 34.78249], [138.13435, 34.78297], [138.13564, 34.78333], [138.13792, 34.78401], [138.13862, 34.78422], [138.13939, 34.78442], [138.14109, 34.7849], [138.14148, 34.78501], [138.14426, 34.78581], [138.14832, 34.78697], [138.14967, 34.78735], [138.14986, 34.78741], [138.15016, 34.78749], [138.15042, 34.78757], [138.15065, 34.78763], [138.15236, 34.78812], [138.1538, 34.78852], [138.15416, 34.78862], [138.15434, 34.78867], [138.15451, 34.78872], [138.1556, 34.78904], [138.15617, 34.7892], [138.15737, 34.78956], [138.15877, 34.78996], [138.16029, 34.7904], [138.16153, 34.79076], [138.16364, 34.79137], [138.16525, 34.79184], [138.16584, 34.79201], [138.16748, 34.79248], [138.17019, 34.79325], [138.17188, 34.79373], [138.17227, 34.79385], [138.1725, 34.79391], [138.17427, 34.79442], [138.17586, 34.79488], [138.17587, 34.79488], [138.17728, 34.79529], [138.17894, 34.79576], [138.18139, 34.79647], [138.18418, 34.79726], [138.18563, 34.79768], [138.18632, 34.79788], [138.18843, 34.7985], [138.19063, 34.79913], [138.19233, 34.79961], [138.1936, 34.79997], [138.19382, 34.80003], [138.19406, 34.8001], [138.19489, 34.80034], [138.19565, 34.80056], [138.19639, 34.80077], [138.19657, 34.80082], [138.19911, 34.80156], [138.20006, 34.80183], [138.20028, 34.80189], [138.20077, 34.80203], [138.20125, 34.80218], [138.20146, 34.80225], [138.20212, 34.80246], [138.20241, 34.80255], [138.20262, 34.80262], [138.20292, 34.80273], [138.20363, 34.80297], [138.20378, 34.80302], [138.20382, 34.80304], [138.20462, 34.80336], [138.20472, 34.80341], [138.2049, 34.80348], [138.20579, 34.80388], [138.20585, 34.8039], [138.20605, 34.80399], [138.20653, 34.80421], [138.20693, 34.8044], [138.20712, 34.80448], [138.20762, 34.80473], [138.20779, 34.80481], [138.20808, 34.80497], [138.20894, 34.80545], [138.20955, 34.80581], [138.20982, 34.80598], [138.20996, 34.80608], [138.21042, 34.80639], [138.21113, 34.80689], [138.21275, 34.80801], [138.21359, 34.80859], [138.21465, 34.80932], [138.21616, 34.81036], [138.21705, 34.81099], [138.21721, 34.81111], [138.21734, 34.8112], [138.21765, 34.81141], [138.21791, 34.81159], [138.21848, 34.81198], [138.22043, 34.81334], [138.22236, 34.81467], [138.22257, 34.81482], [138.22346, 34.81544], [138.22437, 34.81606], [138.22458, 34.81621], [138.22479, 34.81635], [138.22551, 34.81685], [138.22582, 34.81705], [138.22786, 34.81845], [138.22959, 34.81966], [138.22988, 34.81985], [138.2309, 34.82056], [138.23258, 34.82173], [138.23411, 34.82278], [138.23507, 34.82344], [138.23668, 34.82456], [138.23698, 34.82476], [138.23841, 34.82574], [138.23976, 34.82667], [138.23987, 34.82675], [138.23999, 34.82683], [138.24128, 34.82772], [138.24242, 34.82849], [138.24248, 34.82853], [138.2427, 34.82868], [138.24341, 34.82918], [138.24356, 34.82928], [138.24367, 34.82936], [138.24401, 34.8296], [138.24494, 34.83024], [138.24599, 34.83096], [138.24693, 34.83166], [138.24772, 34.83218], [138.24889, 34.83293], [138.24993, 34.83362], [138.25094, 34.83428], [138.25107, 34.83436], [138.25153, 34.83467], [138.252, 34.83498], [138.25203, 34.835], [138.25257, 34.83535], [138.2531, 34.8357], [138.25448, 34.83664], [138.25511, 34.83707], [138.25649, 34.83798], [138.2566, 34.83804], [138.2569, 34.83825], [138.25855, 34.83933], [138.25929, 34.83983], [138.25955, 34.84001], [138.25971, 34.84011], [138.26103, 34.84098], [138.2623, 34.84183], [138.26248, 34.84195], [138.263, 34.8423], [138.26423, 34.84312], [138.26427, 34.84315], [138.26491, 34.84357], [138.26549, 34.84395], [138.26658, 34.84468], [138.26711, 34.84503], [138.26779, 34.84548], [138.26789, 34.84555], [138.26905, 34.84633], [138.26947, 34.84661], [138.26981, 34.84684], [138.27014, 34.84706], [138.27112, 34.84772], [138.27143, 34.84792], [138.27169, 34.8481], [138.27224, 34.84847], [138.27336, 34.84923], [138.27453, 34.85003], [138.27525, 34.8505], [138.27549, 34.85066], [138.27571, 34.8508], [138.27694, 34.85163], [138.27815, 34.85243], [138.27931, 34.85321], [138.27959, 34.8534], [138.27982, 34.85355], [138.28023, 34.85382], [138.28055, 34.85403], [138.28164, 34.85477], [138.28178, 34.85487], [138.282, 34.85501], [138.28256, 34.8554], [138.28354, 34.85605], [138.28466, 34.8568], [138.2858, 34.85756], [138.28711, 34.85842], [138.28717, 34.85846], [138.28758, 34.85873], [138.28807, 34.85906], [138.28835, 34.85925], [138.28839, 34.85928], [138.28891, 34.85963], [138.28919, 34.85982], [138.28925, 34.85986], [138.2904, 34.86062], [138.29135, 34.86125], [138.29138, 34.86127], [138.29193, 34.86164], [138.2922, 34.86182], [138.29247, 34.862], [138.29261, 34.8621], [138.29266, 34.86213], [138.29301, 34.86237], [138.29365, 34.8628], [138.29418, 34.86315], [138.29434, 34.86326], [138.29533, 34.86391], [138.2956, 34.8641], [138.29631, 34.86457], [138.29732, 34.86524], [138.29824, 34.86585], [138.29831, 34.8659], [138.29878, 34.86621], [138.29948, 34.86667], [138.29988, 34.86693], [138.30042, 34.8673], [138.30067, 34.86746], [138.3013, 34.86788], [138.30145, 34.86798], [138.30182, 34.86822], [138.30223, 34.8685], [138.30294, 34.86899], [138.30353, 34.86938], [138.30396, 34.86966], [138.30419, 34.86982], [138.30433, 34.86992], [138.30511, 34.87045], [138.30535, 34.87061], [138.3054, 34.87065], [138.30635, 34.87133], [138.30647, 34.87142], [138.30674, 34.87162], [138.30732, 34.87204], [138.30751, 34.87219], [138.30753, 34.8722], [138.30849, 34.87292], [138.30975, 34.87388], [138.3103, 34.8743], [138.31118, 34.87498], [138.31154, 34.87526], [138.31203, 34.87563], [138.31252, 34.87601], [138.31269, 34.87614], [138.31304, 34.8764], [138.31339, 34.87668], [138.31481, 34.87775], [138.31559, 34.87835], [138.31646, 34.87902], [138.31655, 34.87909], [138.31787, 34.88011], [138.3184, 34.88052], [138.31862, 34.88069], [138.32018, 34.8819], [138.32049, 34.88215], [138.32093, 34.8825], [138.32128, 34.88277], [138.3218, 34.88317], [138.3225, 34.88376], [138.32329, 34.88448], [138.32432, 34.88545], [138.32479, 34.88592], [138.32502, 34.88615], [138.32558, 34.8867], [138.3271, 34.88825], [138.32713, 34.88828], [138.32727, 34.88842], [138.32794, 34.88909], [138.32888, 34.89003], [138.32982, 34.89096], [138.32999, 34.89112], [138.33003, 34.89117], [138.33097, 34.89209], [138.33216, 34.89328], [138.33242, 34.89354], [138.33251, 34.89362], [138.33261, 34.89372], [138.33322, 34.89433], [138.33386, 34.89496], [138.334, 34.89511], [138.33403, 34.89513], [138.33534, 34.89647], [138.33647, 34.89765], [138.33746, 34.89864], [138.33816, 34.89934], [138.33884, 34.90002], [138.33957, 34.90076], [138.33989, 34.90108], [138.34028, 34.90147], [138.34098, 34.90215], [138.3415, 34.90267], [138.34167, 34.90283], [138.34303, 34.90419], [138.34444, 34.9056], [138.34485, 34.90601], [138.34552, 34.90669], [138.34616, 34.90731], [138.3469, 34.90807], [138.34757, 34.90873], [138.34831, 34.90949], [138.34849, 34.90966], [138.34898, 34.91015], [138.34965, 34.91082], [138.35037, 34.91156], [138.35111, 34.91231], [138.35165, 34.91285], [138.35229, 34.91353], [138.35242, 34.91368], [138.3532, 34.91453], [138.35375, 34.91522], [138.35429, 34.91593], [138.35489, 34.9167], [138.35547, 34.91747], [138.35595, 34.91809], [138.35624, 34.91847], [138.35638, 34.91866], [138.35658, 34.91891], [138.35676, 34.91914], [138.35705, 34.91951], [138.35737, 34.91997], [138.35759, 34.92023], [138.35779, 34.92048], [138.35814, 34.92103], [138.35896, 34.92214], [138.35947, 34.92287], [138.35987, 34.92346], [138.36001, 34.92363], [138.36031, 34.92409], [138.36058, 34.92453], [138.36091, 34.92527], [138.36098, 34.92541], [138.36104, 34.92554], [138.36126, 34.92605], [138.36165, 34.92696], [138.362, 34.92775], [138.36201, 34.92778], [138.36208, 34.92799], [138.36224, 34.92851], [138.36253, 34.92977], [138.36273, 34.93071], [138.36277, 34.93098], [138.3628, 34.93112], [138.36282, 34.93126]]}, "properties": {"id": "GEOM_TOKYO_0959", "route_id": "R_3B2E9FFD", "route_name": null, "route_color": "#1F78FF", "route_text_color": null, "line_name": "東海道新幹線", "operator_id": "東海旅客鉄道", "representation": "service_path", "min_zoom": 0, "max_zoom": 24, "offset_rank": 0}}, {"type": "Feature", "bbox": [138.36282, 34.93126, 138.38765, 34.97062], "geometry": {"type": "LineString", "coordinates": [[138.36282, 34.93126], [138.36289, 34.93184], [138.36296, 34.93272], [138.36299, 34.93347], [138.36299, 34.93348], [138.36299, 34.93362], [138.36297, 34.93498], [138.36297, 34.93577], [138.36297, 34.93671], [138.36297, 34.93685], [138.36297, 34.93727], [138.36297, 34.93775], [138.36296, 34.93785], [138.36296, 34.93795], [138.36295, 34.93889], [138.36295, 34.93982], [138.36299, 34.94143], [138.36306, 34.94202], [138.36328, 34.94352], [138.36334, 34.94385], [138.3634, 34.94414], [138.36346, 34.94445], [138.36382, 34.94583], [138.36397, 34.94629], [138.36447, 34.94751], [138.36481, 34.9483], [138.36544, 34.94954], [138.36574, 34.95005], [138.36581, 34.95018], [138.36584, 34.95022], [138.36649, 34.95126], [138.3672, 34.95218], [138.36791, 34.95306], [138.36884, 34.95403], [138.36906, 34.95425], [138.36934, 34.95452], [138.37035, 34.95551], [138.37191, 34.95707], [138.37208, 34.95726], [138.37308, 34.95824], [138.3737, 34.95888], [138.37407, 34.95925], [138.37451, 34.95969], [138.37464, 34.95981], [138.37486, 34.96004], [138.37527, 34.96047], [138.37547, 34.96067], [138.37627, 34.96146], [138.37722, 34.96243], [138.37839, 34.96359], [138.37901, 34.96422], [138.37946, 34.96466], [138.37997, 34.96515], [138.38075, 34.96597], [138.38138, 34.96663], [138.38201, 34.96717], [138.38266, 34.96769], [138.38346, 34.96829], [138.38456, 34.96895], [138.38532, 34.96939], [138.38644, 34.96999], [138.38688, 34.97022], [138.38765, 34.97062]]}, "properties": {"id": "GEOM_TOKYO_0960", "route_id": "R_3B2E9FFD", "route_name": null, "route_color": "#1F78FF", "route_text_color": null, "line_name": "東海道新幹線", "operator_id": "東海旅客鉄道", "representation": "service_path", "min_zoom": 0, "max_zoom": 24, "offset_rank": 0}}, {"type": "Feature", "bbox": [138.38765, 34.97062, 138.39156, 34.97277], "geometry": {"type": "LineString", "coordinates": [[138.39156, 34.97277], [138.39089, 34.97242], [138.3886, 34.97116], [138.38765, 34.97062]]}, "properties": {"id": "GEOM_TOKYO_0961", "route_id": "R_3B2E9FFD", "route_name": null, "route_color": "#1F78FF", "route_text_color": null, "line_name": "東海道新幹線", "operator_id": "東海旅客鉄道", "representation": "service_path", "min_zoom": 0, "max_zoom": 24, "offset_rank": 0}}, {"type": "Feature", "bbox": [138.39156, 34.97277, 138.66128, 35.14181], "geometry": {"type": "LineString", "coordinates": [[138.39156, 34.97277], [138.39293, 34.97352], [138.39397, 34.9741], [138.39522, 34.9748], [138.39585, 34.97512], [138.39643, 34.9754], [138.39792, 34.97601], [138.39872, 34.97638], [138.4001, 34.97699], [138.40107, 34.97738], [138.40121, 34.97744], [138.40188, 34.97778], [138.4031, 34.97832], [138.40365, 34.97858], [138.40484, 34.97921], [138.4058, 34.97974], [138.40733, 34.98072], [138.40788, 34.98106], [138.40802, 34.98115], [138.40922, 34.98195], [138.41056, 34.98283], [138.41213, 34.98383], [138.41282, 34.98432], [138.41327, 34.98462], [138.41347, 34.98473], [138.41454, 34.98545], [138.41585, 34.98632], [138.41766, 34.9875], [138.41846, 34.98804], [138.41967, 34.98884], [138.42007, 34.9891], [138.42093, 34.98967], [138.42176, 34.9902], [138.42207, 34.99041], [138.42311, 34.99107], [138.42352, 34.99134], [138.42371, 34.99146], [138.42482, 34.99216], [138.42649, 34.99327], [138.42672, 34.99342], [138.42675, 34.99344], [138.42724, 34.99374], [138.42872, 34.99472], [138.43006, 34.99558], [138.43158, 34.99655], [138.43237, 34.99708], [138.43263, 34.99725], [138.43423, 34.99825], [138.43444, 34.99838], [138.43511, 34.99882], [138.43518, 34.99887], [138.43557, 34.99912], [138.43662, 34.99977], [138.43684, 34.99992], [138.43862, 35.00106], [138.43968, 35.00174], [138.44103, 35.00264], [138.44199, 35.00329], [138.44304, 35.00396], [138.44326, 35.0041], [138.44386, 35.00448], [138.44452, 35.0049], [138.44536, 35.00544], [138.44582, 35.00573], [138.44611, 35.00592], [138.44677, 35.00634], [138.44697, 35.00648], [138.44814, 35.00723], [138.44923, 35.00793], [138.45044, 35.0087], [138.45072, 35.00888], [138.45155, 35.0094], [138.45265, 35.01011], [138.45298, 35.01032], [138.45373, 35.01081], [138.45484, 35.01152], [138.45558, 35.01202], [138.45583, 35.01218], [138.45601, 35.01231], [138.45668, 35.01279], [138.45741, 35.01334], [138.45815, 35.01392], [138.45907, 35.01469], [138.4594, 35.01497], [138.46, 35.01548], [138.4605, 35.0159], [138.46088, 35.01623], [138.46118, 35.01649], [138.46176, 35.01698], [138.46279, 35.01785], [138.46374, 35.01865], [138.46428, 35.01912], [138.46495, 35.01969], [138.46586, 35.02046], [138.46665, 35.02115], [138.46762, 35.02196], [138.46882, 35.02298], [138.46884, 35.023], [138.46986, 35.02386], [138.47011, 35.02408], [138.47019, 35.02414], [138.47027, 35.02421], [138.47036, 35.02428], [138.47044, 35.02435], [138.47086, 35.0247], [138.47094, 35.02477], [138.47102, 35.02484], [138.47107, 35.02488], [138.47112, 35.02493], [138.47118, 35.02498], [138.47138, 35.02514], [138.47161, 35.02534], [138.47208, 35.02574], [138.47306, 35.02657], [138.47315, 35.02665], [138.47405, 35.02742], [138.47494, 35.02817], [138.47587, 35.02894], [138.47618, 35.0292], [138.47691, 35.02981], [138.47707, 35.02994], [138.47772, 35.03048], [138.47784, 35.03058], [138.47812, 35.03081], [138.47843, 35.03106], [138.47882, 35.03137], [138.47913, 35.03162], [138.47931, 35.03177], [138.47973, 35.03211], [138.4799, 35.03225], [138.48084, 35.03295], [138.48152, 35.03343], [138.48241, 35.034], [138.48253, 35.03407], [138.48293, 35.03432], [138.48334, 35.03457], [138.48359, 35.03472], [138.48406, 35.03502], [138.48464, 35.03538], [138.48468, 35.0354], [138.48472, 35.03543], [138.48477, 35.03546], [138.48481, 35.03549], [138.48582, 35.0361], [138.48586, 35.03613], [138.4859, 35.03615], [138.48591, 35.03616], [138.48595, 35.03618], [138.48598, 35.0362], [138.48703, 35.03686], [138.4871, 35.0369], [138.48721, 35.03697], [138.48821, 35.03758], [138.48842, 35.03771], [138.48872, 35.0379], [138.48909, 35.03813], [138.48917, 35.03818], [138.48926, 35.03823], [138.48933, 35.03828], [138.48941, 35.03833], [138.49015, 35.03879], [138.49035, 35.03891], [138.4906, 35.03906], [138.49161, 35.03971], [138.49168, 35.03976], [138.49179, 35.03983], [138.49275, 35.04046], [138.49389, 35.04121], [138.49438, 35.04156], [138.49478, 35.04185], [138.49496, 35.04197], [138.49612, 35.04284], [138.4969, 35.04345], [138.49734, 35.04382], [138.49796, 35.04445], [138.49806, 35.04456], [138.49843, 35.045], [138.49912, 35.04581], [138.50037, 35.04726], [138.5014, 35.04849], [138.50211, 35.04932], [138.50246, 35.04969], [138.50374, 35.05115], [138.5046, 35.05217], [138.50549, 35.05321], [138.50572, 35.05348], [138.50641, 35.0543], [138.5071, 35.0551], [138.50923, 35.05758], [138.51054, 35.05909], [138.51188, 35.06061], [138.51209, 35.06086], [138.51305, 35.06198], [138.51463, 35.06381], [138.51572, 35.0651], [138.51815, 35.06791], [138.51842, 35.06826], [138.52041, 35.07054], [138.5206, 35.07076], [138.52126, 35.07151], [138.52204, 35.0724], [138.52353, 35.0741], [138.52446, 35.07517], [138.5247, 35.07545], [138.52583, 35.07682], [138.52789, 35.0792], [138.52853, 35.07995], [138.53009, 35.0817], [138.53164, 35.08357], [138.53276, 35.08494], [138.53385, 35.08625], [138.53418, 35.08662], [138.53433, 35.08672], [138.53467, 35.08705], [138.53499, 35.0874], [138.53561, 35.08809], [138.53626, 35.08883], [138.53644, 35.08904], [138.53692, 35.08958], [138.53756, 35.0903], [138.53821, 35.09098], [138.53858, 35.09135], [138.53892, 35.09171], [138.53922, 35.09205], [138.53957, 35.09241], [138.54019, 35.09305], [138.54081, 35.09369], [138.54117, 35.09408], [138.5418, 35.09475], [138.54248, 35.09547], [138.54317, 35.09616], [138.54384, 35.09686], [138.54445, 35.09747], [138.54506, 35.09811], [138.54539, 35.09846], [138.54541, 35.09848], [138.54596, 35.09909], [138.5466, 35.09977], [138.54724, 35.10048], [138.54789, 35.10119], [138.54856, 35.10187], [138.54933, 35.10265], [138.5496, 35.10293], [138.55024, 35.10356], [138.55092, 35.10427], [138.55159, 35.10497], [138.5522, 35.10557], [138.55284, 35.10624], [138.55339, 35.10681], [138.5535, 35.10693], [138.55394, 35.10736], [138.55438, 35.1078], [138.55539, 35.10861], [138.55648, 35.10945], [138.55665, 35.10958], [138.55688, 35.10975], [138.55704, 35.10986], [138.55753, 35.11019], [138.55872, 35.11095], [138.55883, 35.11102], [138.55895, 35.11109], [138.55945, 35.11141], [138.5597, 35.11156], [138.55997, 35.11173], [138.56081, 35.11221], [138.56099, 35.11232], [138.56149, 35.1126], [138.56181, 35.11278], [138.56194, 35.11285], [138.56207, 35.11293], [138.5622, 35.113], [138.56234, 35.11307], [138.56248, 35.11315], [138.56319, 35.11354], [138.56379, 35.11382], [138.56475, 35.11425], [138.5662, 35.1149], [138.56721, 35.11536], [138.56812, 35.11577], [138.56906, 35.1162], [138.57006, 35.11666], [138.57105, 35.1171], [138.57231, 35.11768], [138.57253, 35.11778], [138.5734, 35.11817], [138.57431, 35.11859], [138.57529, 35.11904], [138.57614, 35.11941], [138.57621, 35.11944], [138.57712, 35.11986], [138.57812, 35.12031], [138.57907, 35.12075], [138.58003, 35.12118], [138.58057, 35.12142], [138.58147, 35.12182], [138.58238, 35.12224], [138.58328, 35.12264], [138.58428, 35.1231], [138.58523, 35.12355], [138.58588, 35.12385], [138.58616, 35.12398], [138.58674, 35.12425], [138.58807, 35.12485], [138.58902, 35.12528], [138.58993, 35.1257], [138.59091, 35.12614], [138.59189, 35.12657], [138.59283, 35.12701], [138.59368, 35.12739], [138.59466, 35.12783], [138.59556, 35.12824], [138.59603, 35.12845], [138.59696, 35.12887], [138.59795, 35.12932], [138.59895, 35.12977], [138.59986, 35.13018], [138.60085, 35.13061], [138.60181, 35.13105], [138.60269, 35.13147], [138.60366, 35.1319], [138.60417, 35.13213], [138.60469, 35.13234], [138.60525, 35.13262], [138.60564, 35.13281], [138.60671, 35.1333], [138.60768, 35.13373], [138.60798, 35.13389], [138.609, 35.13434], [138.60984, 35.13471], [138.61072, 35.13509], [138.61109, 35.13523], [138.61162, 35.13542], [138.61186, 35.1355], [138.61207, 35.13557], [138.61233, 35.13564], [138.61286, 35.1358], [138.61412, 35.13615], [138.61445, 35.13622], [138.61506, 35.13637], [138.61549, 35.13645], [138.61604, 35.13656], [138.61649, 35.13664], [138.61705, 35.13675], [138.61729, 35.13678], [138.61764, 35.13683], [138.61799, 35.13687], [138.6185, 35.13693], [138.61974, 35.13708], [138.62102, 35.13719], [138.62166, 35.13724], [138.62189, 35.13728], [138.62221, 35.13731], [138.62407, 35.13749], [138.62833, 35.13788], [138.62838, 35.13788], [138.63384, 35.13837], [138.63889, 35.13884], [138.64185, 35.13913], [138.64273, 35.1392], [138.6428, 35.13922], [138.64306, 35.13924], [138.64412, 35.13933], [138.64437, 35.13935], [138.64536, 35.13945], [138.64574, 35.13949], [138.64683, 35.13963], [138.64707, 35.13965], [138.64824, 35.1398], [138.64843, 35.13982], [138.64866, 35.13985], [138.64887, 35.13988], [138.64901, 35.1399], [138.64916, 35.13992], [138.64939, 35.13995], [138.64974, 35.14], [138.64997, 35.14004], [138.6502, 35.14008], [138.65306, 35.14053], [138.65328, 35.14056], [138.65435, 35.14073], [138.65464, 35.14077], [138.65669, 35.1411], [138.65702, 35.14114], [138.65751, 35.14122], [138.65776, 35.14126], [138.65947, 35.14153], [138.65977, 35.14158], [138.66128, 35.14181]]}, "properties": {"id": "GEOM_TOKYO_0962", "route_id": "R_3B2E9FFD", "route_name": null, "route_color": "#1F78FF", "route_text_color": null, "line_name": "東海道新幹線", "operator_id": "東海旅客鉄道", "representation": "service_path", "min_zoom": 0, "max_zoom": 24, "offset_rank": 0}}, {"type": "Feature", "bbox": [138.31998, 34.87294, 138.35837, 34.92082], "geometry": {"type": "LineString", "coordinates": [[138.31998, 34.87294], [138.32037, 34.87313], [138.32088, 34.87343], [138.32116, 34.87362], [138.32142, 34.87383], [138.32243, 34.87433], [138.32277, 34.87452], [138.32306, 34.87468], [138.32311, 34.87472], [138.32336, 34.87488], [138.32367, 34.87514], [138.32395, 34.87542], [138.32403, 34.87551], [138.32417, 34.87567], [138.32432, 34.87582], [138.32463, 34.87616], [138.32487, 34.87646], [138.32508, 34.87678], [138.32511, 34.87684], [138.32534, 34.87734], [138.32568, 34.8781], [138.32579, 34.87834], [138.3262, 34.87946], [138.32633, 34.87988], [138.32651, 34.88027], [138.32657, 34.8804], [138.32662, 34.8805], [138.32695, 34.88127], [138.32753, 34.88256], [138.32781, 34.88319], [138.32831, 34.88437], [138.32869, 34.88514], [138.32892, 34.88548], [138.32933, 34.88609], [138.32993, 34.88696], [138.33038, 34.88761], [138.33107, 34.8886], [138.33112, 34.88867], [138.33158, 34.88934], [138.33232, 34.89041], [138.33324, 34.89176], [138.33384, 34.89263], [138.3339, 34.89272], [138.33396, 34.89282], [138.33404, 34.89292], [138.33463, 34.89374], [138.33543, 34.89483], [138.33579, 34.89536], [138.33605, 34.89565], [138.33619, 34.89577], [138.33644, 34.89595], [138.33655, 34.89604], [138.33703, 34.89641], [138.33709, 34.89645], [138.33722, 34.89654], [138.33738, 34.89664], [138.33763, 34.8968], [138.33793, 34.89696], [138.33837, 34.89714], [138.33881, 34.89733], [138.34015, 34.89793], [138.34161, 34.89858], [138.34297, 34.89918], [138.34353, 34.89944], [138.34385, 34.89962], [138.34429, 34.8999], [138.34468, 34.90019], [138.34484, 34.90032], [138.34547, 34.90082], [138.3459, 34.90121], [138.34626, 34.90159], [138.34665, 34.902], [138.34697, 34.90235], [138.34762, 34.90306], [138.3479, 34.90336], [138.3483, 34.9038], [138.3493, 34.90489], [138.35019, 34.90585], [138.35055, 34.90624], [138.35095, 34.90667], [138.35126, 34.907], [138.35151, 34.90728], [138.3516, 34.90737], [138.35189, 34.90769], [138.35228, 34.90815], [138.35259, 34.90854], [138.35286, 34.90887], [138.35317, 34.90928], [138.35355, 34.90998], [138.35384, 34.91053], [138.35401, 34.91098], [138.35414, 34.91143], [138.35418, 34.91167], [138.35427, 34.91248], [138.35439, 34.91336], [138.35449, 34.91384], [138.35461, 34.91429], [138.35473, 34.91471], [138.35484, 34.91502], [138.35505, 34.91548], [138.35517, 34.91578], [138.35528, 34.91599], [138.35559, 34.91657], [138.35596, 34.91727], [138.35631, 34.9179], [138.35653, 34.91832], [138.3567, 34.91861], [138.35694, 34.91897], [138.35715, 34.91926], [138.35744, 34.91963], [138.35768, 34.91997], [138.35792, 34.92024], [138.35837, 34.92082]]}, "properties": {"id": "GEOM_TOKYO_1010", "route_id": "R_A38B6B65", "route_name": null, "route_color": "#F28E1C", "route_text_color": null, "line_name": "東海道線", "operator_id": "東海旅客鉄道", "representation": "service_path", "min_zoom": 0, "max_zoom": 24, "offset_rank": 0}}, {"type": "Feature", "bbox": [138.36027, 34.92293, 138.36405, 34.93999], "geometry": {"type": "LineString", "coordinates": [[138.36027, 34.92293], [138.36073, 34.92346], [138.36227, 34.92513], [138.36275, 34.92569], [138.36301, 34.926], [138.36324, 34.92639], [138.36343, 34.92681], [138.36352, 34.92719], [138.36359, 34.92762], [138.36363, 34.92857], [138.36365, 34.92905], [138.36372, 34.93098], [138.3638, 34.93361], [138.36389, 34.93582], [138.36396, 34.9379], [138.36397, 34.93807], [138.36397, 34.93815], [138.36398, 34.93826], [138.36401, 34.93913], [138.36405, 34.93999]]}, "properties": {"id": "GEOM_TOKYO_1011", "route_id": "R_A38B6B65", "route_name": null, "route_color": "#F28E1C", "route_text_color": null, "line_name": "東海道線", "operator_id": "東海旅客鉄道", "representation": "service_path", "min_zoom": 0, "max_zoom": 24, "offset_rank": 0}}, {"type": "Feature", "bbox": [138.38741, 34.97098, 138.39042, 34.97261], "geometry": {"type": "LineString", "coordinates": [[138.39042, 34.97261], [138.38892, 34.97177], [138.38741, 34.97098]]}, "properties": {"id": "GEOM_TOKYO_1023", "route_id": "R_A38B6B65", "route_name": null, "route_color": "#F28E1C", "route_text_color": null, "line_name": "東海道線", "operator_id": "東海旅客鉄道", "representation": "service_path", "min_zoom": 0, "max_zoom": 24, "offset_rank": 0}}, {"type": "Feature", "bbox": [138.35837, 34.92082, 138.36027, 34.92293], "geometry": {"type": "LineString", "coordinates": [[138.35837, 34.92082], [138.36027, 34.92293]]}, "properties": {"id": "GEOM_TOKYO_1024", "route_id": "R_A38B6B65", "route_name": null, "route_color": "#F28E1C", "route_text_color": null, "line_name": "東海道線", "operator_id": "東海旅客鉄道", "representation": "service_path", "min_zoom": 0, "max_zoom": 24, "offset_rank": 0}}, {"type": "Feature", "bbox": [138.36405, 34.93999, 138.36413, 34.94193], "geometry": {"type": "LineString", "coordinates": [[138.36405, 34.93999], [138.36412, 34.94171], [138.36413, 34.94193]]}, "properties": {"id": "GEOM_TOKYO_1036", "route_id": "R_A38B6B65", "route_name": null, "route_color": "#F28E1C", "route_text_color": null, "line_name": "東海道線", "operator_id": "東海旅客鉄道", "representation": "service_path", "min_zoom": 0, "max_zoom": 24, "offset_rank": 0}}, {"type": "Feature", "bbox": [138.36413, 34.94193, 138.38741, 34.97098], "geometry": {"type": "LineString", "coordinates": [[138.36413, 34.94193], [138.36415, 34.94245], [138.36422, 34.94427], [138.36422, 34.9448], [138.3643, 34.94613], [138.36433, 34.94671], [138.36435, 34.94773], [138.36444, 34.9485], [138.36469, 34.94938], [138.36514, 34.95038], [138.36542, 34.95079], [138.36552, 34.95094], [138.36597, 34.95151], [138.36638, 34.95199], [138.36724, 34.95286], [138.36855, 34.9542], [138.3688, 34.95446], [138.37041, 34.9561], [138.37173, 34.95744], [138.37191, 34.95759], [138.373, 34.95868], [138.37378, 34.95947], [138.37422, 34.9599], [138.37424, 34.95992], [138.37434, 34.96003], [138.37526, 34.96091], [138.37528, 34.96094], [138.37666, 34.9623], [138.3772, 34.96287], [138.37815, 34.96381], [138.37904, 34.96465], [138.37953, 34.96512], [138.38077, 34.96637], [138.38124, 34.96688], [138.38168, 34.96735], [138.38228, 34.96789], [138.38231, 34.96791], [138.38306, 34.96848], [138.38425, 34.96921], [138.38482, 34.96954], [138.3859, 34.97015], [138.38689, 34.97068], [138.38741, 34.97098]]}, "properties": {"id": "GEOM_TOKYO_1044", "route_id": "R_A38B6B65", "route_name": null, "route_color": "#F28E1C", "route_text_color": null, "line_name": "東海道線", "operator_id": "東海旅客鉄道", "representation": "service_path", "min_zoom": 0, "max_zoom": 24, "offset_rank": 0}}, {"type": "Feature", "bbox": [138.39042, 34.97261, 138.41166, 34.98324], "geometry": {"type": "LineString", "coordinates": [[138.41166, 34.98324], [138.41125, 34.98296], [138.41092, 34.98275], [138.40882, 34.98132], [138.40636, 34.97969], [138.40572, 34.97932], [138.4052, 34.97907], [138.40466, 34.97888], [138.40342, 34.97848], [138.40208, 34.97805], [138.4019, 34.978], [138.40144, 34.97783], [138.40111, 34.9777], [138.40071, 34.97755], [138.39993, 34.97722], [138.3993, 34.97695], [138.39804, 34.97643], [138.39614, 34.97564], [138.39575, 34.97543], [138.39416, 34.97459], [138.39314, 34.974], [138.39153, 34.9732], [138.39042, 34.97261]]}, "properties": {"id": "GEOM_TOKYO_1054", "route_id": "R_A38B6B65", "route_name": null, "route_color": "#F28E1C", "route_text_color": null, "line_name": "東海道線", "operator_id": "東海旅客鉄道", "representation": "service_path", "min_zoom": 0, "max_zoom": 24, "offset_rank": 0}}]}