{"type": "FeatureCollection", "features": [{"type": "Feature", "bbox": [130.42127, 33.59139, 130.88103, 33.89017], "geometry": {"type": "LineString", "coordinates": [[130.88103, 33.88768], [130.87581, 33.88864], [130.87262, 33.88929], [130.87159, 33.88945], [130.87084, 33.88955], [130.86951, 33.88974], [130.86895, 33.88983], [130.86851, 33.8899], [130.86815, 33.88995], [130.86799, 33.88997], [130.86777, 33.88999], [130.8673, 33.89004], [130.86695, 33.89007], [130.86659, 33.8901], [130.86583, 33.89014], [130.8649, 33.89017], [130.8639, 33.89013], [130.86284, 33.89004], [130.86147, 33.88981], [130.85973, 33.88939], [130.85931, 33.88928], [130.85847, 33.88902], [130.85678, 33.88852], [130.85431, 33.88749], [130.85353, 33.88717], [130.85325, 33.88706], [130.85077, 33.88596], [130.84981, 33.88544], [130.84859, 33.88479], [130.84658, 33.88328], [130.84236, 33.87996], [130.84136, 33.87917], [130.83717, 33.87587], [130.83464, 33.87391], [130.83438, 33.87371], [130.83351, 33.87304], [130.83092, 33.87101], [130.8299, 33.87021], [130.82872, 33.8693], [130.82677, 33.86791], [130.82491, 33.86666], [130.82399, 33.86606], [130.82144, 33.86443], [130.82142, 33.86442], [130.81701, 33.8618], [130.81438, 33.86027], [130.81244, 33.85913], [130.81061, 33.85805], [130.80657, 33.85569], [130.80374, 33.85402], [130.80346, 33.85385], [130.80103, 33.85241], [130.79825, 33.85077], [130.79449, 33.84854], [130.79411, 33.84831], [130.78918, 33.84543], [130.78563, 33.84313], [130.78548, 33.84303], [130.78465, 33.84249], [130.78152, 33.84026], [130.77888, 33.83832], [130.77718, 33.83705], [130.77659, 33.8366], [130.77564, 33.83591], [130.77303, 33.83376], [130.77124, 33.83228], [130.77035, 33.83151], [130.76884, 33.83017], [130.76789, 33.82933], [130.76677, 33.82827], [130.76495, 33.82643], [130.76355, 33.82498], [130.76181, 33.8232], [130.76174, 33.82312], [130.76134, 33.82273], [130.76108, 33.82246], [130.76028, 33.82163], [130.75981, 33.82113], [130.75887, 33.8201], [130.75699, 33.81794], [130.75608, 33.81689], [130.75593, 33.81671], [130.75576, 33.81653], [130.75559, 33.81633], [130.75475, 33.81538], [130.75346, 33.81394], [130.75259, 33.81297], [130.75212, 33.81244], [130.75019, 33.81025], [130.74789, 33.80764], [130.74764, 33.8073], [130.74674, 33.80628], [130.74598, 33.80528], [130.74574, 33.80495], [130.74483, 33.80373], [130.74418, 33.80286], [130.7435, 33.80195], [130.74199, 33.79993], [130.74136, 33.79907], [130.74083, 33.79839], [130.74023, 33.79759], [130.73965, 33.79689], [130.73948, 33.7967], [130.73935, 33.79653], [130.73832, 33.79535], [130.73791, 33.79487], [130.73773, 33.79466], [130.7368, 33.79359], [130.73658, 33.79333], [130.73639, 33.79311], [130.73604, 33.79272], [130.73514, 33.7918], [130.73475, 33.79146], [130.73458, 33.79133], [130.73434, 33.79114], [130.73388, 33.79079], [130.73332, 33.79037], [130.73292, 33.79009], [130.73267, 33.78991], [130.73241, 33.78974], [130.73165, 33.78926], [130.73137, 33.78909], [130.7309, 33.7888], [130.73034, 33.78845], [130.73, 33.78822], [130.72942, 33.78787], [130.72808, 33.78712], [130.72636, 33.78628], [130.72575, 33.78601], [130.72432, 33.78546], [130.72354, 33.78519], [130.72209, 33.78469], [130.72171, 33.78458], [130.72071, 33.78428], [130.71979, 33.78403], [130.7194, 33.78392], [130.71813, 33.78357], [130.71711, 33.78335], [130.71563, 33.78303], [130.71246, 33.78234], [130.71115, 33.78204], [130.70982, 33.78173], [130.7095, 33.78166], [130.70797, 33.7813], [130.7069, 33.78105], [130.70608, 33.78084], [130.70571, 33.78076], [130.70501, 33.78056], [130.70439, 33.78038], [130.70398, 33.78025], [130.70313, 33.77997], [130.70263, 33.77981], [130.70221, 33.77965], [130.70162, 33.77943], [130.7009, 33.77916], [130.69866, 33.77819], [130.69823, 33.77801], [130.69648, 33.77711], [130.69564, 33.77664], [130.69358, 33.77546], [130.69277, 33.775], [130.6916, 33.77435], [130.6899, 33.7734], [130.68788, 33.77224], [130.68686, 33.7716], [130.68582, 33.7709], [130.68382, 33.76946], [130.68316, 33.76897], [130.67853, 33.76503], [130.6762, 33.76297], [130.6752, 33.76206], [130.67491, 33.76179], [130.67417, 33.76112], [130.67384, 33.76083], [130.67249, 33.75961], [130.67021, 33.75758], [130.6692, 33.75666], [130.66819, 33.75576], [130.66723, 33.75487], [130.66645, 33.75418], [130.66612, 33.75392], [130.6658, 33.75363], [130.66545, 33.75332], [130.6654, 33.75328], [130.66508, 33.753], [130.66431, 33.75234], [130.66243, 33.75082], [130.66155, 33.75014], [130.66124, 33.7499], [130.66056, 33.7494], [130.66003, 33.74904], [130.65973, 33.74883], [130.65952, 33.74868], [130.65935, 33.74856], [130.65895, 33.74829], [130.65816, 33.74779], [130.65798, 33.74764], [130.65747, 33.74732], [130.65686, 33.74694], [130.65655, 33.74671], [130.65638, 33.7466], [130.65589, 33.7463], [130.65548, 33.74606], [130.65507, 33.74581], [130.65464, 33.74557], [130.65418, 33.74532], [130.65414, 33.7453], [130.6535, 33.74495], [130.65215, 33.74427], [130.6517, 33.74404], [130.65163, 33.744], [130.64693, 33.7419], [130.6464, 33.74165], [130.64616, 33.74159], [130.64478, 33.74108], [130.64438, 33.74092], [130.64379, 33.74071], [130.64326, 33.74051], [130.64303, 33.74044], [130.64079, 33.73966], [130.64026, 33.73948], [130.63975, 33.73929], [130.63935, 33.73917], [130.6388, 33.73902], [130.63762, 33.73872], [130.63734, 33.73864], [130.6362, 33.73835], [130.63531, 33.73811], [130.63468, 33.73795], [130.63356, 33.73766], [130.63119, 33.73703], [130.63077, 33.73693], [130.63004, 33.73673], [130.62982, 33.73668], [130.62838, 33.73629], [130.62265, 33.73478], [130.62125, 33.73442], [130.61921, 33.73388], [130.6176, 33.73342], [130.61642, 33.73305], [130.61575, 33.73285], [130.61432, 33.73235], [130.61408, 33.73226], [130.61401, 33.73224], [130.61293, 33.73183], [130.6127, 33.73174], [130.61191, 33.73145], [130.61107, 33.73112], [130.61021, 33.73077], [130.60948, 33.73047], [130.608, 33.72983], [130.60669, 33.72921], [130.60567, 33.72872], [130.60477, 33.72828], [130.60318, 33.72739], [130.60185, 33.72662], [130.60084, 33.72599], [130.60024, 33.72562], [130.59921, 33.72495], [130.59758, 33.72381], [130.59664, 33.72311], [130.59436, 33.72133], [130.59264, 33.71993], [130.59081, 33.71837], [130.58927, 33.71707], [130.58716, 33.71529], [130.58635, 33.71465], [130.5851, 33.71367], [130.58393, 33.71283], [130.58312, 33.71227], [130.58256, 33.71192], [130.5805, 33.71078], [130.57855, 33.7097], [130.57427, 33.70731], [130.57134, 33.7057], [130.57109, 33.70556], [130.56648, 33.70302], [130.56333, 33.70132], [130.56216, 33.70066], [130.56074, 33.69987], [130.55828, 33.69851], [130.55604, 33.69727], [130.55397, 33.69614], [130.55299, 33.69559], [130.55054, 33.69423], [130.5472, 33.69239], [130.54484, 33.69106], [130.54384, 33.69051], [130.54322, 33.69017], [130.5405, 33.68865], [130.53881, 33.68772], [130.53765, 33.68705], [130.53625, 33.68628], [130.53511, 33.68566], [130.53405, 33.68507], [130.5313, 33.68353], [130.52908, 33.68231], [130.52711, 33.68119], [130.5268, 33.68103], [130.52596, 33.68057], [130.52476, 33.67992], [130.52396, 33.67946], [130.52221, 33.67851], [130.52112, 33.67788], [130.52016, 33.67736], [130.51832, 33.67633], [130.51682, 33.67547], [130.51614, 33.67509], [130.51471, 33.67424], [130.51383, 33.67373], [130.51205, 33.67266], [130.50937, 33.67087], [130.50806, 33.66995], [130.5076, 33.66967], [130.50699, 33.66925], [130.50626, 33.66873], [130.50596, 33.6685], [130.50559, 33.66822], [130.50517, 33.66789], [130.50493, 33.6677], [130.50437, 33.66725], [130.50294, 33.66612], [130.50271, 33.66594], [130.50256, 33.66582], [130.50049, 33.66418], [130.50004, 33.66382], [130.49985, 33.66367], [130.49927, 33.66321], [130.49899, 33.66299], [130.49804, 33.66224], [130.49766, 33.66195], [130.49671, 33.6612], [130.49611, 33.6607], [130.49531, 33.66006], [130.49376, 33.65883], [130.4936, 33.65871], [130.49343, 33.65857], [130.491, 33.65665], [130.4877, 33.65405], [130.48676, 33.65333], [130.485, 33.65193], [130.48417, 33.65128], [130.48341, 33.65067], [130.48189, 33.64947], [130.48133, 33.64899], [130.48019, 33.64802], [130.47889, 33.64679], [130.47623, 33.64439], [130.475, 33.64329], [130.47352, 33.64194], [130.47259, 33.64113], [130.47054, 33.63926], [130.47035, 33.63909], [130.46802, 33.63701], [130.46783, 33.63684], [130.46593, 33.63517], [130.46347, 33.63296], [130.46039, 33.63027], [130.46032, 33.63021], [130.45965, 33.62968], [130.45879, 33.62904], [130.45795, 33.62848], [130.45715, 33.62795], [130.45502, 33.62669], [130.45346, 33.6258], [130.45156, 33.62472], [130.4496, 33.6236], [130.44826, 33.62283], [130.44621, 33.62166], [130.4453, 33.62115], [130.44249, 33.61954], [130.44224, 33.61939], [130.44025, 33.61825], [130.43823, 33.61709], [130.43658, 33.61617], [130.43405, 33.61472], [130.43341, 33.61436], [130.43273, 33.61396], [130.43169, 33.61336], [130.43101, 33.61294], [130.43035, 33.61253], [130.42974, 33.6121], [130.4289, 33.61149], [130.42851, 33.61118], [130.4283, 33.61103], [130.42728, 33.61017], [130.42666, 33.60957], [130.42587, 33.60872], [130.42544, 33.60819], [130.42513, 33.60781], [130.42441, 33.60681], [130.4236, 33.6056], [130.423, 33.60454], [130.4228, 33.6041], [130.42274, 33.60395], [130.42237, 33.6031], [130.42202, 33.60201], [130.42178, 33.60095], [130.42175, 33.60069], [130.42164, 33.59978], [130.42147, 33.59647], [130.42144, 33.59598], [130.42129, 33.5933], [130.42128, 33.59251], [130.42127, 33.59139]]}, "properties": {"id": "GEOM_TOKYO_0688", "route_id": "R_A02272B9", "route_name": null, "route_color": "#1263D6", "route_text_color": null, "line_name": "山陽新幹線", "operator_id": "西日本旅客鉄道", "representation": "service_path", "min_zoom": 0, "max_zoom": 24, "offset_rank": 0}}, {"type": "Feature", "bbox": [130.42108, 33.58776, 130.42127, 33.59139], "geometry": {"type": "LineString", "coordinates": [[130.42127, 33.59139], [130.42108, 33.58776]]}, "properties": {"id": "GEOM_TOKYO_0689", "route_id": "R_A02272B9", "route_name": null, "route_color": "#1263D6", "route_text_color": null, "line_name": "山陽新幹線", "operator_id": "西日本旅客鉄道", "representation": "service_path", "min_zoom": 0, "max_zoom": 24, "offset_rank": 0}}, {"type": "Feature", "bbox": [130.42081, 33.526592, 130.43689, 33.58776], "geometry": {"type": "LineString", "coordinates": [[130.42108, 33.58776], [130.42107, 33.58769], [130.42099, 33.58662], [130.42088, 33.5852], [130.42083, 33.58458], [130.42082, 33.58404], [130.42081, 33.5833], [130.42081, 33.58295], [130.42086, 33.58248], [130.42095, 33.58208], [130.42097, 33.58193], [130.42111, 33.58147], [130.42126, 33.58103], [130.42151, 33.58044], [130.42175, 33.57997], [130.42197, 33.57959], [130.4222, 33.57926], [130.42252, 33.57881], [130.42286, 33.57841], [130.42508, 33.57593], [130.42599, 33.57491], [130.42647, 33.57437], [130.4267, 33.57411], [130.42749, 33.57323], [130.4282, 33.57248], [130.42831, 33.57236], [130.42875, 33.57194], [130.42926, 33.57141], [130.42971, 33.57096], [130.43066, 33.56999], [130.43129, 33.56937], [130.43165, 33.56899], [130.43207, 33.56856], [130.4326, 33.56787], [130.43281, 33.56757], [130.43329, 33.56688], [130.4336, 33.5664], [130.434, 33.56564], [130.43432, 33.56502], [130.43434, 33.56498], [130.43484, 33.56381], [130.43496, 33.56355], [130.43557, 33.56219], [130.43588, 33.56141], [130.43598, 33.56119], [130.43633, 33.56015], [130.43637, 33.56003], [130.43641, 33.55983], [130.43655, 33.55932], [130.43665, 33.55874], [130.43674, 33.55832], [130.43682, 33.55763], [130.43686, 33.55712], [130.43688, 33.55645], [130.43689, 33.55591], [130.43685, 33.55532], [130.43678, 33.55475], [130.43676, 33.55453], [130.43671, 33.55416], [130.43668, 33.55399], [130.43664, 33.55377], [130.43654, 33.55327], [130.43644, 33.55284], [130.43641, 33.55273], [130.43625, 33.55217], [130.43607, 33.55166], [130.43586, 33.55096], [130.43541, 33.54949], [130.43477, 33.54722], [130.43439, 33.54578], [130.43421, 33.54498], [130.43421, 33.54495], [130.43395, 33.54357], [130.43329, 33.53974], [130.43286, 33.5371], [130.43274, 33.53633], [130.43271, 33.53605], [130.43264, 33.53529], [130.4326, 33.53371], [130.432603, 33.533255], [130.432701, 33.531977], [130.432831, 33.53096], [130.432906, 33.530482], [130.432958, 33.530128], [130.43303, 33.529762], [130.433149, 33.529292], [130.433294, 33.528739], [130.433445, 33.52829], [130.433749, 33.527254], [130.433941, 33.526592]]}, "properties": {"id": "GEOM_TOKYO_4019", "route_id": "R_059A5F85", "route_name": null, "route_color": "#DE4B39", "route_text_color": null, "line_name": "九州新幹線", "operator_id": "九州旅客鉄道", "representation": "service_path", "min_zoom": 0, "max_zoom": 24, "offset_rank": 0}}, {"type": "Feature", "bbox": [130.490587, 33.369566, 130.491608, 33.371307], "geometry": {"type": "LineString", "coordinates": [[130.490587, 33.371307], [130.490932, 33.370707], [130.491608, 33.369566]]}, "properties": {"id": "GEOM_TOKYO_4030", "route_id": "R_059A5F85", "route_name": null, "route_color": "#DE4B39", "route_text_color": null, "line_name": "九州新幹線", "operator_id": "九州旅客鉄道", "representation": "service_path", "min_zoom": 0, "max_zoom": 24, "offset_rank": 0}}, {"type": "Feature", "bbox": [130.491608, 33.321526, 130.500891, 33.369566], "geometry": {"type": "LineString", "coordinates": [[130.491608, 33.369566], [130.492074, 33.36878], [130.49322, 33.366778], [130.493818, 33.365764], [130.494418, 33.364724], [130.494865, 33.363892], [130.495251, 33.363008], [130.495624, 33.362125], [130.495931, 33.361174], [130.496132, 33.360432], [130.496319, 33.35947], [130.496439, 33.358754], [130.496497, 33.357865], [130.496537, 33.357038], [130.496568, 33.355769], [130.496475, 33.354617], [130.496462, 33.353812], [130.496392, 33.352609], [130.496365, 33.351703], [130.496309, 33.350221], [130.496231, 33.348676], [130.496212, 33.347668], [130.496183, 33.346703], [130.496183, 33.345741], [130.496239, 33.343219], [130.496329, 33.341244], [130.496409, 33.339489], [130.496439, 33.338266], [130.49652, 33.336059], [130.496642, 33.333348], [130.49673, 33.331778], [130.49684, 33.331126], [130.497, 33.330366], [130.497293, 33.329538], [130.497525, 33.329043], [130.497938, 33.328283], [130.498238, 33.327777], [130.498744, 33.326939], [130.499128, 33.326343], [130.499568, 33.325582], [130.499901, 33.324967], [130.500145, 33.324456], [130.500372, 33.323818], [130.500531, 33.323069], [130.500665, 33.322655], [130.500758, 33.322152], [130.500891, 33.321526]]}, "properties": {"id": "GEOM_TOKYO_4031", "route_id": "R_059A5F85", "route_name": null, "route_color": "#DE4B39", "route_text_color": null, "line_name": "九州新幹線", "operator_id": "九州旅客鉄道", "representation": "service_path", "min_zoom": 0, "max_zoom": 24, "offset_rank": 0}}, {"type": "Feature", "bbox": [130.42108, 33.58776, 130.42127, 33.59139], "geometry": {"type": "LineString", "coordinates": [[130.42108, 33.58776], [130.42127, 33.59139]]}, "properties": {"id": "GEOM_TOKYO_4032", "route_id": "R_059A5F85", "route_name": null, "route_color": "#DE4B39", "route_text_color": null, "line_name": "九州新幹線", "operator_id": "九州旅客鉄道", "representation": "service_path", "min_zoom": 0, "max_zoom": 24, "offset_rank": 0}}, {"type": "Feature", "bbox": [130.433941, 33.371307, 130.490587, 33.526592], "geometry": {"type": "LineString", "coordinates": [[130.433941, 33.526592], [130.434276, 33.525416], [130.435165, 33.522417], [130.435334, 33.521768], [130.438125, 33.512269], [130.440399, 33.504604], [130.441385, 33.501847], [130.442043, 33.500416], [130.442967, 33.498411], [130.443701, 33.496923], [130.444329, 33.495637], [130.444676, 33.49491], [130.445009, 33.494172], [130.445328, 33.493439], [130.445795, 33.492332], [130.446142, 33.491449], [130.446436, 33.490588], [130.446796, 33.489475], [130.447157, 33.48812], [130.447348, 33.487233], [130.447508, 33.48617], [130.44779, 33.484064], [130.447857, 33.483113], [130.447933, 33.482002], [130.447933, 33.481141], [130.447916, 33.479862], [130.44776, 33.477611], [130.447511, 33.475896], [130.447261, 33.474506], [130.446998, 33.473328], [130.446678, 33.471863], [130.446242, 33.469956], [130.445345, 33.465868], [130.445189, 33.465132], [130.445002, 33.463935], [130.444789, 33.462504], [130.44466, 33.461024], [130.444579, 33.460096], [130.444528, 33.459119], [130.444479, 33.457572], [130.444466, 33.456431], [130.444415, 33.454101], [130.444387, 33.450156], [130.444361, 33.447599], [130.444361, 33.445396], [130.444434, 33.44406], [130.444527, 33.442704], [130.444647, 33.441508], [130.444745, 33.440632], [130.444891, 33.439592], [130.444987, 33.438961], [130.445174, 33.43791], [130.445506, 33.436341], [130.445737, 33.435342], [130.446017, 33.434313], [130.446474, 33.432733], [130.447029, 33.431098], [130.447342, 33.430245], [130.447675, 33.429328], [130.448241, 33.428014], [130.448681, 33.427008], [130.449186, 33.425954], [130.4498, 33.424701], [130.45021, 33.423968], [130.450637, 33.423185], [130.451063, 33.422458], [130.45157, 33.421642], [130.451915, 33.421099], [130.452235, 33.420573], [130.452662, 33.419981], [130.453195, 33.419176], [130.453609, 33.4186], [130.454129, 33.417884], [130.454701, 33.417154], [130.455341, 33.416327], [130.455644, 33.415906], [130.456343, 33.41512], [130.45701, 33.414326], [130.45765, 33.413588], [130.45801, 33.413164], [130.458583, 33.412526], [130.459682, 33.411248], [130.460536, 33.410287], [130.461618, 33.409041], [130.462524, 33.40799], [130.463404, 33.407006], [130.464574, 33.405666], [130.46568, 33.40438], [130.466534, 33.403396], [130.467534, 33.402278], [130.468069, 33.401655], [130.468789, 33.400839], [130.469002, 33.40056], [130.469428, 33.400101], [130.470188, 33.399218], [130.471028, 33.398267], [130.472262, 33.396848], [130.473182, 33.395808], [130.473755, 33.395126], [130.474262, 33.394545], [130.474755, 33.393997], [130.475179, 33.393532], [130.475793, 33.392839], [130.476419, 33.392123], [130.477392, 33.390977], [130.478192, 33.390072], [130.478592, 33.389568], [130.479233, 33.388826], [130.47994, 33.387954], [130.480593, 33.387137], [130.4814, 33.386068], [130.482079, 33.385184], [130.482559, 33.384468], [130.483092, 33.383753], [130.484716, 33.381354], [130.485916, 33.379408], [130.487046, 33.377501], [130.48822, 33.375459], [130.489113, 33.373871], [130.490587, 33.371307]]}, "properties": {"id": "GEOM_TOKYO_4042", "route_id": "R_059A5F85", "route_name": null, "route_color": "#DE4B39", "route_text_color": null, "line_name": "九州新幹線", "operator_id": "九州旅客鉄道", "representation": "service_path", "min_zoom": 0, "max_zoom": 24, "offset_rank": 0}}]}