{"type": "FeatureCollection", "features": [{"type": "Feature", "bbox": [130.48587, 33.072257, 130.494065, 33.176724], "geometry": {"type": "LineString", "coordinates": [[130.492272, 33.176724], [130.492266, 33.176683], [130.492211, 33.175975], [130.492169, 33.174305], [130.492194, 33.172725], [130.492272, 33.171201], [130.492391, 33.169733], [130.492484, 33.168366], [130.49263, 33.166888], [130.492737, 33.165465], [130.492769, 33.164981], [130.492809, 33.164422], [130.492879, 33.163772], [130.492902, 33.163055], [130.492983, 33.162326], [130.493027, 33.161676], [130.49309, 33.160881], [130.493139, 33.160208], [130.493215, 33.159402], [130.493264, 33.158606], [130.493327, 33.157945], [130.493363, 33.157183], [130.493439, 33.156432], [130.493488, 33.155704], [130.493551, 33.154886], [130.493633, 33.153945], [130.493701, 33.15307], [130.493752, 33.15241], [130.493796, 33.151838], [130.493845, 33.151177], [130.493902, 33.150539], [130.493951, 33.149799], [130.494006, 33.148735], [130.494061, 33.147961], [130.494037, 33.147042], [130.494065, 33.146112], [130.49404, 33.145294], [130.49401, 33.144521], [130.493962, 33.143735], [130.493852, 33.142638], [130.493647, 33.140924], [130.493488, 33.139535], [130.49318, 33.137315], [130.492398, 33.131304], [130.490788, 33.118862], [130.49018, 33.114388], [130.487083, 33.099973], [130.486327, 33.0959], [130.48587, 33.091305], [130.485908, 33.087216], [130.486323, 33.082952], [130.487127, 33.078479], [130.488349, 33.073167], [130.488548, 33.072257]]}, "properties": {"id": "GEOM_TOKYO_4489", "route_id": "R_059A5F85", "route_name": null, "route_color": "#DE4B39", "route_text_color": null, "line_name": "九州新幹線", "operator_id": "九州旅客鉄道", "representation": "service_path", "min_zoom": 0, "max_zoom": 24, "offset_rank": 0}}, {"type": "Feature", "bbox": [130.492272, 33.176724, 130.492523, 33.178664], "geometry": {"type": "LineString", "coordinates": [[130.492523, 33.178664], [130.492504, 33.178544], [130.492272, 33.176724]]}, "properties": {"id": "GEOM_TOKYO_4490", "route_id": "R_059A5F85", "route_name": null, "route_color": "#DE4B39", "route_text_color": null, "line_name": "九州新幹線", "operator_id": "九州旅客鉄道", "representation": "service_path", "min_zoom": 0, "max_zoom": 24, "offset_rank": 0}}, {"type": "Feature", "bbox": [130.500891, 33.319649, 130.501298, 33.321526], "geometry": {"type": "LineString", "coordinates": [[130.500891, 33.321526], [130.501048, 33.320784], [130.501298, 33.319649]]}, "properties": {"id": "GEOM_TOKYO_4491", "route_id": "R_059A5F85", "route_name": null, "route_color": "#DE4B39", "route_text_color": null, "line_name": "九州新幹線", "operator_id": "九州旅客鉄道", "representation": "service_path", "min_zoom": 0, "max_zoom": 24, "offset_rank": 0}}, {"type": "Feature", "bbox": [130.492523, 33.178664, 130.503621, 33.319649], "geometry": {"type": "LineString", "coordinates": [[130.501298, 33.319649], [130.501413, 33.319126], [130.501822, 33.317177], [130.502108, 33.315718], [130.50222, 33.315214], [130.502537, 33.313707], [130.502597, 33.313395], [130.50276, 33.312671], [130.502837, 33.312208], [130.503065, 33.311102], [130.50321, 33.31025], [130.50331, 33.309375], [130.503407, 33.308491], [130.503521, 33.307023], [130.503589, 33.305632], [130.503621, 33.304243], [130.50362, 33.303122], [130.503612, 33.301822], [130.503604, 33.300667], [130.503609, 33.299333], [130.503609, 33.298167], [130.503606, 33.296666], [130.503606, 33.295187], [130.503615, 33.293472], [130.50361, 33.291623], [130.503608, 33.290054], [130.503611, 33.288943], [130.503611, 33.288059], [130.503599, 33.287104], [130.503572, 33.286087], [130.503566, 33.285053], [130.503499, 33.283812], [130.503394, 33.282242], [130.503289, 33.280247], [130.503236, 33.279028], [130.503115, 33.277569], [130.503023, 33.27573], [130.502916, 33.273871], [130.502902, 33.272714], [130.502879, 33.271271], [130.502877, 33.269814], [130.502907, 33.268367], [130.502897, 33.26701], [130.50291, 33.265822], [130.502896, 33.264623], [130.502882, 33.263972], [130.502865, 33.262964], [130.502793, 33.262123], [130.502707, 33.261316], [130.502607, 33.260519], [130.502562, 33.259857], [130.50244, 33.258895], [130.502261, 33.25783], [130.502088, 33.256667], [130.501872, 33.255266], [130.50157, 33.253017], [130.501452, 33.251928], [130.501366, 33.251221], [130.501311, 33.250002], [130.501247, 33.24907], [130.501215, 33.24758], [130.501165, 33.245854], [130.501147, 33.245067], [130.501138, 33.24425], [130.501084, 33.243065], [130.501042, 33.241552], [130.500973, 33.239938], [130.500931, 33.238246], [130.500874, 33.236229], [130.500858, 33.234526], [130.500833, 33.233403], [130.500779, 33.232204], [130.500718, 33.230792], [130.500689, 33.229458], [130.500663, 33.22901], [130.500659, 33.228595], [130.500632, 33.228136], [130.500609, 33.227677], [130.500567, 33.227329], [130.500567, 33.227061], [130.500539, 33.226566], [130.500499, 33.226118], [130.500432, 33.22557], [130.500379, 33.225145], [130.500293, 33.224584], [130.500213, 33.224036], [130.500082, 33.223196], [130.499977, 33.222545], [130.499858, 33.222053], [130.499755, 33.221493], [130.499639, 33.220865], [130.499542, 33.220126], [130.499391, 33.219286], [130.499281, 33.218591], [130.499157, 33.217818], [130.49902, 33.2171], [130.498876, 33.21626], [130.498739, 33.215543], [130.498668, 33.214904], [130.498471, 33.21394], [130.498313, 33.212842], [130.498018, 33.211285], [130.497879, 33.210421], [130.497694, 33.209357], [130.497544, 33.208472], [130.497379, 33.207385], [130.497187, 33.206287], [130.496981, 33.205189], [130.496789, 33.204057], [130.496603, 33.202835], [130.496308, 33.201244], [130.495324, 33.195438], [130.494766, 33.192274], [130.494027, 33.187782], [130.493603, 33.185222], [130.493031, 33.1818], [130.492523, 33.178664]]}, "properties": {"id": "GEOM_TOKYO_4492", "route_id": "R_059A5F85", "route_name": null, "route_color": "#DE4B39", "route_text_color": null, "line_name": "九州新幹線", "operator_id": "九州旅客鉄道", "representation": "service_path", "min_zoom": 0, "max_zoom": 24, "offset_rank": 0}}, {"type": "Feature", "bbox": [130.491608, 33.321526, 130.500891, 33.369566], "geometry": {"type": "LineString", "coordinates": [[130.491608, 33.369566], [130.492074, 33.36878], [130.49322, 33.366778], [130.493818, 33.365764], [130.494418, 33.364724], [130.494865, 33.363892], [130.495251, 33.363008], [130.495624, 33.362125], [130.495931, 33.361174], [130.496132, 33.360432], [130.496319, 33.35947], [130.496439, 33.358754], [130.496497, 33.357865], [130.496537, 33.357038], [130.496568, 33.355769], [130.496475, 33.354617], [130.496462, 33.353812], [130.496392, 33.352609], [130.496365, 33.351703], [130.496309, 33.350221], [130.496231, 33.348676], [130.496212, 33.347668], [130.496183, 33.346703], [130.496183, 33.345741], [130.496239, 33.343219], [130.496329, 33.341244], [130.496409, 33.339489], [130.496439, 33.338266], [130.49652, 33.336059], [130.496642, 33.333348], [130.49673, 33.331778], [130.49684, 33.331126], [130.497, 33.330366], [130.497293, 33.329538], [130.497525, 33.329043], [130.497938, 33.328283], [130.498238, 33.327777], [130.498744, 33.326939], [130.499128, 33.326343], [130.499568, 33.325582], [130.499901, 33.324967], [130.500145, 33.324456], [130.500372, 33.323818], [130.500531, 33.323069], [130.500665, 33.322655], [130.500758, 33.322152], [130.500891, 33.321526]]}, "properties": {"id": "GEOM_TOKYO_4494", "route_id": "R_059A5F85", "route_name": null, "route_color": "#DE4B39", "route_text_color": null, "line_name": "九州新幹線", "operator_id": "九州旅客鉄道", "representation": "service_path", "min_zoom": 0, "max_zoom": 24, "offset_rank": 0}}]}