{"type": "FeatureCollection", "features": [{"type": "Feature", "bbox": [130.574395, 32.791229, 130.699565, 32.941927], "geometry": {"type": "LineString", "coordinates": [[130.574395, 32.941927], [130.576895, 32.939991], [130.58079, 32.937545], [130.603235, 32.924981], [130.605845, 32.923232], [130.60858, 32.921031], [130.613581, 32.916871], [130.627245, 32.905391], [130.64112, 32.893787], [130.654846, 32.882271], [130.670345, 32.869252], [130.673103, 32.866524], [130.674697, 32.86462], [130.675691, 32.863344], [130.676664, 32.861789], [130.67794, 32.859744], [130.679782, 32.856494], [130.685353, 32.846708], [130.690163, 32.838321], [130.690656, 32.837455], [130.691631, 32.835701], [130.694287, 32.83107], [130.697173, 32.825988], [130.699002, 32.822766], [130.699222, 32.822244], [130.699459, 32.821586], [130.699548, 32.820977], [130.699565, 32.819946], [130.699544, 32.819495], [130.699374, 32.818794], [130.699095, 32.817871], [130.698408, 32.815995], [130.697035, 32.812552], [130.694766, 32.806997], [130.694512, 32.805967], [130.694411, 32.805], [130.694225, 32.800942], [130.694124, 32.799832], [130.694039, 32.799281], [130.693599, 32.797498], [130.693235, 32.79616], [130.693049, 32.795616], [130.692769, 32.795136], [130.692456, 32.794721], [130.692117, 32.794327], [130.689673, 32.791815], [130.689334, 32.791421], [130.689184, 32.791229]]}, "properties": {"id": "GEOM_TOKYO_4022", "route_id": "R_059A5F85", "route_name": null, "route_color": null, "route_text_color": null, "representation": "service_path", "min_zoom": 0, "max_zoom": 24, "offset_rank": 0}}, {"type": "Feature", "bbox": [130.572748, 32.941927, 130.574395, 32.943256], "geometry": {"type": "LineString", "coordinates": [[130.572748, 32.943256], [130.573082, 32.942944], [130.574395, 32.941927]]}, "properties": {"id": "GEOM_TOKYO_4023", "route_id": "R_059A5F85", "route_name": null, "route_color": null, "route_text_color": null, "representation": "service_path", "min_zoom": 0, "max_zoom": 24, "offset_rank": 0}}, {"type": "Feature", "bbox": [130.488548, 33.070375, 130.488959, 33.072257], "geometry": {"type": "LineString", "coordinates": [[130.488548, 33.072257], [130.488959, 33.070375]]}, "properties": {"id": "GEOM_TOKYO_4024", "route_id": "R_059A5F85", "route_name": null, "route_color": null, "route_text_color": null, "representation": "service_path", "min_zoom": 0, "max_zoom": 24, "offset_rank": 0}}, {"type": "Feature", "bbox": [130.488959, 32.943256, 130.572748, 33.070375], "geometry": {"type": "LineString", "coordinates": [[130.488959, 33.070375], [130.490585, 33.062927], [130.49257, 33.053962], [130.493269, 33.051463], [130.494576, 33.047758], [130.495797, 33.04491], [130.497146, 33.042184], [130.498468, 33.03986], [130.502908, 33.03322], [130.51122, 33.021058], [130.518799, 33.009874], [130.527829, 32.996646], [130.536317, 32.984169], [130.538145, 32.981704], [130.539908, 32.979572], [130.548138, 32.970259], [130.559708, 32.957275], [130.569266, 32.94651], [130.572748, 32.943256]]}, "properties": {"id": "GEOM_TOKYO_4025", "route_id": "R_059A5F85", "route_name": null, "route_color": null, "route_text_color": null, "representation": "service_path", "min_zoom": 0, "max_zoom": 24, "offset_rank": 0}}, {"type": "Feature", "bbox": [130.48587, 33.072257, 130.494065, 33.176724], "geometry": {"type": "LineString", "coordinates": [[130.492272, 33.176724], [130.492266, 33.176683], [130.492211, 33.175975], [130.492169, 33.174305], [130.492194, 33.172725], [130.492272, 33.171201], [130.492391, 33.169733], [130.492484, 33.168366], [130.49263, 33.166888], [130.492737, 33.165465], [130.492769, 33.164981], [130.492809, 33.164422], [130.492879, 33.163772], [130.492902, 33.163055], [130.492983, 33.162326], [130.493027, 33.161676], [130.49309, 33.160881], [130.493139, 33.160208], [130.493215, 33.159402], [130.493264, 33.158606], [130.493327, 33.157945], [130.493363, 33.157183], [130.493439, 33.156432], [130.493488, 33.155704], [130.493551, 33.154886], [130.493633, 33.153945], [130.493701, 33.15307], [130.493752, 33.15241], [130.493796, 33.151838], [130.493845, 33.151177], [130.493902, 33.150539], [130.493951, 33.149799], [130.494006, 33.148735], [130.494061, 33.147961], [130.494037, 33.147042], [130.494065, 33.146112], [130.49404, 33.145294], [130.49401, 33.144521], [130.493962, 33.143735], [130.493852, 33.142638], [130.493647, 33.140924], [130.493488, 33.139535], [130.49318, 33.137315], [130.492398, 33.131304], [130.490788, 33.118862], [130.49018, 33.114388], [130.487083, 33.099973], [130.486327, 33.0959], [130.48587, 33.091305], [130.485908, 33.087216], [130.486323, 33.082952], [130.487127, 33.078479], [130.488349, 33.073167], [130.488548, 33.072257]]}, "properties": {"id": "GEOM_TOKYO_4026", "route_id": "R_059A5F85", "route_name": null, "route_color": null, "route_text_color": null, "representation": "service_path", "min_zoom": 0, "max_zoom": 24, "offset_rank": 0}}]}