{"type": "FeatureCollection", "features": [{"type": "Feature", "bbox": [130.4293, 32.21104, 130.63829, 32.516686], "geometry": {"type": "LineString", "coordinates": [[130.4293, 32.21104], [130.43041, 32.21186], [130.43126, 32.21259], [130.4323, 32.21354], [130.4329, 32.21406], [130.4339, 32.21488], [130.43435, 32.21526], [130.43544, 32.21607], [130.4362, 32.21663], [130.43746, 32.21756], [130.43778, 32.21781], [130.4382, 32.21812], [130.43883, 32.21865], [130.43942, 32.21918], [130.44003, 32.21968], [130.44069, 32.22031], [130.44166, 32.22127], [130.44808, 32.22823], [130.45328, 32.23414], [130.45452, 32.23555], [130.4556, 32.23679], [130.45676, 32.23796], [130.45829, 32.23921], [130.46005, 32.24053], [130.46158, 32.24155], [130.46389, 32.2428], [130.46568, 32.24372], [130.46868, 32.24509], [130.47301, 32.2468], [130.48342, 32.25095], [130.49082, 32.2539], [130.49935, 32.25733], [130.50139, 32.2582], [130.50307, 32.25893], [130.50535, 32.26007], [130.50784, 32.26151], [130.50976, 32.26267], [130.51097, 32.26342], [130.51205, 32.26417], [130.51313, 32.26498], [130.51583, 32.26723], [130.51774, 32.26898], [130.52522, 32.27612], [130.53449, 32.28476], [130.53742, 32.28746], [130.54555, 32.29521], [130.55853, 32.30739], [130.56243, 32.31099], [130.56601, 32.31444], [130.57092, 32.31912], [130.57501, 32.32295], [130.57707, 32.32486], [130.58045, 32.32797], [130.5843, 32.33143], [130.58598, 32.33304], [130.59094, 32.33755], [130.59306, 32.33946], [130.59498, 32.34119], [130.5966, 32.34267], [130.59976, 32.346], [130.60306, 32.34926], [130.6043, 32.35047], [130.60887, 32.35508], [130.61489, 32.36094], [130.61648, 32.36268], [130.61827, 32.36465], [130.61903, 32.3656], [130.61989, 32.36678], [130.62177, 32.36959], [130.62335, 32.37227], [130.62449, 32.3749], [130.62535, 32.37691], [130.62611, 32.37898], [130.62671, 32.38098], [130.62737, 32.38375], [130.62772, 32.3854], [130.62807, 32.38728], [130.62838, 32.38928], [130.62858, 32.3911], [130.6287, 32.39341], [130.62856, 32.39639], [130.62836, 32.39896], [130.6281, 32.40087], [130.6278, 32.40291], [130.62711, 32.40642], [130.62686, 32.40749], [130.62632, 32.40972], [130.62573, 32.41176], [130.62492, 32.41437], [130.6223, 32.42181], [130.62075, 32.4261], [130.61963, 32.42918], [130.6189, 32.43169], [130.61791, 32.43503], [130.61753, 32.4367], [130.61725, 32.43818], [130.61702, 32.44001], [130.61697, 32.44346], [130.6171, 32.44558], [130.61735, 32.44817], [130.61767, 32.44991], [130.61838, 32.45235], [130.619, 32.45418], [130.61978, 32.45611], [130.62094, 32.45817], [130.62223, 32.46036], [130.62464, 32.46361], [130.62729, 32.46725], [130.62848, 32.46871], [130.63269, 32.47452], [130.63387, 32.47648], [130.63445, 32.47763], [130.63508, 32.47912], [130.63563, 32.48048], [130.6362, 32.48178], [130.63674, 32.48334], [130.63708, 32.48469], [130.63732, 32.48576], [130.63753, 32.48698], [130.63781, 32.48867], [130.63812, 32.49277], [130.63829, 32.49654], [130.63828, 32.50023], [130.63806, 32.50512], [130.63789, 32.50673], [130.63756, 32.50884], [130.63737, 32.5098], [130.63718, 32.5107], [130.63688, 32.51199], [130.63649, 32.51351], [130.63563, 32.51606], [130.635383, 32.516686]]}, "properties": {"id": "GEOM_TOKYO_0450", "route_id": "R_059A5F85", "route_name": null, "route_color": "#DE4B39", "route_text_color": null, "line_name": "九州新幹線", "operator_id": "九州旅客鉄道", "representation": "service_path", "min_zoom": 0, "max_zoom": 24, "offset_rank": 0}}]}