{"type": "FeatureCollection", "features": [{"type": "Feature", "bbox": [138.46313, 35.69391, 138.47673, 35.69994], "geometry": {"type": "LineString", "coordinates": [[138.46313, 35.69994], [138.46379, 35.69977], [138.46399, 35.6997], [138.46516, 35.69923], [138.46538, 35.69914], [138.46552, 35.6991], [138.46559, 35.69908], [138.46588, 35.699], [138.46625, 35.69894], [138.46672, 35.69888], [138.46726, 35.69883], [138.46746, 35.69881], [138.46821, 35.69876], [138.46831, 35.69875], [138.46838, 35.69874], [138.46884, 35.69871], [138.46917, 35.69867], [138.4695, 35.69862], [138.46978, 35.69856], [138.4701, 35.69846], [138.47044, 35.69834], [138.4708, 35.69819], [138.4711, 35.69805], [138.47142, 35.6979], [138.47177, 35.69772], [138.47216, 35.69752], [138.47223, 35.69748], [138.47247, 35.69733], [138.47284, 35.69707], [138.47333, 35.6967], [138.47375, 35.69633], [138.47425, 35.69592], [138.47481, 35.6955], [138.47534, 35.69509], [138.47579, 35.69473], [138.47601, 35.69453], [138.47637, 35.69423], [138.47657, 35.69405], [138.47673, 35.69391]]}, "properties": {"id": "TRACK_TOKYO_2719", "line_name": "中央線", "station_group_ids": [], "mode": "rail", "operator_id": "jr_east", "line_color": "#F15A24", "tags": ["tokyo", "track_centerline"]}}, {"type": "Feature", "bbox": [138.41445, 35.74304, 138.42357, 35.74927], "geometry": {"type": "LineString", "coordinates": [[138.41445, 35.74927], [138.41465, 35.7486], [138.41487, 35.7479], [138.41488, 35.74786], [138.41493, 35.74766], [138.41498, 35.74745], [138.41506, 35.74725], [138.41516, 35.74704], [138.41529, 35.74683], [138.41543, 35.7466], [138.4156, 35.74637], [138.41577, 35.74619], [138.41596, 35.74601], [138.41619, 35.74583], [138.41642, 35.74565], [138.41668, 35.74548], [138.41694, 35.7453], [138.41724, 35.74512], [138.41753, 35.74493], [138.41783, 35.74476], [138.41818, 35.74454], [138.41852, 35.74434], [138.42005, 35.74349], [138.42038, 35.74335], [138.42072, 35.74323], [138.42105, 35.74315], [138.42147, 35.74309], [138.42184, 35.74306], [138.42209, 35.74305], [138.42227, 35.74304], [138.4227, 35.74307], [138.42319, 35.74315], [138.42357, 35.74321]]}, "properties": {"id": "TRACK_TOKYO_2723", "line_name": "中央線", "station_group_ids": [], "mode": "rail", "operator_id": "jr_east", "line_color": "#F15A24", "tags": ["tokyo", "track_centerline"]}}, {"type": "Feature", "bbox": [138.65866, 35.67321, 138.6593, 35.67372], "geometry": {"type": "LineString", "coordinates": [[138.6593, 35.67372], [138.65866, 35.67321]]}, "properties": {"id": "TRACK_TOKYO_2727", "line_name": "中央線", "station_group_ids": [], "mode": "rail", "operator_id": "jr_east", "line_color": "#F15A24", "tags": ["tokyo", "track_centerline"]}}, {"type": "Feature", "bbox": [138.41445, 35.74321, 138.42357, 35.74927], "geometry": {"type": "LineString", "coordinates": [[138.41445, 35.74927], [138.41475, 35.74867], [138.41507, 35.74796], [138.41534, 35.74746], [138.4155, 35.74719], [138.41561, 35.74706], [138.41576, 35.74693], [138.41619, 35.74658], [138.41675, 35.74617], [138.41731, 35.74582], [138.41843, 35.74516], [138.41886, 35.7449], [138.41887, 35.74489], [138.41966, 35.74447], [138.4205, 35.74403], [138.42131, 35.74363], [138.42168, 35.7435], [138.42208, 35.7434], [138.42276, 35.74327], [138.423, 35.74325], [138.42357, 35.74321]]}, "properties": {"id": "TRACK_TOKYO_2728", "line_name": "中央線", "station_group_ids": [], "mode": "rail", "operator_id": "jr_east", "line_color": "#F15A24", "tags": ["tokyo", "track_centerline"]}}, {"type": "Feature", "bbox": [138.45036, 35.70848, 138.45244, 35.71065], "geometry": {"type": "LineString", "coordinates": [[138.45244, 35.70848], [138.45226, 35.70869], [138.45197, 35.70902], [138.45183, 35.70918], [138.45121, 35.70989], [138.45113, 35.70997], [138.45103, 35.71006], [138.45097, 35.71012], [138.45095, 35.71013], [138.4507, 35.71036], [138.45036, 35.71065]]}, "properties": {"id": "TRACK_TOKYO_2729", "line_name": "中央線", "station_group_ids": [], "mode": "rail", "operator_id": "jr_east", "line_color": "#F15A24", "tags": ["tokyo", "track_centerline"]}}, {"type": "Feature", "bbox": [138.45244, 35.69994, 138.46313, 35.70848], "geometry": {"type": "LineString", "coordinates": [[138.45244, 35.70848], [138.45246, 35.70845], [138.45321, 35.70751], [138.45389, 35.70667], [138.454, 35.70653], [138.45417, 35.70632], [138.45513, 35.70512], [138.45548, 35.7047], [138.45564, 35.70451], [138.45582, 35.7043], [138.45616, 35.70394], [138.45675, 35.7033], [138.45688, 35.70316], [138.45691, 35.70314], [138.45732, 35.70276], [138.45752, 35.70261], [138.45775, 35.70247], [138.45821, 35.70224], [138.45837, 35.70216], [138.4589, 35.7019], [138.46046, 35.70116], [138.46203, 35.70044], [138.46313, 35.69994]]}, "properties": {"id": "TRACK_TOKYO_2735", "line_name": "中央線", "station_group_ids": [], "mode": "rail", "operator_id": "jr_east", "line_color": "#F15A24", "tags": ["tokyo", "track_centerline"]}}, {"type": "Feature", "bbox": [138.68435, 35.68489, 138.70272, 35.69416], "geometry": {"type": "LineString", "coordinates": [[138.70272, 35.69416], [138.7014, 35.69344], [138.69984, 35.69256], [138.69882, 35.69199], [138.69714, 35.69107], [138.69616, 35.69054], [138.69493, 35.68986], [138.69391, 35.68929], [138.6939, 35.68929], [138.69304, 35.68881], [138.6926, 35.68857], [138.68986, 35.68704], [138.68893, 35.68652], [138.68819, 35.68612], [138.6876, 35.68582], [138.68684, 35.68546], [138.68632, 35.68526], [138.68598, 35.68516], [138.68545, 35.68503], [138.68494, 35.68495], [138.68435, 35.68489]]}, "properties": {"id": "TRACK_TOKYO_2740", "line_name": "中央線", "station_group_ids": [], "mode": "rail", "operator_id": "jr_east", "line_color": "#F15A24", "tags": ["tokyo", "track_centerline"]}}, {"type": "Feature", "bbox": [138.4871, 35.68703, 138.48855, 35.68842], "geometry": {"type": "LineString", "coordinates": [[138.48855, 35.68703], [138.48805, 35.68751], [138.4876, 35.68794], [138.48748, 35.68805], [138.4871, 35.68842]]}, "properties": {"id": "TRACK_TOKYO_2742", "line_name": "中央線", "station_group_ids": [], "mode": "rail", "operator_id": "jr_east", "line_color": "#F15A24", "tags": ["tokyo", "track_centerline"]}}, {"type": "Feature", "bbox": [138.43256, 35.73572, 138.43373, 35.73802], "geometry": {"type": "LineString", "coordinates": [[138.43256, 35.73572], [138.43312, 35.73677], [138.4333, 35.73713], [138.43373, 35.73802]]}, "properties": {"id": "TRACK_TOKYO_2743", "line_name": "中央線", "station_group_ids": [], "mode": "rail", "operator_id": "jr_east", "line_color": "#F15A24", "tags": ["tokyo", "track_centerline"]}}, {"type": "Feature", "bbox": [138.41426, 35.74927, 138.41445, 35.74985], "geometry": {"type": "LineString", "coordinates": [[138.41426, 35.74985], [138.41445, 35.74927]]}, "properties": {"id": "TRACK_TOKYO_2746", "line_name": "中央線", "station_group_ids": [], "mode": "rail", "operator_id": "jr_east", "line_color": "#F15A24", "tags": ["tokyo", "track_centerline"]}}, {"type": "Feature", "bbox": [138.6593, 35.67372, 138.6816, 35.68609], "geometry": {"type": "LineString", "coordinates": [[138.6816, 35.68521], [138.68145, 35.68524], [138.68122, 35.68529], [138.68112, 35.68532], [138.68025, 35.68552], [138.68022, 35.68552], [138.68014, 35.68554], [138.67921, 35.68576], [138.67895, 35.68583], [138.6785, 35.68591], [138.67792, 35.68601], [138.67731, 35.68607], [138.67686, 35.68609], [138.67619, 35.68606], [138.67563, 35.68598], [138.67516, 35.68588], [138.67486, 35.68577], [138.67447, 35.6856], [138.67405, 35.68536], [138.67356, 35.68504], [138.6726, 35.68434], [138.67204, 35.68389], [138.67087, 35.68295], [138.6693, 35.68169], [138.66849, 35.68104], [138.66694, 35.67981], [138.66501, 35.67827], [138.66403, 35.67752], [138.66344, 35.67704], [138.66295, 35.67664], [138.66255, 35.67632], [138.6593, 35.67372]]}, "properties": {"id": "TRACK_TOKYO_2748", "line_name": "中央線", "station_group_ids": [], "mode": "rail", "operator_id": "jr_east", "line_color": "#F15A24", "tags": ["tokyo", "track_centerline"]}}, {"type": "Feature", "bbox": [138.63566, 35.65757, 138.65866, 35.67321], "geometry": {"type": "LineString", "coordinates": [[138.65866, 35.67321], [138.65446, 35.66988], [138.65433, 35.66977], [138.65382, 35.66937], [138.65333, 35.66896], [138.65147, 35.66748], [138.65129, 35.66733], [138.65114, 35.66721], [138.65011, 35.66639], [138.64765, 35.66441], [138.64652, 35.66353], [138.64578, 35.66292], [138.6455, 35.66272], [138.64434, 35.66176], [138.64324, 35.66089], [138.64283, 35.66056], [138.64223, 35.66009], [138.6414, 35.65941], [138.64075, 35.65892], [138.64025, 35.65859], [138.64008, 35.6585], [138.63968, 35.65832], [138.63929, 35.65813], [138.63926, 35.65813], [138.63905, 35.65804], [138.63885, 35.65798], [138.63846, 35.65786], [138.63797, 35.65774], [138.63681, 35.65766], [138.63566, 35.65757]]}, "properties": {"id": "TRACK_TOKYO_2750", "line_name": "中央線", "station_group_ids": [], "mode": "rail", "operator_id": "jr_east", "line_color": "#F15A24", "tags": ["tokyo", "track_centerline"]}}, {"type": "Feature", "bbox": [138.6816, 35.68489, 138.68435, 35.68521], "geometry": {"type": "LineString", "coordinates": [[138.68435, 35.68489], [138.68354, 35.68493], [138.68255, 35.68504], [138.68214, 35.6851], [138.6816, 35.68521]]}, "properties": {"id": "TRACK_TOKYO_2757", "line_name": "中央線", "station_group_ids": [], "mode": "rail", "operator_id": "jr_east", "line_color": "#F15A24", "tags": ["tokyo", "track_centerline"]}}, {"type": "Feature", "bbox": [138.43232, 35.71659, 138.44613, 35.73572], "geometry": {"type": "LineString", "coordinates": [[138.43256, 35.73572], [138.43244, 35.73544], [138.43237, 35.73517], [138.43234, 35.73496], [138.43232, 35.73454], [138.43232, 35.73442], [138.43235, 35.73402], [138.43241, 35.73357], [138.43246, 35.73341], [138.43254, 35.73323], [138.43271, 35.73295], [138.43302, 35.73251], [138.43345, 35.73203], [138.43392, 35.7316], [138.43439, 35.73125], [138.43494, 35.73084], [138.43592, 35.7301], [138.43626, 35.72986], [138.43649, 35.72968], [138.437, 35.72931], [138.43738, 35.72906], [138.43804, 35.72866], [138.43871, 35.72824], [138.43921, 35.72793], [138.43962, 35.72766], [138.44019, 35.72723], [138.44044, 35.72703], [138.4406, 35.7269], [138.44085, 35.72663], [138.44097, 35.72647], [138.44107, 35.72628], [138.44118, 35.72605], [138.44129, 35.72576], [138.4414, 35.72548], [138.44149, 35.72523], [138.44158, 35.72499], [138.44168, 35.7246], [138.44174, 35.72433], [138.4418, 35.72412], [138.44184, 35.72397], [138.44194, 35.7237], [138.44211, 35.72331], [138.44231, 35.72289], [138.4426, 35.72241], [138.44305, 35.7217], [138.44349, 35.72102], [138.44354, 35.72095], [138.44387, 35.7205], [138.44448, 35.7197], [138.44454, 35.71962], [138.44465, 35.71948], [138.44479, 35.7193], [138.44484, 35.71924], [138.44491, 35.71915], [138.44499, 35.71904], [138.44517, 35.71875], [138.44547, 35.71814], [138.44556, 35.7179], [138.44595, 35.71694], [138.44612, 35.7166], [138.44613, 35.71659]]}, "properties": {"id": "TRACK_TOKYO_2763", "line_name": "中央線", "station_group_ids": [], "mode": "rail", "operator_id": "jr_east", "line_color": "#F15A24", "tags": ["tokyo", "track_centerline"]}}, {"type": "Feature", "bbox": [138.44613, 35.71135, 138.44949, 35.71659], "geometry": {"type": "LineString", "coordinates": [[138.44613, 35.71659], [138.44647, 35.71611], [138.44675, 35.71578], [138.44716, 35.71528], [138.44748, 35.7148], [138.44758, 35.7146], [138.44803, 35.71345], [138.44837, 35.71267], [138.44846, 35.71254], [138.44868, 35.71226], [138.44949, 35.71135]]}, "properties": {"id": "TRACK_TOKYO_2769", "line_name": "中央線", "station_group_ids": [], "mode": "rail", "operator_id": "jr_east", "line_color": "#F15A24", "tags": ["tokyo", "track_centerline"]}}, {"type": "Feature", "bbox": [138.3951, 35.75225, 138.41574, 35.78987], "geometry": {"type": "LineString", "coordinates": [[138.41352, 35.75225], [138.41329, 35.75311], [138.41326, 35.7532], [138.41316, 35.75345], [138.41293, 35.75423], [138.41287, 35.75445], [138.41257, 35.75549], [138.41222, 35.75673], [138.41209, 35.75729], [138.412, 35.75781], [138.41199, 35.75789], [138.41193, 35.75845], [138.41188, 35.75896], [138.41185, 35.75942], [138.41186, 35.75965], [138.41188, 35.75987], [138.41194, 35.76052], [138.41201, 35.76111], [138.41214, 35.76171], [138.41224, 35.76206], [138.41238, 35.76241], [138.4125, 35.76269], [138.41252, 35.76274], [138.41257, 35.76284], [138.41263, 35.76296], [138.41266, 35.76301], [138.41276, 35.76316], [138.41284, 35.76327], [138.41327, 35.76376], [138.4137, 35.76423], [138.41412, 35.76468], [138.41432, 35.76489], [138.41441, 35.76498], [138.41464, 35.76524], [138.41484, 35.7655], [138.41502, 35.76578], [138.41517, 35.76605], [138.41532, 35.76635], [138.41545, 35.76665], [138.41556, 35.76694], [138.41565, 35.76724], [138.4157, 35.76747], [138.41573, 35.76771], [138.41574, 35.76804], [138.41572, 35.76846], [138.41569, 35.76875], [138.41565, 35.76896], [138.41558, 35.76917], [138.41546, 35.76949], [138.41533, 35.76981], [138.41498, 35.77059], [138.41489, 35.77077], [138.41468, 35.77126], [138.41438, 35.77193], [138.41434, 35.77203], [138.41429, 35.77213], [138.414, 35.77278], [138.41364, 35.7736], [138.41331, 35.77435], [138.41296, 35.77513], [138.41262, 35.77592], [138.41244, 35.77631], [138.41223, 35.77671], [138.41204, 35.77705], [138.41183, 35.77737], [138.41156, 35.77771], [138.41129, 35.77804], [138.41094, 35.77841], [138.41057, 35.77876], [138.41011, 35.77913], [138.40936, 35.77974], [138.40922, 35.77985], [138.40894, 35.78007], [138.40745, 35.78128], [138.40622, 35.78228], [138.40596, 35.78249], [138.40487, 35.78337], [138.40435, 35.78379], [138.40377, 35.78423], [138.40327, 35.78455], [138.40281, 35.78483], [138.40225, 35.7851], [138.40132, 35.78545], [138.39971, 35.78604], [138.39907, 35.7863], [138.39884, 35.78641], [138.39854, 35.78657], [138.39828, 35.78675], [138.3981, 35.78689], [138.39777, 35.78722], [138.39741, 35.78756], [138.39718, 35.78779], [138.39686, 35.7881], [138.39682, 35.78814], [138.39647, 35.7885], [138.39569, 35.78926], [138.3951, 35.78987]]}, "properties": {"id": "TRACK_TOKYO_2770", "line_name": "中央線", "station_group_ids": [], "mode": "rail", "operator_id": "jr_east", "line_color": "#F15A24", "tags": ["tokyo", "track_centerline"]}}, {"type": "Feature", "bbox": [138.47673, 35.68842, 138.4871, 35.69391], "geometry": {"type": "LineString", "coordinates": [[138.4871, 35.68842], [138.48654, 35.68886], [138.48552, 35.68961], [138.48431, 35.69044], [138.48395, 35.69067], [138.48363, 35.69083], [138.48275, 35.69122], [138.48253, 35.69132], [138.48234, 35.69141], [138.48138, 35.69184], [138.48114, 35.69195], [138.48075, 35.69213], [138.47917, 35.69283], [138.47849, 35.69312], [138.47828, 35.69322], [138.47778, 35.69344], [138.47758, 35.69353], [138.47753, 35.69355], [138.47673, 35.69391]]}, "properties": {"id": "TRACK_TOKYO_2773", "line_name": "中央線", "station_group_ids": [], "mode": "rail", "operator_id": "jr_east", "line_color": "#F15A24", "tags": ["tokyo", "track_centerline"]}}, {"type": "Feature", "bbox": [138.46313, 35.69391, 138.47673, 35.69994], "geometry": {"type": "LineString", "coordinates": [[138.46313, 35.69994], [138.46362, 35.6997], [138.4638, 35.69962], [138.46498, 35.69907], [138.46533, 35.69892], [138.46554, 35.69881], [138.46613, 35.69848], [138.46629, 35.69842], [138.46637, 35.69841], [138.46662, 35.69838], [138.46748, 35.69834], [138.46824, 35.6983], [138.46838, 35.6983], [138.4685, 35.6983], [138.46862, 35.69829], [138.46894, 35.6983], [138.46915, 35.69828], [138.46939, 35.69825], [138.46969, 35.69819], [138.46988, 35.69814], [138.47021, 35.69805], [138.47052, 35.69794], [138.47087, 35.69779], [138.47122, 35.69762], [138.4715, 35.69748], [138.47181, 35.69732], [138.47196, 35.69723], [138.47209, 35.69714], [138.47234, 35.69694], [138.47312, 35.69632], [138.47432, 35.69535], [138.47467, 35.69508], [138.47513, 35.69477], [138.47556, 35.6945], [138.47587, 35.69433], [138.47626, 35.69413], [138.47673, 35.69391]]}, "properties": {"id": "TRACK_TOKYO_2774", "line_name": "中央線", "station_group_ids": [], "mode": "rail", "operator_id": "jr_east", "line_color": "#F15A24", "tags": ["tokyo", "track_centerline"]}}, {"type": "Feature", "bbox": [138.41352, 35.74985, 138.41426, 35.75225], "geometry": {"type": "LineString", "coordinates": [[138.41426, 35.74985], [138.41404, 35.75048], [138.41373, 35.75153], [138.41352, 35.75225]]}, "properties": {"id": "TRACK_TOKYO_2775", "line_name": "中央線", "station_group_ids": [], "mode": "rail", "operator_id": "jr_east", "line_color": "#F15A24", "tags": ["tokyo", "track_centerline"]}}, {"type": "Feature", "bbox": [138.44613, 35.71135, 138.44949, 35.71659], "geometry": {"type": "LineString", "coordinates": [[138.44613, 35.71659], [138.44613, 35.71639], [138.44616, 35.71621], [138.44622, 35.71605], [138.44624, 35.71602], [138.44632, 35.71594], [138.44659, 35.71553], [138.44666, 35.71542], [138.44692, 35.71499], [138.44719, 35.7145], [138.44746, 35.71405], [138.44766, 35.71364], [138.44811, 35.71275], [138.44824, 35.71248], [138.44848, 35.71218], [138.44854, 35.71212], [138.44905, 35.7117], [138.44949, 35.71135]]}, "properties": {"id": "TRACK_TOKYO_2776", "line_name": "中央線", "station_group_ids": [], "mode": "rail", "operator_id": "jr_east", "line_color": "#F15A24", "tags": ["tokyo", "track_centerline"]}}, {"type": "Feature", "bbox": [138.42357, 35.73802, 138.43382, 35.74382], "geometry": {"type": "LineString", "coordinates": [[138.43373, 35.73802], [138.43381, 35.73841], [138.43382, 35.7387], [138.43381, 35.73917], [138.43375, 35.73952], [138.43367, 35.73977], [138.43351, 35.74009], [138.43337, 35.74034], [138.43309, 35.74074], [138.43275, 35.74123], [138.43255, 35.74152], [138.43244, 35.74166], [138.43232, 35.74182], [138.43231, 35.74184], [138.43209, 35.7421], [138.43184, 35.74237], [138.43151, 35.7427], [138.43128, 35.74289], [138.43104, 35.74306], [138.43078, 35.74324], [138.43042, 35.74343], [138.43024, 35.74351], [138.43018, 35.74354], [138.42994, 35.74364], [138.42976, 35.7437], [138.42957, 35.74375], [138.42927, 35.7438], [138.42902, 35.74382], [138.42884, 35.74382], [138.42835, 35.74378], [138.42677, 35.74359], [138.42521, 35.74341], [138.42357, 35.74321]]}, "properties": {"id": "TRACK_TOKYO_2777", "line_name": "中央線", "station_group_ids": [], "mode": "rail", "operator_id": "jr_east", "line_color": "#F15A24", "tags": ["tokyo", "track_centerline"]}}, {"type": "Feature", "bbox": [138.44949, 35.71065, 138.45036, 35.71135], "geometry": {"type": "LineString", "coordinates": [[138.45036, 35.71065], [138.45032, 35.71069], [138.44986, 35.71107], [138.44949, 35.71135]]}, "properties": {"id": "TRACK_TOKYO_2778", "line_name": "中央線", "station_group_ids": [], "mode": "rail", "operator_id": "jr_east", "line_color": "#F15A24", "tags": ["tokyo", "track_centerline"]}}, {"type": "Feature", "bbox": [138.48855, 35.68095, 138.49736, 35.68703], "geometry": {"type": "LineString", "coordinates": [[138.48855, 35.68703], [138.48954, 35.68607], [138.48995, 35.68568], [138.49041, 35.68523], [138.49061, 35.68505], [138.49085, 35.68486], [138.49156, 35.68443], [138.49217, 35.68405], [138.49241, 35.6839], [138.4926, 35.68379], [138.494, 35.68296], [138.4956, 35.682], [138.49689, 35.68122], [138.4971, 35.6811], [138.49736, 35.68095]]}, "properties": {"id": "TRACK_TOKYO_2851", "line_name": "中央線", "station_group_ids": [], "mode": "rail", "operator_id": "jr_east", "line_color": "#F15A24", "tags": ["tokyo", "track_centerline"]}}, {"type": "Feature", "bbox": [138.49736, 35.66836, 138.50649, 35.68095], "geometry": {"type": "LineString", "coordinates": [[138.50649, 35.66836], [138.50628, 35.66837], [138.50607, 35.66839], [138.50594, 35.66841], [138.50575, 35.66844], [138.50549, 35.6685], [138.50523, 35.66857], [138.50494, 35.66866], [138.50477, 35.66872], [138.50455, 35.66879], [138.5045, 35.66881], [138.50407, 35.66898], [138.50366, 35.66917], [138.50329, 35.6694], [138.50288, 35.66965], [138.50251, 35.66988], [138.50225, 35.67007], [138.50212, 35.6702], [138.50184, 35.67053], [138.5016, 35.67081], [138.50133, 35.67121], [138.50113, 35.67153], [138.50098, 35.67181], [138.50082, 35.67219], [138.50071, 35.67246], [138.50058, 35.67286], [138.50051, 35.67315], [138.50039, 35.67379], [138.50037, 35.67387], [138.50029, 35.67435], [138.50018, 35.67498], [138.50013, 35.67522], [138.50009, 35.67546], [138.50006, 35.67572], [138.50004, 35.67587], [138.49999, 35.67628], [138.49991, 35.67668], [138.49986, 35.67697], [138.4998, 35.67725], [138.49972, 35.67757], [138.49963, 35.67788], [138.49953, 35.6782], [138.4994, 35.67854], [138.49926, 35.67887], [138.4991, 35.67917], [138.49899, 35.67936], [138.49887, 35.67952], [138.4987, 35.67975], [138.49847, 35.68001], [138.49825, 35.68022], [138.49799, 35.68046], [138.49795, 35.68049], [138.49781, 35.68061], [138.49771, 35.6807], [138.49736, 35.68095]]}, "properties": {"id": "TRACK_TOKYO_2852", "line_name": "中央線", "station_group_ids": [], "mode": "rail", "operator_id": "jr_east", "line_color": "#F15A24", "tags": ["tokyo", "track_centerline"]}}, {"type": "Feature", "bbox": [138.49736, 35.66836, 138.50649, 35.68095], "geometry": {"type": "LineString", "coordinates": [[138.50649, 35.66836], [138.50627, 35.66839], [138.50602, 35.66843], [138.50574, 35.6685], [138.50549, 35.66858], [138.50523, 35.66867], [138.50483, 35.66883], [138.50464, 35.66891], [138.50451, 35.66896], [138.50416, 35.66912], [138.50373, 35.66935], [138.5034, 35.66956], [138.50293, 35.66988], [138.50273, 35.67001], [138.5025, 35.6702], [138.50233, 35.67037], [138.50205, 35.67066], [138.50181, 35.67095], [138.50156, 35.67131], [138.50137, 35.67164], [138.50124, 35.6719], [138.50106, 35.67229], [138.50097, 35.67253], [138.50087, 35.67287], [138.50086, 35.67292], [138.5008, 35.6732], [138.50069, 35.67383], [138.50068, 35.67393], [138.50062, 35.6744], [138.50055, 35.67504], [138.50051, 35.67558], [138.50047, 35.67591], [138.50045, 35.67609], [138.50043, 35.67632], [138.50037, 35.67679], [138.50032, 35.67707], [138.50026, 35.67736], [138.50016, 35.67768], [138.50004, 35.67801], [138.49992, 35.67831], [138.49978, 35.6786], [138.4996, 35.67891], [138.49941, 35.6792], [138.49926, 35.67942], [138.49907, 35.67964], [138.4989, 35.67982], [138.49871, 35.68001], [138.49853, 35.68018], [138.49833, 35.68034], [138.49804, 35.68054], [138.49802, 35.68055], [138.49785, 35.68066], [138.49771, 35.68075], [138.49754, 35.68085], [138.49736, 35.68095]]}, "properties": {"id": "TRACK_TOKYO_2854", "line_name": "中央線", "station_group_ids": [], "mode": "rail", "operator_id": "jr_east", "line_color": "#F15A24", "tags": ["tokyo", "track_centerline"]}}]}