{"type": "FeatureCollection", "features": [{"type": "Feature", "bbox": [138.57021, 35.65978, 138.59802, 35.66677], "geometry": {"type": "LineString", "coordinates": [[138.59802, 35.65978], [138.59677, 35.65992], [138.59663, 35.65993], [138.5952, 35.66008], [138.59504, 35.6601], [138.59362, 35.66025], [138.59208, 35.6604], [138.59137, 35.66047], [138.59106, 35.6605], [138.5905, 35.66055], [138.58895, 35.66072], [138.58812, 35.6608], [138.58751, 35.66087], [138.58737, 35.66088], [138.58729, 35.66089], [138.5858, 35.66104], [138.58425, 35.66121], [138.58209, 35.66143], [138.58111, 35.66155], [138.58065, 35.66163], [138.57994, 35.66179], [138.57979, 35.66184], [138.57964, 35.6619], [138.57951, 35.66198], [138.57938, 35.66207], [138.57895, 35.66241], [138.57868, 35.66261], [138.57858, 35.66268], [138.57802, 35.66311], [138.57779, 35.66328], [138.5776, 35.66343], [138.57748, 35.66352], [138.57743, 35.66356], [138.5765, 35.66428], [138.57634, 35.6644], [138.57614, 35.66455], [138.57587, 35.66475], [138.57541, 35.66508], [138.57521, 35.66522], [138.57498, 35.66536], [138.57475, 35.66549], [138.57447, 35.66563], [138.57417, 35.66575], [138.57385, 35.66586], [138.57376, 35.66589], [138.57337, 35.666], [138.57293, 35.66612], [138.57195, 35.66634], [138.57021, 35.66677]]}, "properties": {"id": "TRACK_TOKYO_2780", "line_name": "中央線", "station_group_ids": [], "mode": "rail", "operator_id": "jr_east", "line_color": "#F15A24", "tags": ["tokyo", "track_centerline"]}}, {"type": "Feature", "bbox": [138.56731, 35.66677, 138.57021, 35.66748], "geometry": {"type": "LineString", "coordinates": [[138.57021, 35.66677], [138.56731, 35.66748]]}, "properties": {"id": "TRACK_TOKYO_2784", "line_name": "中央線", "station_group_ids": [], "mode": "rail", "operator_id": "jr_east", "line_color": "#F15A24", "tags": ["tokyo", "track_centerline"]}}, {"type": "Feature", "bbox": [138.60059, 35.65617, 138.63331, 35.65922], "geometry": {"type": "LineString", "coordinates": [[138.63331, 35.65748], [138.63283, 35.65746], [138.63149, 35.65739], [138.63113, 35.65737], [138.62658, 35.65714], [138.62511, 35.65705], [138.62188, 35.65686], [138.61981, 35.65676], [138.61842, 35.65668], [138.61713, 35.65661], [138.61555, 35.65653], [138.61398, 35.65645], [138.61243, 35.65638], [138.6122, 35.65637], [138.61179, 35.65635], [138.61086, 35.6563], [138.60929, 35.65622], [138.60842, 35.65617], [138.60764, 35.65617], [138.60728, 35.65619], [138.607, 35.65623], [138.60671, 35.65629], [138.60645, 35.65637], [138.60617, 35.65648], [138.60596, 35.65657], [138.60489, 35.65708], [138.60396, 35.65753], [138.60302, 35.65801], [138.60218, 35.65842], [138.6018, 35.65861], [138.60146, 35.65878], [138.60059, 35.65922]]}, "properties": {"id": "TRACK_TOKYO_2788", "line_name": "中央線", "station_group_ids": [], "mode": "rail", "operator_id": "jr_east", "line_color": "#F15A24", "tags": ["tokyo", "track_centerline"]}}, {"type": "Feature", "bbox": [138.59802, 35.65922, 138.60059, 35.65978], "geometry": {"type": "LineString", "coordinates": [[138.60059, 35.65922], [138.60031, 35.65935], [138.60011, 35.65943], [138.59988, 35.65951], [138.59961, 35.65957], [138.59934, 35.65963], [138.59904, 35.65968], [138.5988, 35.65971], [138.59802, 35.65978]]}, "properties": {"id": "TRACK_TOKYO_2798", "line_name": "中央線", "station_group_ids": [], "mode": "rail", "operator_id": "jr_east", "line_color": "#F15A24", "tags": ["tokyo", "track_centerline"]}}, {"type": "Feature", "bbox": [138.52076, 35.66748, 138.56731, 35.66974], "geometry": {"type": "LineString", "coordinates": [[138.56731, 35.66748], [138.5657, 35.66787], [138.56495, 35.66805], [138.56422, 35.66823], [138.56352, 35.66841], [138.56298, 35.66854], [138.56274, 35.6686], [138.56268, 35.66862], [138.56126, 35.66895], [138.56122, 35.66896], [138.56111, 35.66899], [138.56079, 35.66907], [138.56068, 35.6691], [138.55979, 35.66932], [138.55901, 35.66952], [138.55832, 35.66964], [138.55764, 35.66971], [138.55667, 35.66974], [138.55482, 35.66971], [138.55445, 35.6697], [138.55404, 35.66969], [138.55389, 35.66969], [138.55341, 35.66968], [138.55094, 35.66963], [138.5495, 35.66958], [138.54931, 35.66957], [138.54886, 35.66956], [138.54812, 35.66954], [138.54652, 35.66949], [138.54445, 35.66943], [138.54208, 35.66936], [138.53617, 35.66917], [138.53337, 35.66909], [138.53322, 35.66909], [138.53027, 35.669], [138.5273, 35.66891], [138.52445, 35.66883], [138.52407, 35.66882], [138.52291, 35.66878], [138.52248, 35.66877], [138.52236, 35.66877], [138.52218, 35.66876], [138.52076, 35.66872]]}, "properties": {"id": "TRACK_TOKYO_2805", "line_name": "中央線", "station_group_ids": [], "mode": "rail", "operator_id": "jr_east", "line_color": "#F15A24", "tags": ["tokyo", "track_centerline"]}}, {"type": "Feature", "bbox": [138.63566, 35.65757, 138.65866, 35.67321], "geometry": {"type": "LineString", "coordinates": [[138.65866, 35.67321], [138.65446, 35.66988], [138.65433, 35.66977], [138.65382, 35.66937], [138.65333, 35.66896], [138.65147, 35.66748], [138.65129, 35.66733], [138.65114, 35.66721], [138.65011, 35.66639], [138.64765, 35.66441], [138.64652, 35.66353], [138.64578, 35.66292], [138.6455, 35.66272], [138.64434, 35.66176], [138.64324, 35.66089], [138.64283, 35.66056], [138.64223, 35.66009], [138.6414, 35.65941], [138.64075, 35.65892], [138.64025, 35.65859], [138.64008, 35.6585], [138.63968, 35.65832], [138.63929, 35.65813], [138.63926, 35.65813], [138.63905, 35.65804], [138.63885, 35.65798], [138.63846, 35.65786], [138.63797, 35.65774], [138.63681, 35.65766], [138.63566, 35.65757]]}, "properties": {"id": "TRACK_TOKYO_2814", "line_name": "中央線", "station_group_ids": [], "mode": "rail", "operator_id": "jr_east", "line_color": "#F15A24", "tags": ["tokyo", "track_centerline"]}}, {"type": "Feature", "bbox": [138.51794, 35.66863, 138.52076, 35.66872], "geometry": {"type": "LineString", "coordinates": [[138.52076, 35.66872], [138.51794, 35.66863]]}, "properties": {"id": "TRACK_TOKYO_2835", "line_name": "中央線", "station_group_ids": [], "mode": "rail", "operator_id": "jr_east", "line_color": "#F15A24", "tags": ["tokyo", "track_centerline"]}}, {"type": "Feature", "bbox": [138.63331, 35.65748, 138.63566, 35.65757], "geometry": {"type": "LineString", "coordinates": [[138.63566, 35.65757], [138.63331, 35.65748]]}, "properties": {"id": "TRACK_TOKYO_2836", "line_name": "中央線", "station_group_ids": [], "mode": "rail", "operator_id": "jr_east", "line_color": "#F15A24", "tags": ["tokyo", "track_centerline"]}}, {"type": "Feature", "bbox": [138.49736, 35.66836, 138.50649, 35.68095], "geometry": {"type": "LineString", "coordinates": [[138.50649, 35.66836], [138.50628, 35.66837], [138.50607, 35.66839], [138.50594, 35.66841], [138.50575, 35.66844], [138.50549, 35.6685], [138.50523, 35.66857], [138.50494, 35.66866], [138.50477, 35.66872], [138.50455, 35.66879], [138.5045, 35.66881], [138.50407, 35.66898], [138.50366, 35.66917], [138.50329, 35.6694], [138.50288, 35.66965], [138.50251, 35.66988], [138.50225, 35.67007], [138.50212, 35.6702], [138.50184, 35.67053], [138.5016, 35.67081], [138.50133, 35.67121], [138.50113, 35.67153], [138.50098, 35.67181], [138.50082, 35.67219], [138.50071, 35.67246], [138.50058, 35.67286], [138.50051, 35.67315], [138.50039, 35.67379], [138.50037, 35.67387], [138.50029, 35.67435], [138.50018, 35.67498], [138.50013, 35.67522], [138.50009, 35.67546], [138.50006, 35.67572], [138.50004, 35.67587], [138.49999, 35.67628], [138.49991, 35.67668], [138.49986, 35.67697], [138.4998, 35.67725], [138.49972, 35.67757], [138.49963, 35.67788], [138.49953, 35.6782], [138.4994, 35.67854], [138.49926, 35.67887], [138.4991, 35.67917], [138.49899, 35.67936], [138.49887, 35.67952], [138.4987, 35.67975], [138.49847, 35.68001], [138.49825, 35.68022], [138.49799, 35.68046], [138.49795, 35.68049], [138.49781, 35.68061], [138.49771, 35.6807], [138.49736, 35.68095]]}, "properties": {"id": "TRACK_TOKYO_2916", "line_name": "中央線", "station_group_ids": [], "mode": "rail", "operator_id": "jr_east", "line_color": "#F15A24", "tags": ["tokyo", "track_centerline"]}}, {"type": "Feature", "bbox": [138.50649, 35.66834, 138.51794, 35.66863], "geometry": {"type": "LineString", "coordinates": [[138.51794, 35.66863], [138.5167, 35.6686], [138.51403, 35.66852], [138.51107, 35.66843], [138.50783, 35.66834], [138.50767, 35.66834], [138.50743, 35.66834], [138.50726, 35.66834], [138.50667, 35.66835], [138.50649, 35.66836]]}, "properties": {"id": "TRACK_TOKYO_2917", "line_name": "中央線", "station_group_ids": [], "mode": "rail", "operator_id": "jr_east", "line_color": "#F15A24", "tags": ["tokyo", "track_centerline"]}}, {"type": "Feature", "bbox": [138.49736, 35.66836, 138.50649, 35.68095], "geometry": {"type": "LineString", "coordinates": [[138.50649, 35.66836], [138.50627, 35.66839], [138.50602, 35.66843], [138.50574, 35.6685], [138.50549, 35.66858], [138.50523, 35.66867], [138.50483, 35.66883], [138.50464, 35.66891], [138.50451, 35.66896], [138.50416, 35.66912], [138.50373, 35.66935], [138.5034, 35.66956], [138.50293, 35.66988], [138.50273, 35.67001], [138.5025, 35.6702], [138.50233, 35.67037], [138.50205, 35.67066], [138.50181, 35.67095], [138.50156, 35.67131], [138.50137, 35.67164], [138.50124, 35.6719], [138.50106, 35.67229], [138.50097, 35.67253], [138.50087, 35.67287], [138.50086, 35.67292], [138.5008, 35.6732], [138.50069, 35.67383], [138.50068, 35.67393], [138.50062, 35.6744], [138.50055, 35.67504], [138.50051, 35.67558], [138.50047, 35.67591], [138.50045, 35.67609], [138.50043, 35.67632], [138.50037, 35.67679], [138.50032, 35.67707], [138.50026, 35.67736], [138.50016, 35.67768], [138.50004, 35.67801], [138.49992, 35.67831], [138.49978, 35.6786], [138.4996, 35.67891], [138.49941, 35.6792], [138.49926, 35.67942], [138.49907, 35.67964], [138.4989, 35.67982], [138.49871, 35.68001], [138.49853, 35.68018], [138.49833, 35.68034], [138.49804, 35.68054], [138.49802, 35.68055], [138.49785, 35.68066], [138.49771, 35.68075], [138.49754, 35.68085], [138.49736, 35.68095]]}, "properties": {"id": "TRACK_TOKYO_2918", "line_name": "中央線", "station_group_ids": [], "mode": "rail", "operator_id": "jr_east", "line_color": "#F15A24", "tags": ["tokyo", "track_centerline"]}}]}