{"type": "FeatureCollection", "features": [{"type": "Feature", "bbox": [138.39156, 34.97277, 138.66128, 35.14181], "geometry": {"type": "LineString", "coordinates": [[138.39156, 34.97277], [138.39293, 34.97352], [138.39397, 34.9741], [138.39522, 34.9748], [138.39585, 34.97512], [138.39643, 34.9754], [138.39792, 34.97601], [138.39872, 34.97638], [138.4001, 34.97699], [138.40107, 34.97738], [138.40121, 34.97744], [138.40188, 34.97778], [138.4031, 34.97832], [138.40365, 34.97858], [138.40484, 34.97921], [138.4058, 34.97974], [138.40733, 34.98072], [138.40788, 34.98106], [138.40802, 34.98115], [138.40922, 34.98195], [138.41056, 34.98283], [138.41213, 34.98383], [138.41282, 34.98432], [138.41327, 34.98462], [138.41347, 34.98473], [138.41454, 34.98545], [138.41585, 34.98632], [138.41766, 34.9875], [138.41846, 34.98804], [138.41967, 34.98884], [138.42007, 34.9891], [138.42093, 34.98967], [138.42176, 34.9902], [138.42207, 34.99041], [138.42311, 34.99107], [138.42352, 34.99134], [138.42371, 34.99146], [138.42482, 34.99216], [138.42649, 34.99327], [138.42672, 34.99342], [138.42675, 34.99344], [138.42724, 34.99374], [138.42872, 34.99472], [138.43006, 34.99558], [138.43158, 34.99655], [138.43237, 34.99708], [138.43263, 34.99725], [138.43423, 34.99825], [138.43444, 34.99838], [138.43511, 34.99882], [138.43518, 34.99887], [138.43557, 34.99912], [138.43662, 34.99977], [138.43684, 34.99992], [138.43862, 35.00106], [138.43968, 35.00174], [138.44103, 35.00264], [138.44199, 35.00329], [138.44304, 35.00396], [138.44326, 35.0041], [138.44386, 35.00448], [138.44452, 35.0049], [138.44536, 35.00544], [138.44582, 35.00573], [138.44611, 35.00592], [138.44677, 35.00634], [138.44697, 35.00648], [138.44814, 35.00723], [138.44923, 35.00793], [138.45044, 35.0087], [138.45072, 35.00888], [138.45155, 35.0094], [138.45265, 35.01011], [138.45298, 35.01032], [138.45373, 35.01081], [138.45484, 35.01152], [138.45558, 35.01202], [138.45583, 35.01218], [138.45601, 35.01231], [138.45668, 35.01279], [138.45741, 35.01334], [138.45815, 35.01392], [138.45907, 35.01469], [138.4594, 35.01497], [138.46, 35.01548], [138.4605, 35.0159], [138.46088, 35.01623], [138.46118, 35.01649], [138.46176, 35.01698], [138.46279, 35.01785], [138.46374, 35.01865], [138.46428, 35.01912], [138.46495, 35.01969], [138.46586, 35.02046], [138.46665, 35.02115], [138.46762, 35.02196], [138.46882, 35.02298], [138.46884, 35.023], [138.46986, 35.02386], [138.47011, 35.02408], [138.47019, 35.02414], [138.47027, 35.02421], [138.47036, 35.02428], [138.47044, 35.02435], [138.47086, 35.0247], [138.47094, 35.02477], [138.47102, 35.02484], [138.47107, 35.02488], [138.47112, 35.02493], [138.47118, 35.02498], [138.47138, 35.02514], [138.47161, 35.02534], [138.47208, 35.02574], [138.47306, 35.02657], [138.47315, 35.02665], [138.47405, 35.02742], [138.47494, 35.02817], [138.47587, 35.02894], [138.47618, 35.0292], [138.47691, 35.02981], [138.47707, 35.02994], [138.47772, 35.03048], [138.47784, 35.03058], [138.47812, 35.03081], [138.47843, 35.03106], [138.47882, 35.03137], [138.47913, 35.03162], [138.47931, 35.03177], [138.47973, 35.03211], [138.4799, 35.03225], [138.48084, 35.03295], [138.48152, 35.03343], [138.48241, 35.034], [138.48253, 35.03407], [138.48293, 35.03432], [138.48334, 35.03457], [138.48359, 35.03472], [138.48406, 35.03502], [138.48464, 35.03538], [138.48468, 35.0354], [138.48472, 35.03543], [138.48477, 35.03546], [138.48481, 35.03549], [138.48582, 35.0361], [138.48586, 35.03613], [138.4859, 35.03615], [138.48591, 35.03616], [138.48595, 35.03618], [138.48598, 35.0362], [138.48703, 35.03686], [138.4871, 35.0369], [138.48721, 35.03697], [138.48821, 35.03758], [138.48842, 35.03771], [138.48872, 35.0379], [138.48909, 35.03813], [138.48917, 35.03818], [138.48926, 35.03823], [138.48933, 35.03828], [138.48941, 35.03833], [138.49015, 35.03879], [138.49035, 35.03891], [138.4906, 35.03906], [138.49161, 35.03971], [138.49168, 35.03976], [138.49179, 35.03983], [138.49275, 35.04046], [138.49389, 35.04121], [138.49438, 35.04156], [138.49478, 35.04185], [138.49496, 35.04197], [138.49612, 35.04284], [138.4969, 35.04345], [138.49734, 35.04382], [138.49796, 35.04445], [138.49806, 35.04456], [138.49843, 35.045], [138.49912, 35.04581], [138.50037, 35.04726], [138.5014, 35.04849], [138.50211, 35.04932], [138.50246, 35.04969], [138.50374, 35.05115], [138.5046, 35.05217], [138.50549, 35.05321], [138.50572, 35.05348], [138.50641, 35.0543], [138.5071, 35.0551], [138.50923, 35.05758], [138.51054, 35.05909], [138.51188, 35.06061], [138.51209, 35.06086], [138.51305, 35.06198], [138.51463, 35.06381], [138.51572, 35.0651], [138.51815, 35.06791], [138.51842, 35.06826], [138.52041, 35.07054], [138.5206, 35.07076], [138.52126, 35.07151], [138.52204, 35.0724], [138.52353, 35.0741], [138.52446, 35.07517], [138.5247, 35.07545], [138.52583, 35.07682], [138.52789, 35.0792], [138.52853, 35.07995], [138.53009, 35.0817], [138.53164, 35.08357], [138.53276, 35.08494], [138.53385, 35.08625], [138.53418, 35.08662], [138.53433, 35.08672], [138.53467, 35.08705], [138.53499, 35.0874], [138.53561, 35.08809], [138.53626, 35.08883], [138.53644, 35.08904], [138.53692, 35.08958], [138.53756, 35.0903], [138.53821, 35.09098], [138.53858, 35.09135], [138.53892, 35.09171], [138.53922, 35.09205], [138.53957, 35.09241], [138.54019, 35.09305], [138.54081, 35.09369], [138.54117, 35.09408], [138.5418, 35.09475], [138.54248, 35.09547], [138.54317, 35.09616], [138.54384, 35.09686], [138.54445, 35.09747], [138.54506, 35.09811], [138.54539, 35.09846], [138.54541, 35.09848], [138.54596, 35.09909], [138.5466, 35.09977], [138.54724, 35.10048], [138.54789, 35.10119], [138.54856, 35.10187], [138.54933, 35.10265], [138.5496, 35.10293], [138.55024, 35.10356], [138.55092, 35.10427], [138.55159, 35.10497], [138.5522, 35.10557], [138.55284, 35.10624], [138.55339, 35.10681], [138.5535, 35.10693], [138.55394, 35.10736], [138.55438, 35.1078], [138.55539, 35.10861], [138.55648, 35.10945], [138.55665, 35.10958], [138.55688, 35.10975], [138.55704, 35.10986], [138.55753, 35.11019], [138.55872, 35.11095], [138.55883, 35.11102], [138.55895, 35.11109], [138.55945, 35.11141], [138.5597, 35.11156], [138.55997, 35.11173], [138.56081, 35.11221], [138.56099, 35.11232], [138.56149, 35.1126], [138.56181, 35.11278], [138.56194, 35.11285], [138.56207, 35.11293], [138.5622, 35.113], [138.56234, 35.11307], [138.56248, 35.11315], [138.56319, 35.11354], [138.56379, 35.11382], [138.56475, 35.11425], [138.5662, 35.1149], [138.56721, 35.11536], [138.56812, 35.11577], [138.56906, 35.1162], [138.57006, 35.11666], [138.57105, 35.1171], [138.57231, 35.11768], [138.57253, 35.11778], [138.5734, 35.11817], [138.57431, 35.11859], [138.57529, 35.11904], [138.57614, 35.11941], [138.57621, 35.11944], [138.57712, 35.11986], [138.57812, 35.12031], [138.57907, 35.12075], [138.58003, 35.12118], [138.58057, 35.12142], [138.58147, 35.12182], [138.58238, 35.12224], [138.58328, 35.12264], [138.58428, 35.1231], [138.58523, 35.12355], [138.58588, 35.12385], [138.58616, 35.12398], [138.58674, 35.12425], [138.58807, 35.12485], [138.58902, 35.12528], [138.58993, 35.1257], [138.59091, 35.12614], [138.59189, 35.12657], [138.59283, 35.12701], [138.59368, 35.12739], [138.59466, 35.12783], [138.59556, 35.12824], [138.59603, 35.12845], [138.59696, 35.12887], [138.59795, 35.12932], [138.59895, 35.12977], [138.59986, 35.13018], [138.60085, 35.13061], [138.60181, 35.13105], [138.60269, 35.13147], [138.60366, 35.1319], [138.60417, 35.13213], [138.60469, 35.13234], [138.60525, 35.13262], [138.60564, 35.13281], [138.60671, 35.1333], [138.60768, 35.13373], [138.60798, 35.13389], [138.609, 35.13434], [138.60984, 35.13471], [138.61072, 35.13509], [138.61109, 35.13523], [138.61162, 35.13542], [138.61186, 35.1355], [138.61207, 35.13557], [138.61233, 35.13564], [138.61286, 35.1358], [138.61412, 35.13615], [138.61445, 35.13622], [138.61506, 35.13637], [138.61549, 35.13645], [138.61604, 35.13656], [138.61649, 35.13664], [138.61705, 35.13675], [138.61729, 35.13678], [138.61764, 35.13683], [138.61799, 35.13687], [138.6185, 35.13693], [138.61974, 35.13708], [138.62102, 35.13719], [138.62166, 35.13724], [138.62189, 35.13728], [138.62221, 35.13731], [138.62407, 35.13749], [138.62833, 35.13788], [138.62838, 35.13788], [138.63384, 35.13837], [138.63889, 35.13884], [138.64185, 35.13913], [138.64273, 35.1392], [138.6428, 35.13922], [138.64306, 35.13924], [138.64412, 35.13933], [138.64437, 35.13935], [138.64536, 35.13945], [138.64574, 35.13949], [138.64683, 35.13963], [138.64707, 35.13965], [138.64824, 35.1398], [138.64843, 35.13982], [138.64866, 35.13985], [138.64887, 35.13988], [138.64901, 35.1399], [138.64916, 35.13992], [138.64939, 35.13995], [138.64974, 35.14], [138.64997, 35.14004], [138.6502, 35.14008], [138.65306, 35.14053], [138.65328, 35.14056], [138.65435, 35.14073], [138.65464, 35.14077], [138.65669, 35.1411], [138.65702, 35.14114], [138.65751, 35.14122], [138.65776, 35.14126], [138.65947, 35.14153], [138.65977, 35.14158], [138.66128, 35.14181]]}, "properties": {"id": "TRACK_TOKYO_0962", "line_name": "東海道新幹線", "station_group_ids": [], "mode": "shinkansen", "operator_id": "東海旅客鉄道", "tags": ["tokyo", "track_centerline"]}}, {"type": "Feature", "bbox": [138.66128, 35.14181, 138.66555, 35.14244], "geometry": {"type": "LineString", "coordinates": [[138.66128, 35.14181], [138.66154, 35.14185], [138.66181, 35.14189], [138.66209, 35.14193], [138.66255, 35.142], [138.66449, 35.14229], [138.66476, 35.14233], [138.66555, 35.14244]]}, "properties": {"id": "TRACK_TOKYO_0963", "line_name": "東海道新幹線", "station_group_ids": [], "mode": "shinkansen", "operator_id": "東海旅客鉄道", "tags": ["tokyo", "track_centerline"]}}, {"type": "Feature", "bbox": [138.66555, 35.12287, 138.90782, 35.15611], "geometry": {"type": "LineString", "coordinates": [[138.66555, 35.14244], [138.66692, 35.14267], [138.66705, 35.1427], [138.66731, 35.14274], [138.67004, 35.14316], [138.67039, 35.14322], [138.67091, 35.14331], [138.67121, 35.14335], [138.67148, 35.14339], [138.67187, 35.14346], [138.67463, 35.14391], [138.67611, 35.14416], [138.67801, 35.14453], [138.67931, 35.14485], [138.68194, 35.1456], [138.68257, 35.14581], [138.68372, 35.14619], [138.68571, 35.14691], [138.68604, 35.14703], [138.68841, 35.14786], [138.69037, 35.14855], [138.69126, 35.14879], [138.69251, 35.14915], [138.69282, 35.14923], [138.6933, 35.14937], [138.69467, 35.14968], [138.69577, 35.1499], [138.69646, 35.15004], [138.69802, 35.15026], [138.70166, 35.15065], [138.7037, 35.15079], [138.70583, 35.15094], [138.709, 35.15121], [138.71191, 35.15146], [138.71473, 35.15169], [138.71486, 35.15171], [138.71504, 35.15172], [138.71521, 35.15173], [138.71555, 35.15176], [138.71592, 35.15179], [138.71615, 35.15181], [138.71855, 35.15209], [138.71884, 35.15212], [138.7232, 35.15263], [138.72332, 35.15264], [138.72343, 35.15265], [138.72642, 35.15303], [138.72672, 35.15305], [138.72717, 35.15312], [138.72752, 35.15316], [138.72798, 35.15322], [138.72887, 35.15334], [138.72919, 35.15337], [138.73137, 35.15364], [138.73153, 35.15366], [138.73174, 35.15368], [138.73403, 35.15396], [138.73435, 35.15399], [138.73618, 35.15423], [138.73652, 35.15427], [138.73813, 35.15448], [138.73838, 35.15451], [138.73999, 35.15473], [138.74021, 35.15475], [138.7412, 35.15488], [138.74149, 35.1549], [138.74437, 35.1553], [138.7447, 35.15535], [138.74512, 35.15541], [138.74551, 35.15546], [138.7457, 35.15549], [138.74687, 35.15564], [138.74812, 35.15574], [138.74926, 35.15583], [138.74993, 35.15588], [138.75024, 35.1559], [138.75176, 35.15602], [138.7522, 35.15608], [138.75296, 35.15611], [138.75425, 35.15611], [138.75585, 35.15606], [138.75689, 35.15597], [138.75693, 35.15597], [138.75795, 35.15588], [138.75927, 35.15576], [138.76051, 35.1556], [138.7617, 35.15543], [138.76326, 35.1552], [138.76422, 35.15499], [138.76539, 35.15466], [138.76672, 35.15428], [138.7677, 35.15401], [138.76791, 35.15395], [138.76908, 35.15362], [138.7706, 35.15316], [138.77184, 35.15281], [138.77238, 35.15265], [138.77454, 35.15204], [138.7751, 35.15187], [138.77646, 35.15148], [138.77727, 35.15125], [138.77828, 35.15096], [138.78149, 35.15007], [138.78314, 35.14958], [138.78381, 35.14939], [138.7843, 35.14925], [138.78559, 35.14889], [138.78601, 35.14877], [138.78811, 35.1482], [138.79046, 35.14753], [138.79195, 35.1471], [138.79252, 35.14693], [138.79256, 35.14692], [138.7939, 35.14653], [138.79392, 35.14652], [138.79641, 35.1458], [138.79665, 35.14574], [138.79875, 35.14515], [138.80091, 35.14454], [138.80194, 35.14426], [138.80197, 35.14425], [138.80318, 35.1439], [138.80373, 35.14374], [138.80493, 35.14341], [138.80632, 35.14302], [138.80702, 35.14281], [138.80838, 35.14235], [138.80908, 35.1421], [138.80911, 35.14209], [138.80998, 35.14177], [138.81036, 35.14163], [138.81075, 35.14149], [138.81089, 35.14143], [138.81158, 35.14118], [138.81253, 35.14074], [138.81338, 35.14029], [138.81399, 35.13992], [138.81428, 35.13973], [138.81433, 35.1397], [138.81556, 35.13889], [138.81618, 35.13845], [138.817, 35.13786], [138.81837, 35.13677], [138.81839, 35.13676], [138.82009, 35.13539], [138.82103, 35.13458], [138.82174, 35.13402], [138.82316, 35.13288], [138.82354, 35.13251], [138.82468, 35.13159], [138.82553, 35.13097], [138.82628, 35.13048], [138.82631, 35.13047], [138.82713, 35.12998], [138.82806, 35.12949], [138.82963, 35.12877], [138.83211, 35.12779], [138.83274, 35.12758], [138.83415, 35.12714], [138.83514, 35.12692], [138.83575, 35.1268], [138.8363, 35.12672], [138.83765, 35.12653], [138.83846, 35.12645], [138.84031, 35.12627], [138.84307, 35.12604], [138.84463, 35.12592], [138.84587, 35.12583], [138.84681, 35.12575], [138.84749, 35.1257], [138.84818, 35.12564], [138.84835, 35.12563], [138.8509, 35.12542], [138.85464, 35.12509], [138.85739, 35.12487], [138.85862, 35.12477], [138.85937, 35.1247], [138.85991, 35.12466], [138.86129, 35.12454], [138.86157, 35.12452], [138.8629, 35.1244], [138.8637, 35.12433], [138.86537, 35.12419], [138.86616, 35.12412], [138.86836, 35.12392], [138.86987, 35.12378], [138.87149, 35.12367], [138.87151, 35.12367], [138.87177, 35.12365], [138.87182, 35.12365], [138.87186, 35.12365], [138.87211, 35.12364], [138.87261, 35.1236], [138.87419, 35.12348], [138.87444, 35.12345], [138.87621, 35.12331], [138.87649, 35.12329], [138.87883, 35.12309], [138.87914, 35.12305], [138.87995, 35.12299], [138.88038, 35.12296], [138.88092, 35.12293], [138.88192, 35.12289], [138.88309, 35.12287], [138.88436, 35.12289], [138.88572, 35.12293], [138.88596, 35.12294], [138.8862, 35.12295], [138.8872, 35.12302], [138.88756, 35.12305], [138.88821, 35.12312], [138.88966, 35.12332], [138.88998, 35.12337], [138.89265, 35.12384], [138.89473, 35.1242], [138.89705, 35.12457], [138.8991, 35.12491], [138.89926, 35.12494], [138.90107, 35.12525], [138.90159, 35.12534], [138.90294, 35.12558], [138.90295, 35.12558], [138.90449, 35.12584], [138.9059, 35.12607], [138.90782, 35.1264]]}, "properties": {"id": "TRACK_TOKYO_0964", "line_name": "東海道新幹線", "station_group_ids": [], "mode": "shinkansen", "operator_id": "東海旅客鉄道", "tags": ["tokyo", "track_centerline"]}}, {"type": "Feature", "bbox": [138.65036, 35.15116, 138.65382, 35.15134], "geometry": {"type": "LineString", "coordinates": [[138.65382, 35.15116], [138.65294, 35.15122], [138.65125, 35.15131], [138.65087, 35.15132], [138.65036, 35.15134]]}, "properties": {"id": "TRACK_TOKYO_1004", "line_name": "東海道線", "station_group_ids": [], "mode": "rail", "operator_id": "東海旅客鉄道", "tags": ["tokyo", "track_centerline"]}}, {"type": "Feature", "bbox": [138.64305, 35.15134, 138.65036, 35.15183], "geometry": {"type": "LineString", "coordinates": [[138.65036, 35.15134], [138.64986, 35.1514], [138.64937, 35.15144], [138.64732, 35.15154], [138.64604, 35.15166], [138.64459, 35.15172], [138.64305, 35.15183]]}, "properties": {"id": "TRACK_TOKYO_1005", "line_name": "東海道線", "station_group_ids": [], "mode": "rail", "operator_id": "東海旅客鉄道", "tags": ["tokyo", "track_centerline"]}}, {"type": "Feature", "bbox": [138.42963, 34.99499, 138.43986, 35.00153], "geometry": {"type": "LineString", "coordinates": [[138.42963, 34.99499], [138.43092, 34.99581], [138.43236, 34.99674], [138.43404, 34.99783], [138.43444, 34.99807], [138.43536, 34.99867], [138.43559, 34.99882], [138.43676, 34.99953], [138.43795, 35.00031], [138.43882, 35.00085], [138.43986, 35.00153]]}, "properties": {"id": "TRACK_TOKYO_1012", "line_name": "東海道線", "station_group_ids": [], "mode": "rail", "operator_id": "東海旅客鉄道", "tags": ["tokyo", "track_centerline"]}}, {"type": "Feature", "bbox": [138.61897, 35.14236, 138.64305, 35.15203], "geometry": {"type": "LineString", "coordinates": [[138.64305, 35.15183], [138.64013, 35.152], [138.63956, 35.15203], [138.63662, 35.15203], [138.63627, 35.15202], [138.6349, 35.15185], [138.63304, 35.15142], [138.63179, 35.15109], [138.63125, 35.15089], [138.62962, 35.15028], [138.62945, 35.15021], [138.62802, 35.14963], [138.62669, 35.1491], [138.62658, 35.14906], [138.62564, 35.14868], [138.62516, 35.14849], [138.62337, 35.14775], [138.62299, 35.14758], [138.62189, 35.14705], [138.62114, 35.14643], [138.62083, 35.14617], [138.62044, 35.14583], [138.6202, 35.14558], [138.62, 35.14532], [138.61975, 35.14492], [138.61965, 35.14472], [138.61953, 35.14444], [138.6194, 35.14396], [138.61921, 35.14331], [138.61897, 35.14236]]}, "properties": {"id": "TRACK_TOKYO_1013", "line_name": "東海道線", "station_group_ids": [], "mode": "rail", "operator_id": "東海旅客鉄道", "tags": ["tokyo", "track_centerline"]}}, {"type": "Feature", "bbox": [138.43986, 35.00153, 138.44192, 35.00288], "geometry": {"type": "LineString", "coordinates": [[138.43986, 35.00153], [138.44129, 35.00247], [138.44192, 35.00288]]}, "properties": {"id": "TRACK_TOKYO_1015", "line_name": "東海道線", "station_group_ids": [], "mode": "rail", "operator_id": "東海旅客鉄道", "tags": ["tokyo", "track_centerline"]}}, {"type": "Feature", "bbox": [138.60763, 35.11921, 138.60846, 35.11957], "geometry": {"type": "LineString", "coordinates": [[138.60846, 35.11957], [138.6083, 35.1195], [138.60814, 35.11943], [138.60798, 35.11936], [138.60763, 35.11921]]}, "properties": {"id": "TRACK_TOKYO_1018", "line_name": "東海道線", "station_group_ids": [], "mode": "rail", "operator_id": "東海旅客鉄道", "tags": ["tokyo", "track_centerline"]}}, {"type": "Feature", "bbox": [138.41363, 34.98455, 138.41517, 34.98556], "geometry": {"type": "LineString", "coordinates": [[138.41363, 34.98455], [138.4144, 34.98504], [138.41517, 34.98556]]}, "properties": {"id": "TRACK_TOKYO_1020", "line_name": "東海道線", "station_group_ids": [], "mode": "rail", "operator_id": "東海旅客鉄道", "tags": ["tokyo", "track_centerline"]}}, {"type": "Feature", "bbox": [138.52077, 35.05169, 138.52304, 35.05334], "geometry": {"type": "LineString", "coordinates": [[138.52077, 35.05169], [138.52304, 35.05334]]}, "properties": {"id": "TRACK_TOKYO_1021", "line_name": "東海道線", "station_group_ids": [], "mode": "rail", "operator_id": "東海旅客鉄道", "tags": ["tokyo", "track_centerline"]}}, {"type": "Feature", "bbox": [138.55321, 35.09771, 138.58206, 35.11382], "geometry": {"type": "LineString", "coordinates": [[138.58206, 35.11382], [138.57989, 35.11316], [138.57843, 35.11272], [138.57658, 35.11217], [138.57574, 35.11191], [138.57495, 35.11161], [138.57378, 35.11103], [138.57331, 35.11075], [138.57307, 35.1106], [138.57256, 35.11027], [138.57206, 35.10995], [138.57102, 35.10921], [138.57027, 35.10865], [138.56985, 35.10833], [138.56911, 35.10784], [138.56836, 35.10737], [138.56755, 35.10696], [138.56649, 35.10645], [138.56559, 35.10604], [138.56539, 35.10595], [138.56518, 35.10586], [138.56495, 35.10577], [138.56473, 35.10567], [138.56329, 35.10507], [138.56217, 35.10462], [138.56141, 35.10431], [138.56077, 35.10404], [138.56051, 35.10393], [138.55967, 35.10358], [138.5581, 35.1029], [138.55699, 35.10244], [138.55661, 35.10228], [138.55632, 35.10209], [138.55599, 35.10186], [138.55583, 35.10173], [138.55564, 35.10156], [138.55548, 35.10134], [138.55517, 35.10085], [138.55482, 35.10023], [138.55435, 35.09948], [138.55386, 35.09872], [138.55321, 35.09771]]}, "properties": {"id": "TRACK_TOKYO_1026", "line_name": "東海道線", "station_group_ids": [], "mode": "rail", "operator_id": "東海旅客鉄道", "tags": ["tokyo", "track_centerline"]}}, {"type": "Feature", "bbox": [138.44192, 35.00288, 138.48906, 35.0226], "geometry": {"type": "LineString", "coordinates": [[138.44192, 35.00288], [138.4422, 35.00305], [138.44252, 35.00329], [138.44369, 35.00403], [138.44484, 35.00475], [138.44591, 35.00545], [138.44693, 35.00611], [138.44827, 35.00698], [138.44958, 35.00782], [138.44965, 35.00786], [138.45087, 35.00863], [138.45182, 35.00924], [138.45244, 35.00963], [138.45308, 35.01005], [138.45353, 35.01031], [138.45419, 35.01066], [138.4546, 35.01085], [138.45494, 35.011], [138.4552, 35.01109], [138.4556, 35.0112], [138.45644, 35.01135], [138.45686, 35.01142], [138.4576, 35.01149], [138.45917, 35.01159], [138.45929, 35.0116], [138.46062, 35.0117], [138.46211, 35.01181], [138.46357, 35.01191], [138.46481, 35.01201], [138.46625, 35.01211], [138.46786, 35.01223], [138.46944, 35.01234], [138.47033, 35.01241], [138.47069, 35.01243], [138.47101, 35.01246], [138.47218, 35.01254], [138.47307, 35.0126], [138.47378, 35.01266], [138.47468, 35.01273], [138.47529, 35.01277], [138.47552, 35.01279], [138.47592, 35.01283], [138.47632, 35.0129], [138.47674, 35.01302], [138.4771, 35.01314], [138.47743, 35.01328], [138.47781, 35.01344], [138.47821, 35.01366], [138.47847, 35.0138], [138.47924, 35.0142], [138.48043, 35.01482], [138.48136, 35.01531], [138.48259, 35.01595], [138.48359, 35.01646], [138.48482, 35.01714], [138.48505, 35.01727], [138.4857, 35.01762], [138.48578, 35.01766], [138.48666, 35.01818], [138.48756, 35.01874], [138.48797, 35.01903], [138.48819, 35.01926], [138.48838, 35.01949], [138.4885, 35.01966], [138.48863, 35.01987], [138.48873, 35.02012], [138.48881, 35.02036], [138.48889, 35.02069], [138.48895, 35.02097], [138.48899, 35.02152], [138.48902, 35.02191], [138.48906, 35.0226]]}, "properties": {"id": "TRACK_TOKYO_1027", "line_name": "東海道線", "station_group_ids": [], "mode": "rail", "operator_id": "東海旅客鉄道", "tags": ["tokyo", "track_centerline"]}}, {"type": "Feature", "bbox": [138.60846, 35.11957, 138.61937, 35.1399], "geometry": {"type": "LineString", "coordinates": [[138.61845, 35.1399], [138.6182, 35.1388], [138.61792, 35.13777], [138.61775, 35.13709], [138.61771, 35.13691], [138.61768, 35.1367], [138.61764, 35.13601], [138.61766, 35.13557], [138.61768, 35.13535], [138.61772, 35.13515], [138.61796, 35.13445], [138.61842, 35.13316], [138.6186, 35.13263], [138.61884, 35.13185], [138.61918, 35.13082], [138.61932, 35.13029], [138.61937, 35.12994], [138.61937, 35.12958], [138.61934, 35.12929], [138.61926, 35.12896], [138.6191, 35.12845], [138.61896, 35.12815], [138.6189, 35.12805], [138.6188, 35.12791], [138.61824, 35.12708], [138.6175, 35.12607], [138.61719, 35.12561], [138.61697, 35.12542], [138.61622, 35.12483], [138.61542, 35.12426], [138.61413, 35.12334], [138.61321, 35.12265], [138.61196, 35.12177], [138.61136, 35.12136], [138.61117, 35.12122], [138.61092, 35.12106], [138.60989, 35.12032], [138.60956, 35.1201], [138.60926, 35.11992], [138.60846, 35.11957]]}, "properties": {"id": "TRACK_TOKYO_1030", "line_name": "東海道線", "station_group_ids": [], "mode": "rail", "operator_id": "東海旅客鉄道", "tags": ["tokyo", "track_centerline"]}}, {"type": "Feature", "bbox": [138.41166, 34.98324, 138.41363, 34.98455], "geometry": {"type": "LineString", "coordinates": [[138.41363, 34.98455], [138.41347, 34.98444], [138.41166, 34.98324]]}, "properties": {"id": "TRACK_TOKYO_1032", "line_name": "東海道線", "station_group_ids": [], "mode": "rail", "operator_id": "東海旅客鉄道", "tags": ["tokyo", "track_centerline"]}}, {"type": "Feature", "bbox": [138.48914, 35.0242, 138.52077, 35.05169], "geometry": {"type": "LineString", "coordinates": [[138.48914, 35.0242], [138.48917, 35.02466], [138.4892, 35.02509], [138.48925, 35.02577], [138.4893, 35.02668], [138.48932, 35.02689], [138.48939, 35.02764], [138.48944, 35.0283], [138.48951, 35.0287], [138.48964, 35.02922], [138.48974, 35.02954], [138.48991, 35.02992], [138.49004, 35.03014], [138.49026, 35.03052], [138.49067, 35.03107], [138.49156, 35.03219], [138.49242, 35.03327], [138.49316, 35.0342], [138.49368, 35.03484], [138.49377, 35.03495], [138.49408, 35.03531], [138.49458, 35.03582], [138.49492, 35.03616], [138.49547, 35.03664], [138.49623, 35.03729], [138.4969, 35.03787], [138.49782, 35.03878], [138.49789, 35.03885], [138.49832, 35.03924], [138.49977, 35.04057], [138.50067, 35.04138], [138.50219, 35.04273], [138.5025, 35.04302], [138.50326, 35.04372], [138.50467, 35.045], [138.50549, 35.04581], [138.50598, 35.04609], [138.50674, 35.04645], [138.5075, 35.04669], [138.50848, 35.04685], [138.50964, 35.04694], [138.51171, 35.04707], [138.5123, 35.0471], [138.51356, 35.04719], [138.51443, 35.04733], [138.51484, 35.04745], [138.51511, 35.04759], [138.51584, 35.0481], [138.51789, 35.04957], [138.52077, 35.05169]]}, "properties": {"id": "TRACK_TOKYO_1035", "line_name": "東海道線", "station_group_ids": [], "mode": "rail", "operator_id": "東海旅客鉄道", "tags": ["tokyo", "track_centerline"]}}, {"type": "Feature", "bbox": [138.55243, 35.09654, 138.55321, 35.09771], "geometry": {"type": "LineString", "coordinates": [[138.55321, 35.09771], [138.55243, 35.09654]]}, "properties": {"id": "TRACK_TOKYO_1037", "line_name": "東海道線", "station_group_ids": [], "mode": "rail", "operator_id": "東海旅客鉄道", "tags": ["tokyo", "track_centerline"]}}, {"type": "Feature", "bbox": [138.41517, 34.98556, 138.42963, 34.99499], "geometry": {"type": "LineString", "coordinates": [[138.41517, 34.98556], [138.41662, 34.98654], [138.41919, 34.98821], [138.42082, 34.98928], [138.42096, 34.98937], [138.42238, 34.99028], [138.42342, 34.99096], [138.4245, 34.99164], [138.42685, 34.99317], [138.42741, 34.99354], [138.42843, 34.99421], [138.42963, 34.99499]]}, "properties": {"id": "TRACK_TOKYO_1038", "line_name": "東海道線", "station_group_ids": [], "mode": "rail", "operator_id": "東海旅客鉄道", "tags": ["tokyo", "track_centerline"]}}, {"type": "Feature", "bbox": [138.58206, 35.11382, 138.58371, 35.11426], "geometry": {"type": "LineString", "coordinates": [[138.58371, 35.11426], [138.58272, 35.11403], [138.58206, 35.11382]]}, "properties": {"id": "TRACK_TOKYO_1043", "line_name": "東海道線", "station_group_ids": [], "mode": "rail", "operator_id": "東海旅客鉄道", "tags": ["tokyo", "track_centerline"]}}, {"type": "Feature", "bbox": [138.61845, 35.1399, 138.61897, 35.14236], "geometry": {"type": "LineString", "coordinates": [[138.61897, 35.14236], [138.61845, 35.1399]]}, "properties": {"id": "TRACK_TOKYO_1045", "line_name": "東海道線", "station_group_ids": [], "mode": "rail", "operator_id": "東海旅客鉄道", "tags": ["tokyo", "track_centerline"]}}, {"type": "Feature", "bbox": [138.52304, 35.05334, 138.55243, 35.09654], "geometry": {"type": "LineString", "coordinates": [[138.52304, 35.05334], [138.52353, 35.05369], [138.52496, 35.05472], [138.52679, 35.05604], [138.52741, 35.05642], [138.53038, 35.05795], [138.53245, 35.059], [138.53418, 35.05989], [138.5353, 35.06049], [138.53615, 35.06093], [138.53711, 35.06157], [138.53766, 35.06202], [138.53817, 35.06251], [138.53852, 35.0629], [138.53878, 35.06326], [138.53894, 35.06352], [138.53919, 35.06387], [138.53949, 35.06431], [138.53966, 35.06459], [138.53986, 35.06505], [138.54006, 35.06556], [138.54018, 35.06593], [138.54017, 35.06613], [138.54021, 35.0663], [138.54043, 35.06708], [138.54081, 35.06802], [138.54093, 35.06821], [138.54105, 35.0684], [138.54158, 35.06907], [138.54178, 35.06945], [138.54188, 35.06963], [138.54207, 35.07025], [138.54209, 35.07051], [138.54229, 35.07136], [138.54262, 35.07238], [138.5428, 35.07301], [138.54334, 35.07408], [138.54393, 35.07506], [138.54471, 35.07617], [138.54556, 35.07755], [138.54571, 35.07781], [138.54582, 35.07801], [138.54629, 35.07921], [138.54661, 35.08027], [138.54704, 35.08233], [138.54724, 35.08321], [138.54764, 35.08512], [138.54788, 35.08628], [138.54796, 35.08662], [138.54833, 35.08767], [138.54853, 35.08834], [138.54875, 35.089], [138.54913, 35.09002], [138.54947, 35.0909], [138.54996, 35.0921], [138.55044, 35.09329], [138.55065, 35.09359], [138.55084, 35.09397], [138.55121, 35.09455], [138.55172, 35.09541], [138.55243, 35.09654]]}, "properties": {"id": "TRACK_TOKYO_1047", "line_name": "東海道線", "station_group_ids": [], "mode": "rail", "operator_id": "東海旅客鉄道", "tags": ["tokyo", "track_centerline"]}}, {"type": "Feature", "bbox": [138.48906, 35.0226, 138.48914, 35.0242], "geometry": {"type": "LineString", "coordinates": [[138.48906, 35.0226], [138.48914, 35.0242]]}, "properties": {"id": "TRACK_TOKYO_1048", "line_name": "東海道線", "station_group_ids": [], "mode": "rail", "operator_id": "東海旅客鉄道", "tags": ["tokyo", "track_centerline"]}}, {"type": "Feature", "bbox": [138.41517, 34.98556, 138.42963, 34.99499], "geometry": {"type": "LineString", "coordinates": [[138.41517, 34.98556], [138.41598, 34.98587], [138.41736, 34.98648], [138.41831, 34.98687], [138.41928, 34.98735], [138.42061, 34.98814], [138.42234, 34.98929], [138.4241, 34.99052], [138.42426, 34.99064], [138.42519, 34.99137], [138.42616, 34.99217], [138.42721, 34.993], [138.42794, 34.9936], [138.42963, 34.99499]]}, "properties": {"id": "TRACK_TOKYO_1049", "line_name": "東海道線", "station_group_ids": [], "mode": "rail", "operator_id": "東海旅客鉄道", "tags": ["tokyo", "track_centerline"]}}, {"type": "Feature", "bbox": [138.65382, 35.14415, 138.70121, 35.15116], "geometry": {"type": "LineString", "coordinates": [[138.70121, 35.14415], [138.69951, 35.14445], [138.69809, 35.14469], [138.69474, 35.14529], [138.69111, 35.14592], [138.69071, 35.146], [138.68794, 35.14652], [138.68586, 35.14689], [138.68542, 35.14696], [138.68303, 35.1474], [138.68106, 35.14774], [138.67989, 35.14797], [138.67928, 35.14808], [138.67875, 35.14817], [138.67642, 35.14859], [138.67499, 35.14882], [138.67297, 35.14918], [138.67027, 35.14966], [138.67011, 35.14969], [138.66664, 35.15027], [138.6649, 35.15049], [138.66352, 35.15062], [138.65931, 35.15084], [138.65882, 35.15087], [138.65789, 35.15092], [138.6566, 35.151], [138.65629, 35.15103], [138.65382, 35.15116]]}, "properties": {"id": "TRACK_TOKYO_1051", "line_name": "東海道線", "station_group_ids": [], "mode": "rail", "operator_id": "東海旅客鉄道", "tags": ["tokyo", "track_centerline"]}}, {"type": "Feature", "bbox": [138.58371, 35.11426, 138.60763, 35.11921], "geometry": {"type": "LineString", "coordinates": [[138.60763, 35.11921], [138.60741, 35.11913], [138.60716, 35.11903], [138.60689, 35.11893], [138.60536, 35.1184], [138.60515, 35.11832], [138.60365, 35.11779], [138.60232, 35.11732], [138.60115, 35.11694], [138.59979, 35.11648], [138.59902, 35.11624], [138.59853, 35.1161], [138.59802, 35.11598], [138.59714, 35.11581], [138.59661, 35.11572], [138.59556, 35.11561], [138.59468, 35.11552], [138.59342, 35.11539], [138.59141, 35.11518], [138.58898, 35.11492], [138.58715, 35.11473], [138.58522, 35.11451], [138.58441, 35.1144], [138.58371, 35.11426]]}, "properties": {"id": "TRACK_TOKYO_1053", "line_name": "東海道線", "station_group_ids": [], "mode": "rail", "operator_id": "東海旅客鉄道", "tags": ["tokyo", "track_centerline"]}}, {"type": "Feature", "bbox": [138.39042, 34.97261, 138.41166, 34.98324], "geometry": {"type": "LineString", "coordinates": [[138.41166, 34.98324], [138.41125, 34.98296], [138.41092, 34.98275], [138.40882, 34.98132], [138.40636, 34.97969], [138.40572, 34.97932], [138.4052, 34.97907], [138.40466, 34.97888], [138.40342, 34.97848], [138.40208, 34.97805], [138.4019, 34.978], [138.40144, 34.97783], [138.40111, 34.9777], [138.40071, 34.97755], [138.39993, 34.97722], [138.3993, 34.97695], [138.39804, 34.97643], [138.39614, 34.97564], [138.39575, 34.97543], [138.39416, 34.97459], [138.39314, 34.974], [138.39153, 34.9732], [138.39042, 34.97261]]}, "properties": {"id": "TRACK_TOKYO_1054", "line_name": "東海道線", "station_group_ids": [], "mode": "rail", "operator_id": "東海旅客鉄道", "tags": ["tokyo", "track_centerline"]}}]}