{"type": "FeatureCollection", "features": [{"type": "Feature", "bbox": [140.693428, 40.826832, 140.693511, 40.829376], "geometry": {"type": "LineString", "coordinates": [[140.693511, 40.826832], [140.69351, 40.826883], [140.69347, 40.828104], [140.693428, 40.829376]]}, "properties": {"id": "TRACK_TOKYO_4481", "line_name": "東北新幹線", "station_group_ids": [], "mode": "shinkansen", "operator_id": "jr_east", "line_color": "#2D9C5B", "tags": ["tokyo", "track_centerline"]}}, {"type": "Feature", "bbox": [140.51657472, 41.07027, 140.56059, 41.14387186], "geometry": {"type": "LineString", "coordinates": [[140.51657472, 41.14387186], [140.51679, 41.14363], [140.51771, 41.14262], [140.51885, 41.14137], [140.5202, 41.1399], [140.52201, 41.13784], [140.5222, 41.13763], [140.52261, 41.13715], [140.52363, 41.13587], [140.52434, 41.13498], [140.52502, 41.13404], [140.5256, 41.13318], [140.5264, 41.13185], [140.52714, 41.13059], [140.52758, 41.1298], [140.52789, 41.12924], [140.52854, 41.12807], [140.52925, 41.12683], [140.53038, 41.12483], [140.53112, 41.12353], [140.53223, 41.12156], [140.53252, 41.12105], [140.53321, 41.11986], [140.53372, 41.11893], [140.53458, 41.11742], [140.53536, 41.11602], [140.53629, 41.1144], [140.53692, 41.11327], [140.53715, 41.11286], [140.5374, 41.11243], [140.53835, 41.11075], [140.53887, 41.10984], [140.53976, 41.10826], [140.54049, 41.10695], [140.54122, 41.10566], [140.54178, 41.10467], [140.54187, 41.10451], [140.54208, 41.10413], [140.54332, 41.10195], [140.54402, 41.10072], [140.54588, 41.09743], [140.54672, 41.09594], [140.54728, 41.09496], [140.54889, 41.09204], [140.55106, 41.08811], [140.55112, 41.08801], [140.55131, 41.08771], [140.55187, 41.08667], [140.55229, 41.08597], [140.55293, 41.08479], [140.55321, 41.08425], [140.55325, 41.08416], [140.55353, 41.08364], [140.55369, 41.08332], [140.55459, 41.08161], [140.55563, 41.07964], [140.55673, 41.07758], [140.55781, 41.07553], [140.55807, 41.07503], [140.55876, 41.07368], [140.55986, 41.07166], [140.56056, 41.07032], [140.56059, 41.07027]]}, "properties": {"id": "TRACK_TOKYO_4547", "line_name": "北海道新幹線", "station_group_ids": [], "mode": "shinkansen", "operator_id": "北海道旅客鉄道", "line_color": "#3F8BD8", "tags": ["tokyo", "track_centerline"]}}, {"type": "Feature", "bbox": [140.56059, 40.829376, 140.693428, 41.07027], "geometry": {"type": "LineString", "coordinates": [[140.56059, 41.07027], [140.56139551, 41.06873425], [140.56257113, 41.06651675], [140.56355526, 41.06465592], [140.56455388, 41.06276059], [140.56530958, 41.06134023], [140.56730942, 41.05755295], [140.56861946, 41.05510644], [140.56928036, 41.05393551], [140.56994439, 41.05280979], [140.57056481, 41.05182421], [140.57097651, 41.05118019], [140.57164545, 41.0501806], [140.57239048, 41.04911094], [140.57361419, 41.04739545], [140.57656679, 41.04325809], [140.57885011, 41.04006126], [140.58109751, 41.03690934], [140.58351142, 41.03352173], [140.58585795, 41.03023954], [140.58781783, 41.02749183], [140.58970691, 41.02484655], [140.59147644, 41.02236114], [140.59387936, 41.0189942], [140.59469082, 41.01785981], [140.59581326, 41.01627994], [140.59796738, 41.01325709], [140.60027339, 41.01002633], [140.60170187, 41.0080301], [140.60366514, 41.00527086], [140.60582928, 41.00223207], [140.60775972, 40.99952864], [140.6089963, 40.99779169], [140.61011911, 40.99622552], [140.61155256, 40.99420768], [140.61381988, 40.99101596], [140.61534478, 40.98887951], [140.61845238, 40.98452419], [140.62085973, 40.98113479], [140.62190623, 40.97960597], [140.62269761, 40.97839002], [140.62354129, 40.97700265], [140.62406284, 40.97609862], [140.62460196, 40.97510945], [140.62527978, 40.97381146], [140.6258181, 40.97268093], [140.62644836, 40.97127528], [140.62674574, 40.97057037], [140.62722899, 40.96934419], [140.62775975, 40.96788492], [140.62803092, 40.96706701], [140.62828478, 40.96624066], [140.62854426, 40.96535733], [140.62886526, 40.96416958], [140.62915044, 40.96299385], [140.62933782, 40.96211543], [140.62953122, 40.96114529], [140.63010224, 40.95817301], [140.63061357, 40.95547977], [140.63122576, 40.95223595], [140.63170179, 40.94971098], [140.63201935, 40.94807646], [140.63240292, 40.94606398], [140.63277086, 40.94417711], [140.63307733, 40.94276676], [140.63346348, 40.94124211], [140.63383364, 40.93992506], [140.6341937, 40.93875546], [140.63457866, 40.93763026], [140.63517683, 40.93605098], [140.6357584, 40.93463227], [140.63616094, 40.93374307], [140.63655982, 40.93286925], [140.63719945, 40.93157805], [140.63813526, 40.92982083], [140.63909001, 40.9280647], [140.64031545, 40.92581183], [140.64178184, 40.92312661], [140.64254765, 40.92170707], [140.64348936, 40.91998567], [140.64455034, 40.91803288], [140.64621035, 40.91498603], [140.64798938, 40.91171602], [140.64976653, 40.90843989], [140.65151157, 40.90524564], [140.65327499, 40.90200616], [140.65423958, 40.90022728], [140.65580131, 40.89735736], [140.65721202, 40.89475985], [140.6585401, 40.89232609], [140.6600707, 40.88950158], [140.66160948, 40.88667535], [140.66309063, 40.88394643], [140.6643212, 40.88168998], [140.66599408, 40.87860816], [140.66754131, 40.87575711], [140.66767113, 40.87552968], [140.66920103, 40.87271218], [140.67083314, 40.86970734], [140.67252228, 40.86659003], [140.67418946, 40.86352101], [140.67509265, 40.86186702], [140.67568569, 40.86076863], [140.67635852, 40.85953621], [140.67681961, 40.85868834], [140.67708081, 40.85821878], [140.67739358, 40.85771553], [140.67763956, 40.8573077], [140.67797303, 40.85681147], [140.67834273, 40.85628819], [140.67866184, 40.85587015], [140.67911095, 40.85529448], [140.67974702, 40.85455222], [140.6803246, 40.85393601], [140.6810055, 40.85325232], [140.68269607, 40.85161976], [140.68535066, 40.84904691], [140.68609502, 40.84833488], [140.68670178, 40.84773316], [140.68705309, 40.84739248], [140.68761071, 40.84681509], [140.68829586, 40.8460686], [140.68872037, 40.84556611], [140.68910196, 40.84509528], [140.68957723, 40.8444636], [140.68996631, 40.84391849], [140.69039001, 40.84326586], [140.69065062, 40.84284282], [140.6909413, 40.84234671], [140.69134932, 40.84157822], [140.69170269, 40.84082625], [140.69197259, 40.84019316], [140.69220026, 40.839605], [140.69239458, 40.83908054], [140.69258392, 40.83844613], [140.69277374, 40.83775171], [140.6929622, 40.8369034], [140.69307816, 40.83619687], [140.69315631, 40.83563487], [140.6932229, 40.8349772], [140.6932588, 40.83435886], [140.69328601, 40.83369839], [140.69330718, 40.83296942], [140.69334199, 40.83200655], [140.69336497, 40.83119418], [140.69339162, 40.83029697], [140.693428, 40.829376]]}, "properties": {"id": "TRACK_TOKYO_4548", "line_name": "北海道新幹線", "station_group_ids": [], "mode": "shinkansen", "operator_id": "北海道旅客鉄道", "line_color": "#3F8BD8", "tags": ["tokyo", "track_centerline"]}}, {"type": "Feature", "bbox": [140.693428, 40.826832, 140.693511, 40.829376], "geometry": {"type": "LineString", "coordinates": [[140.693428, 40.829376], [140.69347, 40.828104], [140.69351, 40.826883], [140.693511, 40.826832]]}, "properties": {"id": "TRACK_TOKYO_4550", "line_name": "北海道新幹線", "station_group_ids": [], "mode": "shinkansen", "operator_id": "北海道旅客鉄道", "line_color": "#3F8BD8", "tags": ["tokyo", "track_centerline"]}}]}