{"type": "FeatureCollection", "features": [{"type": "Feature", "bbox": [140.63377, 37.99595, 140.88277, 38.20987], "geometry": {"type": "LineString", "coordinates": [[140.63377, 37.99595], [140.63419, 37.99646], [140.63498, 37.9974], [140.63616, 37.9988], [140.63641, 37.99909], [140.63668, 37.99943], [140.63683, 37.99961], [140.63766, 38.0006], [140.63817, 38.00123], [140.63931, 38.00262], [140.63935, 38.00266], [140.63962, 38.00299], [140.63975, 38.00316], [140.64098, 38.00451], [140.64137, 38.00492], [140.64164, 38.00521], [140.6417, 38.00528], [140.64295, 38.00666], [140.64376, 38.00752], [140.64465, 38.00846], [140.64581, 38.00954], [140.64653, 38.0102], [140.64723, 38.01077], [140.64809, 38.01144], [140.64893, 38.0121], [140.64931, 38.0124], [140.65016, 38.01305], [140.6505, 38.01332], [140.65099, 38.01367], [140.65165, 38.01419], [140.65259, 38.01491], [140.65332, 38.01545], [140.65385, 38.01585], [140.65468, 38.01648], [140.65547, 38.01708], [140.65628, 38.01769], [140.65702, 38.01825], [140.65748, 38.0186], [140.65833, 38.01925], [140.65875, 38.01955], [140.65959, 38.02019], [140.66044, 38.02083], [140.66082, 38.02112], [140.66253, 38.02243], [140.66332, 38.02302], [140.66413, 38.02363], [140.66455, 38.02393], [140.66495, 38.02425], [140.66514, 38.02439], [140.66577, 38.02486], [140.66659, 38.02548], [140.66746, 38.02615], [140.66785, 38.02645], [140.66825, 38.02678], [140.66859, 38.02703], [140.66914, 38.02743], [140.6696, 38.0278], [140.67032, 38.02832], [140.67109, 38.02891], [140.67128, 38.02905], [140.67137, 38.02912], [140.67195, 38.02956], [140.67269, 38.03013], [140.67394, 38.03107], [140.67422, 38.03128], [140.67468, 38.03163], [140.67495, 38.03184], [140.67498, 38.03186], [140.67544, 38.03219], [140.67636, 38.03289], [140.6771, 38.03346], [140.67733, 38.03363], [140.67794, 38.0341], [140.67879, 38.03474], [140.67959, 38.03535], [140.68081, 38.03627], [140.68088, 38.03637], [140.68096, 38.03644], [140.68108, 38.03651], [140.68216, 38.0373], [140.68247, 38.03754], [140.68383, 38.03858], [140.68505, 38.0395], [140.68575, 38.04003], [140.68594, 38.04018], [140.68644, 38.04056], [140.6866, 38.04069], [140.68697, 38.04099], [140.68782, 38.04161], [140.68866, 38.04224], [140.68947, 38.04285], [140.69032, 38.04348], [140.69116, 38.0441], [140.69195, 38.0447], [140.69225, 38.04492], [140.69239, 38.04502], [140.69316, 38.0456], [140.69358, 38.04591], [140.69438, 38.0465], [140.69481, 38.04682], [140.69521, 38.04713], [140.69527, 38.04719], [140.69533, 38.04726], [140.69539, 38.0473], [140.69541, 38.04732], [140.69605, 38.04779], [140.69644, 38.04808], [140.69707, 38.04855], [140.6981, 38.04931], [140.6986, 38.04968], [140.69957, 38.0504], [140.70051, 38.05109], [140.70125, 38.05164], [140.70133, 38.0517], [140.7015, 38.05183], [140.7021, 38.05228], [140.70276, 38.05277], [140.70345, 38.05327], [140.70353, 38.05332], [140.70364, 38.0534], [140.70506, 38.05447], [140.70548, 38.05478], [140.70575, 38.05499], [140.70582, 38.05503], [140.70597, 38.05514], [140.70653, 38.05556], [140.70659, 38.05561], [140.70739, 38.05621], [140.70851, 38.05705], [140.70976, 38.05798], [140.71096, 38.05887], [140.71119, 38.05904], [140.71208, 38.0597], [140.71216, 38.05976], [140.71411, 38.06122], [140.71475, 38.0617], [140.71556, 38.06231], [140.71597, 38.06261], [140.71681, 38.06325], [140.71726, 38.06358], [140.71843, 38.06445], [140.71855, 38.06454], [140.71877, 38.06471], [140.71916, 38.06501], [140.71925, 38.06507], [140.71982, 38.06549], [140.72033, 38.06587], [140.72042, 38.06594], [140.72116, 38.06649], [140.72225, 38.06729], [140.72442, 38.06892], [140.72491, 38.06929], [140.72506, 38.0694], [140.72535, 38.06961], [140.72559, 38.06979], [140.72589, 38.07001], [140.72684, 38.07071], [140.72815, 38.07167], [140.72901, 38.0723], [140.72919, 38.07243], [140.73023, 38.07321], [140.73115, 38.07388], [140.73171, 38.07428], [140.73296, 38.0752], [140.73396, 38.07597], [140.7341, 38.07607], [140.73535, 38.07699], [140.73631, 38.07773], [140.73743, 38.07856], [140.73841, 38.07929], [140.7388, 38.07959], [140.74002, 38.08049], [140.7411, 38.08129], [140.74226, 38.08217], [140.74254, 38.08238], [140.74261, 38.08242], [140.74306, 38.08278], [140.74345, 38.08307], [140.74387, 38.0834], [140.74472, 38.08401], [140.74517, 38.08435], [140.74558, 38.08465], [140.74641, 38.08526], [140.74659, 38.0854], [140.74716, 38.08583], [140.74773, 38.08632], [140.74924, 38.08742], [140.75089, 38.08864], [140.75213, 38.08955], [140.75296, 38.09019], [140.75379, 38.0908], [140.7542, 38.0911], [140.75456, 38.09136], [140.75462, 38.09142], [140.75505, 38.09173], [140.75588, 38.09235], [140.75622, 38.0926], [140.75665, 38.09291], [140.75683, 38.09305], [140.75684, 38.09306], [140.75745, 38.09351], [140.75792, 38.09386], [140.75921, 38.09483], [140.75932, 38.09492], [140.75991, 38.09533], [140.76046, 38.09576], [140.76052, 38.0958], [140.76067, 38.09591], [140.76114, 38.09627], [140.76149, 38.09653], [140.76222, 38.09707], [140.76301, 38.09767], [140.76383, 38.09828], [140.76404, 38.09843], [140.76413, 38.0985], [140.76459, 38.09884], [140.76553, 38.09953], [140.7661, 38.09994], [140.76675, 38.10043], [140.76717, 38.10074], [140.76761, 38.10107], [140.76771, 38.10114], [140.76844, 38.10168], [140.76897, 38.10207], [140.76938, 38.10237], [140.76955, 38.1025], [140.76964, 38.10256], [140.76993, 38.10277], [140.77035, 38.10308], [140.77086, 38.10347], [140.7711, 38.10365], [140.77162, 38.10404], [140.77188, 38.10424], [140.77204, 38.10436], [140.77213, 38.10443], [140.77274, 38.10487], [140.77337, 38.10535], [140.7739, 38.10575], [140.77391, 38.10576], [140.77454, 38.10624], [140.7752, 38.10674], [140.77603, 38.10735], [140.77675, 38.1079], [140.77725, 38.10826], [140.77763, 38.10853], [140.77804, 38.10884], [140.77845, 38.10915], [140.77886, 38.10945], [140.77934, 38.1098], [140.77974, 38.11011], [140.78022, 38.11048], [140.78055, 38.11071], [140.78083, 38.11091], [140.78094, 38.111], [140.78136, 38.1113], [140.78179, 38.1116], [140.78209, 38.11183], [140.7821, 38.11184], [140.78228, 38.112], [140.78238, 38.11206], [140.78286, 38.11239], [140.78325, 38.11269], [140.78364, 38.11298], [140.784, 38.11324], [140.78437, 38.1135], [140.78564, 38.11444], [140.78609, 38.11476], [140.78638, 38.11496], [140.7864, 38.11498], [140.78773, 38.11603], [140.78783, 38.11611], [140.78792, 38.11617], [140.78804, 38.11625], [140.78861, 38.11668], [140.78941, 38.11724], [140.78981, 38.11752], [140.79061, 38.11809], [140.79139, 38.11867], [140.79179, 38.11898], [140.79217, 38.11924], [140.79253, 38.11952], [140.79291, 38.11979], [140.79363, 38.12033], [140.79411, 38.12067], [140.79451, 38.12099], [140.79519, 38.12149], [140.79556, 38.12176], [140.79564, 38.12182], [140.79592, 38.12203], [140.79737, 38.12313], [140.79777, 38.12343], [140.79855, 38.124], [140.79927, 38.12454], [140.79962, 38.12481], [140.80041, 38.1254], [140.80086, 38.12574], [140.80127, 38.12603], [140.80162, 38.12631], [140.80203, 38.12659], [140.80248, 38.12695], [140.80292, 38.12726], [140.80332, 38.12756], [140.80373, 38.12786], [140.80381, 38.12792], [140.80412, 38.12817], [140.80452, 38.12847], [140.80491, 38.12875], [140.8053, 38.12904], [140.80573, 38.12936], [140.80596, 38.12953], [140.80603, 38.12958], [140.80632, 38.1298], [140.80637, 38.12984], [140.80661, 38.13003], [140.80698, 38.1303], [140.80737, 38.13059], [140.80756, 38.13074], [140.80763, 38.13079], [140.80778, 38.1309], [140.80903, 38.13182], [140.80981, 38.13241], [140.80985, 38.13245], [140.80988, 38.13247], [140.81049, 38.13292], [140.81126, 38.13349], [140.81192, 38.13398], [140.81209, 38.13411], [140.81245, 38.13439], [140.81313, 38.13491], [140.81371, 38.13535], [140.81373, 38.13536], [140.81402, 38.1356], [140.81474, 38.13611], [140.81585, 38.13692], [140.81647, 38.13738], [140.81697, 38.13773], [140.81771, 38.13829], [140.81807, 38.13856], [140.81852, 38.13888], [140.81886, 38.13914], [140.81926, 38.13944], [140.81964, 38.13971], [140.82001, 38.13998], [140.8204, 38.14028], [140.82107, 38.14075], [140.82112, 38.14079], [140.82159, 38.14115], [140.82196, 38.14142], [140.82239, 38.14174], [140.82278, 38.14203], [140.82327, 38.1424], [140.82369, 38.1427], [140.8251, 38.14373], [140.82542, 38.144], [140.82582, 38.14427], [140.82617, 38.14455], [140.82661, 38.14487], [140.82697, 38.14513], [140.82706, 38.1452], [140.82735, 38.14542], [140.82777, 38.14572], [140.8281, 38.14597], [140.82849, 38.14626], [140.82885, 38.14652], [140.82923, 38.1468], [140.82994, 38.14734], [140.83051, 38.14774], [140.8309, 38.14803], [140.83128, 38.14832], [140.83163, 38.14858], [140.83201, 38.14887], [140.83313, 38.14971], [140.83349, 38.14998], [140.83381, 38.15022], [140.83423, 38.15051], [140.83479, 38.15095], [140.83496, 38.15106], [140.83524, 38.15128], [140.83528, 38.15132], [140.8357, 38.15162], [140.83612, 38.15194], [140.83648, 38.1522], [140.83687, 38.15248], [140.83727, 38.15278], [140.83753, 38.153], [140.83769, 38.1531], [140.83804, 38.15337], [140.83843, 38.15366], [140.83887, 38.15397], [140.83925, 38.15424], [140.83998, 38.15477], [140.84019, 38.15493], [140.84034, 38.15505], [140.8408, 38.15539], [140.84117, 38.15566], [140.84157, 38.15596], [140.84196, 38.15624], [140.84234, 38.15654], [140.84276, 38.15682], [140.84293, 38.15696], [140.84299, 38.15701], [140.84308, 38.15707], [140.84384, 38.15764], [140.8444, 38.15807], [140.84516, 38.15864], [140.8456, 38.15898], [140.84568, 38.15904], [140.84595, 38.15923], [140.84629, 38.15947], [140.84669, 38.15979], [140.84709, 38.16007], [140.84743, 38.16033], [140.84776, 38.16056], [140.84782, 38.16061], [140.84814, 38.16084], [140.84854, 38.16114], [140.84872, 38.16127], [140.84911, 38.16156], [140.84949, 38.16185], [140.84989, 38.16213], [140.85026, 38.16241], [140.85068, 38.16271], [140.85105, 38.16299], [140.85176, 38.16352], [140.85224, 38.16389], [140.85247, 38.16406], [140.85262, 38.16418], [140.85298, 38.16444], [140.85375, 38.165], [140.854, 38.16519], [140.85475, 38.16574], [140.85571, 38.16646], [140.85606, 38.16673], [140.8566, 38.16713], [140.8577, 38.16795], [140.85861, 38.16866], [140.85883, 38.16883], [140.85987, 38.16965], [140.86026, 38.16993], [140.86111, 38.17055], [140.86223, 38.17139], [140.86326, 38.17215], [140.86446, 38.17304], [140.86517, 38.1736], [140.86576, 38.17405], [140.86648, 38.17461], [140.86721, 38.17519], [140.86796, 38.17581], [140.86868, 38.17642], [140.86942, 38.17711], [140.87004, 38.1777], [140.87046, 38.1781], [140.87105, 38.17871], [140.87157, 38.17933], [140.87182, 38.17962], [140.87219, 38.18008], [140.87278, 38.18086], [140.87336, 38.18164], [140.87399, 38.18248], [140.87461, 38.18334], [140.87507, 38.18402], [140.87541, 38.18454], [140.87568, 38.18497], [140.87593, 38.18539], [140.87619, 38.18585], [140.87665, 38.18673], [140.87686, 38.18717], [140.87689, 38.18722], [140.87716, 38.18782], [140.87763, 38.1889], [140.87775, 38.1892], [140.87794, 38.18967], [140.87815, 38.19026], [140.8784, 38.19098], [140.87867, 38.19177], [140.87892, 38.1925], [140.87918, 38.19326], [140.87944, 38.19412], [140.87972, 38.19496], [140.87994, 38.19565], [140.88017, 38.19634], [140.88039, 38.19702], [140.88063, 38.19783], [140.88066, 38.1979], [140.88089, 38.19869], [140.88117, 38.19966], [140.88141, 38.20042], [140.88167, 38.20132], [140.88197, 38.20243], [140.88224, 38.20351], [140.88244, 38.20446], [140.88258, 38.20532], [140.88267, 38.20589], [140.88272, 38.20638], [140.88273, 38.20674], [140.88275, 38.20718], [140.88277, 38.20801], [140.88276, 38.2089], [140.88274, 38.20987]]}, "properties": {"id": "TRACK_TOKYO_2984", "line_name": "東北新幹線", "station_group_ids": [], "mode": "shinkansen", "operator_id": "jr_east", "tags": ["tokyo", "track_centerline"]}}, {"type": "Feature", "bbox": [140.6318, 37.9936, 140.63377, 37.99595], "geometry": {"type": "LineString", "coordinates": [[140.63377, 37.99595], [140.63331, 37.99539], [140.6318, 37.9936]]}, "properties": {"id": "TRACK_TOKYO_2986", "line_name": "東北新幹線", "station_group_ids": [], "mode": "shinkansen", "operator_id": "jr_east", "tags": ["tokyo", "track_centerline"]}}, {"type": "Feature", "bbox": [140.45855, 37.75938, 140.6318, 37.9936], "geometry": {"type": "LineString", "coordinates": [[140.6318, 37.9936], [140.63174, 37.99353], [140.63058, 37.99218], [140.62921, 37.99056], [140.62791, 37.98903], [140.62777, 37.98887], [140.62639, 37.98724], [140.62577, 37.98651], [140.62487, 37.98545], [140.62452, 37.98505], [140.62374, 37.98413], [140.62313, 37.98342], [140.62254, 37.98272], [140.62201, 37.9821], [140.6216, 37.98161], [140.62143, 37.98142], [140.62011, 37.97985], [140.61863, 37.97809], [140.61851, 37.97796], [140.61793, 37.97726], [140.61749, 37.97672], [140.61611, 37.9751], [140.61604, 37.97501], [140.61568, 37.97459], [140.61561, 37.97451], [140.61556, 37.97445], [140.61509, 37.97389], [140.61399, 37.97257], [140.61394, 37.97251], [140.6133, 37.97174], [140.61327, 37.97171], [140.61298, 37.97136], [140.61173, 37.96989], [140.6114, 37.9695], [140.61058, 37.96855], [140.60702, 37.96437], [140.60629, 37.96351], [140.60385, 37.96066], [140.6032, 37.95995], [140.60126, 37.95762], [140.6007, 37.95696], [140.59726, 37.95293], [140.59486, 37.95005], [140.59443, 37.94953], [140.59083, 37.94516], [140.58845, 37.94235], [140.58821, 37.94206], [140.58673, 37.94027], [140.58359, 37.93647], [140.58201, 37.93459], [140.58059, 37.93289], [140.57869, 37.93065], [140.57578, 37.92714], [140.56958, 37.91966], [140.56954, 37.91962], [140.56376, 37.9127], [140.56255, 37.91126], [140.55632, 37.9038], [140.55557, 37.90289], [140.5501, 37.89634], [140.54779, 37.89356], [140.54385, 37.8889], [140.53997, 37.88431], [140.53843, 37.88249], [140.5383, 37.88234], [140.53815, 37.88216], [140.53756, 37.88143], [140.53685, 37.88054], [140.5363, 37.87984], [140.53287, 37.87543], [140.53285, 37.87542], [140.53247, 37.8749], [140.53235, 37.87474], [140.5314, 37.8735], [140.53079, 37.87269], [140.5304, 37.87218], [140.52986, 37.87149], [140.52892, 37.87028], [140.52811, 37.86924], [140.52792, 37.869], [140.52701, 37.86784], [140.52608, 37.86664], [140.52521, 37.86553], [140.52434, 37.86442], [140.52324, 37.86306], [140.52295, 37.86269], [140.5228, 37.8625], [140.52273, 37.86241], [140.5218, 37.86124], [140.52124, 37.86054], [140.52048, 37.85959], [140.51993, 37.85891], [140.51888, 37.85757], [140.51853, 37.85712], [140.51515, 37.85278], [140.51231, 37.84913], [140.51048, 37.84672], [140.50927, 37.84514], [140.50919, 37.84504], [140.50688, 37.8421], [140.5043, 37.83874], [140.50335, 37.83752], [140.50312, 37.83721], [140.50233, 37.83634], [140.50007, 37.83346], [140.49943, 37.8326], [140.4989, 37.83186], [140.49846, 37.83117], [140.4978, 37.83017], [140.49743, 37.82961], [140.49677, 37.82855], [140.49662, 37.8283], [140.49617, 37.82764], [140.49587, 37.82719], [140.49548, 37.8266], [140.49429, 37.8248], [140.4942, 37.82467], [140.4925, 37.82211], [140.4916, 37.82078], [140.48976, 37.81803], [140.489, 37.81688], [140.48802, 37.81539], [140.48797, 37.81532], [140.48654, 37.81319], [140.48617, 37.81261], [140.48601, 37.81235], [140.48517, 37.81102], [140.48335, 37.80813], [140.48164, 37.80543], [140.47964, 37.80226], [140.47781, 37.79937], [140.47658, 37.79741], [140.47618, 37.79676], [140.47474, 37.79446], [140.47312, 37.79189], [140.47169, 37.78962], [140.47154, 37.78938], [140.47002, 37.787], [140.46837, 37.78439], [140.46651, 37.78143], [140.46647, 37.78136], [140.46467, 37.7785], [140.46322, 37.77621], [140.46251, 37.77504], [140.4619, 37.77389], [140.46164, 37.77331], [140.46162, 37.77326], [140.4613, 37.77246], [140.46083, 37.77133], [140.46047, 37.77045], [140.45995, 37.76894], [140.45955, 37.76761], [140.45947, 37.76731], [140.45945, 37.76724], [140.45919, 37.7658], [140.45887, 37.76377], [140.45868, 37.76218], [140.45862, 37.76152], [140.4586, 37.76103], [140.45856, 37.75989], [140.45855, 37.75938]]}, "properties": {"id": "TRACK_TOKYO_2988", "line_name": "東北新幹線", "station_group_ids": [], "mode": "shinkansen", "operator_id": "jr_east", "tags": ["tokyo", "track_centerline"]}}, {"type": "Feature", "bbox": [140.62644, 38.00412, 140.65025, 38.03443], "geometry": {"type": "LineString", "coordinates": [[140.65025, 38.03443], [140.65008, 38.03429], [140.64975, 38.0341], [140.64888, 38.03363], [140.64749, 38.03291], [140.64542, 38.03185], [140.64453, 38.03139], [140.64374, 38.03098], [140.64256, 38.03039], [140.64231, 38.03021], [140.64187, 38.0299], [140.64163, 38.02969], [140.64131, 38.02939], [140.64102, 38.02906], [140.64101, 38.02905], [140.64069, 38.02859], [140.64048, 38.02817], [140.64006, 38.02734], [140.63951, 38.02625], [140.6392, 38.02563], [140.63842, 38.0241], [140.63756, 38.02241], [140.63721, 38.02176], [140.63681, 38.02105], [140.63664, 38.02077], [140.63649, 38.02052], [140.63639, 38.02038], [140.63623, 38.02016], [140.63587, 38.01974], [140.63481, 38.01861], [140.63412, 38.01786], [140.63258, 38.01621], [140.6313, 38.01484], [140.63052, 38.01396], [140.63027, 38.01368], [140.62954, 38.01287], [140.62889, 38.01216], [140.6284, 38.0116], [140.62814, 38.01118], [140.62794, 38.01079], [140.62772, 38.01024], [140.62761, 38.00979], [140.62732, 38.0084], [140.62697, 38.00674], [140.62669, 38.00534], [140.6265, 38.00441], [140.62644, 38.00412]]}, "properties": {"id": "TRACK_TOKYO_3093", "line_name": "東北線", "station_group_ids": [], "mode": "rail", "operator_id": "jr_east", "tags": ["tokyo", "track_centerline"]}}, {"type": "Feature", "bbox": [140.65171, 38.03566, 140.65262, 38.03717], "geometry": {"type": "LineString", "coordinates": [[140.65171, 38.03566], [140.6524, 38.03684], [140.65262, 38.03717]]}, "properties": {"id": "TRACK_TOKYO_3097", "line_name": "東北線", "station_group_ids": [], "mode": "rail", "operator_id": "jr_east", "tags": ["tokyo", "track_centerline"]}}, {"type": "Feature", "bbox": [140.65025, 38.03443, 140.65171, 38.03566], "geometry": {"type": "LineString", "coordinates": [[140.65171, 38.03566], [140.65154, 38.03551], [140.65122, 38.03522], [140.65078, 38.03486], [140.65025, 38.03443]]}, "properties": {"id": "TRACK_TOKYO_3100", "line_name": "東北線", "station_group_ids": [], "mode": "rail", "operator_id": "jr_east", "tags": ["tokyo", "track_centerline"]}}, {"type": "Feature", "bbox": [140.65262, 38.03717, 140.66131, 38.04024], "geometry": {"type": "LineString", "coordinates": [[140.65262, 38.03717], [140.65297, 38.03766], [140.65351, 38.03833], [140.65393, 38.03876], [140.65439, 38.03917], [140.65463, 38.03932], [140.65498, 38.03951], [140.65527, 38.03966], [140.65542, 38.03972], [140.65548, 38.03974], [140.65585, 38.03985], [140.65614, 38.03993], [140.65649, 38.04001], [140.65677, 38.04007], [140.65708, 38.04012], [140.65733, 38.04016], [140.65766, 38.04021], [140.65785, 38.04023], [140.65794, 38.04023], [140.6583, 38.04022], [140.65881, 38.04023], [140.65895, 38.04024], [140.6595, 38.04022], [140.65988, 38.04016], [140.66026, 38.04008], [140.66057, 38.03997], [140.66131, 38.03963]]}, "properties": {"id": "TRACK_TOKYO_3101", "line_name": "東北線", "station_group_ids": [], "mode": "rail", "operator_id": "jr_east", "tags": ["tokyo", "track_centerline"]}}, {"type": "Feature", "bbox": [140.60181, 37.93477, 140.62608, 38.00229], "geometry": {"type": "LineString", "coordinates": [[140.62608, 38.00229], [140.62597, 38.00175], [140.62576, 38.00075], [140.62576, 38.00072], [140.62555, 37.99962], [140.62538, 37.99876], [140.62537, 37.99869], [140.62521, 37.99783], [140.62514, 37.99744], [140.62492, 37.99639], [140.62454, 37.99466], [140.62444, 37.99415], [140.62414, 37.9927], [140.62376, 37.99087], [140.62353, 37.9898], [140.62342, 37.98927], [140.62311, 37.98759], [140.62297, 37.98692], [140.62276, 37.98584], [140.62265, 37.98526], [140.62245, 37.98428], [140.62214, 37.98288], [140.62185, 37.98169], [140.62173, 37.98128], [140.6216, 37.98092], [140.62136, 37.98032], [140.62089, 37.97948], [140.6205, 37.97878], [140.61906, 37.9762], [140.61883, 37.97581], [140.6185, 37.97521], [140.61792, 37.97419], [140.61692, 37.97242], [140.61684, 37.97228], [140.61675, 37.97211], [140.61672, 37.97207], [140.61593, 37.97066], [140.61589, 37.97062], [140.61582, 37.97046], [140.61559, 37.97009], [140.61466, 37.9685], [140.61425, 37.96776], [140.61345, 37.9664], [140.61345, 37.96636], [140.61343, 37.96636], [140.61336, 37.96622], [140.61323, 37.96602], [140.61306, 37.96573], [140.61302, 37.96566], [140.613, 37.96564], [140.61277, 37.96524], [140.61259, 37.9649], [140.61239, 37.96454], [140.61223, 37.96425], [140.61206, 37.96396], [140.61161, 37.96319], [140.61154, 37.96305], [140.61147, 37.96291], [140.61132, 37.96256], [140.61133, 37.96255], [140.61116, 37.96218], [140.61114, 37.96217], [140.61038, 37.96049], [140.61021, 37.96003], [140.6102, 37.95998], [140.61015, 37.95985], [140.61, 37.95947], [140.60997, 37.95938], [140.60995, 37.95929], [140.60994, 37.95928], [140.60971, 37.95865], [140.60946, 37.95811], [140.60925, 37.95778], [140.60908, 37.95754], [140.60873, 37.95713], [140.60841, 37.95682], [140.60779, 37.95629], [140.60743, 37.95603], [140.60727, 37.95593], [140.60707, 37.95581], [140.60651, 37.95544], [140.60617, 37.95519], [140.606, 37.95505], [140.60555, 37.95462], [140.60538, 37.95443], [140.60508, 37.95398], [140.60492, 37.95369], [140.60483, 37.95346], [140.60476, 37.95319], [140.6047, 37.95278], [140.60467, 37.95196], [140.60465, 37.95138], [140.60461, 37.9506], [140.60456, 37.95014], [140.60445, 37.94973], [140.60432, 37.94942], [140.60408, 37.94902], [140.60389, 37.94875], [140.6031, 37.94746], [140.60251, 37.94651], [140.60245, 37.94641], [140.60199, 37.94564], [140.60191, 37.94548], [140.60186, 37.9453], [140.60182, 37.9451], [140.60181, 37.94457], [140.60187, 37.94344], [140.60191, 37.94272], [140.60194, 37.94239], [140.60199, 37.94165], [140.60201, 37.94107], [140.60205, 37.94065], [140.60207, 37.9401], [140.60212, 37.93954], [140.60213, 37.93927], [140.60219, 37.93798], [140.60221, 37.93797], [140.60221, 37.93789], [140.6022, 37.93788], [140.60221, 37.93749], [140.60227, 37.93712], [140.60234, 37.93689], [140.60249, 37.93657], [140.60265, 37.93628], [140.60283, 37.93601], [140.60286, 37.93593], [140.6029, 37.93588], [140.60315, 37.93547], [140.60373, 37.93482], [140.60378, 37.93477]]}, "properties": {"id": "TRACK_TOKYO_3111", "line_name": "東北線", "station_group_ids": [], "mode": "rail", "operator_id": "jr_east", "tags": ["tokyo", "track_centerline"]}}, {"type": "Feature", "bbox": [140.62608, 38.00229, 140.62644, 38.00412], "geometry": {"type": "LineString", "coordinates": [[140.62644, 38.00412], [140.62623, 38.00299], [140.62608, 38.00229]]}, "properties": {"id": "TRACK_TOKYO_3115", "line_name": "東北線", "station_group_ids": [], "mode": "rail", "operator_id": "jr_east", "tags": ["tokyo", "track_centerline"]}}, {"type": "Feature", "bbox": [140.65262, 38.03717, 140.66131, 38.04002], "geometry": {"type": "LineString", "coordinates": [[140.65262, 38.03717], [140.65333, 38.03787], [140.6538, 38.03827], [140.65442, 38.03874], [140.65458, 38.03887], [140.65469, 38.03895], [140.65478, 38.03901], [140.65509, 38.03922], [140.65533, 38.03935], [140.65562, 38.03949], [140.65583, 38.03958], [140.65595, 38.03963], [140.65634, 38.03974], [140.65672, 38.03983], [140.65695, 38.03986], [140.6573, 38.03991], [140.65779, 38.03996], [140.65801, 38.03998], [140.65824, 38.03999], [140.65912, 38.04002], [140.65959, 38.03997], [140.66025, 38.03987], [140.66081, 38.03977], [140.66131, 38.03963]]}, "properties": {"id": "TRACK_TOKYO_3120", "line_name": "東北線", "station_group_ids": [], "mode": "rail", "operator_id": "jr_east", "tags": ["tokyo", "track_centerline"]}}, {"type": "Feature", "bbox": [140.69183, 38.03232, 140.69327, 38.03258], "geometry": {"type": "LineString", "coordinates": [[140.69327, 38.03258], [140.69183, 38.03232]]}, "properties": {"id": "TRACK_TOKYO_3123", "line_name": "東北線", "station_group_ids": [], "mode": "rail", "operator_id": "jr_east", "tags": ["tokyo", "track_centerline"]}}, {"type": "Feature", "bbox": [140.66131, 38.03226, 140.69183, 38.03963], "geometry": {"type": "LineString", "coordinates": [[140.69183, 38.03232], [140.69139, 38.03228], [140.69123, 38.03226], [140.69059, 38.03226], [140.68999, 38.03229], [140.6895, 38.03235], [140.689, 38.03243], [140.68853, 38.03253], [140.68791, 38.03271], [140.68725, 38.03292], [140.6865, 38.03324], [140.6862, 38.03341], [140.68585, 38.03361], [140.68558, 38.03381], [140.68533, 38.03402], [140.68502, 38.03434], [140.68482, 38.03454], [140.68446, 38.03487], [140.68376, 38.03552], [140.68318, 38.03599], [140.68283, 38.03623], [140.68251, 38.03644], [140.68222, 38.0366], [140.68212, 38.03666], [140.68191, 38.03675], [140.68125, 38.03696], [140.68086, 38.03706], [140.68037, 38.03716], [140.67997, 38.03721], [140.67955, 38.03724], [140.67913, 38.03724], [140.67866, 38.03722], [140.67821, 38.03718], [140.67774, 38.03711], [140.6771, 38.03695], [140.67643, 38.03676], [140.6754, 38.03642], [140.67466, 38.0362], [140.6742, 38.03612], [140.67379, 38.03606], [140.67324, 38.03602], [140.6727, 38.03602], [140.67229, 38.03602], [140.67185, 38.03606], [140.67155, 38.0361], [140.67152, 38.03611], [140.67122, 38.03617], [140.6708, 38.03632], [140.66995, 38.03662], [140.66877, 38.03702], [140.66776, 38.03738], [140.66641, 38.03786], [140.66496, 38.03838], [140.66358, 38.03888], [140.66208, 38.03938], [140.66131, 38.03963]]}, "properties": {"id": "TRACK_TOKYO_3124", "line_name": "東北線", "station_group_ids": [], "mode": "rail", "operator_id": "jr_east", "tags": ["tokyo", "track_centerline"]}}, {"type": "Feature", "bbox": [140.69327, 38.03258, 140.73971, 38.04672], "geometry": {"type": "LineString", "coordinates": [[140.73971, 38.04672], [140.73874, 38.04567], [140.73776, 38.04456], [140.73718, 38.04392], [140.73644, 38.0431], [140.73572, 38.04226], [140.73501, 38.04147], [140.73432, 38.04069], [140.73363, 38.03995], [140.73297, 38.03922], [140.73243, 38.03866], [140.73203, 38.03833], [140.73156, 38.03803], [140.73101, 38.03777], [140.73051, 38.03752], [140.72996, 38.03735], [140.72942, 38.03722], [140.72896, 38.03712], [140.72853, 38.03705], [140.72811, 38.03701], [140.72751, 38.03698], [140.72682, 38.03695], [140.72491, 38.03685], [140.72389, 38.0368], [140.72301, 38.03675], [140.72136, 38.03666], [140.71962, 38.03658], [140.7179, 38.03651], [140.71598, 38.03639], [140.71519, 38.03635], [140.71433, 38.03635], [140.71339, 38.03638], [140.71283, 38.03642], [140.71245, 38.03645], [140.71114, 38.03659], [140.70976, 38.03672], [140.70941, 38.03676], [140.70823, 38.03688], [140.70763, 38.03695], [140.70707, 38.03696], [140.70644, 38.03698], [140.70566, 38.03695], [140.70535, 38.03691], [140.70493, 38.03684], [140.70439, 38.03671], [140.70361, 38.03648], [140.70252, 38.03613], [140.702, 38.03596], [140.70153, 38.0358], [140.70016, 38.03537], [140.69843, 38.03476], [140.69754, 38.03445], [140.69718, 38.03428], [140.696, 38.03374], [140.69479, 38.03318], [140.69435, 38.03295], [140.69375, 38.03273], [140.69327, 38.03258]]}, "properties": {"id": "TRACK_TOKYO_3127", "line_name": "東北線", "station_group_ids": [], "mode": "rail", "operator_id": "jr_east", "tags": ["tokyo", "track_centerline"]}}]}