{"type": "FeatureCollection", "features": [{"type": "Feature", "bbox": [140.45854, 37.7558, 140.45865, 37.75938], "geometry": {"type": "LineString", "coordinates": [[140.45855, 37.75938], [140.45854, 37.75893], [140.45855, 37.75873], [140.45857, 37.75806], [140.45857, 37.75802], [140.45864, 37.75608], [140.45865, 37.7558]]}, "properties": {"id": "TRACK_TOKYO_3066", "line_name": "東北新幹線", "station_group_ids": [], "mode": "shinkansen", "operator_id": "jr_east", "line_color": "#2D9C5B", "tags": ["tokyo", "track_centerline"]}}, {"type": "Feature", "bbox": [140.45855, 37.75938, 140.6318, 37.9936], "geometry": {"type": "LineString", "coordinates": [[140.6318, 37.9936], [140.63174, 37.99353], [140.63058, 37.99218], [140.62921, 37.99056], [140.62791, 37.98903], [140.62777, 37.98887], [140.62639, 37.98724], [140.62577, 37.98651], [140.62487, 37.98545], [140.62452, 37.98505], [140.62374, 37.98413], [140.62313, 37.98342], [140.62254, 37.98272], [140.62201, 37.9821], [140.6216, 37.98161], [140.62143, 37.98142], [140.62011, 37.97985], [140.61863, 37.97809], [140.61851, 37.97796], [140.61793, 37.97726], [140.61749, 37.97672], [140.61611, 37.9751], [140.61604, 37.97501], [140.61568, 37.97459], [140.61561, 37.97451], [140.61556, 37.97445], [140.61509, 37.97389], [140.61399, 37.97257], [140.61394, 37.97251], [140.6133, 37.97174], [140.61327, 37.97171], [140.61298, 37.97136], [140.61173, 37.96989], [140.6114, 37.9695], [140.61058, 37.96855], [140.60702, 37.96437], [140.60629, 37.96351], [140.60385, 37.96066], [140.6032, 37.95995], [140.60126, 37.95762], [140.6007, 37.95696], [140.59726, 37.95293], [140.59486, 37.95005], [140.59443, 37.94953], [140.59083, 37.94516], [140.58845, 37.94235], [140.58821, 37.94206], [140.58673, 37.94027], [140.58359, 37.93647], [140.58201, 37.93459], [140.58059, 37.93289], [140.57869, 37.93065], [140.57578, 37.92714], [140.56958, 37.91966], [140.56954, 37.91962], [140.56376, 37.9127], [140.56255, 37.91126], [140.55632, 37.9038], [140.55557, 37.90289], [140.5501, 37.89634], [140.54779, 37.89356], [140.54385, 37.8889], [140.53997, 37.88431], [140.53843, 37.88249], [140.5383, 37.88234], [140.53815, 37.88216], [140.53756, 37.88143], [140.53685, 37.88054], [140.5363, 37.87984], [140.53287, 37.87543], [140.53285, 37.87542], [140.53247, 37.8749], [140.53235, 37.87474], [140.5314, 37.8735], [140.53079, 37.87269], [140.5304, 37.87218], [140.52986, 37.87149], [140.52892, 37.87028], [140.52811, 37.86924], [140.52792, 37.869], [140.52701, 37.86784], [140.52608, 37.86664], [140.52521, 37.86553], [140.52434, 37.86442], [140.52324, 37.86306], [140.52295, 37.86269], [140.5228, 37.8625], [140.52273, 37.86241], [140.5218, 37.86124], [140.52124, 37.86054], [140.52048, 37.85959], [140.51993, 37.85891], [140.51888, 37.85757], [140.51853, 37.85712], [140.51515, 37.85278], [140.51231, 37.84913], [140.51048, 37.84672], [140.50927, 37.84514], [140.50919, 37.84504], [140.50688, 37.8421], [140.5043, 37.83874], [140.50335, 37.83752], [140.50312, 37.83721], [140.50233, 37.83634], [140.50007, 37.83346], [140.49943, 37.8326], [140.4989, 37.83186], [140.49846, 37.83117], [140.4978, 37.83017], [140.49743, 37.82961], [140.49677, 37.82855], [140.49662, 37.8283], [140.49617, 37.82764], [140.49587, 37.82719], [140.49548, 37.8266], [140.49429, 37.8248], [140.4942, 37.82467], [140.4925, 37.82211], [140.4916, 37.82078], [140.48976, 37.81803], [140.489, 37.81688], [140.48802, 37.81539], [140.48797, 37.81532], [140.48654, 37.81319], [140.48617, 37.81261], [140.48601, 37.81235], [140.48517, 37.81102], [140.48335, 37.80813], [140.48164, 37.80543], [140.47964, 37.80226], [140.47781, 37.79937], [140.47658, 37.79741], [140.47618, 37.79676], [140.47474, 37.79446], [140.47312, 37.79189], [140.47169, 37.78962], [140.47154, 37.78938], [140.47002, 37.787], [140.46837, 37.78439], [140.46651, 37.78143], [140.46647, 37.78136], [140.46467, 37.7785], [140.46322, 37.77621], [140.46251, 37.77504], [140.4619, 37.77389], [140.46164, 37.77331], [140.46162, 37.77326], [140.4613, 37.77246], [140.46083, 37.77133], [140.46047, 37.77045], [140.45995, 37.76894], [140.45955, 37.76761], [140.45947, 37.76731], [140.45945, 37.76724], [140.45919, 37.7658], [140.45887, 37.76377], [140.45868, 37.76218], [140.45862, 37.76152], [140.4586, 37.76103], [140.45856, 37.75989], [140.45855, 37.75938]]}, "properties": {"id": "TRACK_TOKYO_3067", "line_name": "東北新幹線", "station_group_ids": [], "mode": "shinkansen", "operator_id": "jr_east", "line_color": "#2D9C5B", "tags": ["tokyo", "track_centerline"]}}, {"type": "Feature", "bbox": [140.45857, 37.75232, 140.45865, 37.7558], "geometry": {"type": "LineString", "coordinates": [[140.45857, 37.75232], [140.45859, 37.75301], [140.45865, 37.7558]]}, "properties": {"id": "TRACK_TOKYO_3068", "line_name": "東北新幹線", "station_group_ids": [], "mode": "shinkansen", "operator_id": "jr_east", "line_color": "#2D9C5B", "tags": ["tokyo", "track_centerline"]}}, {"type": "Feature", "bbox": [140.38904, 37.40043, 140.4759, 37.75232], "geometry": {"type": "LineString", "coordinates": [[140.45857, 37.75232], [140.45856, 37.74868], [140.45855, 37.74455], [140.45854, 37.74453], [140.45854, 37.74435], [140.45851, 37.74002], [140.45848, 37.73967], [140.45843, 37.73914], [140.45842, 37.73901], [140.45841, 37.73895], [140.4584, 37.73882], [140.45836, 37.73852], [140.45823, 37.7378], [140.45811, 37.73718], [140.45769, 37.73488], [140.45763, 37.73463], [140.45741, 37.73343], [140.45732, 37.73294], [140.45728, 37.73273], [140.45723, 37.73246], [140.45698, 37.73119], [140.45689, 37.7307], [140.45672, 37.72985], [140.45657, 37.72911], [140.45642, 37.72835], [140.45638, 37.72823], [140.45637, 37.72817], [140.45631, 37.72785], [140.45618, 37.72725], [140.45597, 37.72619], [140.45563, 37.72451], [140.45555, 37.72404], [140.45548, 37.72363], [140.4552, 37.72214], [140.45509, 37.72155], [140.45467, 37.71931], [140.45448, 37.71833], [140.45444, 37.71811], [140.4543, 37.71734], [140.45409, 37.71622], [140.454, 37.71572], [140.45392, 37.71532], [140.45389, 37.71513], [140.45386, 37.71497], [140.4538, 37.71462], [140.45379, 37.71459], [140.45368, 37.71385], [140.45362, 37.71343], [140.45355, 37.71294], [140.45346, 37.71186], [140.45339, 37.71037], [140.45336, 37.7097], [140.45334, 37.70947], [140.45333, 37.70884], [140.45337, 37.708], [140.45342, 37.70736], [140.45343, 37.70729], [140.45355, 37.70614], [140.45355, 37.7061], [140.45359, 37.70565], [140.45361, 37.70559], [140.45366, 37.70504], [140.45374, 37.70434], [140.45388, 37.70365], [140.45398, 37.70327], [140.45413, 37.70274], [140.45428, 37.70231], [140.45453, 37.7016], [140.45488, 37.70067], [140.45516, 37.7], [140.45537, 37.69958], [140.45563, 37.69907], [140.45586, 37.69867], [140.45639, 37.69769], [140.45671, 37.69712], [140.45715, 37.69634], [140.45741, 37.69587], [140.45748, 37.69573], [140.4579, 37.69495], [140.45814, 37.69452], [140.45843, 37.69396], [140.45873, 37.69346], [140.45902, 37.6929], [140.45924, 37.69248], [140.45967, 37.69169], [140.46024, 37.69066], [140.4605, 37.69019], [140.46086, 37.68953], [140.46115, 37.68901], [140.46154, 37.68829], [140.46187, 37.68768], [140.46189, 37.68763], [140.4621, 37.68724], [140.46271, 37.68613], [140.46304, 37.68555], [140.46378, 37.68417], [140.46395, 37.6839], [140.46427, 37.6833], [140.4645, 37.68287], [140.46489, 37.68218], [140.46509, 37.68166], [140.46525, 37.68134], [140.46566, 37.68072], [140.46615, 37.67982], [140.46637, 37.67939], [140.46646, 37.67923], [140.46682, 37.67864], [140.46705, 37.67816], [140.46749, 37.67728], [140.46771, 37.67684], [140.46782, 37.67665], [140.46818, 37.67595], [140.46857, 37.67522], [140.46879, 37.6748], [140.46929, 37.67385], [140.46949, 37.6735], [140.46965, 37.6732], [140.46988, 37.67274], [140.47015, 37.67226], [140.47042, 37.67172], [140.47075, 37.67111], [140.47089, 37.67083], [140.4713, 37.67009], [140.47151, 37.66969], [140.4728, 37.66739], [140.47331, 37.66639], [140.4734, 37.66617], [140.47384, 37.66512], [140.47404, 37.66463], [140.47443, 37.66333], [140.47496, 37.66165], [140.4753, 37.66005], [140.47561, 37.65829], [140.4757, 37.65738], [140.47572, 37.65708], [140.47589, 37.65544], [140.4759, 37.65441], [140.47577, 37.653], [140.47564, 37.65125], [140.47537, 37.64839], [140.47534, 37.64818], [140.47532, 37.64798], [140.47529, 37.64764], [140.47523, 37.64708], [140.47504, 37.64535], [140.47457, 37.64045], [140.47439, 37.63882], [140.47433, 37.63809], [140.47412, 37.63591], [140.47391, 37.6342], [140.47379, 37.63325], [140.47358, 37.63083], [140.47339, 37.62911], [140.47329, 37.62817], [140.4732, 37.62718], [140.47307, 37.62567], [140.47301, 37.62499], [140.4727, 37.62203], [140.4725, 37.62012], [140.47238, 37.61908], [140.47183, 37.61318], [140.47161, 37.61114], [140.47151, 37.61021], [140.47096, 37.60533], [140.47073, 37.60215], [140.47048, 37.59966], [140.47035, 37.59832], [140.46982, 37.59319], [140.46981, 37.59305], [140.4697, 37.59209], [140.46968, 37.59195], [140.4694, 37.58937], [140.46897, 37.58657], [140.46892, 37.58636], [140.46859, 37.58507], [140.46825, 37.58381], [140.46814, 37.58349], [140.46804, 37.5832], [140.46794, 37.58291], [140.46716, 37.58078], [140.46692, 37.58023], [140.46599, 37.57853], [140.46525, 37.57717], [140.46478, 37.57631], [140.46439, 37.57561], [140.46415, 37.5752], [140.46296, 37.57307], [140.46287, 37.57289], [140.46247, 37.57215], [140.46187, 37.57104], [140.46101, 37.56946], [140.45945, 37.56657], [140.45898, 37.56571], [140.4584, 37.56464], [140.45822, 37.56429], [140.4571, 37.56225], [140.45483, 37.55809], [140.45371, 37.55603], [140.45343, 37.55552], [140.45269, 37.55417], [140.45244, 37.55372], [140.45127, 37.55155], [140.45062, 37.55038], [140.45047, 37.55011], [140.44974, 37.54875], [140.44905, 37.54746], [140.44822, 37.54596], [140.44732, 37.54427], [140.44683, 37.5434], [140.44626, 37.54231], [140.44523, 37.54041], [140.4448, 37.53962], [140.44358, 37.5374], [140.44333, 37.5369], [140.44196, 37.53438], [140.44079, 37.53221], [140.44061, 37.5319], [140.43967, 37.53013], [140.43895, 37.52877], [140.43814, 37.5273], [140.43705, 37.52528], [140.43648, 37.52424], [140.43551, 37.52244], [140.4352, 37.52189], [140.43489, 37.5213], [140.43453, 37.52062], [140.43391, 37.51949], [140.43341, 37.51857], [140.43193, 37.51592], [140.43151, 37.51513], [140.43099, 37.51415], [140.43081, 37.51375], [140.4305, 37.51307], [140.43023, 37.51235], [140.42988, 37.51151], [140.42944, 37.51044], [140.429, 37.50935], [140.42814, 37.50724], [140.42736, 37.50536], [140.42675, 37.50385], [140.42641, 37.50304], [140.42626, 37.50266], [140.42613, 37.50234], [140.42559, 37.50093], [140.42547, 37.50063], [140.42515, 37.49981], [140.42461, 37.49841], [140.42428, 37.49749], [140.42414, 37.49717], [140.42391, 37.49661], [140.42367, 37.49599], [140.42327, 37.495], [140.42274, 37.49365], [140.42213, 37.49207], [140.42178, 37.49118], [140.42104, 37.48929], [140.42064, 37.48824], [140.41935, 37.48487], [140.4185, 37.48265], [140.41792, 37.48119], [140.41775, 37.48076], [140.41733, 37.47966], [140.41684, 37.47838], [140.41553, 37.47501], [140.41545, 37.4748], [140.41534, 37.4745], [140.41448, 37.4723], [140.41431, 37.47184], [140.41312, 37.4688], [140.41216, 37.46635], [140.41211, 37.4662], [140.411, 37.46335], [140.41057, 37.46224], [140.41001, 37.46078], [140.40875, 37.45761], [140.40816, 37.45603], [140.40798, 37.45559], [140.40679, 37.45251], [140.40653, 37.45183], [140.40622, 37.45104], [140.40551, 37.44922], [140.40522, 37.44844], [140.40423, 37.4459], [140.40404, 37.44539], [140.40385, 37.44489], [140.40345, 37.44387], [140.40274, 37.44203], [140.40254, 37.44148], [140.40176, 37.43934], [140.40147, 37.43856], [140.40114, 37.43769], [140.40081, 37.43677], [140.40053, 37.43599], [140.4, 37.4345], [140.3995, 37.43305], [140.39939, 37.43272], [140.39897, 37.4314], [140.39867, 37.43042], [140.39809, 37.4287], [140.39763, 37.42722], [140.39747, 37.42671], [140.39728, 37.42615], [140.39667, 37.42434], [140.39636, 37.42335], [140.39623, 37.42298], [140.39513, 37.41971], [140.39468, 37.41848], [140.39385, 37.41582], [140.39324, 37.41391], [140.39223, 37.41077], [140.39151, 37.4086], [140.39122, 37.40779], [140.39039, 37.4052], [140.39024, 37.40473], [140.39007, 37.40421], [140.38904, 37.40043]]}, "properties": {"id": "TRACK_TOKYO_3071", "line_name": "東北新幹線", "station_group_ids": [], "mode": "shinkansen", "operator_id": "jr_east", "line_color": "#2D9C5B", "tags": ["tokyo", "track_centerline"]}}, {"type": "Feature", "bbox": [140.60181, 37.93477, 140.62608, 38.00229], "geometry": {"type": "LineString", "coordinates": [[140.62608, 38.00229], [140.62597, 38.00175], [140.62576, 38.00075], [140.62576, 38.00072], [140.62555, 37.99962], [140.62538, 37.99876], [140.62537, 37.99869], [140.62521, 37.99783], [140.62514, 37.99744], [140.62492, 37.99639], [140.62454, 37.99466], [140.62444, 37.99415], [140.62414, 37.9927], [140.62376, 37.99087], [140.62353, 37.9898], [140.62342, 37.98927], [140.62311, 37.98759], [140.62297, 37.98692], [140.62276, 37.98584], [140.62265, 37.98526], [140.62245, 37.98428], [140.62214, 37.98288], [140.62185, 37.98169], [140.62173, 37.98128], [140.6216, 37.98092], [140.62136, 37.98032], [140.62089, 37.97948], [140.6205, 37.97878], [140.61906, 37.9762], [140.61883, 37.97581], [140.6185, 37.97521], [140.61792, 37.97419], [140.61692, 37.97242], [140.61684, 37.97228], [140.61675, 37.97211], [140.61672, 37.97207], [140.61593, 37.97066], [140.61589, 37.97062], [140.61582, 37.97046], [140.61559, 37.97009], [140.61466, 37.9685], [140.61425, 37.96776], [140.61345, 37.9664], [140.61345, 37.96636], [140.61343, 37.96636], [140.61336, 37.96622], [140.61323, 37.96602], [140.61306, 37.96573], [140.61302, 37.96566], [140.613, 37.96564], [140.61277, 37.96524], [140.61259, 37.9649], [140.61239, 37.96454], [140.61223, 37.96425], [140.61206, 37.96396], [140.61161, 37.96319], [140.61154, 37.96305], [140.61147, 37.96291], [140.61132, 37.96256], [140.61133, 37.96255], [140.61116, 37.96218], [140.61114, 37.96217], [140.61038, 37.96049], [140.61021, 37.96003], [140.6102, 37.95998], [140.61015, 37.95985], [140.61, 37.95947], [140.60997, 37.95938], [140.60995, 37.95929], [140.60994, 37.95928], [140.60971, 37.95865], [140.60946, 37.95811], [140.60925, 37.95778], [140.60908, 37.95754], [140.60873, 37.95713], [140.60841, 37.95682], [140.60779, 37.95629], [140.60743, 37.95603], [140.60727, 37.95593], [140.60707, 37.95581], [140.60651, 37.95544], [140.60617, 37.95519], [140.606, 37.95505], [140.60555, 37.95462], [140.60538, 37.95443], [140.60508, 37.95398], [140.60492, 37.95369], [140.60483, 37.95346], [140.60476, 37.95319], [140.6047, 37.95278], [140.60467, 37.95196], [140.60465, 37.95138], [140.60461, 37.9506], [140.60456, 37.95014], [140.60445, 37.94973], [140.60432, 37.94942], [140.60408, 37.94902], [140.60389, 37.94875], [140.6031, 37.94746], [140.60251, 37.94651], [140.60245, 37.94641], [140.60199, 37.94564], [140.60191, 37.94548], [140.60186, 37.9453], [140.60182, 37.9451], [140.60181, 37.94457], [140.60187, 37.94344], [140.60191, 37.94272], [140.60194, 37.94239], [140.60199, 37.94165], [140.60201, 37.94107], [140.60205, 37.94065], [140.60207, 37.9401], [140.60212, 37.93954], [140.60213, 37.93927], [140.60219, 37.93798], [140.60221, 37.93797], [140.60221, 37.93789], [140.6022, 37.93788], [140.60221, 37.93749], [140.60227, 37.93712], [140.60234, 37.93689], [140.60249, 37.93657], [140.60265, 37.93628], [140.60283, 37.93601], [140.60286, 37.93593], [140.6029, 37.93588], [140.60315, 37.93547], [140.60373, 37.93482], [140.60378, 37.93477]]}, "properties": {"id": "TRACK_TOKYO_3190", "line_name": "東北線", "station_group_ids": [], "mode": "rail", "operator_id": "jr_east", "line_color": "#3AA76D", "tags": ["tokyo", "track_centerline"]}}, {"type": "Feature", "bbox": [140.58023, 37.90746, 140.58173, 37.90876], "geometry": {"type": "LineString", "coordinates": [[140.58173, 37.90876], [140.58023, 37.90746]]}, "properties": {"id": "TRACK_TOKYO_3212", "line_name": "東北線", "station_group_ids": [], "mode": "rail", "operator_id": "jr_east", "line_color": "#3AA76D", "tags": ["tokyo", "track_centerline"]}}, {"type": "Feature", "bbox": [140.58173, 37.90876, 140.60508, 37.93234], "geometry": {"type": "LineString", "coordinates": [[140.60507, 37.93234], [140.60508, 37.93223], [140.60508, 37.93195], [140.60504, 37.93173], [140.605, 37.93151], [140.60499, 37.93149], [140.60484, 37.93103], [140.60467, 37.93062], [140.6045, 37.93032], [140.60412, 37.92973], [140.60343, 37.92853], [140.60334, 37.92839], [140.60304, 37.9279], [140.60264, 37.92728], [140.60239, 37.92693], [140.60192, 37.92637], [140.60166, 37.92609], [140.60147, 37.9259], [140.60124, 37.92571], [140.60081, 37.92531], [140.59976, 37.92441], [140.59922, 37.92394], [140.59886, 37.92363], [140.59867, 37.92346], [140.59812, 37.92299], [140.5981, 37.92298], [140.59793, 37.92284], [140.59736, 37.92234], [140.59734, 37.92233], [140.59709, 37.92212], [140.59487, 37.9202], [140.59443, 37.91982], [140.59422, 37.91966], [140.59399, 37.91946], [140.59366, 37.91913], [140.59332, 37.91876], [140.59324, 37.91865], [140.59271, 37.91794], [140.59155, 37.91644], [140.59147, 37.91634], [140.59115, 37.91592], [140.59055, 37.91515], [140.59018, 37.9147], [140.58997, 37.91448], [140.58971, 37.91421], [140.58949, 37.91406], [140.58884, 37.91363], [140.58848, 37.91337], [140.5865, 37.91201], [140.58638, 37.91192], [140.58608, 37.91172], [140.58508, 37.91105], [140.58475, 37.91084], [140.58433, 37.91055], [140.58308, 37.90972], [140.58294, 37.90962], [140.58281, 37.90952], [140.58223, 37.90913], [140.58173, 37.90876]]}, "properties": {"id": "TRACK_TOKYO_3215", "line_name": "東北線", "station_group_ids": [], "mode": "rail", "operator_id": "jr_east", "line_color": "#3AA76D", "tags": ["tokyo", "track_centerline"]}}, {"type": "Feature", "bbox": [140.60378, 37.93234, 140.60507, 37.93477], "geometry": {"type": "LineString", "coordinates": [[140.60378, 37.93477], [140.60419, 37.93427], [140.60458, 37.9337], [140.60487, 37.93312], [140.60501, 37.9327], [140.60507, 37.93234]]}, "properties": {"id": "TRACK_TOKYO_3219", "line_name": "東北線", "station_group_ids": [], "mode": "rail", "operator_id": "jr_east", "line_color": "#3AA76D", "tags": ["tokyo", "track_centerline"]}}, {"type": "Feature", "bbox": [140.51789, 37.85593, 140.53853, 37.87828], "geometry": {"type": "LineString", "coordinates": [[140.51789, 37.85593], [140.51812, 37.85622], [140.51926, 37.85766], [140.52067, 37.85943], [140.52102, 37.85988], [140.52121, 37.86011], [140.52236, 37.86156], [140.52316, 37.86254], [140.52353, 37.86301], [140.52442, 37.86415], [140.52542, 37.86542], [140.52551, 37.86552], [140.52584, 37.86595], [140.52684, 37.86722], [140.52704, 37.86747], [140.52813, 37.8689], [140.52838, 37.86922], [140.52854, 37.86941], [140.52873, 37.86967], [140.52909, 37.87012], [140.52918, 37.87023], [140.52935, 37.87045], [140.52961, 37.87077], [140.53021, 37.87155], [140.53072, 37.8722], [140.53121, 37.87283], [140.53166, 37.87339], [140.53173, 37.87346], [140.53223, 37.87395], [140.53267, 37.87432], [140.53297, 37.87454], [140.5331, 37.87463], [140.53349, 37.8749], [140.53387, 37.87514], [140.53391, 37.87517], [140.53434, 37.87545], [140.53485, 37.8758], [140.53635, 37.87681], [140.53645, 37.87687], [140.53691, 37.87719], [140.5381, 37.87798], [140.53853, 37.87828]]}, "properties": {"id": "TRACK_TOKYO_3221", "line_name": "東北線", "station_group_ids": [], "mode": "rail", "operator_id": "jr_east", "line_color": "#3AA76D", "tags": ["tokyo", "track_centerline"]}}, {"type": "Feature", "bbox": [140.45972, 37.74959, 140.4604, 37.75341], "geometry": {"type": "LineString", "coordinates": [[140.45972, 37.75341], [140.45973, 37.75301], [140.45985, 37.75165], [140.45992, 37.75108], [140.45993, 37.75099], [140.45998, 37.75079], [140.46003, 37.75065], [140.46007, 37.75057], [140.46015, 37.75038], [140.4604, 37.74959]]}, "properties": {"id": "TRACK_TOKYO_3222", "line_name": "東北線", "station_group_ids": [], "mode": "rail", "operator_id": "jr_east", "line_color": "#3AA76D", "tags": ["tokyo", "track_centerline"]}}, {"type": "Feature", "bbox": [140.46668, 37.78926, 140.47683, 37.79904], "geometry": {"type": "LineString", "coordinates": [[140.47683, 37.79904], [140.47664, 37.79878], [140.47555, 37.7972], [140.4749, 37.79627], [140.47421, 37.79526], [140.4732, 37.79383], [140.47315, 37.79376], [140.47301, 37.79356], [140.47291, 37.79344], [140.47287, 37.79338], [140.47253, 37.79296], [140.47211, 37.7925], [140.47167, 37.7921], [140.47138, 37.79187], [140.47101, 37.7916], [140.47086, 37.79151], [140.47074, 37.79144], [140.4699, 37.79099], [140.46949, 37.79077], [140.46883, 37.79042], [140.46754, 37.78972], [140.4672, 37.78954], [140.46687, 37.78937], [140.46668, 37.78926]]}, "properties": {"id": "TRACK_TOKYO_3224", "line_name": "東北線", "station_group_ids": [], "mode": "rail", "operator_id": "jr_east", "line_color": "#3AA76D", "tags": ["tokyo", "track_centerline"]}}, {"type": "Feature", "bbox": [140.47786, 37.80049, 140.48477, 37.80747], "geometry": {"type": "LineString", "coordinates": [[140.47786, 37.80049], [140.47841, 37.80126], [140.47918, 37.80232], [140.47942, 37.80263], [140.47992, 37.80323], [140.4806, 37.80393], [140.48174, 37.805], [140.48289, 37.80601], [140.48347, 37.80651], [140.48354, 37.80656], [140.48417, 37.80704], [140.48477, 37.80747]]}, "properties": {"id": "TRACK_TOKYO_3226", "line_name": "東北線", "station_group_ids": [], "mode": "rail", "operator_id": "jr_east", "line_color": "#3AA76D", "tags": ["tokyo", "track_centerline"]}}, {"type": "Feature", "bbox": [140.45604, 37.72487, 140.46051, 37.74959], "geometry": {"type": "LineString", "coordinates": [[140.45604, 37.72487], [140.45611, 37.72522], [140.45621, 37.72571], [140.45629, 37.72607], [140.45631, 37.72616], [140.45638, 37.72652], [140.45641, 37.72669], [140.45648, 37.72699], [140.4566, 37.7276], [140.45665, 37.72787], [140.45676, 37.72841], [140.45684, 37.72882], [140.45694, 37.72937], [140.45697, 37.72948], [140.45706, 37.72991], [140.4573, 37.73116], [140.45738, 37.73153], [140.45741, 37.73174], [140.45757, 37.73252], [140.4576, 37.73263], [140.45764, 37.73283], [140.45769, 37.73305], [140.45781, 37.7337], [140.45784, 37.73384], [140.45791, 37.73412], [140.45798, 37.73452], [140.45815, 37.73536], [140.45837, 37.73646], [140.45853, 37.73732], [140.45855, 37.73741], [140.45871, 37.73821], [140.45874, 37.73838], [140.45877, 37.73857], [140.45883, 37.73889], [140.45904, 37.73994], [140.45915, 37.74048], [140.45932, 37.74138], [140.45934, 37.74142], [140.45942, 37.74181], [140.45947, 37.74213], [140.45962, 37.74289], [140.45966, 37.74306], [140.45966, 37.74309], [140.45969, 37.74326], [140.45973, 37.74349], [140.45975, 37.74359], [140.4598, 37.7438], [140.45984, 37.74405], [140.4599, 37.74437], [140.46001, 37.74498], [140.46017, 37.74572], [140.46018, 37.74576], [140.46022, 37.74597], [140.46034, 37.74661], [140.46043, 37.74703], [140.46047, 37.74735], [140.46049, 37.74751], [140.46051, 37.74787], [140.46049, 37.74857], [140.46049, 37.74871], [140.46048, 37.74877], [140.4604, 37.74959]]}, "properties": {"id": "TRACK_TOKYO_3227", "line_name": "東北線", "station_group_ids": [], "mode": "rail", "operator_id": "jr_east", "line_color": "#3AA76D", "tags": ["tokyo", "track_centerline"]}}, {"type": "Feature", "bbox": [140.46006, 37.74959, 140.4604, 37.75341], "geometry": {"type": "LineString", "coordinates": [[140.46006, 37.75341], [140.46013, 37.75301], [140.46018, 37.75216], [140.46027, 37.7512], [140.46031, 37.75084], [140.46033, 37.75038], [140.4604, 37.74959]]}, "properties": {"id": "TRACK_TOKYO_3228", "line_name": "東北線", "station_group_ids": [], "mode": "rail", "operator_id": "jr_east", "line_color": "#3AA76D", "tags": ["tokyo", "track_centerline"]}}, {"type": "Feature", "bbox": [140.48477, 37.80747, 140.48759, 37.81182], "geometry": {"type": "LineString", "coordinates": [[140.48477, 37.80747], [140.48565, 37.80804], [140.48611, 37.80843], [140.48655, 37.80889], [140.48686, 37.80926], [140.48709, 37.80959], [140.48731, 37.81], [140.48745, 37.81034], [140.48752, 37.81059], [140.48754, 37.81066], [140.48757, 37.81085], [140.48758, 37.81088], [140.48759, 37.81105], [140.48759, 37.81135], [140.4875, 37.81182]]}, "properties": {"id": "TRACK_TOKYO_3229", "line_name": "東北線", "station_group_ids": [], "mode": "rail", "operator_id": "jr_east", "line_color": "#3AA76D", "tags": ["tokyo", "track_centerline"]}}, {"type": "Feature", "bbox": [140.45972, 37.75341, 140.4598, 37.75522], "geometry": {"type": "LineString", "coordinates": [[140.45972, 37.75341], [140.4598, 37.75522]]}, "properties": {"id": "TRACK_TOKYO_3230", "line_name": "東北線", "station_group_ids": [], "mode": "rail", "operator_id": "jr_east", "line_color": "#3AA76D", "tags": ["tokyo", "track_centerline"]}}, {"type": "Feature", "bbox": [140.48718, 37.81182, 140.49279, 37.82351], "geometry": {"type": "LineString", "coordinates": [[140.49279, 37.82351], [140.49234, 37.82294], [140.49091, 37.8211], [140.48978, 37.81966], [140.48917, 37.81887], [140.48886, 37.81845], [140.48875, 37.8183], [140.48828, 37.81761], [140.48797, 37.81715], [140.48763, 37.8166], [140.48741, 37.81618], [140.48729, 37.81589], [140.48722, 37.81557], [140.48721, 37.81551], [140.48718, 37.81519], [140.48718, 37.81477], [140.48719, 37.81438], [140.48729, 37.81352], [140.48733, 37.81318], [140.48741, 37.81256], [140.4875, 37.81182]]}, "properties": {"id": "TRACK_TOKYO_3234", "line_name": "東北線", "station_group_ids": [], "mode": "rail", "operator_id": "jr_east", "line_color": "#3AA76D", "tags": ["tokyo", "track_centerline"]}}, {"type": "Feature", "bbox": [140.47683, 37.79904, 140.47786, 37.80049], "geometry": {"type": "LineString", "coordinates": [[140.47786, 37.80049], [140.4775, 37.79998], [140.47683, 37.79904]]}, "properties": {"id": "TRACK_TOKYO_3235", "line_name": "東北線", "station_group_ids": [], "mode": "rail", "operator_id": "jr_east", "line_color": "#3AA76D", "tags": ["tokyo", "track_centerline"]}}, {"type": "Feature", "bbox": [140.48477, 37.80747, 140.4875, 37.81182], "geometry": {"type": "LineString", "coordinates": [[140.48477, 37.80747], [140.48584, 37.80842], [140.48632, 37.80894], [140.48659, 37.80929], [140.48687, 37.80977], [140.4871, 37.81023], [140.48727, 37.81064], [140.48735, 37.81089], [140.48739, 37.811], [140.48747, 37.81139], [140.48749, 37.8117], [140.4875, 37.81182]]}, "properties": {"id": "TRACK_TOKYO_3236", "line_name": "東北線", "station_group_ids": [], "mode": "rail", "operator_id": "jr_east", "line_color": "#3AA76D", "tags": ["tokyo", "track_centerline"]}}, {"type": "Feature", "bbox": [140.53853, 37.87828, 140.5403, 37.87948], "geometry": {"type": "LineString", "coordinates": [[140.53853, 37.87828], [140.5403, 37.87948]]}, "properties": {"id": "TRACK_TOKYO_3238", "line_name": "東北線", "station_group_ids": [], "mode": "rail", "operator_id": "jr_east", "line_color": "#3AA76D", "tags": ["tokyo", "track_centerline"]}}, {"type": "Feature", "bbox": [140.49279, 37.82351, 140.49397, 37.82504], "geometry": {"type": "LineString", "coordinates": [[140.49397, 37.82504], [140.49279, 37.82351]]}, "properties": {"id": "TRACK_TOKYO_3240", "line_name": "東北線", "station_group_ids": [], "mode": "rail", "operator_id": "jr_east", "line_color": "#3AA76D", "tags": ["tokyo", "track_centerline"]}}, {"type": "Feature", "bbox": [140.5403, 37.87948, 140.58023, 37.90746], "geometry": {"type": "LineString", "coordinates": [[140.5403, 37.87948], [140.54048, 37.8796], [140.54128, 37.88015], [140.54179, 37.8805], [140.54251, 37.881], [140.54337, 37.88157], [140.54393, 37.88201], [140.54448, 37.88249], [140.54484, 37.88285], [140.54508, 37.8831], [140.54528, 37.88336], [140.54547, 37.88362], [140.54574, 37.88402], [140.54595, 37.88436], [140.54633, 37.88509], [140.54645, 37.88531], [140.54695, 37.88629], [140.54711, 37.8866], [140.54735, 37.88706], [140.54756, 37.88747], [140.54769, 37.88772], [140.54795, 37.8881], [140.54816, 37.88838], [140.54844, 37.88866], [140.54879, 37.88893], [140.54926, 37.88926], [140.54974, 37.88955], [140.55016, 37.88978], [140.55057, 37.89], [140.55126, 37.89035], [140.55219, 37.89084], [140.55265, 37.89109], [140.55301, 37.89126], [140.55346, 37.89145], [140.5538, 37.89157], [140.55408, 37.89165], [140.55418, 37.89167], [140.55449, 37.89172], [140.55455, 37.89172], [140.55477, 37.89174], [140.55503, 37.89175], [140.5553, 37.89176], [140.55592, 37.89173], [140.55797, 37.89153], [140.55828, 37.89149], [140.55884, 37.89141], [140.5593, 37.89134], [140.55986, 37.89123], [140.55997, 37.89121], [140.56045, 37.8911], [140.56082, 37.89099], [140.56296, 37.89035], [140.56369, 37.89015], [140.56417, 37.89006], [140.56477, 37.89001], [140.56553, 37.89004], [140.56611, 37.89016], [140.56663, 37.89032], [140.567, 37.89047], [140.56745, 37.89068], [140.56779, 37.89088], [140.56797, 37.89102], [140.56825, 37.89126], [140.56846, 37.89146], [140.56863, 37.89162], [140.56877, 37.89176], [140.56905, 37.89209], [140.56913, 37.8922], [140.56931, 37.89246], [140.56947, 37.89277], [140.56955, 37.89294], [140.56962, 37.89312], [140.56967, 37.89332], [140.56974, 37.89373], [140.56978, 37.89446], [140.56979, 37.89494], [140.56978, 37.8956], [140.56974, 37.89622], [140.56965, 37.8973], [140.56963, 37.89769], [140.56966, 37.89797], [140.56971, 37.89833], [140.56984, 37.89882], [140.56988, 37.89897], [140.56999, 37.89934], [140.5702, 37.9001], [140.57021, 37.90015], [140.57026, 37.90032], [140.57035, 37.90062], [140.57052, 37.90116], [140.57068, 37.90151], [140.57084, 37.90177], [140.57111, 37.90212], [140.57134, 37.90232], [140.5715, 37.90244], [140.57181, 37.90268], [140.57221, 37.90292], [140.5726, 37.90313], [140.57286, 37.90324], [140.57417, 37.90367], [140.5747, 37.90388], [140.57513, 37.90407], [140.5755, 37.90424], [140.57597, 37.90448], [140.57609, 37.90454], [140.5767, 37.90489], [140.57688, 37.90499], [140.5769, 37.905], [140.57753, 37.90536], [140.57805, 37.90569], [140.57871, 37.90616], [140.57918, 37.90657], [140.58023, 37.90746]]}, "properties": {"id": "TRACK_TOKYO_3241", "line_name": "東北線", "station_group_ids": [], "mode": "rail", "operator_id": "jr_east", "line_color": "#3AA76D", "tags": ["tokyo", "track_centerline"]}}, {"type": "Feature", "bbox": [140.49397, 37.82504, 140.51674, 37.85441], "geometry": {"type": "LineString", "coordinates": [[140.49397, 37.82504], [140.49424, 37.82539], [140.49463, 37.8259], [140.49566, 37.82723], [140.49662, 37.82847], [140.49929, 37.83191], [140.49945, 37.83213], [140.50187, 37.83528], [140.50203, 37.83547], [140.50275, 37.83634], [140.50312, 37.83681], [140.50321, 37.83692], [140.50354, 37.83736], [140.50411, 37.83811], [140.50496, 37.83922], [140.5052, 37.83953], [140.50541, 37.8398], [140.50599, 37.84055], [140.50642, 37.8411], [140.50787, 37.84298], [140.50917, 37.84463], [140.5093, 37.84479], [140.5105, 37.84635], [140.51073, 37.84666], [140.511, 37.847], [140.51166, 37.84786], [140.51247, 37.8489], [140.51263, 37.84911], [140.51478, 37.85191], [140.51493, 37.85209], [140.51536, 37.85265], [140.51609, 37.85357], [140.51674, 37.85441]]}, "properties": {"id": "TRACK_TOKYO_3244", "line_name": "東北線", "station_group_ids": [], "mode": "rail", "operator_id": "jr_east", "line_color": "#3AA76D", "tags": ["tokyo", "track_centerline"]}}, {"type": "Feature", "bbox": [140.51674, 37.85441, 140.51789, 37.85593], "geometry": {"type": "LineString", "coordinates": [[140.51674, 37.85441], [140.51789, 37.85593]]}, "properties": {"id": "TRACK_TOKYO_3245", "line_name": "東北線", "station_group_ids": [], "mode": "rail", "operator_id": "jr_east", "line_color": "#3AA76D", "tags": ["tokyo", "track_centerline"]}}, {"type": "Feature", "bbox": [140.4598, 37.75341, 140.46006, 37.75522], "geometry": {"type": "LineString", "coordinates": [[140.46006, 37.75341], [140.4598, 37.75522]]}, "properties": {"id": "TRACK_TOKYO_3247", "line_name": "東北線", "station_group_ids": [], "mode": "rail", "operator_id": "jr_east", "line_color": "#3AA76D", "tags": ["tokyo", "track_centerline"]}}, {"type": "Feature", "bbox": [140.4608, 37.78129, 140.46668, 37.78926], "geometry": {"type": "LineString", "coordinates": [[140.4608, 37.78129], [140.4608, 37.78139], [140.46088, 37.78299], [140.46089, 37.78324], [140.46092, 37.78395], [140.46097, 37.78433], [140.46108, 37.78473], [140.46121, 37.78504], [140.46148, 37.78552], [140.46172, 37.7859], [140.46213, 37.7864], [140.46235, 37.78659], [140.46259, 37.78681], [140.4627, 37.7869], [140.46308, 37.78721], [140.46339, 37.78745], [140.46399, 37.78781], [140.46459, 37.78815], [140.46533, 37.78854], [140.46541, 37.78859], [140.46546, 37.78861], [140.46554, 37.78866], [140.46558, 37.78868], [140.46579, 37.78879], [140.46623, 37.78902], [140.46668, 37.78926]]}, "properties": {"id": "TRACK_TOKYO_3472", "line_name": "東北線", "station_group_ids": [], "mode": "rail", "operator_id": "jr_east", "line_color": "#3AA76D", "tags": ["tokyo", "track_centerline"]}}, {"type": "Feature", "bbox": [140.45562, 37.77502, 140.4608, 37.78129], "geometry": {"type": "LineString", "coordinates": [[140.45562, 37.77502], [140.45621, 37.77544], [140.45708, 37.77612], [140.45753, 37.77648], [140.45853, 37.7773], [140.45912, 37.77782], [140.45926, 37.77794], [140.45958, 37.77825], [140.45985, 37.77854], [140.46006, 37.77882], [140.46026, 37.77912], [140.46048, 37.77962], [140.46062, 37.78001], [140.46072, 37.78038], [140.46076, 37.78064], [140.46079, 37.78116], [140.4608, 37.78129]]}, "properties": {"id": "TRACK_TOKYO_3473", "line_name": "東北線", "station_group_ids": [], "mode": "rail", "operator_id": "jr_east", "line_color": "#3AA76D", "tags": ["tokyo", "track_centerline"]}}, {"type": "Feature", "bbox": [140.45337, 37.75522, 140.4598, 37.77502], "geometry": {"type": "LineString", "coordinates": [[140.4598, 37.75522], [140.45976, 37.75548], [140.45955, 37.75766], [140.45939, 37.75944], [140.45929, 37.76008], [140.45916, 37.76049], [140.4589, 37.76106], [140.4585, 37.76181], [140.458, 37.76258], [140.45773, 37.763], [140.4573, 37.76367], [140.45677, 37.76448], [140.45677, 37.7645], [140.4565, 37.76493], [140.45527, 37.76685], [140.45497, 37.76731], [140.45434, 37.7683], [140.45398, 37.76894], [140.45378, 37.7694], [140.45361, 37.76986], [140.4535, 37.7703], [140.45343, 37.77068], [140.45339, 37.77111], [140.45337, 37.77153], [140.4534, 37.77181], [140.45349, 37.77211], [140.45381, 37.77291], [140.45391, 37.77315], [140.45406, 37.77339], [140.45425, 37.77365], [140.45463, 37.7741], [140.45473, 37.77421], [140.45503, 37.7745], [140.45531, 37.77476], [140.45562, 37.77502]]}, "properties": {"id": "TRACK_TOKYO_3474", "line_name": "東北線", "station_group_ids": [], "mode": "rail", "operator_id": "jr_east", "line_color": "#3AA76D", "tags": ["tokyo", "track_centerline"]}}, {"type": "Feature", "bbox": [140.45562, 37.77502, 140.4608, 37.78129], "geometry": {"type": "LineString", "coordinates": [[140.45562, 37.77502], [140.45572, 37.7751], [140.45645, 37.77578], [140.45734, 37.77659], [140.45847, 37.7776], [140.45877, 37.77786], [140.45902, 37.77812], [140.45924, 37.77835], [140.45968, 37.77882], [140.45997, 37.77922], [140.46015, 37.77954], [140.46038, 37.77997], [140.46059, 37.78048], [140.46075, 37.78099], [140.46079, 37.78116], [140.4608, 37.78129]]}, "properties": {"id": "TRACK_TOKYO_3475", "line_name": "東北線", "station_group_ids": [], "mode": "rail", "operator_id": "jr_east", "line_color": "#3AA76D", "tags": ["tokyo", "track_centerline"]}}]}