{"type": "FeatureCollection", "features": [{"type": "Feature", "bbox": [140.68664, 36.67223, 140.71683, 36.71319], "geometry": {"type": "LineString", "coordinates": [[140.68664, 36.67223], [140.68689, 36.67259], [140.68735, 36.67318], [140.68763, 36.67355], [140.68829, 36.67441], [140.68881, 36.6751], [140.68922, 36.67564], [140.69013, 36.67686], [140.69051, 36.67737], [140.69088, 36.67787], [140.69125, 36.67832], [140.69186, 36.67906], [140.69209, 36.67932], [140.69241, 36.67964], [140.69277, 36.67994], [140.69473, 36.68148], [140.69492, 36.68163], [140.69526, 36.68189], [140.69577, 36.68229], [140.69657, 36.6829], [140.69709, 36.68331], [140.69743, 36.68357], [140.69814, 36.68412], [140.69838, 36.6843], [140.69907, 36.68486], [140.69973, 36.68535], [140.70007, 36.68559], [140.70056, 36.68591], [140.70124, 36.68626], [140.70198, 36.68658], [140.70233, 36.68673], [140.70261, 36.68685], [140.7029, 36.68698], [140.70324, 36.68711], [140.70361, 36.68726], [140.7041, 36.68744], [140.70438, 36.68754], [140.70515, 36.68781], [140.70573, 36.68803], [140.70631, 36.68827], [140.70699, 36.68858], [140.70744, 36.68882], [140.70756, 36.68889], [140.70773, 36.689], [140.70807, 36.68925], [140.7085, 36.6896], [140.70941, 36.69036], [140.71099, 36.69162], [140.71126, 36.69185], [140.71297, 36.69326], [140.71328, 36.69356], [140.71354, 36.69383], [140.71395, 36.69432], [140.71407, 36.69449], [140.71422, 36.69476], [140.71423, 36.69479], [140.71454, 36.69541], [140.71471, 36.69582], [140.71487, 36.69636], [140.71499, 36.69686], [140.71505, 36.69728], [140.7151, 36.69784], [140.71515, 36.69821], [140.71521, 36.69875], [140.7153, 36.69961], [140.71542, 36.70064], [140.71554, 36.70173], [140.71565, 36.70275], [140.71586, 36.70453], [140.71596, 36.7054], [140.71618, 36.70732], [140.71629, 36.70827], [140.71631, 36.70846], [140.71655, 36.71058], [140.71659, 36.71089], [140.71675, 36.71249], [140.71683, 36.71319]]}, "properties": {"id": "TRACK_TOKYO_2390", "line_name": "常磐線", "station_group_ids": [], "mode": "rail", "operator_id": "jr_east", "tags": ["tokyo", "track_centerline"]}}, {"type": "Feature", "bbox": [140.71708, 36.71549, 140.72861, 36.75221], "geometry": {"type": "LineString", "coordinates": [[140.71708, 36.71549], [140.7172, 36.7168], [140.71732, 36.71795], [140.71757, 36.72032], [140.71784, 36.72265], [140.71817, 36.72499], [140.7183, 36.72606], [140.71848, 36.72747], [140.71857, 36.72827], [140.7188, 36.73021], [140.71884, 36.73046], [140.7191, 36.73265], [140.7192, 36.73338], [140.71937, 36.73489], [140.71946, 36.73573], [140.71958, 36.73659], [140.71969, 36.73746], [140.71974, 36.73781], [140.71979, 36.73822], [140.71989, 36.73877], [140.72003, 36.73929], [140.72024, 36.74002], [140.72038, 36.74038], [140.72052, 36.74072], [140.72068, 36.74101], [140.72098, 36.74143], [140.72172, 36.74234], [140.72364, 36.74451], [140.72451, 36.74552], [140.72556, 36.7467], [140.72577, 36.74691], [140.7265, 36.74774], [140.72687, 36.74823], [140.7272, 36.74873], [140.72743, 36.74913], [140.72763, 36.74947], [140.72783, 36.74998], [140.72798, 36.75039], [140.72819, 36.75099], [140.72861, 36.75221]]}, "properties": {"id": "TRACK_TOKYO_2411", "line_name": "常磐線", "station_group_ids": [], "mode": "rail", "operator_id": "jr_east", "tags": ["tokyo", "track_centerline"]}}, {"type": "Feature", "bbox": [140.71683, 36.71319, 140.71708, 36.71549], "geometry": {"type": "LineString", "coordinates": [[140.71683, 36.71319], [140.71708, 36.71549]]}, "properties": {"id": "TRACK_TOKYO_2417", "line_name": "常磐線", "station_group_ids": [], "mode": "rail", "operator_id": "jr_east", "tags": ["tokyo", "track_centerline"]}}]}