{"type": "FeatureCollection", "features": [{"type": "Feature", "bbox": [140.54586, 35.91756, 140.5494, 35.93647], "geometry": {"type": "LineString", "coordinates": [[140.54586, 35.91756], [140.54587, 35.91764], [140.54589, 35.91834], [140.54599, 35.91989], [140.546, 35.92016], [140.54606, 35.92109], [140.54608, 35.92121], [140.54615, 35.92237], [140.54623, 35.92348], [140.54631, 35.92484], [140.54639, 35.92599], [140.54649, 35.92672], [140.54652, 35.92699], [140.54656, 35.92723], [140.54665, 35.9277], [140.54691, 35.92867], [140.54716, 35.92951], [140.54717, 35.92952], [140.54718, 35.92956], [140.54751, 35.93064], [140.54753, 35.93067], [140.54761, 35.93092], [140.54774, 35.93135], [140.54803, 35.93223], [140.54849, 35.93366], [140.5494, 35.93647]]}, "properties": {"id": "TRACK_TOKYO_2382", "line_name": "鹿島線", "station_group_ids": [], "mode": "rail", "operator_id": "jr_east", "line_color": "#6F4B3E", "tags": ["tokyo", "track_centerline"]}}, {"type": "Feature", "bbox": [140.62467, 35.97048, 140.62719, 35.97092], "geometry": {"type": "LineString", "coordinates": [[140.62467, 35.97048], [140.62543, 35.97061], [140.62719, 35.97092]]}, "properties": {"id": "TRACK_TOKYO_2383", "line_name": "鹿島線", "station_group_ids": [], "mode": "rail", "operator_id": "jr_east", "line_color": "#6F4B3E", "tags": ["tokyo", "track_centerline"]}}, {"type": "Feature", "bbox": [140.58931, 35.95755, 140.62467, 35.97048], "geometry": {"type": "LineString", "coordinates": [[140.58931, 35.95794], [140.59005, 35.95775], [140.59042, 35.95767], [140.59079, 35.95762], [140.59115, 35.95759], [140.59128, 35.95758], [140.59187, 35.95755], [140.59261, 35.95756], [140.59292, 35.95758], [140.59359, 35.95762], [140.59371, 35.95765], [140.59379, 35.95766], [140.59406, 35.9577], [140.59467, 35.95782], [140.59516, 35.95794], [140.59577, 35.95812], [140.59592, 35.95817], [140.59608, 35.95823], [140.59668, 35.95849], [140.59695, 35.95863], [140.59744, 35.95892], [140.59796, 35.95923], [140.5983, 35.95947], [140.59952, 35.96039], [140.59999, 35.96075], [140.60092, 35.96145], [140.60096, 35.96147], [140.60109, 35.96157], [140.60146, 35.96185], [140.60227, 35.96246], [140.60229, 35.96247], [140.60241, 35.96256], [140.60247, 35.96261], [140.60403, 35.96378], [140.60432, 35.964], [140.60439, 35.96405], [140.6048, 35.96436], [140.60579, 35.96512], [140.60582, 35.96513], [140.60663, 35.96575], [140.60743, 35.96635], [140.60799, 35.96677], [140.60817, 35.96688], [140.60838, 35.96702], [140.6088, 35.96727], [140.60901, 35.9674], [140.60924, 35.96751], [140.60944, 35.96762], [140.60946, 35.96762], [140.6099, 35.96782], [140.61012, 35.9679], [140.61049, 35.96803], [140.61076, 35.96811], [140.61102, 35.96817], [140.6112, 35.96822], [140.6118, 35.96835], [140.61199, 35.96838], [140.61239, 35.96843], [140.6128, 35.9685], [140.61306, 35.96854], [140.61406, 35.9687], [140.61826, 35.96939], [140.61852, 35.96943], [140.6203, 35.96972], [140.62072, 35.96979], [140.62168, 35.96996], [140.62457, 35.97046], [140.62467, 35.97048]]}, "properties": {"id": "TRACK_TOKYO_2384", "line_name": "鹿島線", "station_group_ids": [], "mode": "rail", "operator_id": "jr_east", "line_color": "#6F4B3E", "tags": ["tokyo", "track_centerline"]}}, {"type": "Feature", "bbox": [140.5494, 35.93647, 140.54998, 35.93844], "geometry": {"type": "LineString", "coordinates": [[140.5494, 35.93647], [140.54998, 35.93844]]}, "properties": {"id": "TRACK_TOKYO_2385", "line_name": "鹿島線", "station_group_ids": [], "mode": "rail", "operator_id": "jr_east", "line_color": "#6F4B3E", "tags": ["tokyo", "track_centerline"]}}, {"type": "Feature", "bbox": [140.63577, 35.99275, 140.63605, 35.99338], "geometry": {"type": "LineString", "coordinates": [[140.63605, 35.99275], [140.63577, 35.99338]]}, "properties": {"id": "TRACK_TOKYO_2386", "line_name": "鹿島線", "station_group_ids": [], "mode": "rail", "operator_id": "jr_east", "line_color": "#6F4B3E", "tags": ["tokyo", "track_centerline"]}}, {"type": "Feature", "bbox": [140.62719, 35.97092, 140.63928, 35.99275], "geometry": {"type": "LineString", "coordinates": [[140.62719, 35.97092], [140.62862, 35.97114], [140.6299, 35.97136], [140.63049, 35.97147], [140.63093, 35.97156], [140.63121, 35.97163], [140.63151, 35.97172], [140.63183, 35.97183], [140.63208, 35.97192], [140.6324, 35.97204], [140.63255, 35.97211], [140.63269, 35.97217], [140.63281, 35.97223], [140.63293, 35.97229], [140.63304, 35.97235], [140.63323, 35.97245], [140.63357, 35.97264], [140.63386, 35.97281], [140.63403, 35.97292], [140.63417, 35.97302], [140.63434, 35.97314], [140.63471, 35.97342], [140.63488, 35.97357], [140.63518, 35.97384], [140.6354, 35.97405], [140.63554, 35.97421], [140.63575, 35.97447], [140.63597, 35.97479], [140.63623, 35.97521], [140.63714, 35.97693], [140.6373, 35.97725], [140.63777, 35.97822], [140.63785, 35.97839], [140.63805, 35.97892], [140.63806, 35.97895], [140.63813, 35.97912], [140.63831, 35.97955], [140.63905, 35.98215], [140.63917, 35.98265], [140.6392, 35.98286], [140.63923, 35.98307], [140.63925, 35.9832], [140.63926, 35.9833], [140.63928, 35.98352], [140.63924, 35.98454], [140.63919, 35.98509], [140.6391, 35.98556], [140.63901, 35.98595], [140.63892, 35.98627], [140.63881, 35.98655], [140.63879, 35.98663], [140.63794, 35.98854], [140.6373, 35.98997], [140.63696, 35.99072], [140.63673, 35.99124], [140.63671, 35.99127], [140.6366, 35.99153], [140.63608, 35.99269], [140.63605, 35.99275]]}, "properties": {"id": "TRACK_TOKYO_2387", "line_name": "鹿島線", "station_group_ids": [], "mode": "rail", "operator_id": "jr_east", "line_color": "#6F4B3E", "tags": ["tokyo", "track_centerline"]}}, {"type": "Feature", "bbox": [140.54989, 35.93844, 140.5883, 35.96064], "geometry": {"type": "LineString", "coordinates": [[140.54998, 35.93844], [140.55, 35.93856], [140.5501, 35.93919], [140.55015, 35.93965], [140.55016, 35.93995], [140.55016, 35.94025], [140.55014, 35.94068], [140.55013, 35.94097], [140.5501, 35.94129], [140.55005, 35.94222], [140.54994, 35.94418], [140.5499, 35.94454], [140.54989, 35.94484], [140.54991, 35.94611], [140.54995, 35.94645], [140.55002, 35.94677], [140.55011, 35.94711], [140.55025, 35.9475], [140.55041, 35.94787], [140.55058, 35.94821], [140.55071, 35.94846], [140.55094, 35.94882], [140.55097, 35.94886], [140.55121, 35.9492], [140.55139, 35.94941], [140.55169, 35.94979], [140.55215, 35.95026], [140.55269, 35.95072], [140.55289, 35.95084], [140.5534, 35.95117], [140.5536, 35.9513], [140.55438, 35.9517], [140.55508, 35.95199], [140.55572, 35.95223], [140.55604, 35.95235], [140.55661, 35.95259], [140.55708, 35.95277], [140.55775, 35.95304], [140.55877, 35.95344], [140.55887, 35.95348], [140.5593, 35.95365], [140.55938, 35.95368], [140.56081, 35.95425], [140.561, 35.95432], [140.56137, 35.95447], [140.56192, 35.95468], [140.56236, 35.95487], [140.56603, 35.9563], [140.56628, 35.9564], [140.56665, 35.95654], [140.56755, 35.95689], [140.56901, 35.95746], [140.56961, 35.9577], [140.56976, 35.95775], [140.57038, 35.958], [140.57064, 35.95809], [140.5708, 35.95816], [140.57113, 35.95829], [140.57246, 35.9588], [140.57279, 35.95893], [140.57308, 35.95905], [140.57322, 35.95911], [140.57416, 35.95948], [140.5744, 35.95957], [140.57567, 35.96005], [140.57621, 35.96022], [140.57665, 35.96033], [140.57791, 35.96056], [140.57891, 35.96064], [140.57918, 35.96064], [140.57954, 35.96063], [140.57999, 35.96061], [140.58037, 35.96057], [140.58085, 35.96049], [140.58223, 35.96018], [140.58332, 35.95982], [140.58412, 35.95959], [140.58613, 35.95894], [140.5883, 35.95825]]}, "properties": {"id": "TRACK_TOKYO_2388", "line_name": "鹿島線", "station_group_ids": [], "mode": "rail", "operator_id": "jr_east", "line_color": "#6F4B3E", "tags": ["tokyo", "track_centerline"]}}, {"type": "Feature", "bbox": [140.5883, 35.95794, 140.58931, 35.95825], "geometry": {"type": "LineString", "coordinates": [[140.5883, 35.95825], [140.58931, 35.95794]]}, "properties": {"id": "TRACK_TOKYO_2389", "line_name": "鹿島線", "station_group_ids": [], "mode": "rail", "operator_id": "jr_east", "line_color": "#6F4B3E", "tags": ["tokyo", "track_centerline"]}}]}