{"type": "FeatureCollection", "features": [{"type": "Feature", "bbox": [140.6821, 35.72907, 140.6846, 35.72969], "geometry": {"type": "LineString", "coordinates": [[140.6846, 35.72969], [140.6821, 35.72907]]}, "properties": {"id": "TRACK_TOKYO_2522", "line_name": "総武線", "station_group_ids": [], "mode": "rail", "operator_id": "jr_east", "tags": ["tokyo", "track_centerline"]}}, {"type": "Feature", "bbox": [140.55156, 35.69885, 140.55323, 35.69974], "geometry": {"type": "LineString", "coordinates": [[140.55323, 35.69974], [140.55156, 35.69885]]}, "properties": {"id": "TRACK_TOKYO_2526", "line_name": "総武線", "station_group_ids": [], "mode": "rail", "operator_id": "jr_east", "tags": ["tokyo", "track_centerline"]}}, {"type": "Feature", "bbox": [140.65351, 35.72168, 140.65587, 35.72199], "geometry": {"type": "LineString", "coordinates": [[140.65587, 35.72199], [140.65351, 35.72168]]}, "properties": {"id": "TRACK_TOKYO_2527", "line_name": "総武線", "station_group_ids": [], "mode": "rail", "operator_id": "jr_east", "tags": ["tokyo", "track_centerline"]}}, {"type": "Feature", "bbox": [140.55323, 35.69974, 140.60239, 35.71813], "geometry": {"type": "LineString", "coordinates": [[140.55323, 35.69974], [140.55397, 35.70014], [140.55468, 35.70051], [140.5547, 35.70053], [140.55478, 35.70056], [140.55481, 35.70059], [140.55487, 35.70061], [140.55576, 35.70109], [140.55614, 35.70128], [140.55832, 35.70241], [140.55841, 35.70246], [140.55952, 35.70305], [140.56011, 35.70335], [140.56038, 35.70349], [140.56065, 35.70363], [140.56134, 35.704], [140.56201, 35.70435], [140.56216, 35.70443], [140.56221, 35.70445], [140.56224, 35.70447], [140.56269, 35.7047], [140.56543, 35.70615], [140.56574, 35.70631], [140.56608, 35.70649], [140.56668, 35.70679], [140.56772, 35.70735], [140.56802, 35.70749], [140.56869, 35.70786], [140.56912, 35.70808], [140.5713, 35.70921], [140.57185, 35.7095], [140.57214, 35.70963], [140.57246, 35.70981], [140.57283, 35.70999], [140.5738, 35.71049], [140.57414, 35.71067], [140.57493, 35.71105], [140.57539, 35.71128], [140.5756, 35.71137], [140.576, 35.71153], [140.57649, 35.71168], [140.57666, 35.71174], [140.57691, 35.71181], [140.57715, 35.71187], [140.57864, 35.71225], [140.57884, 35.7123], [140.57933, 35.71243], [140.58119, 35.71289], [140.58724, 35.7144], [140.58742, 35.71445], [140.58804, 35.7146], [140.58812, 35.71462], [140.58834, 35.71468], [140.58872, 35.71477], [140.58948, 35.71496], [140.58961, 35.71498], [140.58964, 35.715], [140.5897, 35.715], [140.58973, 35.71502], [140.59082, 35.71529], [140.59391, 35.71605], [140.59491, 35.7163], [140.59569, 35.71649], [140.59784, 35.71702], [140.59916, 35.71735], [140.60021, 35.71761], [140.60239, 35.71813]]}, "properties": {"id": "TRACK_TOKYO_2528", "line_name": "総武線", "station_group_ids": [], "mode": "rail", "operator_id": "jr_east", "tags": ["tokyo", "track_centerline"]}}, {"type": "Feature", "bbox": [140.60423, 35.71856, 140.65351, 35.72168], "geometry": {"type": "LineString", "coordinates": [[140.65351, 35.72168], [140.65237, 35.72153], [140.6521, 35.7215], [140.65102, 35.72135], [140.65025, 35.72125], [140.65017, 35.72124], [140.64921, 35.72114], [140.64898, 35.72114], [140.64801, 35.7211], [140.64746, 35.72109], [140.64586, 35.72105], [140.64575, 35.72105], [140.64536, 35.72105], [140.63564, 35.72091], [140.63467, 35.7209], [140.62359, 35.72068], [140.62296, 35.72068], [140.62168, 35.72065], [140.61691, 35.72052], [140.61315, 35.72046], [140.61216, 35.72043], [140.61179, 35.72038], [140.61119, 35.72023], [140.61066, 35.7201], [140.60771, 35.7194], [140.60423, 35.71856]]}, "properties": {"id": "TRACK_TOKYO_2530", "line_name": "総武線", "station_group_ids": [], "mode": "rail", "operator_id": "jr_east", "tags": ["tokyo", "track_centerline"]}}, {"type": "Feature", "bbox": [140.52241, 35.68561, 140.55156, 35.69885], "geometry": {"type": "LineString", "coordinates": [[140.52241, 35.68561], [140.52258, 35.68569], [140.52329, 35.68605], [140.52367, 35.68623], [140.52433, 35.68656], [140.52477, 35.6868], [140.52494, 35.68688], [140.52553, 35.68718], [140.52558, 35.6872], [140.52568, 35.68726], [140.52589, 35.68736], [140.52618, 35.68752], [140.52658, 35.68772], [140.52746, 35.68816], [140.5276, 35.68824], [140.52765, 35.68826], [140.5277, 35.68828], [140.52782, 35.68834], [140.52891, 35.68887], [140.52916, 35.689], [140.53019, 35.68952], [140.5303, 35.68958], [140.53037, 35.68962], [140.53083, 35.68984], [140.53091, 35.68989], [140.53104, 35.68996], [140.53113, 35.69001], [140.53199, 35.69044], [140.53203, 35.69046], [140.53256, 35.6907], [140.53293, 35.69086], [140.53377, 35.69119], [140.53418, 35.69136], [140.53498, 35.69168], [140.53517, 35.69176], [140.53615, 35.69213], [140.53731, 35.69258], [140.53734, 35.69259], [140.53748, 35.69265], [140.53754, 35.69267], [140.53758, 35.69269], [140.53854, 35.69305], [140.53985, 35.69356], [140.5399, 35.69357], [140.54075, 35.69391], [140.54093, 35.69397], [140.54177, 35.69431], [140.54189, 35.69434], [140.54196, 35.69437], [140.54203, 35.6944], [140.54244, 35.69457], [140.54403, 35.69516], [140.54423, 35.69525], [140.54473, 35.69544], [140.54564, 35.69581], [140.54578, 35.69589], [140.54599, 35.69599], [140.54724, 35.69662], [140.54798, 35.69699], [140.54876, 35.6974], [140.54889, 35.69747], [140.54918, 35.69761], [140.5495, 35.69779], [140.54969, 35.69788], [140.54979, 35.69793], [140.55045, 35.69827], [140.55063, 35.69838], [140.55156, 35.69885]]}, "properties": {"id": "TRACK_TOKYO_2531", "line_name": "総武線", "station_group_ids": [], "mode": "rail", "operator_id": "jr_east", "tags": ["tokyo", "track_centerline"]}}, {"type": "Feature", "bbox": [140.52042, 35.68457, 140.52241, 35.68561], "geometry": {"type": "LineString", "coordinates": [[140.52241, 35.68561], [140.52042, 35.68457]]}, "properties": {"id": "TRACK_TOKYO_2532", "line_name": "総武線", "station_group_ids": [], "mode": "rail", "operator_id": "jr_east", "tags": ["tokyo", "track_centerline"]}}, {"type": "Feature", "bbox": [140.6846, 35.72969, 140.7134, 35.73744], "geometry": {"type": "LineString", "coordinates": [[140.7134, 35.73744], [140.7118, 35.73663], [140.71116, 35.7363], [140.71047, 35.73602], [140.71008, 35.73588], [140.70659, 35.73503], [140.70105, 35.73366], [140.69964, 35.73334], [140.69683, 35.73265], [140.69575, 35.73239], [140.69471, 35.73211], [140.69346, 35.73181], [140.69242, 35.73155], [140.69185, 35.73141], [140.6914, 35.7313], [140.6905, 35.73107], [140.68915, 35.73075], [140.68778, 35.73043], [140.6867, 35.73018], [140.6846, 35.72969]]}, "properties": {"id": "TRACK_TOKYO_2535", "line_name": "総武線", "station_group_ids": [], "mode": "rail", "operator_id": "jr_east", "tags": ["tokyo", "track_centerline"]}}, {"type": "Feature", "bbox": [140.71458, 35.73807, 140.73641, 35.74722], "geometry": {"type": "LineString", "coordinates": [[140.73641, 35.74722], [140.73524, 35.74705], [140.73342, 35.74681], [140.73109, 35.74649], [140.73072, 35.74643], [140.73015, 35.74635], [140.72964, 35.74625], [140.72935, 35.74613], [140.72875, 35.74583], [140.72819, 35.74548], [140.72764, 35.74508], [140.7271, 35.74472], [140.72658, 35.74427], [140.72609, 35.74378], [140.72577, 35.74329], [140.72553, 35.74275], [140.72534, 35.74221], [140.7251, 35.74161], [140.72487, 35.74102], [140.7246, 35.74054], [140.72416, 35.74003], [140.72398, 35.73989], [140.72369, 35.73966], [140.72313, 35.73929], [140.72243, 35.73896], [140.72187, 35.73877], [140.72124, 35.73857], [140.72067, 35.73845], [140.72016, 35.73842], [140.71964, 35.73846], [140.71871, 35.73857], [140.71809, 35.73865], [140.71742, 35.73874], [140.71689, 35.73874], [140.71614, 35.73867], [140.71572, 35.73858], [140.71535, 35.73845], [140.71458, 35.73807]]}, "properties": {"id": "TRACK_TOKYO_2537", "line_name": "総武線", "station_group_ids": [], "mode": "rail", "operator_id": "jr_east", "tags": ["tokyo", "track_centerline"]}}, {"type": "Feature", "bbox": [140.65587, 35.72199, 140.6821, 35.72907], "geometry": {"type": "LineString", "coordinates": [[140.6821, 35.72907], [140.68028, 35.72861], [140.67811, 35.72809], [140.67632, 35.72763], [140.67623, 35.72761], [140.67518, 35.72735], [140.67379, 35.72699], [140.67193, 35.72651], [140.67069, 35.72618], [140.67037, 35.72611], [140.66998, 35.726], [140.66983, 35.72595], [140.66943, 35.72582], [140.66892, 35.72567], [140.66837, 35.72549], [140.66634, 35.72483], [140.66381, 35.72402], [140.66258, 35.72362], [140.66243, 35.72358], [140.66184, 35.7234], [140.66168, 35.72334], [140.66138, 35.72325], [140.65989, 35.72279], [140.6596, 35.72269], [140.65882, 35.72247], [140.65825, 35.72233], [140.65775, 35.72224], [140.65734, 35.72218], [140.65724, 35.72218], [140.65634, 35.72205], [140.65587, 35.72199]]}, "properties": {"id": "TRACK_TOKYO_2540", "line_name": "総武線", "station_group_ids": [], "mode": "rail", "operator_id": "jr_east", "tags": ["tokyo", "track_centerline"]}}, {"type": "Feature", "bbox": [140.60239, 35.71813, 140.60423, 35.71856], "geometry": {"type": "LineString", "coordinates": [[140.60239, 35.71813], [140.60423, 35.71856]]}, "properties": {"id": "TRACK_TOKYO_2548", "line_name": "総武線", "station_group_ids": [], "mode": "rail", "operator_id": "jr_east", "tags": ["tokyo", "track_centerline"]}}, {"type": "Feature", "bbox": [140.49187, 35.66233, 140.52042, 35.68457], "geometry": {"type": "LineString", "coordinates": [[140.52042, 35.68457], [140.51994, 35.68433], [140.51962, 35.68416], [140.51935, 35.68403], [140.51884, 35.68376], [140.51881, 35.68375], [140.51849, 35.68356], [140.51817, 35.68333], [140.51793, 35.68312], [140.51749, 35.68269], [140.5173, 35.68252], [140.51728, 35.68249], [140.51653, 35.68177], [140.51516, 35.68045], [140.51479, 35.68011], [140.51404, 35.67939], [140.51402, 35.67936], [140.51398, 35.67934], [140.51389, 35.67925], [140.51348, 35.67886], [140.51269, 35.6781], [140.51247, 35.67789], [140.51135, 35.67681], [140.51022, 35.67573], [140.5097, 35.67523], [140.50855, 35.67414], [140.50818, 35.67379], [140.50734, 35.67299], [140.50663, 35.67232], [140.50619, 35.67189], [140.50585, 35.67156], [140.50423, 35.66996], [140.50419, 35.66992], [140.50381, 35.66958], [140.50293, 35.66872], [140.50223, 35.6681], [140.50202, 35.66794], [140.502, 35.66793], [140.50173, 35.66773], [140.50152, 35.66757], [140.50123, 35.6674], [140.50094, 35.66723], [140.50051, 35.66699], [140.49992, 35.66665], [140.49949, 35.66641], [140.49921, 35.66625], [140.49824, 35.66571], [140.49756, 35.66531], [140.4967, 35.66482], [140.49639, 35.66465], [140.49622, 35.66456], [140.49594, 35.66441], [140.49573, 35.66429], [140.49493, 35.66385], [140.49456, 35.66365], [140.49404, 35.6634], [140.49384, 35.66329], [140.49329, 35.66302], [140.49257, 35.66266], [140.49252, 35.66264], [140.4924, 35.66259], [140.49187, 35.66233]]}, "properties": {"id": "TRACK_TOKYO_2549", "line_name": "総武線", "station_group_ids": [], "mode": "rail", "operator_id": "jr_east", "tags": ["tokyo", "track_centerline"]}}, {"type": "Feature", "bbox": [140.7134, 35.73744, 140.71458, 35.73807], "geometry": {"type": "LineString", "coordinates": [[140.71458, 35.73807], [140.7134, 35.73744]]}, "properties": {"id": "TRACK_TOKYO_2550", "line_name": "総武線", "station_group_ids": [], "mode": "rail", "operator_id": "jr_east", "tags": ["tokyo", "track_centerline"]}}]}