{"type": "FeatureCollection", "features": [{"type": "Feature", "bbox": [140.48968, 35.66124, 140.49187, 35.66233], "geometry": {"type": "LineString", "coordinates": [[140.49187, 35.66233], [140.48968, 35.66124]]}, "properties": {"id": "TRACK_TOKYO_2523", "line_name": "総武線", "station_group_ids": [], "mode": "rail", "operator_id": "jr_east", "line_color": "#F4C300", "tags": ["tokyo", "track_centerline"]}}, {"type": "Feature", "bbox": [140.45887, 35.63718, 140.48968, 35.66124], "geometry": {"type": "LineString", "coordinates": [[140.48968, 35.66124], [140.48916, 35.66097], [140.48889, 35.66083], [140.48883, 35.66078], [140.48877, 35.66078], [140.48865, 35.66071], [140.48864, 35.66069], [140.48857, 35.66068], [140.48856, 35.66067], [140.48803, 35.6604], [140.48795, 35.66036], [140.4875, 35.66014], [140.48744, 35.66011], [140.4873, 35.66005], [140.48564, 35.65921], [140.48558, 35.65919], [140.4855, 35.65914], [140.48548, 35.65914], [140.48498, 35.65889], [140.48476, 35.65877], [140.48319, 35.658], [140.48221, 35.6575], [140.48196, 35.65738], [140.48154, 35.65717], [140.48134, 35.65707], [140.48115, 35.65699], [140.48106, 35.65694], [140.48096, 35.65689], [140.48079, 35.6568], [140.48057, 35.65669], [140.47954, 35.65617], [140.47941, 35.65611], [140.47896, 35.65588], [140.47859, 35.6557], [140.47806, 35.65543], [140.47751, 35.65515], [140.47749, 35.65515], [140.47741, 35.6551], [140.47738, 35.65509], [140.47735, 35.65507], [140.47686, 35.65482], [140.47572, 35.65424], [140.47514, 35.6539], [140.47478, 35.65361], [140.47459, 35.65342], [140.47449, 35.65332], [140.47323, 35.65202], [140.47254, 35.65131], [140.47193, 35.65069], [140.47187, 35.65061], [140.47175, 35.6505], [140.47151, 35.65025], [140.47126, 35.65], [140.47124, 35.64997], [140.47098, 35.64971], [140.4698, 35.64849], [140.4692, 35.64787], [140.46912, 35.64777], [140.46899, 35.64764], [140.46769, 35.64629], [140.46763, 35.64623], [140.46749, 35.64608], [140.46716, 35.64574], [140.46714, 35.64574], [140.46686, 35.64544], [140.46659, 35.64515], [140.46635, 35.64489], [140.4662, 35.64475], [140.46583, 35.64435], [140.46574, 35.64427], [140.46544, 35.64395], [140.4647, 35.64319], [140.46408, 35.64255], [140.46332, 35.64177], [140.4633, 35.64175], [140.46222, 35.64064], [140.46136, 35.63975], [140.46036, 35.63871], [140.45975, 35.63807], [140.4597, 35.63803], [140.45954, 35.63786], [140.45887, 35.63718]]}, "properties": {"id": "TRACK_TOKYO_2544", "line_name": "総武線", "station_group_ids": [], "mode": "rail", "operator_id": "jr_east", "line_color": "#F4C300", "tags": ["tokyo", "track_centerline"]}}, {"type": "Feature", "bbox": [140.49187, 35.66233, 140.52042, 35.68457], "geometry": {"type": "LineString", "coordinates": [[140.52042, 35.68457], [140.51994, 35.68433], [140.51962, 35.68416], [140.51935, 35.68403], [140.51884, 35.68376], [140.51881, 35.68375], [140.51849, 35.68356], [140.51817, 35.68333], [140.51793, 35.68312], [140.51749, 35.68269], [140.5173, 35.68252], [140.51728, 35.68249], [140.51653, 35.68177], [140.51516, 35.68045], [140.51479, 35.68011], [140.51404, 35.67939], [140.51402, 35.67936], [140.51398, 35.67934], [140.51389, 35.67925], [140.51348, 35.67886], [140.51269, 35.6781], [140.51247, 35.67789], [140.51135, 35.67681], [140.51022, 35.67573], [140.5097, 35.67523], [140.50855, 35.67414], [140.50818, 35.67379], [140.50734, 35.67299], [140.50663, 35.67232], [140.50619, 35.67189], [140.50585, 35.67156], [140.50423, 35.66996], [140.50419, 35.66992], [140.50381, 35.66958], [140.50293, 35.66872], [140.50223, 35.6681], [140.50202, 35.66794], [140.502, 35.66793], [140.50173, 35.66773], [140.50152, 35.66757], [140.50123, 35.6674], [140.50094, 35.66723], [140.50051, 35.66699], [140.49992, 35.66665], [140.49949, 35.66641], [140.49921, 35.66625], [140.49824, 35.66571], [140.49756, 35.66531], [140.4967, 35.66482], [140.49639, 35.66465], [140.49622, 35.66456], [140.49594, 35.66441], [140.49573, 35.66429], [140.49493, 35.66385], [140.49456, 35.66365], [140.49404, 35.6634], [140.49384, 35.66329], [140.49329, 35.66302], [140.49257, 35.66266], [140.49252, 35.66264], [140.4924, 35.66259], [140.49187, 35.66233]]}, "properties": {"id": "TRACK_TOKYO_2549", "line_name": "総武線", "station_group_ids": [], "mode": "rail", "operator_id": "jr_east", "line_color": "#F4C300", "tags": ["tokyo", "track_centerline"]}}, {"type": "Feature", "bbox": [140.41378, 35.60855, 140.45728, 35.63553], "geometry": {"type": "LineString", "coordinates": [[140.41378, 35.60855], [140.41561, 35.60858], [140.41593, 35.60858], [140.41619, 35.60858], [140.41771, 35.6086], [140.4201, 35.60862], [140.42252, 35.60864], [140.42253, 35.60866], [140.42261, 35.60864], [140.4249, 35.60866], [140.42649, 35.60867], [140.42695, 35.60869], [140.42742, 35.60873], [140.4276, 35.60876], [140.42799, 35.60881], [140.42844, 35.60889], [140.42862, 35.60893], [140.42893, 35.60904], [140.4293, 35.6092], [140.42969, 35.60942], [140.43007, 35.60964], [140.43074, 35.61003], [140.43133, 35.61038], [140.43171, 35.61059], [140.43228, 35.61093], [140.43233, 35.61096], [140.43313, 35.61142], [140.43357, 35.61167], [140.43382, 35.61182], [140.43434, 35.61211], [140.43467, 35.61233], [140.43507, 35.61265], [140.43546, 35.61304], [140.43621, 35.61381], [140.43779, 35.61544], [140.43859, 35.61627], [140.43954, 35.61725], [140.43982, 35.61755], [140.44078, 35.61855], [140.44192, 35.61971], [140.44224, 35.62005], [140.44226, 35.62006], [140.44228, 35.62009], [140.4427, 35.62052], [140.44272, 35.62052], [140.44276, 35.62059], [140.44278, 35.62059], [140.44285, 35.62067], [140.4441, 35.62196], [140.44449, 35.62236], [140.44543, 35.62334], [140.44547, 35.62338], [140.4455, 35.6234], [140.44552, 35.62342], [140.44574, 35.62366], [140.44583, 35.62374], [140.44636, 35.6243], [140.44653, 35.62448], [140.44823, 35.62624], [140.4483, 35.62631], [140.44859, 35.62661], [140.45001, 35.62808], [140.45041, 35.6285], [140.4507, 35.62879], [140.45091, 35.62902], [140.45098, 35.62908], [140.45212, 35.63026], [140.45219, 35.63031], [140.45303, 35.63119], [140.4539, 35.63208], [140.45575, 35.63397], [140.45572, 35.63397], [140.45576, 35.63398], [140.4558, 35.63403], [140.45601, 35.63425], [140.45728, 35.63553]]}, "properties": {"id": "TRACK_TOKYO_2610", "line_name": "総武線", "station_group_ids": [], "mode": "rail", "operator_id": "jr_east", "line_color": "#F4C300", "tags": ["tokyo", "track_centerline"]}}, {"type": "Feature", "bbox": [140.45728, 35.63553, 140.45887, 35.63718], "geometry": {"type": "LineString", "coordinates": [[140.45887, 35.63718], [140.45728, 35.63553]]}, "properties": {"id": "TRACK_TOKYO_2612", "line_name": "総武線", "station_group_ids": [], "mode": "rail", "operator_id": "jr_east", "line_color": "#F4C300", "tags": ["tokyo", "track_centerline"]}}]}