{"type": "FeatureCollection", "features": [{"type": "Feature", "bbox": [140.96953, 37.70218, 140.97063, 37.70349], "geometry": {"type": "LineString", "coordinates": [[140.96953, 37.70349], [140.97063, 37.70218]]}, "properties": {"id": "TRACK_TOKYO_2544", "line_name": "常磐線", "station_group_ids": [], "mode": "rail", "operator_id": "jr_east", "line_color": "#22A6B3", "tags": ["tokyo", "track_centerline"]}}, {"type": "Feature", "bbox": [140.93506, 37.70349, 140.96953, 37.75566], "geometry": {"type": "LineString", "coordinates": [[140.93506, 37.75566], [140.93638, 37.7541], [140.93715, 37.75303], [140.93757, 37.75237], [140.93793, 37.75178], [140.93832, 37.75114], [140.93865, 37.7506], [140.93888, 37.75023], [140.93964, 37.74914], [140.94042, 37.74804], [140.9415, 37.74667], [140.94243, 37.74546], [140.94286, 37.74491], [140.94338, 37.74423], [140.94355, 37.74401], [140.9439, 37.74354], [140.94526, 37.74176], [140.94577, 37.7411], [140.94714, 37.73932], [140.9473, 37.73913], [140.94818, 37.73797], [140.94861, 37.73739], [140.94902, 37.73686], [140.94915, 37.73667], [140.94925, 37.73652], [140.94945, 37.7362], [140.94959, 37.73597], [140.94973, 37.7357], [140.94988, 37.73535], [140.95001, 37.73498], [140.95007, 37.73477], [140.95013, 37.73439], [140.95053, 37.73194], [140.95096, 37.72953], [140.95098, 37.72939], [140.9511, 37.72873], [140.95118, 37.72834], [140.95127, 37.72806], [140.95133, 37.72788], [140.95148, 37.72742], [140.95164, 37.72707], [140.95179, 37.72674], [140.95193, 37.72646], [140.95277, 37.72471], [140.95283, 37.72457], [140.95313, 37.72388], [140.95344, 37.72315], [140.9536, 37.7228], [140.95388, 37.72227], [140.95406, 37.72199], [140.95428, 37.72167], [140.95442, 37.72147], [140.95575, 37.71987], [140.95588, 37.71972], [140.95779, 37.71744], [140.95981, 37.71503], [140.96188, 37.71256], [140.96212, 37.71227], [140.96391, 37.71013], [140.96595, 37.70768], [140.96655, 37.70698], [140.96733, 37.70605], [140.968, 37.70524], [140.96837, 37.70482], [140.96849, 37.70467], [140.96926, 37.70381], [140.96953, 37.70349]]}, "properties": {"id": "TRACK_TOKYO_2559", "line_name": "常磐線", "station_group_ids": [], "mode": "rail", "operator_id": "jr_east", "line_color": "#22A6B3", "tags": ["tokyo", "track_centerline"]}}, {"type": "Feature", "bbox": [140.974, 37.49289, 140.9885, 37.52833], "geometry": {"type": "LineString", "coordinates": [[140.9885, 37.49289], [140.98774, 37.49329], [140.98689, 37.49373], [140.98624, 37.49409], [140.98513, 37.49473], [140.9845, 37.49513], [140.98397, 37.49554], [140.98375, 37.49578], [140.98352, 37.49602], [140.98302, 37.49661], [140.98247, 37.49738], [140.98186, 37.49836], [140.98125, 37.49932], [140.98106, 37.49962], [140.97932, 37.50238], [140.97917, 37.50261], [140.97888, 37.50305], [140.97828, 37.50401], [140.97796, 37.5045], [140.97772, 37.50488], [140.97749, 37.50524], [140.97691, 37.50616], [140.97557, 37.50829], [140.97495, 37.50927], [140.97447, 37.51033], [140.97414, 37.51143], [140.97404, 37.51239], [140.97401, 37.51267], [140.974, 37.5136], [140.974, 37.51365], [140.97411, 37.51465], [140.97423, 37.51528], [140.97429, 37.51558], [140.97454, 37.51629], [140.97472, 37.51682], [140.97497, 37.51754], [140.97515, 37.51805], [140.97545, 37.51891], [140.97562, 37.51945], [140.97587, 37.52022], [140.97607, 37.52075], [140.97614, 37.521], [140.97627, 37.52138], [140.97636, 37.52165], [140.97652, 37.5221], [140.97673, 37.52267], [140.97696, 37.52307], [140.97721, 37.52345], [140.97758, 37.52388], [140.97795, 37.52427], [140.97827, 37.52455], [140.97857, 37.52477], [140.97886, 37.52495], [140.97929, 37.52518], [140.97968, 37.52537], [140.97994, 37.52551], [140.97999, 37.52553], [140.98077, 37.52592], [140.98113, 37.52611], [140.98144, 37.52626], [140.98194, 37.5265], [140.98225, 37.52667], [140.98269, 37.52693], [140.98294, 37.52711], [140.98327, 37.5274], [140.98374, 37.52786], [140.98415, 37.52833]]}, "properties": {"id": "TRACK_TOKYO_2568", "line_name": "常磐線", "station_group_ids": [], "mode": "rail", "operator_id": "jr_east", "line_color": "#22A6B3", "tags": ["tokyo", "track_centerline"]}}, {"type": "Feature", "bbox": [140.9885, 37.49155, 140.99105, 37.49289], "geometry": {"type": "LineString", "coordinates": [[140.99105, 37.49155], [140.989, 37.4926], [140.9885, 37.49289]]}, "properties": {"id": "TRACK_TOKYO_2572", "line_name": "常磐線", "station_group_ids": [], "mode": "rail", "operator_id": "jr_east", "line_color": "#22A6B3", "tags": ["tokyo", "track_centerline"]}}, {"type": "Feature", "bbox": [140.99025, 37.60407, 140.99277, 37.60607], "geometry": {"type": "LineString", "coordinates": [[140.99277, 37.60407], [140.99142, 37.60516], [140.99025, 37.60607]]}, "properties": {"id": "TRACK_TOKYO_2574", "line_name": "常磐線", "station_group_ids": [], "mode": "rail", "operator_id": "jr_east", "line_color": "#22A6B3", "tags": ["tokyo", "track_centerline"]}}, {"type": "Feature", "bbox": [140.96582, 37.63921, 140.97383, 37.70218], "geometry": {"type": "LineString", "coordinates": [[140.97063, 37.70218], [140.97139, 37.70127], [140.97186, 37.70068], [140.97205, 37.70037], [140.97239, 37.69981], [140.97257, 37.69946], [140.97268, 37.69919], [140.97273, 37.69906], [140.97278, 37.6989], [140.97281, 37.69878], [140.97284, 37.69855], [140.97288, 37.69833], [140.97316, 37.69638], [140.97331, 37.69541], [140.9734, 37.69473], [140.97351, 37.6941], [140.97366, 37.69296], [140.97373, 37.69244], [140.97376, 37.69224], [140.97378, 37.692], [140.97382, 37.69168], [140.97383, 37.69057], [140.97383, 37.69039], [140.97383, 37.69011], [140.97381, 37.68991], [140.97379, 37.68981], [140.97377, 37.68964], [140.97373, 37.68928], [140.97353, 37.68811], [140.97345, 37.68767], [140.97313, 37.68565], [140.97297, 37.68463], [140.97293, 37.68434], [140.97275, 37.68318], [140.97263, 37.68263], [140.97251, 37.68185], [140.97245, 37.68151], [140.97231, 37.68068], [140.97215, 37.67989], [140.97199, 37.6787], [140.97192, 37.67823], [140.97184, 37.67761], [140.9718, 37.67717], [140.97179, 37.67657], [140.97179, 37.67631], [140.97179, 37.67603], [140.97181, 37.6758], [140.97196, 37.67338], [140.97212, 37.67106], [140.97218, 37.6697], [140.97215, 37.66939], [140.97207, 37.66891], [140.97199, 37.66863], [140.9716, 37.66789], [140.97158, 37.66786], [140.9713, 37.66728], [140.97081, 37.66636], [140.97016, 37.66519], [140.96984, 37.66456], [140.96944, 37.66375], [140.96906, 37.66298], [140.96868, 37.66218], [140.96827, 37.66131], [140.96809, 37.66087], [140.96793, 37.6605], [140.96787, 37.66037], [140.96778, 37.66015], [140.96767, 37.65989], [140.96757, 37.65962], [140.96746, 37.65927], [140.96739, 37.65904], [140.96734, 37.65879], [140.96724, 37.65837], [140.96704, 37.65753], [140.96683, 37.65658], [140.96673, 37.65616], [140.96667, 37.65584], [140.96661, 37.6555], [140.96655, 37.65523], [140.9664, 37.65459], [140.96625, 37.65386], [140.96604, 37.65297], [140.96592, 37.65237], [140.96587, 37.6519], [140.96585, 37.65162], [140.96584, 37.65142], [140.96582, 37.651], [140.96582, 37.6505], [140.96585, 37.64995], [140.96595, 37.64925], [140.96602, 37.64878], [140.96627, 37.64698], [140.96631, 37.64664], [140.96639, 37.64612], [140.96657, 37.6447], [140.96661, 37.6444], [140.96699, 37.64313], [140.96712, 37.64277], [140.96722, 37.64251], [140.96742, 37.64212], [140.9678, 37.64145], [140.96828, 37.64076], [140.96853, 37.64042], [140.96876, 37.64015], [140.96902, 37.63985], [140.96937, 37.63951], [140.96969, 37.63921]]}, "properties": {"id": "TRACK_TOKYO_2576", "line_name": "常磐線", "station_group_ids": [], "mode": "rail", "operator_id": "jr_east", "line_color": "#22A6B3", "tags": ["tokyo", "track_centerline"]}}, {"type": "Feature", "bbox": [140.99277, 37.56353, 141.00197, 37.60407], "geometry": {"type": "LineString", "coordinates": [[140.99643, 37.56353], [140.99659, 37.56452], [140.99664, 37.56479], [140.99667, 37.56511], [140.99672, 37.56543], [140.99676, 37.56577], [140.99685, 37.56636], [140.99688, 37.56662], [140.99694, 37.5671], [140.99698, 37.56742], [140.99703, 37.56774], [140.99705, 37.56798], [140.99708, 37.56829], [140.9971, 37.56841], [140.99711, 37.56851], [140.99713, 37.56884], [140.9972, 37.56946], [140.99728, 37.57019], [140.99738, 37.57119], [140.99748, 37.5719], [140.99766, 37.57297], [140.99775, 37.57344], [140.99794, 37.57422], [140.99806, 37.57458], [140.99811, 37.57474], [140.9982, 37.57499], [140.99829, 37.57525], [140.99845, 37.57556], [140.99888, 37.57626], [140.99908, 37.57656], [140.9996, 37.57735], [140.99983, 37.5778], [140.99996, 37.57816], [141.00002, 37.57846], [141.00006, 37.57891], [141.00007, 37.57918], [141.00005, 37.57952], [141.00002, 37.57968], [140.99994, 37.58002], [140.99988, 37.58045], [140.99984, 37.58083], [140.99983, 37.58115], [140.99984, 37.58142], [140.99986, 37.58166], [140.99989, 37.582], [140.99999, 37.58244], [141.00009, 37.58272], [141.00018, 37.58296], [141.00031, 37.58324], [141.00042, 37.58342], [141.00065, 37.58371], [141.00083, 37.58393], [141.00117, 37.58434], [141.00132, 37.58457], [141.00144, 37.58479], [141.00156, 37.58506], [141.00165, 37.58528], [141.00184, 37.58575], [141.00188, 37.58593], [141.00194, 37.58624], [141.00197, 37.58638], [141.00197, 37.58675], [141.00194, 37.58707], [141.0019, 37.58732], [141.00178, 37.58773], [141.0017, 37.58796], [141.00136, 37.5887], [141.00124, 37.58894], [141.00039, 37.59062], [141.00027, 37.59085], [141.00013, 37.59113], [140.99941, 37.59254], [140.99917, 37.59301], [140.9987, 37.59396], [140.99858, 37.5942], [140.99843, 37.5945], [140.99787, 37.59566], [140.9975, 37.5964], [140.99659, 37.59828], [140.99649, 37.59846], [140.99574, 37.59991], [140.99524, 37.60094], [140.99499, 37.60142], [140.99469, 37.602], [140.99438, 37.60254], [140.99411, 37.60289], [140.99394, 37.60306], [140.99366, 37.60335], [140.99292, 37.60395], [140.99277, 37.60407]]}, "properties": {"id": "TRACK_TOKYO_2585", "line_name": "常磐線", "station_group_ids": [], "mode": "rail", "operator_id": "jr_east", "line_color": "#22A6B3", "tags": ["tokyo", "track_centerline"]}}, {"type": "Feature", "bbox": [140.98459, 37.529, 140.9963, 37.56242], "geometry": {"type": "LineString", "coordinates": [[140.98459, 37.529], [140.98468, 37.52917], [140.98492, 37.52966], [140.98515, 37.53021], [140.98532, 37.53066], [140.98545, 37.53115], [140.9855, 37.53135], [140.9858, 37.53242], [140.98592, 37.53292], [140.98601, 37.53326], [140.98624, 37.53409], [140.98639, 37.53463], [140.98647, 37.53491], [140.98658, 37.53537], [140.98662, 37.53553], [140.98672, 37.53587], [140.98673, 37.53593], [140.98684, 37.53633], [140.9869, 37.53659], [140.987, 37.53694], [140.98717, 37.53741], [140.98732, 37.53777], [140.98742, 37.53803], [140.98767, 37.53854], [140.98814, 37.53935], [140.98818, 37.53943], [140.98858, 37.54002], [140.989, 37.54066], [140.98957, 37.54149], [140.99067, 37.5431], [140.99113, 37.54377], [140.99119, 37.54385], [140.99185, 37.54483], [140.99244, 37.54566], [140.99285, 37.5464], [140.99311, 37.54698], [140.99323, 37.54725], [140.99332, 37.54745], [140.99355, 37.54805], [140.99376, 37.54876], [140.99402, 37.54984], [140.99471, 37.55274], [140.99489, 37.55349], [140.99527, 37.55509], [140.99549, 37.55617], [140.9957, 37.55736], [140.99587, 37.55842], [140.99598, 37.55948], [140.9963, 37.56242]]}, "properties": {"id": "TRACK_TOKYO_2586", "line_name": "常磐線", "station_group_ids": [], "mode": "rail", "operator_id": "jr_east", "line_color": "#22A6B3", "tags": ["tokyo", "track_centerline"]}}, {"type": "Feature", "bbox": [140.99105, 37.45454, 141.00942, 37.49155], "geometry": {"type": "LineString", "coordinates": [[141.00641, 37.45454], [141.00689, 37.45526], [141.00723, 37.45577], [141.00737, 37.45599], [141.00743, 37.45609], [141.00767, 37.45646], [141.00823, 37.45732], [141.00879, 37.45816], [141.00881, 37.45819], [141.00915, 37.45872], [141.00927, 37.45897], [141.00936, 37.45924], [141.00941, 37.45952], [141.00942, 37.46012], [141.00939, 37.46043], [141.00935, 37.46072], [141.00908, 37.4624], [141.0089, 37.46356], [141.00871, 37.46472], [141.00866, 37.465], [141.00849, 37.46596], [141.00831, 37.46705], [141.00823, 37.4675], [141.00809, 37.46826], [141.00792, 37.46929], [141.00776, 37.47021], [141.00754, 37.47153], [141.00746, 37.47195], [141.00741, 37.47239], [141.00741, 37.47259], [141.00728, 37.47427], [141.00726, 37.47456], [141.00723, 37.47479], [141.00717, 37.47511], [141.00709, 37.47539], [141.00698, 37.47571], [141.00696, 37.47576], [141.00673, 37.47638], [141.00668, 37.47648], [141.00652, 37.4768], [141.00633, 37.47709], [141.00621, 37.47727], [141.00556, 37.47806], [141.00515, 37.47857], [141.00458, 37.47927], [141.00414, 37.47979], [141.00338, 37.48071], [141.00215, 37.48219], [141.00143, 37.48308], [141.00057, 37.48415], [140.99982, 37.48507], [140.99899, 37.48607], [140.99875, 37.48637], [140.99803, 37.48721], [140.99775, 37.48753], [140.99751, 37.48776], [140.99715, 37.48808], [140.99685, 37.48837], [140.99659, 37.48857], [140.99603, 37.48886], [140.99408, 37.48992], [140.99105, 37.49155]]}, "properties": {"id": "TRACK_TOKYO_2587", "line_name": "常磐線", "station_group_ids": [], "mode": "rail", "operator_id": "jr_east", "line_color": "#22A6B3", "tags": ["tokyo", "track_centerline"]}}, {"type": "Feature", "bbox": [140.98415, 37.52833, 140.98459, 37.529], "geometry": {"type": "LineString", "coordinates": [[140.98415, 37.52833], [140.98459, 37.529]]}, "properties": {"id": "TRACK_TOKYO_2588", "line_name": "常磐線", "station_group_ids": [], "mode": "rail", "operator_id": "jr_east", "line_color": "#22A6B3", "tags": ["tokyo", "track_centerline"]}}, {"type": "Feature", "bbox": [140.9963, 37.56242, 140.99643, 37.56353], "geometry": {"type": "LineString", "coordinates": [[140.9963, 37.56242], [140.99642, 37.56342], [140.99643, 37.56353]]}, "properties": {"id": "TRACK_TOKYO_2595", "line_name": "常磐線", "station_group_ids": [], "mode": "rail", "operator_id": "jr_east", "line_color": "#22A6B3", "tags": ["tokyo", "track_centerline"]}}, {"type": "Feature", "bbox": [140.97241, 37.60607, 140.99025, 37.63683], "geometry": {"type": "LineString", "coordinates": [[140.99025, 37.60607], [140.98998, 37.60631], [140.98922, 37.60691], [140.98852, 37.60746], [140.9882, 37.60772], [140.98753, 37.60826], [140.98719, 37.60858], [140.98695, 37.60884], [140.98662, 37.60922], [140.98641, 37.60951], [140.98619, 37.60986], [140.98606, 37.61011], [140.98593, 37.61041], [140.98582, 37.61072], [140.98578, 37.61085], [140.98574, 37.61102], [140.9857, 37.61118], [140.98565, 37.61165], [140.98565, 37.61207], [140.98567, 37.61248], [140.98571, 37.61281], [140.98577, 37.61309], [140.98582, 37.61327], [140.98615, 37.61419], [140.98618, 37.61427], [140.98645, 37.61492], [140.98702, 37.61652], [140.9874, 37.61747], [140.98784, 37.6188], [140.98792, 37.61927], [140.9881, 37.62047], [140.98802, 37.62142], [140.98796, 37.62174], [140.98787, 37.62211], [140.98782, 37.6223], [140.98766, 37.62273], [140.98755, 37.62294], [140.98746, 37.62313], [140.98733, 37.62334], [140.98724, 37.62351], [140.98708, 37.62375], [140.98679, 37.62415], [140.98659, 37.62439], [140.98605, 37.62498], [140.98532, 37.62559], [140.98462, 37.6262], [140.98383, 37.62691], [140.98306, 37.62757], [140.98172, 37.62875], [140.98117, 37.62922], [140.98048, 37.62981], [140.97994, 37.63028], [140.97893, 37.63117], [140.97825, 37.63177], [140.97628, 37.63351], [140.97566, 37.63402], [140.97378, 37.63564], [140.97291, 37.6364], [140.97264, 37.63662], [140.97241, 37.63683]]}, "properties": {"id": "TRACK_TOKYO_2597", "line_name": "常磐線", "station_group_ids": [], "mode": "rail", "operator_id": "jr_east", "line_color": "#22A6B3", "tags": ["tokyo", "track_centerline"]}}, {"type": "Feature", "bbox": [140.96969, 37.63683, 140.97241, 37.63921], "geometry": {"type": "LineString", "coordinates": [[140.97241, 37.63683], [140.97123, 37.63784], [140.96969, 37.63921]]}, "properties": {"id": "TRACK_TOKYO_2598", "line_name": "常磐線", "station_group_ids": [], "mode": "rail", "operator_id": "jr_east", "line_color": "#22A6B3", "tags": ["tokyo", "track_centerline"]}}]}