{"type": "FeatureCollection", "features": [{"type": "Feature", "bbox": [140.87926, 37.0554, 140.89063, 37.05819], "geometry": {"type": "LineString", "coordinates": [[140.89063, 37.05819], [140.88949, 37.05818], [140.88922, 37.05817], [140.88904, 37.05814], [140.8889, 37.05813], [140.88841, 37.05806], [140.88795, 37.05798], [140.88763, 37.05789], [140.88738, 37.05783], [140.88658, 37.05761], [140.88552, 37.05732], [140.88473, 37.05705], [140.88426, 37.05689], [140.88297, 37.05651], [140.88191, 37.05621], [140.8811, 37.05596], [140.87959, 37.0555], [140.87926, 37.0554]]}, "properties": {"id": "TRACK_TOKYO_2350", "line_name": "常磐線", "station_group_ids": [], "mode": "rail", "operator_id": "jr_east", "line_color": "#22A6B3", "tags": ["tokyo", "track_centerline"]}}, {"type": "Feature", "bbox": [140.89063, 37.05819, 140.89408, 37.05825], "geometry": {"type": "LineString", "coordinates": [[140.89408, 37.05825], [140.89063, 37.05819]]}, "properties": {"id": "TRACK_TOKYO_2351", "line_name": "常磐線", "station_group_ids": [], "mode": "rail", "operator_id": "jr_east", "line_color": "#22A6B3", "tags": ["tokyo", "track_centerline"]}}, {"type": "Feature", "bbox": [140.9482, 37.07448, 140.9799, 37.1013], "geometry": {"type": "LineString", "coordinates": [[140.9482, 37.07448], [140.95042, 37.076], [140.95302, 37.07778], [140.9541, 37.07852], [140.95449, 37.07879], [140.95564, 37.07958], [140.95578, 37.07968], [140.95609, 37.07989], [140.95739, 37.08077], [140.95771, 37.08101], [140.95823, 37.08147], [140.95971, 37.08284], [140.9612, 37.08416], [140.96268, 37.08548], [140.96372, 37.08641], [140.96375, 37.08643], [140.96531, 37.08787], [140.96594, 37.08844], [140.96738, 37.08977], [140.96884, 37.09112], [140.97028, 37.09242], [140.97168, 37.09372], [140.97266, 37.09462], [140.97312, 37.09505], [140.97411, 37.09596], [140.97556, 37.09728], [140.97643, 37.09808], [140.97697, 37.09858], [140.97844, 37.09992], [140.97868, 37.10014], [140.9799, 37.1013]]}, "properties": {"id": "TRACK_TOKYO_2354", "line_name": "常磐線", "station_group_ids": [], "mode": "rail", "operator_id": "jr_east", "line_color": "#22A6B3", "tags": ["tokyo", "track_centerline"]}}, {"type": "Feature", "bbox": [140.99556, 37.14153, 140.99599, 37.14341], "geometry": {"type": "LineString", "coordinates": [[140.99599, 37.14153], [140.99556, 37.14341]]}, "properties": {"id": "TRACK_TOKYO_2356", "line_name": "常磐線", "station_group_ids": [], "mode": "rail", "operator_id": "jr_east", "line_color": "#22A6B3", "tags": ["tokyo", "track_centerline"]}}, {"type": "Feature", "bbox": [140.9799, 37.1013, 140.98182, 37.10335], "geometry": {"type": "LineString", "coordinates": [[140.9799, 37.1013], [140.98069, 37.10206], [140.98102, 37.10242], [140.98182, 37.10335]]}, "properties": {"id": "TRACK_TOKYO_2357", "line_name": "常磐線", "station_group_ids": [], "mode": "rail", "operator_id": "jr_east", "line_color": "#22A6B3", "tags": ["tokyo", "track_centerline"]}}, {"type": "Feature", "bbox": [140.9463, 37.07322, 140.9482, 37.07448], "geometry": {"type": "LineString", "coordinates": [[140.9482, 37.07448], [140.9463, 37.07322]]}, "properties": {"id": "TRACK_TOKYO_2360", "line_name": "常磐線", "station_group_ids": [], "mode": "rail", "operator_id": "jr_east", "line_color": "#22A6B3", "tags": ["tokyo", "track_centerline"]}}, {"type": "Feature", "bbox": [140.8494, 37.00611, 140.85028, 37.00778], "geometry": {"type": "LineString", "coordinates": [[140.8494, 37.00778], [140.85028, 37.00611]]}, "properties": {"id": "TRACK_TOKYO_2366", "line_name": "常磐線", "station_group_ids": [], "mode": "rail", "operator_id": "jr_east", "line_color": "#22A6B3", "tags": ["tokyo", "track_centerline"]}}, {"type": "Feature", "bbox": [140.99841, 37.211, 140.99921, 37.2121], "geometry": {"type": "LineString", "coordinates": [[140.99841, 37.211], [140.99853, 37.21117], [140.99921, 37.2121]]}, "properties": {"id": "TRACK_TOKYO_2368", "line_name": "常磐線", "station_group_ids": [], "mode": "rail", "operator_id": "jr_east", "line_color": "#22A6B3", "tags": ["tokyo", "track_centerline"]}}, {"type": "Feature", "bbox": [140.9955, 37.17182, 140.9958, 37.17247], "geometry": {"type": "LineString", "coordinates": [[140.9955, 37.17247], [140.9958, 37.17182]]}, "properties": {"id": "TRACK_TOKYO_2369", "line_name": "常磐線", "station_group_ids": [], "mode": "rail", "operator_id": "jr_east", "line_color": "#22A6B3", "tags": ["tokyo", "track_centerline"]}}, {"type": "Feature", "bbox": [140.8556, 37.03669, 140.87926, 37.0554], "geometry": {"type": "LineString", "coordinates": [[140.87926, 37.0554], [140.87573, 37.05431], [140.87418, 37.05385], [140.87354, 37.05367], [140.87304, 37.05349], [140.87239, 37.05323], [140.87162, 37.05286], [140.87103, 37.05248], [140.87038, 37.05199], [140.86985, 37.05155], [140.86947, 37.05122], [140.86896, 37.05076], [140.86826, 37.05004], [140.86746, 37.04919], [140.86608, 37.04773], [140.86504, 37.04663], [140.86426, 37.04581], [140.86214, 37.04355], [140.86064, 37.04197], [140.85918, 37.04042], [140.85828, 37.03948], [140.85805, 37.03924], [140.85773, 37.0389], [140.85597, 37.03708], [140.8556, 37.03669]]}, "properties": {"id": "TRACK_TOKYO_2371", "line_name": "常磐線", "station_group_ids": [], "mode": "rail", "operator_id": "jr_east", "line_color": "#22A6B3", "tags": ["tokyo", "track_centerline"]}}, {"type": "Feature", "bbox": [140.98182, 37.10335, 140.99735, 37.14153], "geometry": {"type": "LineString", "coordinates": [[140.98182, 37.10335], [140.98215, 37.1038], [140.98236, 37.10408], [140.98289, 37.10479], [140.98315, 37.10523], [140.9833, 37.10552], [140.98355, 37.1061], [140.98383, 37.10681], [140.98403, 37.10743], [140.9842, 37.10803], [140.98434, 37.10854], [140.98457, 37.10976], [140.98475, 37.11085], [140.98485, 37.11139], [140.98491, 37.11159], [140.98513, 37.11227], [140.98517, 37.11239], [140.98522, 37.11254], [140.98529, 37.11268], [140.98534, 37.11277], [140.98575, 37.11343], [140.98587, 37.11358], [140.98602, 37.11373], [140.98638, 37.11406], [140.98819, 37.11554], [140.99259, 37.11912], [140.9926, 37.11914], [140.99329, 37.11974], [140.9939, 37.12033], [140.99502, 37.12153], [140.99537, 37.12201], [140.99573, 37.12258], [140.99603, 37.12311], [140.99614, 37.12338], [140.99621, 37.12356], [140.99635, 37.12406], [140.99643, 37.12433], [140.9966, 37.12495], [140.99705, 37.12649], [140.99719, 37.12704], [140.99722, 37.12716], [140.99732, 37.1276], [140.99735, 37.12791], [140.99735, 37.12818], [140.99732, 37.12857], [140.9973, 37.12881], [140.99725, 37.12919], [140.9969, 37.13102], [140.99682, 37.1315], [140.9966, 37.13601], [140.99648, 37.13863], [140.99611, 37.14097], [140.99599, 37.14153]]}, "properties": {"id": "TRACK_TOKYO_2376", "line_name": "常磐線", "station_group_ids": [], "mode": "rail", "operator_id": "jr_east", "line_color": "#22A6B3", "tags": ["tokyo", "track_centerline"]}}, {"type": "Feature", "bbox": [140.99452, 37.14341, 141.00027, 37.17182], "geometry": {"type": "LineString", "coordinates": [[140.99556, 37.14341], [140.99517, 37.14517], [140.99509, 37.14551], [140.99482, 37.14674], [140.99479, 37.14694], [140.99472, 37.14732], [140.99459, 37.14803], [140.99455, 37.14838], [140.99452, 37.14875], [140.99452, 37.14897], [140.99454, 37.14941], [140.99458, 37.14978], [140.99465, 37.15011], [140.9947, 37.15033], [140.99475, 37.15048], [140.99484, 37.15073], [140.99528, 37.15165], [140.99529, 37.15167], [140.99585, 37.15253], [140.99637, 37.15321], [140.9966, 37.1535], [140.99766, 37.15507], [140.99834, 37.15623], [140.99879, 37.15701], [140.99888, 37.1572], [140.99935, 37.1581], [140.99988, 37.15923], [140.99995, 37.15941], [141.00008, 37.1599], [141.00019, 37.1604], [141.00026, 37.16094], [141.00027, 37.16119], [141.00026, 37.16165], [141.00023, 37.16194], [141.00014, 37.16244], [141.00003, 37.16295], [140.99994, 37.16331], [140.9995, 37.16436], [140.99937, 37.16465], [140.99868, 37.16608], [140.99755, 37.16834], [140.99713, 37.16915], [140.99675, 37.16976], [140.99666, 37.16994], [140.9966, 37.17008], [140.99626, 37.17078], [140.99613, 37.17108], [140.9958, 37.17182]]}, "properties": {"id": "TRACK_TOKYO_2378", "line_name": "常磐線", "station_group_ids": [], "mode": "rail", "operator_id": "jr_east", "line_color": "#22A6B3", "tags": ["tokyo", "track_centerline"]}}, {"type": "Feature", "bbox": [140.84429, 37.00778, 140.85427, 37.03529], "geometry": {"type": "LineString", "coordinates": [[140.85427, 37.03529], [140.85409, 37.03509], [140.8527, 37.03355], [140.85222, 37.03304], [140.85107, 37.03184], [140.84978, 37.03045], [140.84841, 37.02895], [140.84762, 37.02798], [140.8471, 37.02729], [140.84617, 37.02591], [140.84599, 37.02561], [140.84534, 37.02455], [140.84504, 37.02413], [140.84479, 37.02373], [140.84454, 37.0233], [140.84435, 37.02285], [140.84429, 37.02245], [140.84431, 37.02209], [140.84436, 37.02159], [140.84443, 37.02118], [140.84455, 37.02075], [140.84462, 37.0205], [140.84577, 37.01691], [140.84596, 37.01633], [140.84661, 37.01437], [140.84725, 37.01229], [140.84747, 37.01163], [140.8477, 37.01113], [140.84789, 37.01067], [140.84893, 37.0087], [140.8494, 37.00778]]}, "properties": {"id": "TRACK_TOKYO_2381", "line_name": "常磐線", "station_group_ids": [], "mode": "rail", "operator_id": "jr_east", "line_color": "#22A6B3", "tags": ["tokyo", "track_centerline"]}}, {"type": "Feature", "bbox": [140.89408, 37.05825, 140.9463, 37.07322], "geometry": {"type": "LineString", "coordinates": [[140.9463, 37.07322], [140.94578, 37.07287], [140.94302, 37.071], [140.9404, 37.06922], [140.93907, 37.06829], [140.93864, 37.06808], [140.93861, 37.06806], [140.93739, 37.0675], [140.93673, 37.06725], [140.93375, 37.06618], [140.93058, 37.06503], [140.92854, 37.0643], [140.9281, 37.06414], [140.92739, 37.06389], [140.92558, 37.06322], [140.92411, 37.06271], [140.92217, 37.06199], [140.92022, 37.06129], [140.91964, 37.06108], [140.91755, 37.06035], [140.91654, 37.05997], [140.91422, 37.05913], [140.91377, 37.05898], [140.91327, 37.05884], [140.91272, 37.0587], [140.91229, 37.05861], [140.91181, 37.05855], [140.91142, 37.0585], [140.91068, 37.05848], [140.90918, 37.05846], [140.9079, 37.05845], [140.90649, 37.05842], [140.90537, 37.0584], [140.90435, 37.05839], [140.90288, 37.05838], [140.90101, 37.05836], [140.89902, 37.05832], [140.89713, 37.05829], [140.89688, 37.05829], [140.89408, 37.05825]]}, "properties": {"id": "TRACK_TOKYO_2383", "line_name": "常磐線", "station_group_ids": [], "mode": "rail", "operator_id": "jr_east", "line_color": "#22A6B3", "tags": ["tokyo", "track_centerline"]}}, {"type": "Feature", "bbox": [140.85427, 37.03529, 140.8556, 37.03669], "geometry": {"type": "LineString", "coordinates": [[140.8556, 37.03669], [140.85518, 37.03629], [140.85454, 37.0356], [140.85427, 37.03529]]}, "properties": {"id": "TRACK_TOKYO_2387", "line_name": "常磐線", "station_group_ids": [], "mode": "rail", "operator_id": "jr_east", "line_color": "#22A6B3", "tags": ["tokyo", "track_centerline"]}}, {"type": "Feature", "bbox": [140.99479, 37.17247, 141.00148, 37.211], "geometry": {"type": "LineString", "coordinates": [[140.9955, 37.17247], [140.99523, 37.17308], [140.9951, 37.17336], [140.99491, 37.17393], [140.99485, 37.17427], [140.9948, 37.17474], [140.99479, 37.1754], [140.99482, 37.17591], [140.99486, 37.17641], [140.99495, 37.1769], [140.99505, 37.17728], [140.9953, 37.17795], [140.99545, 37.17834], [140.99568, 37.17881], [140.99607, 37.17944], [140.9964, 37.17992], [140.9966, 37.1802], [140.99697, 37.18065], [140.99735, 37.18111], [140.9976, 37.18139], [140.99776, 37.18158], [140.99816, 37.18205], [140.99851, 37.18256], [140.99872, 37.18299], [140.99894, 37.18355], [140.99902, 37.18387], [140.99905, 37.18403], [140.99934, 37.18581], [140.99938, 37.18601], [140.99942, 37.18617], [140.99944, 37.18626], [140.99947, 37.18646], [140.99949, 37.18669], [140.9995, 37.1869], [140.99957, 37.18725], [140.99979, 37.18833], [140.99989, 37.18867], [140.99996, 37.18893], [141.00001, 37.18941], [141.00007, 37.18988], [141.00012, 37.19009], [141.00039, 37.19081], [141.00054, 37.19113], [141.00079, 37.19161], [141.001, 37.19208], [141.00123, 37.1927], [141.00135, 37.19311], [141.00146, 37.19353], [141.00148, 37.19387], [141.00148, 37.19388], [141.00147, 37.19406], [141.00142, 37.19462], [141.00135, 37.19505], [141.00127, 37.19536], [141.00121, 37.19557], [141.00109, 37.19589], [141.00108, 37.19591], [141.00072, 37.19653], [141.00037, 37.19704], [141.00012, 37.19734], [140.99984, 37.19762], [140.99936, 37.19805], [140.99699, 37.20009], [140.9966, 37.2005], [140.99644, 37.20075], [140.99615, 37.20128], [140.99597, 37.20161], [140.99581, 37.20202], [140.99566, 37.2024], [140.99558, 37.20271], [140.9955, 37.20304], [140.99543, 37.20365], [140.99535, 37.20463], [140.99535, 37.20506], [140.99535, 37.20549], [140.99539, 37.20584], [140.99539, 37.20587], [140.99546, 37.20633], [140.99551, 37.2065], [140.99559, 37.20669], [140.99588, 37.20725], [140.99617, 37.20779], [140.99647, 37.20831], [140.9966, 37.20853], [140.99841, 37.211]]}, "properties": {"id": "TRACK_TOKYO_2389", "line_name": "常磐線", "station_group_ids": [], "mode": "rail", "operator_id": "jr_east", "line_color": "#22A6B3", "tags": ["tokyo", "track_centerline"]}}, {"type": "Feature", "bbox": [140.99921, 37.2121, 141.0073805989582, 37.24077448437496], "geometry": {"type": "LineString", "coordinates": [[140.99921, 37.2121], [141.00041, 37.21375], [141.0023, 37.21631], [141.00364, 37.2181], [141.00462, 37.2195], [141.00496, 37.21995], [141.00609, 37.22152], [141.00671, 37.22255], [141.00686, 37.2229], [141.00706000000014, 37.22356], [141.0071, 37.22382], [141.00712, 37.22398], [141.00713, 37.22428], [141.00706000000014, 37.22512], [141.00689, 37.22564], [141.00676, 37.22592], [141.00635, 37.22667], [141.00616, 37.22702], [141.00552, 37.22805], [141.00518, 37.22859], [141.00503, 37.22885], [141.00482, 37.22932], [141.00465, 37.2298], [141.00448, 37.23053], [141.00442, 37.23103], [141.0044, 37.23155], [141.00444, 37.23208], [141.00451, 37.2324], [141.00455, 37.2326], [141.00472, 37.23333], [141.0051802656248, 37.23428708854165], [141.00702184895815, 37.23908835937495], [141.0072251406249, 37.23981781770828], [141.0073805989582, 37.24077448437496]]}, "properties": {"id": "TRACK_TOKYO_2390", "line_name": "常磐線", "station_group_ids": [], "mode": "rail", "operator_id": "jr_east", "line_color": "#22A6B3", "tags": ["tokyo", "track_centerline"]}}, {"type": "Feature", "bbox": [140.85028, 36.95574, 140.86432, 37.00611], "geometry": {"type": "LineString", "coordinates": [[140.85028, 37.00611], [140.85091, 37.005], [140.8516, 37.00377], [140.85202, 37.00311], [140.85244, 37.00247], [140.85331, 37.00112], [140.85365, 37.00059], [140.85572, 36.99737], [140.85896, 36.99268], [140.85914, 36.99243], [140.85926, 36.99226], [140.85938, 36.99206], [140.86014, 36.99079], [140.86066, 36.98992], [140.86134, 36.98862], [140.86158, 36.98822], [140.86178, 36.98788], [140.86213, 36.98729], [140.86256, 36.98636], [140.86269, 36.9858], [140.863, 36.98347], [140.86304, 36.98318], [140.86361, 36.97891], [140.86408, 36.97534], [140.86427, 36.97375], [140.86431, 36.97327], [140.86432, 36.97267], [140.86421, 36.96993], [140.86411, 36.96763], [140.8639, 36.96291], [140.86386, 36.96252], [140.86379, 36.96211], [140.86362, 36.96147], [140.86344, 36.96098], [140.86308, 36.96024], [140.86292, 36.95999], [140.86287, 36.95991], [140.86245, 36.95942], [140.86191, 36.95894], [140.8612, 36.95847], [140.85912, 36.95715], [140.85868, 36.95689], [140.85833, 36.95668], [140.85807, 36.95657], [140.85799, 36.95654], [140.85769, 36.95639], [140.85724, 36.95625], [140.85673, 36.95609], [140.85493, 36.95574]]}, "properties": {"id": "TRACK_TOKYO_2406", "line_name": "常磐線", "station_group_ids": [], "mode": "rail", "operator_id": "jr_east", "line_color": "#22A6B3", "tags": ["tokyo", "track_centerline"]}}]}