{"type": "FeatureCollection", "features": [{"type": "Feature", "bbox": [140.85324, 36.95541, 140.85493, 36.95574], "geometry": {"type": "LineString", "coordinates": [[140.85324, 36.95541], [140.85493, 36.95574]]}, "properties": {"id": "TRACK_TOKYO_2391", "line_name": "常磐線", "station_group_ids": [], "mode": "rail", "operator_id": "jr_east", "line_color": "#22A6B3", "tags": ["tokyo", "track_centerline"]}}, {"type": "Feature", "bbox": [140.7295, 36.75443, 140.74548, 36.79035], "geometry": {"type": "LineString", "coordinates": [[140.7295, 36.75443], [140.72983, 36.7549], [140.73035, 36.75557], [140.73088, 36.75615], [140.7312, 36.75649], [140.73143, 36.7567], [140.73254, 36.75763], [140.73277, 36.75781], [140.7346, 36.75936], [140.73549, 36.76013], [140.7359, 36.76049], [140.73634, 36.76101], [140.73657, 36.76137], [140.7367, 36.76161], [140.73677, 36.7618], [140.73692, 36.76234], [140.73704, 36.7629], [140.73791, 36.76704], [140.73833, 36.76903], [140.73885, 36.77131], [140.7392, 36.77288], [140.73936, 36.77391], [140.73952, 36.7753], [140.73971, 36.77789], [140.73974, 36.77892], [140.74, 36.78183], [140.74009, 36.78281], [140.7402, 36.78402], [140.74047, 36.78498], [140.74063, 36.78553], [140.74081, 36.78603], [140.7411, 36.78657], [140.74153, 36.78726], [140.74209, 36.788], [140.74263, 36.78854], [140.74325, 36.78903], [140.74388, 36.78947], [140.74477, 36.78998], [140.74548, 36.79035]]}, "properties": {"id": "TRACK_TOKYO_2395", "line_name": "常磐線", "station_group_ids": [], "mode": "rail", "operator_id": "jr_east", "line_color": "#22A6B3", "tags": ["tokyo", "track_centerline"]}}, {"type": "Feature", "bbox": [140.77981, 36.88481, 140.79649, 36.92005], "geometry": {"type": "LineString", "coordinates": [[140.78599, 36.88481], [140.78483, 36.88683], [140.78312, 36.8898], [140.78134, 36.89295], [140.78132, 36.89299], [140.78026, 36.89477], [140.78007, 36.89521], [140.77993, 36.89553], [140.77991, 36.89564], [140.77986, 36.89584], [140.77983, 36.89607], [140.77982, 36.89614], [140.77981, 36.89631], [140.77986, 36.89679], [140.7799, 36.89701], [140.77999, 36.89748], [140.78005, 36.89774], [140.78014, 36.89805], [140.78036, 36.89854], [140.78068, 36.89905], [140.78099, 36.89947], [140.78149, 36.90012], [140.78183, 36.90053], [140.78273, 36.90164], [140.78354, 36.90266], [140.78457, 36.90392], [140.78527, 36.90481], [140.78581, 36.90549], [140.78711, 36.90711], [140.78829, 36.90858], [140.78898, 36.90943], [140.78919, 36.90969], [140.78953, 36.91011], [140.79077, 36.91166], [140.79098, 36.91193], [140.79197, 36.91315], [140.79298, 36.91438], [140.79379, 36.91537], [140.795, 36.91689], [140.79557, 36.9176], [140.79572, 36.91778], [140.796, 36.91816], [140.79614, 36.91838], [140.79625, 36.91865], [140.79631, 36.91889], [140.79641, 36.91922], [140.79646, 36.91978], [140.79649, 36.92005]]}, "properties": {"id": "TRACK_TOKYO_2396", "line_name": "常磐線", "station_group_ids": [], "mode": "rail", "operator_id": "jr_east", "line_color": "#22A6B3", "tags": ["tokyo", "track_centerline"]}}, {"type": "Feature", "bbox": [140.74548, 36.79035, 140.74721, 36.79105], "geometry": {"type": "LineString", "coordinates": [[140.74548, 36.79035], [140.74664, 36.79085], [140.74721, 36.79105]]}, "properties": {"id": "TRACK_TOKYO_2398", "line_name": "常磐線", "station_group_ids": [], "mode": "rail", "operator_id": "jr_east", "line_color": "#22A6B3", "tags": ["tokyo", "track_centerline"]}}, {"type": "Feature", "bbox": [140.85028, 36.95574, 140.86432, 37.00611], "geometry": {"type": "LineString", "coordinates": [[140.85028, 37.00611], [140.85091, 37.005], [140.8516, 37.00377], [140.85202, 37.00311], [140.85244, 37.00247], [140.85331, 37.00112], [140.85365, 37.00059], [140.85572, 36.99737], [140.85896, 36.99268], [140.85914, 36.99243], [140.85926, 36.99226], [140.85938, 36.99206], [140.86014, 36.99079], [140.86066, 36.98992], [140.86134, 36.98862], [140.86158, 36.98822], [140.86178, 36.98788], [140.86213, 36.98729], [140.86256, 36.98636], [140.86269, 36.9858], [140.863, 36.98347], [140.86304, 36.98318], [140.86361, 36.97891], [140.86408, 36.97534], [140.86427, 36.97375], [140.86431, 36.97327], [140.86432, 36.97267], [140.86421, 36.96993], [140.86411, 36.96763], [140.8639, 36.96291], [140.86386, 36.96252], [140.86379, 36.96211], [140.86362, 36.96147], [140.86344, 36.96098], [140.86308, 36.96024], [140.86292, 36.95999], [140.86287, 36.95991], [140.86245, 36.95942], [140.86191, 36.95894], [140.8612, 36.95847], [140.85912, 36.95715], [140.85868, 36.95689], [140.85833, 36.95668], [140.85807, 36.95657], [140.85799, 36.95654], [140.85769, 36.95639], [140.85724, 36.95625], [140.85673, 36.95609], [140.85493, 36.95574]]}, "properties": {"id": "TRACK_TOKYO_2406", "line_name": "常磐線", "station_group_ids": [], "mode": "rail", "operator_id": "jr_east", "line_color": "#22A6B3", "tags": ["tokyo", "track_centerline"]}}, {"type": "Feature", "bbox": [140.72861, 36.75221, 140.7295, 36.75443], "geometry": {"type": "LineString", "coordinates": [[140.72861, 36.75221], [140.7289, 36.75313], [140.7294, 36.75427], [140.7295, 36.75443]]}, "properties": {"id": "TRACK_TOKYO_2407", "line_name": "常磐線", "station_group_ids": [], "mode": "rail", "operator_id": "jr_east", "line_color": "#22A6B3", "tags": ["tokyo", "track_centerline"]}}, {"type": "Feature", "bbox": [140.79648, 36.92005, 140.79649, 36.92093], "geometry": {"type": "LineString", "coordinates": [[140.79649, 36.92005], [140.79648, 36.92093]]}, "properties": {"id": "TRACK_TOKYO_2409", "line_name": "常磐線", "station_group_ids": [], "mode": "rail", "operator_id": "jr_east", "line_color": "#22A6B3", "tags": ["tokyo", "track_centerline"]}}, {"type": "Feature", "bbox": [140.77809, 36.84681, 140.78806, 36.88245], "geometry": {"type": "LineString", "coordinates": [[140.78727, 36.88245], [140.78736, 36.88213], [140.78743, 36.88182], [140.78749, 36.88149], [140.78752, 36.88106], [140.78756, 36.88018], [140.78759, 36.87959], [140.78771, 36.87694], [140.78783, 36.87412], [140.78786, 36.87281], [140.78794, 36.87117], [140.788, 36.87043], [140.78806, 36.86839], [140.78806, 36.86762], [140.78801, 36.86707], [140.78792, 36.86664], [140.78777, 36.86609], [140.78763, 36.8657], [140.78749, 36.8654], [140.78584, 36.86281], [140.78553, 36.8623], [140.78512, 36.86161], [140.78492, 36.86138], [140.78458, 36.86103], [140.78423, 36.86073], [140.7839, 36.86051], [140.78329, 36.8602], [140.78179, 36.85948], [140.78142, 36.8593], [140.78105, 36.85907], [140.78069, 36.85881], [140.7804, 36.85856], [140.78016, 36.85828], [140.77985, 36.85782], [140.77965, 36.85742], [140.77945, 36.85684], [140.77931, 36.8562], [140.77921, 36.85553], [140.77913, 36.85504], [140.77884, 36.85275], [140.77848, 36.84993], [140.77809, 36.84681]]}, "properties": {"id": "TRACK_TOKYO_2411", "line_name": "常磐線", "station_group_ids": [], "mode": "rail", "operator_id": "jr_east", "line_color": "#22A6B3", "tags": ["tokyo", "track_centerline"]}}, {"type": "Feature", "bbox": [140.82357, 36.94405, 140.83542, 36.9479], "geometry": {"type": "LineString", "coordinates": [[140.82357, 36.94405], [140.82437, 36.94414], [140.82439, 36.94414], [140.82591, 36.9444], [140.82769, 36.9447], [140.82949, 36.94512], [140.83099, 36.94554], [140.83201, 36.94585], [140.83202, 36.94585], [140.83242, 36.946], [140.83257, 36.94607], [140.83302, 36.94629], [140.83307, 36.94631], [140.83434, 36.94709], [140.83542, 36.9479]]}, "properties": {"id": "TRACK_TOKYO_2412", "line_name": "常磐線", "station_group_ids": [], "mode": "rail", "operator_id": "jr_east", "line_color": "#22A6B3", "tags": ["tokyo", "track_centerline"]}}, {"type": "Feature", "bbox": [140.83542, 36.9479, 140.85324, 36.95541], "geometry": {"type": "LineString", "coordinates": [[140.83542, 36.9479], [140.83632, 36.94851], [140.83751, 36.94931], [140.84009, 36.95103], [140.84169, 36.95213], [140.84242, 36.95262], [140.84292, 36.95293], [140.84332, 36.95316], [140.84374, 36.95337], [140.84421, 36.95355], [140.84462, 36.95369], [140.84507, 36.95383], [140.84517, 36.95385], [140.84561, 36.95395], [140.84565, 36.95395], [140.85152, 36.95508], [140.85324, 36.95541]]}, "properties": {"id": "TRACK_TOKYO_2417", "line_name": "常磐線", "station_group_ids": [], "mode": "rail", "operator_id": "jr_east", "line_color": "#22A6B3", "tags": ["tokyo", "track_centerline"]}}, {"type": "Feature", "bbox": [140.82357, 36.94405, 140.83542, 36.9479], "geometry": {"type": "LineString", "coordinates": [[140.82357, 36.94405], [140.82397, 36.94414], [140.82465, 36.9443], [140.82562, 36.94451], [140.82588, 36.94457], [140.82711, 36.94487], [140.82751, 36.94501], [140.82826, 36.94529], [140.83045, 36.94602], [140.83213, 36.94659], [140.83358, 36.94711], [140.83456, 36.94751], [140.83542, 36.9479]]}, "properties": {"id": "TRACK_TOKYO_2422", "line_name": "常磐線", "station_group_ids": [], "mode": "rail", "operator_id": "jr_east", "line_color": "#22A6B3", "tags": ["tokyo", "track_centerline"]}}, {"type": "Feature", "bbox": [140.78599, 36.88245, 140.78727, 36.88481], "geometry": {"type": "LineString", "coordinates": [[140.78599, 36.88481], [140.78642, 36.88406], [140.78672, 36.88356], [140.78706, 36.88292], [140.78727, 36.88245]]}, "properties": {"id": "TRACK_TOKYO_2425", "line_name": "常磐線", "station_group_ids": [], "mode": "rail", "operator_id": "jr_east", "line_color": "#22A6B3", "tags": ["tokyo", "track_centerline"]}}, {"type": "Feature", "bbox": [140.71708, 36.71549, 140.72861, 36.75221], "geometry": {"type": "LineString", "coordinates": [[140.71708, 36.71549], [140.7172, 36.7168], [140.71732, 36.71795], [140.71757, 36.72032], [140.71784, 36.72265], [140.71817, 36.72499], [140.7183, 36.72606], [140.71848, 36.72747], [140.71857, 36.72827], [140.7188, 36.73021], [140.71884, 36.73046], [140.7191, 36.73265], [140.7192, 36.73338], [140.71937, 36.73489], [140.71946, 36.73573], [140.71958, 36.73659], [140.71969, 36.73746], [140.71974, 36.73781], [140.71979, 36.73822], [140.71989, 36.73877], [140.72003, 36.73929], [140.72024, 36.74002], [140.72038, 36.74038], [140.72052, 36.74072], [140.72068, 36.74101], [140.72098, 36.74143], [140.72172, 36.74234], [140.72364, 36.74451], [140.72451, 36.74552], [140.72556, 36.7467], [140.72577, 36.74691], [140.7265, 36.74774], [140.72687, 36.74823], [140.7272, 36.74873], [140.72743, 36.74913], [140.72763, 36.74947], [140.72783, 36.74998], [140.72798, 36.75039], [140.72819, 36.75099], [140.72861, 36.75221]]}, "properties": {"id": "TRACK_TOKYO_2426", "line_name": "常磐線", "station_group_ids": [], "mode": "rail", "operator_id": "jr_east", "line_color": "#22A6B3", "tags": ["tokyo", "track_centerline"]}}, {"type": "Feature", "bbox": [140.77792, 36.84532, 140.77809, 36.84681], "geometry": {"type": "LineString", "coordinates": [[140.77809, 36.84681], [140.77792, 36.84532]]}, "properties": {"id": "TRACK_TOKYO_2427", "line_name": "常磐線", "station_group_ids": [], "mode": "rail", "operator_id": "jr_east", "line_color": "#22A6B3", "tags": ["tokyo", "track_centerline"]}}, {"type": "Feature", "bbox": [140.79566, 36.92093, 140.82357, 36.94405], "geometry": {"type": "LineString", "coordinates": [[140.79648, 36.92093], [140.79641, 36.92143], [140.79631, 36.92225], [140.79615, 36.92335], [140.79612, 36.92354], [140.79574, 36.92625], [140.7957, 36.92662], [140.79568, 36.92751], [140.79567, 36.92776], [140.79567, 36.92795], [140.79566, 36.92842], [140.79571, 36.92882], [140.79581, 36.92918], [140.79591, 36.92956], [140.79609, 36.93001], [140.79624, 36.93033], [140.79654, 36.93097], [140.79673, 36.93133], [140.79896, 36.93548], [140.79942, 36.93607], [140.79978, 36.93642], [140.80015, 36.93672], [140.80069, 36.93704], [140.80107, 36.93727], [140.80188, 36.93759], [140.80285, 36.9379], [140.80331, 36.93804], [140.80411, 36.93827], [140.80614, 36.93883], [140.80656, 36.93894], [140.80782, 36.9392], [140.80877, 36.93934], [140.80921, 36.93939], [140.80961, 36.93942], [140.81063, 36.93946], [140.81258, 36.93951], [140.81329, 36.93955], [140.81384, 36.9396], [140.81414, 36.93965], [140.81459, 36.93972], [140.81506, 36.93984], [140.81558, 36.94001], [140.81603, 36.94018], [140.81666, 36.94049], [140.81701, 36.94068], [140.81728, 36.94084], [140.81762, 36.9411], [140.81811, 36.94147], [140.81981, 36.94279], [140.82009, 36.94298], [140.82059, 36.94321], [140.82136, 36.9435], [140.82204, 36.94369], [140.82253, 36.94383], [140.82357, 36.94405]]}, "properties": {"id": "TRACK_TOKYO_2428", "line_name": "常磐線", "station_group_ids": [], "mode": "rail", "operator_id": "jr_east", "line_color": "#22A6B3", "tags": ["tokyo", "track_centerline"]}}, {"type": "Feature", "bbox": [140.74721, 36.79105, 140.77792, 36.84532], "geometry": {"type": "LineString", "coordinates": [[140.74721, 36.79105], [140.74802, 36.79139], [140.74873, 36.7917], [140.74921, 36.79192], [140.74977, 36.7922], [140.75025, 36.7925], [140.75061, 36.79277], [140.75082, 36.79293], [140.75166, 36.79376], [140.75237, 36.79447], [140.75323, 36.79535], [140.75363, 36.79578], [140.75393, 36.79612], [140.75434, 36.79658], [140.75457, 36.79687], [140.75479, 36.79715], [140.75515, 36.79767], [140.75576, 36.7986], [140.75662, 36.80007], [140.75792, 36.80235], [140.75816, 36.80278], [140.75926, 36.80469], [140.76042, 36.80673], [140.76061, 36.80708], [140.76148, 36.80865], [140.76164, 36.80894], [140.76287, 36.81119], [140.76408, 36.81341], [140.76451, 36.81419], [140.7649, 36.81486], [140.76539, 36.81574], [140.76577, 36.81639], [140.7662, 36.81712], [140.76681, 36.81819], [140.76712, 36.81872], [140.76752, 36.81935], [140.76785, 36.81987], [140.76827, 36.82044], [140.76843, 36.82064], [140.76876, 36.82104], [140.76917, 36.82148], [140.77037, 36.82273], [140.77055, 36.82293], [140.77117, 36.82357], [140.77189, 36.82434], [140.7724, 36.82486], [140.77333, 36.82586], [140.77352, 36.82605], [140.77413, 36.8267], [140.77456, 36.82719], [140.77493, 36.82767], [140.77525, 36.82816], [140.77545, 36.8285], [140.77564, 36.82892], [140.77582, 36.82957], [140.77597, 36.8301], [140.77607, 36.83061], [140.77615, 36.83127], [140.77619, 36.83161], [140.77647, 36.83384], [140.77678, 36.83646], [140.77731, 36.84038], [140.7775, 36.84195], [140.77755, 36.84235], [140.77778, 36.84425], [140.77792, 36.84532]]}, "properties": {"id": "TRACK_TOKYO_2429", "line_name": "常磐線", "station_group_ids": [], "mode": "rail", "operator_id": "jr_east", "line_color": "#22A6B3", "tags": ["tokyo", "track_centerline"]}}]}