{"type": "FeatureCollection", "features": [{"type": "Feature", "bbox": [140.95884, 38.47974, 140.96747, 38.56948], "geometry": {"type": "LineString", "coordinates": [[140.9597, 38.47974], [140.95968, 38.48008], [140.95962, 38.48119], [140.95954, 38.48232], [140.95952, 38.4827], [140.95951, 38.48273], [140.95951, 38.4828], [140.95946, 38.48341], [140.95938, 38.48456], [140.9593, 38.48567], [140.95922, 38.4868], [140.95915, 38.48793], [140.95911, 38.48846], [140.9591, 38.48854], [140.95908, 38.4888], [140.95901, 38.48967], [140.95889, 38.49101], [140.95885, 38.49166], [140.95884, 38.4921], [140.95884, 38.49289], [140.95884, 38.49292], [140.95884, 38.4931], [140.95884, 38.49327], [140.95884, 38.49357], [140.95884, 38.49361], [140.95884, 38.49371], [140.95884, 38.49406], [140.95885, 38.49408], [140.95886, 38.49459], [140.95889, 38.49546], [140.95893, 38.49642], [140.95895, 38.49685], [140.95896, 38.49733], [140.95899, 38.49797], [140.95899, 38.49814], [140.959, 38.49818], [140.95901, 38.49862], [140.95904, 38.49913], [140.95905, 38.49932], [140.95906, 38.49939], [140.95909, 38.5], [140.95912, 38.50053], [140.95916, 38.50111], [140.95917, 38.5013], [140.95917, 38.50133], [140.95917, 38.50137], [140.95919, 38.50162], [140.95923, 38.50216], [140.95924, 38.5022], [140.95924, 38.50227], [140.95925, 38.50253], [140.95926, 38.50272], [140.95925, 38.50295], [140.95925, 38.50297], [140.95924, 38.50307], [140.95925, 38.50331], [140.95927, 38.50363], [140.95927, 38.50406], [140.95931, 38.50453], [140.95933, 38.50495], [140.95937, 38.50534], [140.95937, 38.50548], [140.95937, 38.50583], [140.95939, 38.50622], [140.95942, 38.50664], [140.95944, 38.50706], [140.95946, 38.50744], [140.95948, 38.5078], [140.9595, 38.50828], [140.95952, 38.5088], [140.95954, 38.50913], [140.95956, 38.50955], [140.95958, 38.50997], [140.95961, 38.51041], [140.95964, 38.51088], [140.95967, 38.51115], [140.95967, 38.51126], [140.95967, 38.5113], [140.95966, 38.51145], [140.95967, 38.51149], [140.95966, 38.5116], [140.95967, 38.5119], [140.95968, 38.51224], [140.95969, 38.51243], [140.9597, 38.51247], [140.95973, 38.51283], [140.95973, 38.51291], [140.95977, 38.51326], [140.95979, 38.5135], [140.95978, 38.51359], [140.95979, 38.5139], [140.95979, 38.51394], [140.95983, 38.51449], [140.95985, 38.51483], [140.95986, 38.51498], [140.95986, 38.51501], [140.95986, 38.51521], [140.95987, 38.51527], [140.95987, 38.51545], [140.95988, 38.51575], [140.9599, 38.5161], [140.95992, 38.51614], [140.95992, 38.51623], [140.95992, 38.51628], [140.95992, 38.51649], [140.95993, 38.51655], [140.95994, 38.51677], [140.95996, 38.51708], [140.95998, 38.51744], [140.96, 38.51765], [140.96001, 38.51793], [140.96003, 38.51838], [140.96005, 38.51851], [140.96005, 38.51861], [140.96009, 38.51927], [140.96014, 38.52039], [140.96016, 38.52063], [140.96022, 38.52162], [140.96027, 38.52243], [140.9603, 38.52306], [140.96036, 38.52411], [140.96039, 38.52449], [140.96041, 38.52485], [140.96044, 38.52595], [140.96051, 38.52691], [140.96059, 38.52803], [140.96065, 38.52915], [140.96066, 38.52955], [140.96071, 38.53021], [140.96076, 38.53123], [140.96078, 38.53207], [140.96082, 38.53285], [140.96087, 38.5335], [140.96091, 38.53401], [140.96097, 38.53533], [140.961, 38.53608], [140.96106, 38.53732], [140.96112, 38.5383], [140.96117, 38.53941], [140.96126, 38.54092], [140.9613, 38.54171], [140.96134, 38.54251], [140.96135, 38.54254], [140.96137, 38.54291], [140.96139, 38.54345], [140.96147, 38.54432], [140.96155, 38.54492], [140.96161, 38.54533], [140.96181, 38.54652], [140.96201, 38.54739], [140.96223, 38.54845], [140.96246, 38.54934], [140.96264, 38.55018], [140.96284, 38.55097], [140.96297, 38.55159], [140.96302, 38.55182], [140.96313, 38.55233], [140.96342, 38.55351], [140.96372, 38.55469], [140.9639, 38.55544], [140.96421, 38.55666], [140.96445, 38.55756], [140.96471, 38.55863], [140.9649, 38.55931], [140.96505, 38.55993], [140.96524, 38.56065], [140.96551, 38.56164], [140.96578, 38.56272], [140.96602, 38.56366], [140.96618, 38.5643], [140.96632, 38.56495], [140.96653, 38.56576], [140.96672, 38.5665], [140.96696, 38.56746], [140.9671, 38.568], [140.96734, 38.56888], [140.96747, 38.56948]]}, "properties": {"id": "GEOM_TOKYO_2991", "route_id": "R_86450D72", "route_name": null, "route_color": "#2D9C5B", "route_text_color": null, "line_name": "東北新幹線", "operator_id": "jr_east", "representation": "service_path", "min_zoom": 0, "max_zoom": 24, "offset_rank": 0}}, {"type": "Feature", "bbox": [140.96819, 38.57235, 141.07063, 38.74718], "geometry": {"type": "LineString", "coordinates": [[141.07063, 38.74718], [141.07022, 38.74646], [141.06963, 38.7454], [141.06934, 38.74488], [141.06904, 38.74435], [141.06874, 38.74383], [141.06868, 38.74372], [141.06814, 38.74277], [141.06784, 38.74222], [141.06755, 38.74169], [141.06724, 38.74116], [141.06681, 38.74038], [141.06637, 38.7396], [141.06607, 38.73905], [141.06579, 38.73853], [141.06546, 38.73795], [141.06488, 38.73691], [141.06429, 38.73584], [141.06411, 38.73551], [141.06397, 38.73527], [141.0637, 38.73477], [141.06341, 38.73426], [141.06334, 38.73414], [141.06318, 38.73386], [141.0631, 38.73373], [141.06304, 38.73362], [141.06261, 38.73284], [141.06251, 38.73267], [141.0623, 38.7323], [141.06211, 38.73195], [141.06203, 38.73182], [141.06192, 38.73162], [141.06184, 38.73147], [141.06163, 38.73109], [141.06144, 38.73075], [141.06136, 38.73062], [141.06132, 38.73055], [141.06103, 38.73004], [141.06073, 38.72949], [141.06043, 38.72897], [141.06013, 38.72842], [141.05985, 38.72791], [141.05954, 38.72737], [141.05923, 38.72684], [141.05893, 38.72629], [141.05864, 38.72578], [141.05806, 38.72473], [141.05747, 38.72367], [141.05676, 38.72242], [141.05624, 38.72152], [141.05549, 38.72025], [141.05515, 38.7196], [141.05466, 38.71877], [141.0542, 38.71795], [141.05372, 38.71713], [141.05326, 38.71633], [141.05322, 38.71627], [141.05277, 38.71549], [141.05231, 38.71466], [141.05184, 38.71383], [141.05138, 38.713], [141.05091, 38.71215], [141.05047, 38.71136], [141.05004, 38.71058], [141.04955, 38.70972], [141.04908, 38.70889], [141.04862, 38.70807], [141.04809, 38.70715], [141.048, 38.70698], [141.04793, 38.70686], [141.04741, 38.70591], [141.04679, 38.70486], [141.0462, 38.70381], [141.04601, 38.7035], [141.0456, 38.70276], [141.04544, 38.70249], [141.04498, 38.70169], [141.04459, 38.70103], [141.04393, 38.69985], [141.04369, 38.69941], [141.04319, 38.69852], [141.04258, 38.69745], [141.0423, 38.69695], [141.04219, 38.69676], [141.04159, 38.69568], [141.0411, 38.69484], [141.04064, 38.69401], [141.04017, 38.6932], [141.03969, 38.69234], [141.03908, 38.69125], [141.03848, 38.6902], [141.03826, 38.68982], [141.03818, 38.68967], [141.03806, 38.68945], [141.03761, 38.68867], [141.03713, 38.68782], [141.03666, 38.687], [141.03617, 38.68615], [141.03584, 38.68559], [141.03549, 38.68495], [141.03541, 38.68481], [141.03519, 38.68444], [141.03503, 38.68416], [141.03494, 38.684], [141.03488, 38.68389], [141.03487, 38.68386], [141.03472, 38.68362], [141.03458, 38.68338], [141.0345, 38.68323], [141.03429, 38.68283], [141.03426, 38.68279], [141.03418, 38.68264], [141.034, 38.68233], [141.0337, 38.68178], [141.03355, 38.68154], [141.03339, 38.68127], [141.03315, 38.68081], [141.0331, 38.68072], [141.03295, 38.68046], [141.0325, 38.67966], [141.03226, 38.67923], [141.03196, 38.67868], [141.03191, 38.6786], [141.03176, 38.67835], [141.0316, 38.67805], [141.03156, 38.67798], [141.03152, 38.67792], [141.03141, 38.6777], [141.0313, 38.67752], [141.03061, 38.67629], [141.03059, 38.67625], [141.03056, 38.6762], [141.03043, 38.67595], [141.03014, 38.67542], [141.02986, 38.6749], [141.02955, 38.67435], [141.02925, 38.67383], [141.02902, 38.67343], [141.02894, 38.67328], [141.02869, 38.67286], [141.02864, 38.67277], [141.02833, 38.67223], [141.02808, 38.67178], [141.02803, 38.6717], [141.02789, 38.67146], [141.02769, 38.6711], [141.0276, 38.67093], [141.0275, 38.67076], [141.02711, 38.67008], [141.02683, 38.6696], [141.02675, 38.66948], [141.02656, 38.6692], [141.02629, 38.66874], [141.02612, 38.66844], [141.026, 38.66825], [141.02591, 38.66808], [141.02555, 38.66746], [141.02537, 38.66714], [141.02525, 38.66694], [141.02496, 38.66644], [141.02495, 38.66643], [141.02453, 38.66572], [141.02436, 38.66542], [141.02413, 38.665], [141.0239, 38.66462], [141.0238, 38.66444], [141.02327, 38.6635], [141.02293, 38.6629], [141.02244, 38.66206], [141.02224, 38.66171], [141.02203, 38.66132], [141.02179, 38.66089], [141.02165, 38.66065], [141.02118, 38.6598], [141.02085, 38.65919], [141.0196, 38.65696], [141.01704, 38.65245], [141.01499, 38.64884], [141.01445, 38.64792], [141.01361, 38.64638], [141.0124, 38.64426], [141.0123, 38.64408], [141.01112, 38.64204], [141.00942, 38.63905], [141.00885, 38.63805], [141.00785, 38.63629], [141.00773, 38.63609], [141.00742, 38.63554], [141.00682, 38.63456], [141.00643, 38.63397], [141.00548, 38.63261], [141.0053, 38.63234], [141.00497, 38.63186], [141.00387, 38.63026], [141.00252, 38.62836], [141.00155, 38.62703], [141.0009, 38.62612], [141.00003, 38.6249], [140.99942, 38.62405], [140.99925, 38.62381], [140.99795, 38.62203], [140.99654, 38.62009], [140.99642, 38.61992], [140.99611, 38.61949], [140.99606, 38.6194], [140.99571, 38.61893], [140.99536, 38.61841], [140.99504, 38.61796], [140.99502, 38.61793], [140.99466, 38.6174], [140.99432, 38.61692], [140.99395, 38.6164], [140.99361, 38.61593], [140.99325, 38.61541], [140.99291, 38.61493], [140.99255, 38.61441], [140.99222, 38.61395], [140.99185, 38.61342], [140.99153, 38.61296], [140.99115, 38.61242], [140.99081, 38.61195], [140.99044, 38.61143], [140.9901, 38.61096], [140.98983, 38.61058], [140.98974, 38.61044], [140.9894, 38.60996], [140.98927, 38.60977], [140.98902, 38.60943], [140.98869, 38.60896], [140.98833, 38.60843], [140.98799, 38.60797], [140.98762, 38.60745], [140.98729, 38.60697], [140.98693, 38.60645], [140.9866, 38.60598], [140.98624, 38.60546], [140.98591, 38.60498], [140.98554, 38.60446], [140.9852, 38.60399], [140.98485, 38.60347], [140.9845, 38.60299], [140.98413, 38.60247], [140.9838, 38.60199], [140.98377, 38.60195], [140.98343, 38.60148], [140.98309, 38.601], [140.98273, 38.60048], [140.98239, 38.6], [140.98203, 38.59948], [140.9817, 38.59902], [140.98134, 38.59851], [140.981, 38.59802], [140.98064, 38.5975], [140.98029, 38.59702], [140.97991, 38.59649], [140.97958, 38.59602], [140.97921, 38.59549], [140.97888, 38.59501], [140.97851, 38.59449], [140.97825, 38.59413], [140.97817, 38.59401], [140.97781, 38.59349], [140.97747, 38.59301], [140.97709, 38.59249], [140.97676, 38.59203], [140.97638, 38.59151], [140.97605, 38.59102], [140.97569, 38.5905], [140.97536, 38.59002], [140.975, 38.58951], [140.97483, 38.58927], [140.97467, 38.58903], [140.97449, 38.58876], [140.9743, 38.5885], [140.97413, 38.58824], [140.97397, 38.58802], [140.97378, 38.58776], [140.97361, 38.58751], [140.97344, 38.58728], [140.97327, 38.58704], [140.97311, 38.58679], [140.97292, 38.58645], [140.97282, 38.58627], [140.97274, 38.5861], [140.97266, 38.58595], [140.97255, 38.5857], [140.97239, 38.58541], [140.97221, 38.58509], [140.97208, 38.58484], [140.97189, 38.58444], [140.97167, 38.58396], [140.97143, 38.5834], [140.97121, 38.58284], [140.97098, 38.58227], [140.97079, 38.58179], [140.97057, 38.58118], [140.97044, 38.58076], [140.97023, 38.58004], [140.9701, 38.57958], [140.96997, 38.57906], [140.96989, 38.5788], [140.96978, 38.5784], [140.96966, 38.57792], [140.9696, 38.57767], [140.96951, 38.57731], [140.96938, 38.5768], [140.96922, 38.5762], [140.96906, 38.57567], [140.96891, 38.57511], [140.96876, 38.57453], [140.96861, 38.57393], [140.96838, 38.57313], [140.96819, 38.57235]]}, "properties": {"id": "GEOM_TOKYO_2992", "route_id": "R_86450D72", "route_name": null, "route_color": "#2D9C5B", "route_text_color": null, "line_name": "東北新幹線", "operator_id": "jr_east", "representation": "service_path", "min_zoom": 0, "max_zoom": 24, "offset_rank": 0}}, {"type": "Feature", "bbox": [140.96747, 38.56948, 140.96819, 38.57235], "geometry": {"type": "LineString", "coordinates": [[140.96747, 38.56948], [140.96771, 38.57044], [140.96778, 38.57073], [140.96819, 38.57235]]}, "properties": {"id": "GEOM_TOKYO_2993", "route_id": "R_86450D72", "route_name": null, "route_color": "#2D9C5B", "route_text_color": null, "line_name": "東北新幹線", "operator_id": "jr_east", "representation": "service_path", "min_zoom": 0, "max_zoom": 24, "offset_rank": 0}}]}