{"type": "FeatureCollection", "features": [{"type": "Feature", "bbox": [140.88914037, 37.92458733, 140.90080842, 37.96582849], "geometry": {"type": "LineString", "coordinates": [[140.90080842, 37.92458733], [140.89950188, 37.92729612], [140.89891097, 37.92852905], [140.89871832, 37.92900255], [140.89854977, 37.92950158], [140.8984002, 37.93006913], [140.89828914, 37.93059718], [140.8982433, 37.93087317], [140.89821727, 37.93108229], [140.89818628, 37.93136917], [140.89816756, 37.93184997], [140.89816688, 37.93232238], [140.89819019, 37.9328102], [140.89823961, 37.93320967], [140.89833099, 37.93374633], [140.89842282, 37.93414917], [140.89857605, 37.93470926], [140.89891047, 37.93595016], [140.8992949, 37.93738064], [140.89942305, 37.93789833], [140.89954274, 37.93852689], [140.89965665, 37.93925409], [140.89973376, 37.939979], [140.8997497, 37.94039008], [140.89977343, 37.94092662], [140.89975764, 37.9413958], [140.8997246, 37.94214969], [140.89968579, 37.94252236], [140.89965401, 37.94275908], [140.89961142, 37.94309584], [140.89949744, 37.94375115], [140.8993526, 37.94442919], [140.89918407, 37.94507177], [140.89899313, 37.94568135], [140.89872223, 37.94642191], [140.89840114, 37.94716964], [140.89808698, 37.94780908], [140.89768244, 37.94856935], [140.89732133, 37.94914653], [140.89690854, 37.94976628], [140.89605758, 37.95092087], [140.89468022, 37.9527614], [140.89412314, 37.95351721], [140.89352317, 37.9543381], [140.89300906, 37.95510504], [140.89260964, 37.95578725], [140.89237789, 37.9562201], [140.89194044, 37.95711685], [140.89161604, 37.95792614], [140.89140276, 37.95852373], [140.8907182, 37.96067642], [140.89005812, 37.96276871], [140.88936883, 37.96495486], [140.88914037, 37.96582849]]}, "properties": {"id": "GEOM_TOKYO_2328", "route_id": "R_06E4D384", "route_name": null, "route_color": "#22A6B3", "route_text_color": null, "line_name": "常磐線", "operator_id": "jr_east", "representation": "service_path", "min_zoom": 0, "max_zoom": 24, "offset_rank": 0}}, {"type": "Feature", "bbox": [140.88634134, 37.96680887, 140.89256989, 38.00188], "geometry": {"type": "LineString", "coordinates": [[140.88882626, 37.96680887], [140.88846464, 37.96777823], [140.88763686, 37.97038922], [140.88701505, 37.97233794], [140.88660448, 37.97370731], [140.88650632, 37.97407001], [140.88644371, 37.97440593], [140.886389, 37.97478175], [140.88635606, 37.97514827], [140.88634134, 37.97569065], [140.88636184, 37.97620955], [140.8864248, 37.97669313], [140.88653215, 37.9772782], [140.8867455, 37.97800255], [140.88698743, 37.97861985], [140.88739799, 37.97954358], [140.88869165, 37.98252452], [140.890038, 37.98562128], [140.89065313, 37.98701119], [140.89129766, 37.98849803], [140.89161717, 37.98923561], [140.89200289, 37.99012767], [140.89216264, 37.99053747], [140.89228992, 37.99094596], [140.89237384, 37.99126647], [140.89246742, 37.99169211], [140.8925393, 37.99223773], [140.89256768, 37.99261601], [140.89256989, 37.99308552], [140.89255879, 37.99350327], [140.89250982, 37.99397191], [140.89241625, 37.99446229], [140.89231, 37.9948], [140.89206, 37.99563], [140.89121, 37.99844], [140.89069, 38.00017], [140.89019, 38.00188]]}, "properties": {"id": "GEOM_TOKYO_2330", "route_id": "R_06E4D384", "route_name": null, "route_color": "#22A6B3", "route_text_color": null, "line_name": "常磐線", "operator_id": "jr_east", "representation": "service_path", "min_zoom": 0, "max_zoom": 24, "offset_rank": 0}}, {"type": "Feature", "bbox": [140.92308, 37.80321, 140.92559, 37.84137], "geometry": {"type": "LineString", "coordinates": [[140.92549, 37.80321], [140.92501, 37.80468], [140.9249, 37.80508], [140.92459, 37.80594], [140.92422, 37.80709], [140.92414, 37.80734], [140.92406, 37.80759], [140.92357, 37.80904], [140.92346, 37.80943], [140.9233, 37.81044], [140.9232, 37.81103], [140.92309, 37.81189], [140.92308, 37.81231], [140.92309, 37.81263], [140.92313, 37.81303], [140.9232, 37.81351], [140.92331, 37.81404], [140.92362, 37.81505], [140.92394, 37.81594], [140.92409, 37.81643], [140.92414, 37.81657], [140.92431, 37.81711], [140.92485, 37.81874], [140.92504, 37.81937], [140.92521, 37.82006], [140.92533, 37.82047], [140.92549, 37.82119], [140.92555, 37.8216], [140.92558, 37.82207], [140.92559, 37.8226], [140.92557, 37.82303], [140.92554, 37.82388], [140.92549, 37.8253], [140.92546, 37.82613], [140.92542, 37.82712], [140.92532, 37.83046], [140.92531, 37.83104], [140.92531, 37.83124], [140.92524, 37.83332], [140.92524, 37.83378], [140.92525, 37.83635], [140.92528, 37.83753], [140.92528, 37.83761], [140.92525, 37.83829], [140.92518, 37.84016], [140.92514, 37.84137]]}, "properties": {"id": "GEOM_TOKYO_2332", "route_id": "R_06E4D384", "route_name": null, "route_color": "#22A6B3", "route_text_color": null, "line_name": "常磐線", "operator_id": "jr_east", "representation": "service_path", "min_zoom": 0, "max_zoom": 24, "offset_rank": 0}}, {"type": "Feature", "bbox": [140.91784, 37.7566, 140.93426, 37.80179], "geometry": {"type": "LineString", "coordinates": [[140.92593, 37.80179], [140.92619, 37.80099], [140.92648, 37.80017], [140.9266, 37.79977], [140.9268, 37.79901], [140.92689, 37.79858], [140.92695, 37.79819], [140.92699, 37.79777], [140.927, 37.79741], [140.92699, 37.79711], [140.92697, 37.79665], [140.92694, 37.79626], [140.92686, 37.79556], [140.92682, 37.79503], [140.92669, 37.79425], [140.92663, 37.79393], [140.92654, 37.79352], [140.92636, 37.79288], [140.92615, 37.79228], [140.92601, 37.79192], [140.92582, 37.79152], [140.92569, 37.79124], [140.92543, 37.79078], [140.92473, 37.78953], [140.92468, 37.78946], [140.92434, 37.78889], [140.92315, 37.78688], [140.92198, 37.78485], [140.92082, 37.78285], [140.92045, 37.78223], [140.91998, 37.78139], [140.91963, 37.78079], [140.91917, 37.77999], [140.91882, 37.77936], [140.91846, 37.77876], [140.91831, 37.77849], [140.9181, 37.77803], [140.91796, 37.77758], [140.91787, 37.77712], [140.91784, 37.77671], [140.91789, 37.77607], [140.91795, 37.77573], [140.91806, 37.77534], [140.91822, 37.77486], [140.91833, 37.77467], [140.91855, 37.77434], [140.91874, 37.77407], [140.91894, 37.77376], [140.91928, 37.7734], [140.91957, 37.77308], [140.91987, 37.77274], [140.92155, 37.77082], [140.92332, 37.7688], [140.92512, 37.76676], [140.92602, 37.76574], [140.92695, 37.76471], [140.92881, 37.76267], [140.93061, 37.76067], [140.93137, 37.75979], [140.93257, 37.75847], [140.93275, 37.75827], [140.93404, 37.75686], [140.93426, 37.7566]]}, "properties": {"id": "GEOM_TOKYO_2333", "route_id": "R_06E4D384", "route_name": null, "route_color": "#22A6B3", "route_text_color": null, "line_name": "常磐線", "operator_id": "jr_east", "representation": "service_path", "min_zoom": 0, "max_zoom": 24, "offset_rank": 0}}, {"type": "Feature", "bbox": [140.90130081, 37.8797247, 140.92545647, 37.92357094], "geometry": {"type": "LineString", "coordinates": [[140.92545647, 37.8797247], [140.92481545, 37.88153358], [140.9242441, 37.88303691], [140.92329108, 37.88571945], [140.92216172, 37.88887319], [140.92191733, 37.88956442], [140.92166365, 37.89017715], [140.92096994, 37.89166879], [140.91992072, 37.89393165], [140.91874209, 37.8964825], [140.91746329, 37.89924919], [140.91688071, 37.90048754], [140.91601166, 37.9023591], [140.91500372, 37.90454454], [140.91362019, 37.90753616], [140.91331687, 37.90818356], [140.91297333, 37.90886899], [140.91260093, 37.90955436], [140.91235239, 37.90996374], [140.91201879, 37.91047195], [140.91162142, 37.91103184], [140.91141389, 37.91131736], [140.91100075, 37.9118329], [140.91070528, 37.91218765], [140.90964536, 37.91334394], [140.90687968, 37.9163165], [140.90503044, 37.91831057], [140.90343254, 37.92003329], [140.90303808, 37.92051567], [140.90263005, 37.92107279], [140.90232385, 37.92154322], [140.90198505, 37.92215712], [140.90130081, 37.92357094]]}, "properties": {"id": "GEOM_TOKYO_2334", "route_id": "R_06E4D384", "route_name": null, "route_color": "#22A6B3", "route_text_color": null, "line_name": "常磐線", "operator_id": "jr_east", "representation": "service_path", "min_zoom": 0, "max_zoom": 24, "offset_rank": 0}}, {"type": "Feature", "bbox": [140.92497, 37.8429, 140.93005, 37.87870625], "geometry": {"type": "LineString", "coordinates": [[140.92505, 37.8429], [140.92503, 37.84402], [140.925, 37.8456], [140.925, 37.84578], [140.925, 37.84588], [140.92498, 37.84637], [140.92497, 37.84663], [140.92499, 37.84698], [140.92504, 37.84724], [140.92519, 37.84788], [140.92532, 37.84822], [140.92549, 37.8486], [140.92563, 37.84883], [140.92578, 37.84906], [140.92606, 37.84944], [140.92636, 37.84981], [140.92702, 37.85055], [140.92879, 37.85265], [140.92909, 37.85301], [140.92929, 37.85327], [140.92944, 37.85349], [140.92958, 37.85377], [140.92969, 37.854], [140.92981, 37.85431], [140.92989, 37.85459], [140.92992, 37.85474], [140.92996, 37.85491], [140.93003, 37.85535], [140.93005, 37.85556], [140.93004, 37.85585], [140.93003, 37.8561], [140.92994, 37.85655], [140.92987, 37.85707], [140.92939, 37.86073], [140.92906, 37.86307], [140.92877, 37.86493], [140.92861, 37.86603], [140.92819, 37.86911], [140.92805, 37.86995], [140.92783, 37.87161], [140.92773, 37.87257], [140.9276, 37.87334], [140.92753429, 37.87381142], [140.9272684, 37.87462716], [140.92703633, 37.87524389], [140.92640621, 37.87699874], [140.92606577, 37.87797549], [140.92582393, 37.87870625]]}, "properties": {"id": "GEOM_TOKYO_2337", "route_id": "R_06E4D384", "route_name": null, "route_color": "#22A6B3", "route_text_color": null, "line_name": "常磐線", "operator_id": "jr_east", "representation": "service_path", "min_zoom": 0, "max_zoom": 24, "offset_rank": 0}}, {"type": "Feature", "bbox": [140.88882626, 37.96582849, 140.88914037, 37.96680887], "geometry": {"type": "LineString", "coordinates": [[140.88914037, 37.96582849], [140.88882626, 37.96680887]]}, "properties": {"id": "GEOM_TOKYO_2339", "route_id": "R_06E4D384", "route_name": null, "route_color": "#22A6B3", "route_text_color": null, "line_name": "常磐線", "operator_id": "jr_east", "representation": "service_path", "min_zoom": 0, "max_zoom": 24, "offset_rank": 0}}, {"type": "Feature", "bbox": [140.93426, 37.75566, 140.93506, 37.7566], "geometry": {"type": "LineString", "coordinates": [[140.93426, 37.7566], [140.93506, 37.75566]]}, "properties": {"id": "GEOM_TOKYO_2343", "route_id": "R_06E4D384", "route_name": null, "route_color": "#22A6B3", "route_text_color": null, "line_name": "常磐線", "operator_id": "jr_east", "representation": "service_path", "min_zoom": 0, "max_zoom": 24, "offset_rank": 0}}, {"type": "Feature", "bbox": [140.92545647, 37.87870625, 140.92582393, 37.8797247], "geometry": {"type": "LineString", "coordinates": [[140.92582393, 37.87870625], [140.92545647, 37.8797247]]}, "properties": {"id": "GEOM_TOKYO_2344", "route_id": "R_06E4D384", "route_name": null, "route_color": "#22A6B3", "route_text_color": null, "line_name": "常磐線", "operator_id": "jr_east", "representation": "service_path", "min_zoom": 0, "max_zoom": 24, "offset_rank": 0}}, {"type": "Feature", "bbox": [140.92549, 37.80179, 140.92593, 37.80321], "geometry": {"type": "LineString", "coordinates": [[140.92549, 37.80321], [140.92554, 37.80305], [140.92591, 37.80186], [140.92593, 37.80179]]}, "properties": {"id": "GEOM_TOKYO_2345", "route_id": "R_06E4D384", "route_name": null, "route_color": "#22A6B3", "route_text_color": null, "line_name": "常磐線", "operator_id": "jr_east", "representation": "service_path", "min_zoom": 0, "max_zoom": 24, "offset_rank": 0}}, {"type": "Feature", "bbox": [140.93506, 37.70349, 140.96953, 37.75566], "geometry": {"type": "LineString", "coordinates": [[140.93506, 37.75566], [140.93638, 37.7541], [140.93715, 37.75303], [140.93757, 37.75237], [140.93793, 37.75178], [140.93832, 37.75114], [140.93865, 37.7506], [140.93888, 37.75023], [140.93964, 37.74914], [140.94042, 37.74804], [140.9415, 37.74667], [140.94243, 37.74546], [140.94286, 37.74491], [140.94338, 37.74423], [140.94355, 37.74401], [140.9439, 37.74354], [140.94526, 37.74176], [140.94577, 37.7411], [140.94714, 37.73932], [140.9473, 37.73913], [140.94818, 37.73797], [140.94861, 37.73739], [140.94902, 37.73686], [140.94915, 37.73667], [140.94925, 37.73652], [140.94945, 37.7362], [140.94959, 37.73597], [140.94973, 37.7357], [140.94988, 37.73535], [140.95001, 37.73498], [140.95007, 37.73477], [140.95013, 37.73439], [140.95053, 37.73194], [140.95096, 37.72953], [140.95098, 37.72939], [140.9511, 37.72873], [140.95118, 37.72834], [140.95127, 37.72806], [140.95133, 37.72788], [140.95148, 37.72742], [140.95164, 37.72707], [140.95179, 37.72674], [140.95193, 37.72646], [140.95277, 37.72471], [140.95283, 37.72457], [140.95313, 37.72388], [140.95344, 37.72315], [140.9536, 37.7228], [140.95388, 37.72227], [140.95406, 37.72199], [140.95428, 37.72167], [140.95442, 37.72147], [140.95575, 37.71987], [140.95588, 37.71972], [140.95779, 37.71744], [140.95981, 37.71503], [140.96188, 37.71256], [140.96212, 37.71227], [140.96391, 37.71013], [140.96595, 37.70768], [140.96655, 37.70698], [140.96733, 37.70605], [140.968, 37.70524], [140.96837, 37.70482], [140.96849, 37.70467], [140.96926, 37.70381], [140.96953, 37.70349]]}, "properties": {"id": "GEOM_TOKYO_2346", "route_id": "R_06E4D384", "route_name": null, "route_color": "#22A6B3", "route_text_color": null, "line_name": "常磐線", "operator_id": "jr_east", "representation": "service_path", "min_zoom": 0, "max_zoom": 24, "offset_rank": 0}}, {"type": "Feature", "bbox": [140.90080842, 37.92357094, 140.90130081, 37.92458733], "geometry": {"type": "LineString", "coordinates": [[140.90130081, 37.92357094], [140.90080842, 37.92458733]]}, "properties": {"id": "GEOM_TOKYO_2348", "route_id": "R_06E4D384", "route_name": null, "route_color": "#22A6B3", "route_text_color": null, "line_name": "常磐線", "operator_id": "jr_east", "representation": "service_path", "min_zoom": 0, "max_zoom": 24, "offset_rank": 0}}, {"type": "Feature", "bbox": [140.92505, 37.84137, 140.92514, 37.8429], "geometry": {"type": "LineString", "coordinates": [[140.92514, 37.84137], [140.92505, 37.84283], [140.92505, 37.8429]]}, "properties": {"id": "GEOM_TOKYO_2349", "route_id": "R_06E4D384", "route_name": null, "route_color": "#22A6B3", "route_text_color": null, "line_name": "常磐線", "operator_id": "jr_east", "representation": "service_path", "min_zoom": 0, "max_zoom": 24, "offset_rank": 0}}]}