{"type": "FeatureCollection", "features": [{"type": "Feature", "bbox": [136.64900591, 36.57917742, 137.01015277, 36.72708779], "geometry": {"type": "LineString", "coordinates": [[137.01015277, 36.72705924], [137.00846811, 36.72708779], [137.00598395, 36.72705924], [137.00230055, 36.72680226], [137.00010192, 36.726531], [136.99711808, 36.72598848], [136.99436266, 36.72537458], [136.99177857, 36.72460364], [136.98871858, 36.72357095], [136.98203706, 36.72117245], [136.96777278, 36.71601904], [136.96555988, 36.71518623], [136.96330416, 36.71424396], [136.96134824, 36.71323031], [136.95934949, 36.71218811], [136.95600873, 36.71026074], [136.94317391, 36.70276544], [136.92992508, 36.69508573], [136.92737905, 36.69356287], [136.92059759, 36.68897051], [136.91783741, 36.68697177], [136.91617179, 36.68580583], [136.90439346, 36.67752531], [136.90191882, 36.67588348], [136.90006284, 36.67488411], [136.89742164, 36.67352781], [136.89478044, 36.67243326], [136.89328138, 36.6718146], [136.88959321, 36.67069625], [136.88626197, 36.66986344], [136.88340661, 36.66933996], [136.87983742, 36.66891166], [136.87662515, 36.6687451], [136.87274663, 36.6687213], [136.86863016, 36.66907822], [136.86644106, 36.66938755], [136.86356191, 36.66988724], [136.85808915, 36.67124353], [136.83717369, 36.67681147], [136.82853624, 36.67916714], [136.82546674, 36.67983338], [136.82258759, 36.68040445], [136.8194467, 36.68097553], [136.80683556, 36.68256976], [136.79991133, 36.68337878], [136.79550932, 36.68375949], [136.79201152, 36.68371191], [136.78896581, 36.68361673], [136.78577733, 36.68321222], [136.78258885, 36.68280771], [136.77918622, 36.68190352], [136.77687814, 36.68123727], [136.77426074, 36.68030928], [136.771334, 36.67911955], [136.7669082, 36.67683526], [136.7646953, 36.67538379], [136.7616258, 36.67317089], [136.75938911, 36.67114835], [136.75705723, 36.66884027], [136.75443983, 36.66558041], [136.75201278, 36.66201122], [136.74937157, 36.65865618], [136.7466114, 36.65561047], [136.74282806, 36.65220784], [136.73409544, 36.6448791], [136.72869406, 36.64028674], [136.72462518, 36.63709826], [136.72155568, 36.63500434], [136.70932525, 36.62741386], [136.7029007, 36.62339257], [136.70075919, 36.6219173], [136.69957897, 36.62100359], [136.69067027, 36.6130086], [136.68041955, 36.60358594], [136.67945349, 36.60266746], [136.67699789, 36.60024993], [136.67559877, 36.59861286], [136.67360954, 36.59602401], [136.67057334, 36.59184568], [136.6696406, 36.59094148], [136.66840328, 36.59000873], [136.66719451, 36.58932345], [136.66440578, 36.58797191], [136.65741017, 36.58473585], [136.65514492, 36.58371744], [136.6531081, 36.58286083], [136.65193741, 36.58222313], [136.6509761, 36.5814046], [136.6501766, 36.58071932], [136.64900591, 36.57917742]]}, "properties": {"id": "TRACK_TOKYO_4539", "line_name": "北陸新幹線", "station_group_ids": [], "mode": "shinkansen", "operator_id": "jr_west", "line_color": "#2C62C9", "tags": ["tokyo", "track_centerline"]}}, {"type": "Feature", "bbox": [136.64708331, 36.57665282, 136.64900591, 36.57917742], "geometry": {"type": "LineString", "coordinates": [[136.64900591, 36.57917742], [136.64708331, 36.57665282]]}, "properties": {"id": "TRACK_TOKYO_4540", "line_name": "北陸新幹線", "station_group_ids": [], "mode": "shinkansen", "operator_id": "jr_west", "line_color": "#2C62C9", "tags": ["tokyo", "track_centerline"]}}, {"type": "Feature", "bbox": [136.23538993111538, 36.21682893541259, 136.34915676799676, 36.31984633250261], "geometry": {"type": "LineString", "coordinates": [[136.34915676799676, 36.31984633250261], [136.34815228480932, 36.31956287025412], [136.3461675168977, 36.31901648652047], [136.34352631518095, 36.31829550983571], [136.3415132911698, 36.31773157757732], [136.3401760340845, 36.31733956137646], [136.33849851407524, 36.31682797726023], [136.33738016740233, 36.31641157158424], [136.33615474498424, 36.31592378207807], [136.33494121987133, 36.31540030065662], [136.3335492351829, 36.31472215426993], [136.3324784777301, 36.31413918632353], [136.33150289871764, 36.313591910292075], [136.3303726547398, 36.312854277380154], [136.32957553530264, 36.31233079595893], [136.32852857245996, 36.311569368437006], [136.3278147341581, 36.31103398971061], [136.32730315004187, 36.310546200204385], [136.32636921159724, 36.309743132114875], [136.32504861073892, 36.30848201778173], [136.32425149130177, 36.30756592529434], [136.32302606888368, 36.30616204330073], [136.32051573752256, 36.30312823051804], [136.31869544985284, 36.300903434477505], [136.3174609061674, 36.299415081618235], [136.3160094349538, 36.29764238316886], [136.3135110008975, 36.2948703110967], [136.31227368117436, 36.293644888678614], [136.3114884590425, 36.29285966654669], [136.3105625512785, 36.29200990153487], [136.30919198173888, 36.29079161749979], [136.30863994678543, 36.29033476098664], [136.3078690014196, 36.28968754759302], [136.3067839672009, 36.288840459474955], [136.3062509679355, 36.28843119218186], [136.30434739913073, 36.28705110479825], [136.3012172974927, 36.28496257255813], [136.29513539516108, 36.28135055075097], [136.2885966363167, 36.27752437745312], [136.28233770208624, 36.27382907451073], [136.2773313161298, 36.27085950717526], [136.27068786100085, 36.266919119749275], [136.26800344827222, 36.26535800297245], [136.26373945414946, 36.26284529215013], [136.26008460204423, 36.260599080960446], [136.25797164067092, 36.25909526160467], [136.25616325030637, 36.25766758500106], [136.25349825397961, 36.25521198124284], [136.25159468517484, 36.25317516262169], [136.25032262532113, 36.25151334705515], [136.24938273822374, 36.250252232722005], [136.248692694532, 36.249193372574325], [136.24787178048484, 36.247872771716004], [136.24670584459216, 36.24594540830117], [136.24486637251812, 36.24291417326788], [136.24290569664902, 36.23962099923557], [136.24090694940412, 36.23630878951519], [136.23965630469934, 36.23428529587568], [136.23895674316338, 36.23295755663429], [136.23830001192596, 36.23164409415898], [136.23761472715603, 36.23005937312905], [136.23681522825802, 36.227832197627436], [136.23644165288, 36.22651492801435], [136.2361418407935, 36.225230019071205], [136.2358848590046, 36.223959386893966], [136.2356278772162, 36.22214703076105], [136.23546131494572, 36.22004120777075], [136.23538993111538, 36.21682893541259]]}, "properties": {"id": "TRACK_TOKYO_4600", "line_name": "北陸新幹線", "station_group_ids": [], "mode": "shinkansen", "operator_id": "jr_west", "line_color": "#2C62C9", "tags": ["tokyo", "track_centerline"]}}, {"type": "Feature", "bbox": [136.22425162623938, 36.0628888936904, 136.25316383185145, 36.214027735805075], "geometry": {"type": "LineString", "coordinates": [[136.23533644051372, 36.214027735805075], [136.23532092674623, 36.21374515394882], [136.23534948027816, 36.2120414598686], [136.23543514087464, 36.210547158356746], [136.2356350155991, 36.20890295080176], [136.23584916708955, 36.20758948832645], [136.23613470241025, 36.20624747231898], [136.2365487286254, 36.20469130482098], [136.23804778905924, 36.20009418615746], [136.24647583994238, 36.17509259450219], [136.2509640201515, 36.16171688708624], [136.25185036937614, 36.159044752376474], [136.2523262615773, 36.157407683204326], [136.25263083258608, 36.15577061403235], [136.2528402251546, 36.154590401373184], [136.25303058203508, 36.153238867521964], [136.25316383185145, 36.15065001394743], [136.25310672478713, 36.14840380275774], [136.2528402251546, 36.14606241312782], [136.25240240432936, 36.143778130562055], [136.25188844075205, 36.141798419005056], [136.2512983344226, 36.140085207080745], [136.25000390763546, 36.13692528286475], [136.24815744589478, 36.13309910956713], [136.24708510213486, 36.13084211148748], [136.24551465787079, 36.126868411607575], [136.24501497105962, 36.12508381585303], [136.24432492736776, 36.12156221356412], [136.2441583650973, 36.11889721723742], [136.2441262423738, 36.1172173177672], [136.2444117776945, 36.112981877176594], [136.2447211076252, 36.109329404532446], [136.24526659906087, 36.1026933852192], [136.2454664737853, 36.09965243405367], [136.24547123270725, 36.09851505169274], [136.24539984887724, 36.09698743772691], [136.24522852768462, 36.09583101967797], [136.24494299236392, 36.094546110734655], [136.24454324291492, 36.09307560383297], [136.24405783286977, 36.09177641812374], [136.24342965516416, 36.09036301828621], [136.24278720069265, 36.08923515376938], [136.241744996772, 36.08762187920729], [136.24078788237682, 36.086339135573496], [136.2394434869086, 36.08472110208942], [136.23812288605018, 36.08310306860528], [136.23654054448116, 36.081211397105676], [136.235413473118, 36.07969171467653], [136.23454496985084, 36.078180756937684], [136.23405718034462, 36.076931539909594], [136.2337002611938, 36.07564663096622], [136.23350514539118, 36.07440217286006], [136.23331002958878, 36.07267627047713], [136.2330562324595, 36.07108821639508], [136.23267, 36.07002000000011], [136.2325645444556, 36.069663872843535], [136.2324485457316, 36.069479464615654], [136.23213326714824, 36.069018444045696], [136.2317347074296, 36.068554449149474], [136.2312677382073, 36.06814101779969], [136.23059216957017, 36.06769724832202], [136.2295214121175, 36.06693344133919], [136.22849586442373, 36.066188670044255], [136.22711722237545, 36.06524501090212], [136.225828488636, 36.0644100229423], [136.22481483824743, 36.063603385661224], [136.22425162623938, 36.0628888936904]]}, "properties": {"id": "TRACK_TOKYO_4601", "line_name": "北陸新幹線", "station_group_ids": [], "mode": "shinkansen", "operator_id": "jr_west", "line_color": "#2C62C9", "tags": ["tokyo", "track_centerline"]}}, {"type": "Feature", "bbox": [136.453158040351, 36.40375657082541, 136.6470833100002, 36.576652820000106], "geometry": {"type": "LineString", "coordinates": [[136.6470833100002, 36.576652820000106], [136.64655029358698, 36.575868673863454], [136.6460172943216, 36.57514531771761], [136.6456841697809, 36.57465038982838], [136.64535104523998, 36.5741840154713], [136.64500840285507, 36.57366053404991], [136.6446657604704, 36.573213195380845], [136.64404012085652, 36.57247651425337], [136.64328821117851, 36.5715342476949], [136.6426029264088, 36.570658606044674], [136.64211751636367, 36.570020910495145], [136.6416762056624, 36.569420651798566], [136.6411551037021, 36.568663983198746], [136.64082673808332, 36.56817143477042], [136.64046268054926, 36.5677074398742], [136.64009862301532, 36.56721489144604], [136.63971315033257, 36.5667294814009], [136.63932767764948, 36.566244071355584], [136.63896391754793, 36.56576535354441], [136.63859510109205, 36.565295409995656], [136.6382655457428, 36.564888522163585], [136.63797239614667, 36.56455159048511], [136.63768305368853, 36.56424511590768], [136.63738133803292, 36.56396148415564], [136.63716718654223, 36.5637616094312], [136.6369244815197, 36.56355459632357], [136.6364105179424, 36.563161985257636], [136.63588227759908, 36.562783650957726], [136.635581275782, 36.5625778275807], [136.63515654199216, 36.56229943064284], [136.63468540871327, 36.56197106502407], [136.63419999866778, 36.5616462685968], [136.63381809517637, 36.5613928559996], [136.63362535883482, 36.56126079591388], [136.63332911593955, 36.561053782806255], [136.63299361193788, 36.56082535454965], [136.63266167712743, 36.5605969262931], [136.63213304020724, 36.56024000714217], [136.6315548311827, 36.55984025769311], [136.63104800598865, 36.55950475369133], [136.63044124343185, 36.559090727476246], [136.628535295166, 36.55779154176679], [136.62675069941145, 36.5565423247387], [136.6252302238288, 36.55545729051994], [136.62258099143094, 36.553692622751385], [136.6219885056404, 36.553349980366534], [136.62104623908192, 36.55280746325707], [136.6202752937162, 36.552421990574146], [136.61966139277638, 36.552122178487366], [136.61837648383334, 36.55152969269676], [136.61602795582007, 36.550416104946066], [136.6130577936192, 36.54897462746857], [136.61158014833438, 36.548246512400624], [136.6103880383704, 36.547654026610246], [136.6092030667894, 36.54707581758578], [136.60444176531632, 36.5447415663387], [136.59069086016223, 36.53792560028688], [136.57767235310564, 36.5314832889282], [136.57376051921153, 36.52951309521512], [136.57215200357143, 36.52883732828951], [136.57121925485706, 36.5283995074642], [136.5702293990787, 36.52801879370327], [136.5688302760069, 36.52747627659397], [136.56708851055078, 36.526819545356204], [136.56448062128788, 36.5258487252658], [136.56362639478675, 36.52552115280065], [136.56236290099253, 36.525050019521416], [136.55982163663805, 36.52406492266505], [136.55825833075698, 36.52338677627819], [136.55663077942882, 36.522594415763194], [136.55607398555344, 36.522308880442495], [136.55540297754976, 36.521916269376504], [136.55472483116296, 36.52148796639534], [136.5542394211178, 36.52117387754265], [136.55334712324043, 36.52057306363855], [136.5483026659075, 36.51711808625777], [136.54448601045397, 36.51451019699516], [136.52637402916787, 36.502057525765906], [136.52347584566257, 36.50001594822277], [136.52216238318704, 36.49901657460015], [136.52072867861568, 36.49782771656612], [136.51956274272254, 36.49675695911344], [136.51852767718492, 36.49576948279582], [136.51727846015683, 36.49444888193767], [136.51591027007828, 36.492926026893656], [136.5126608781286, 36.48928259620118], [136.51009106024196, 36.48637013592986], [136.50774967061204, 36.483762246667254], [136.50588417318318, 36.48166832098178], [136.5029526772239, 36.47835611126146], [136.5022162340423, 36.477577408852596], [136.49906106874812, 36.47402249410953], [136.49746207095222, 36.47206657716259], [136.49676250941627, 36.471124310604125], [136.49614860847691, 36.47021059757782], [136.4951206813223, 36.46862587654766], [136.49264152090007, 36.46418004401477], [136.49165166512148, 36.46237165365022], [136.48994797104126, 36.459335461406454], [136.4890961240012, 36.45780784744068], [136.48548410219405, 36.451326195660215], [136.48394221146214, 36.448913422200064], [136.48314271256413, 36.44775700415107], [136.4822289995376, 36.44664341640021], [136.48115367351954, 36.44537221315227], [136.48005436253493, 36.44420151833742], [136.47871234652746, 36.44288805586211], [136.47731322345578, 36.44164597721681], [136.4760711448107, 36.440603773296345], [136.474186611694, 36.439204650224724], [136.47270182802606, 36.4380910624738], [136.47019635076515, 36.43625164393774], [136.46762653287885, 36.43436711082097], [136.466113195679, 36.433167862473965], [136.464952018708, 36.432168488851346], [136.4639621629293, 36.43127381151311], [136.46219136804882, 36.429505158147265], [136.46099211970147, 36.428134588607804], [136.4600688888312, 36.42701148301296], [136.45911710442897, 36.42569802053765], [136.4582224270905, 36.42438455806234], [136.45767990998127, 36.42348115603363], [136.45689468784917, 36.42208917134519], [136.4562641306827, 36.420875646232105], [136.4556692654312, 36.419543148068726], [136.45506250287474, 36.41803219032988], [136.45450332953817, 36.4162951837954], [136.45394415620171, 36.414120653868565], [136.45373892768987, 36.41303442991921], [136.4535390529652, 36.41179235127413], [136.45340342368786, 36.4104931655649], [136.4532963479428, 36.409258225302665], [136.45318689273643, 36.4051322399182], [136.453158040351, 36.40375657082541]]}, "properties": {"id": "TRACK_TOKYO_4604", "line_name": "北陸新幹線", "station_group_ids": [], "mode": "shinkansen", "operator_id": "jr_west", "line_color": "#2C62C9", "tags": ["tokyo", "track_centerline"]}}, {"type": "Feature", "bbox": [136.35246981680473, 36.32073594453004, 136.4530357969627, 36.40092341954761], "geometry": {"type": "LineString", "coordinates": [[136.4530357969627, 36.40092341954761], [136.45249327985323, 36.39441321423516], [136.45227377457547, 36.39246086647967], [136.45204534631887, 36.391047466641965], [136.4518311948284, 36.38994815565735], [136.45154565950781, 36.38874890731029], [136.45111735652642, 36.38729267717457], [136.45046062528877, 36.385422420823886], [136.44980389405112, 36.38386625332589], [136.4492899304738, 36.38280977263912], [136.4477908700402, 36.3800657782071], [136.44462618690204, 36.37511649931463], [136.44048592475167, 36.36862057076809], [136.43938780349754, 36.366670602473675], [136.43816951946246, 36.36425307009159], [136.43729387781207, 36.362273358534594], [136.43647534322633, 36.36017943284929], [136.435618737264, 36.35799032872376], [136.43489538111817, 36.356239045423365], [136.43415298928414, 36.35462101193929], [136.4335634540255, 36.3533671311676], [136.43259263393486, 36.35169674954136], [136.4316503673765, 36.35024051940559], [136.43013703017664, 36.34818466509637], [136.4289663353618, 36.34679981879083], [136.42735306079965, 36.34507233010061], [136.42599676802627, 36.34377314439138], [136.42466902878505, 36.34260244957636], [136.4229900810991, 36.34128755942436], [136.4215052974314, 36.340202525205655], [136.42013472789176, 36.33930308894543], [136.41859283715996, 36.33831799208889], [136.4132247731303, 36.33496295207044], [136.4104755438841, 36.33325906763338], [136.4059188760574, 36.33048699556139], [136.4033728527811, 36.329130702787836], [136.4012670297908, 36.32814322647039], [136.39807855204265, 36.32687021483224], [136.39551539664717, 36.32604977667734], [136.39253631146767, 36.325259795623424], [136.3898808329849, 36.32470776067004], [136.38710162252994, 36.324288975532966], [136.3852932321655, 36.32408910080835], [136.38249439115714, 36.323881889412576], [136.37838982092183, 36.3238343001924], [136.37505857551355, 36.3238461974974], [136.36843177661171, 36.323858094802404], [136.36562728438366, 36.3236983734825], [136.36356429169143, 36.32343425331072], [136.36215803023674, 36.323198686671105], [136.36079459908035, 36.3229345664995], [136.35879585183523, 36.322463433220264], [136.35709073007843, 36.32200181778512], [136.3541283011259, 36.32118804212104], [136.35246981680473, 36.32073594453004]]}, "properties": {"id": "TRACK_TOKYO_4605", "line_name": "北陸新幹線", "station_group_ids": [], "mode": "shinkansen", "operator_id": "jr_west", "line_color": "#2C62C9", "tags": ["tokyo", "track_centerline"]}}, {"type": "Feature", "bbox": [136.34915676799676, 36.31984633250261, 136.35246981680473, 36.32073594453004], "geometry": {"type": "LineString", "coordinates": [[136.35246981680473, 36.32073594453004], [136.34915676799676, 36.31984633250261]]}, "properties": {"id": "TRACK_TOKYO_4606", "line_name": "北陸新幹線", "station_group_ids": [], "mode": "shinkansen", "operator_id": "jr_west", "line_color": "#2C62C9", "tags": ["tokyo", "track_centerline"]}}, {"type": "Feature", "bbox": [136.23533644051372, 36.214027735805075, 136.23538993111538, 36.21682893541259], "geometry": {"type": "LineString", "coordinates": [[136.23538993111538, 36.21682893541259], [136.23533644051372, 36.214027735805075]]}, "properties": {"id": "TRACK_TOKYO_4607", "line_name": "北陸新幹線", "station_group_ids": [], "mode": "shinkansen", "operator_id": "jr_west", "line_color": "#2C62C9", "tags": ["tokyo", "track_centerline"]}}, {"type": "Feature", "bbox": [136.4530357969627, 36.40092341954761, 136.453158040351, 36.40375657082541], "geometry": {"type": "LineString", "coordinates": [[136.453158040351, 36.40375657082541], [136.4530357969627, 36.40092341954761]]}, "properties": {"id": "TRACK_TOKYO_4610", "line_name": "北陸新幹線", "station_group_ids": [], "mode": "shinkansen", "operator_id": "jr_west", "line_color": "#2C62C9", "tags": ["tokyo", "track_centerline"]}}]}