{"type": "FeatureCollection", "features": [{"type": "Feature", "bbox": [137.98197, 36.09426, 137.98197, 36.09426], "geometry": {"type": "Point", "coordinates": [137.98197, 36.09426]}, "properties": {"id": "PS_01E3D12D495C", "station_group_id": "SG_5FA8F683102D", "operator_id": "jr_east", "operator_ids": "jr_east", "name_en": "みどり湖", "name_ja": "みどり湖", "label_rank": 72, "tags": ["tokyo", "v3"]}}, {"type": "Feature", "bbox": [138.116265, 36.046760000000006, 138.116265, 36.046760000000006], "geometry": {"type": "Point", "coordinates": [138.116265, 36.046760000000006]}, "properties": {"id": "PS_93853BFEC2A2", "station_group_id": "SG_0F2D61D1B4C4", "operator_id": "jr_east", "operator_ids": "jr_east", "name_en": "上諏訪", "name_ja": "上諏訪", "label_rank": 72, "tags": ["tokyo", "v3"]}}, {"type": "Feature", "bbox": [138.084995, 36.071965000000006, 138.084995, 36.071965000000006], "geometry": {"type": "Point", "coordinates": [138.084995, 36.071965000000006]}, "properties": {"id": "PS_1030E3F1C7BA", "station_group_id": "SG_BAAE227CD91B", "operator_id": "jr_east", "operator_ids": "jr_east", "name_en": "下諏訪", "name_ja": "下諏訪", "label_rank": 72, "tags": ["tokyo", "v3"]}}, {"type": "Feature", "bbox": [137.971905, 36.013645, 137.971905, 36.013645], "geometry": {"type": "Point", "coordinates": [137.971905, 36.013645]}, "properties": {"id": "PS_C6167C32A229", "station_group_id": "SG_6FAF01E191A5", "operator_id": "jr_east", "operator_ids": "jr_east", "name_en": "信濃川島", "name_ja": "信濃川島", "label_rank": 72, "tags": ["tokyo", "v3"]}}, {"type": "Feature", "bbox": [137.947875, 36.114805000000004, 137.947875, 36.114805000000004], "geometry": {"type": "Point", "coordinates": [137.947875, 36.114805000000004]}, "properties": {"id": "PS_27B4BBE0E2BD", "station_group_id": "SG_6AE58CDF78F3", "operator_id": "jr_east", "operator_ids": "jr_east", "name_en": "塩尻", "name_ja": "塩尻", "label_rank": 72, "tags": ["tokyo", "v3"]}}, {"type": "Feature", "bbox": [137.970795, 36.046875, 137.970795, 36.046875], "geometry": {"type": "Point", "coordinates": [137.970795, 36.046875]}, "properties": {"id": "PS_54908184938B", "station_group_id": "SG_932BAE28CD3F", "operator_id": "jr_east", "operator_ids": "jr_east", "name_en": "小野", "name_ja": "小野", "label_rank": 72, "tags": ["tokyo", "v3"]}}, {"type": "Feature", "bbox": [138.045115, 36.05676, 138.045115, 36.05676], "geometry": {"type": "Point", "coordinates": [138.045115, 36.05676]}, "properties": {"id": "PS_94DFF41291CD", "station_group_id": "SG_609954BE132E", "operator_id": "jr_east", "operator_ids": "jr_east", "name_en": "岡谷", "name_ja": "岡谷", "label_rank": 72, "tags": ["tokyo", "v3"]}}, {"type": "Feature", "bbox": [138.02199000000002, 36.03304, 138.02199000000002, 36.03304], "geometry": {"type": "Point", "coordinates": [138.02199000000002, 36.03304]}, "properties": {"id": "PS_766E1A5B1DE6", "station_group_id": "SG_2274B9AFC27D", "operator_id": "jr_east", "operator_ids": "jr_east", "name_en": "川岸", "name_ja": "川岸", "label_rank": 72, "tags": ["tokyo", "v3"]}}, {"type": "Feature", "bbox": [137.99731500000001, 35.984584999999996, 137.99731500000001, 35.984584999999996], "geometry": {"type": "Point", "coordinates": [137.99731500000001, 35.984584999999996]}, "properties": {"id": "PS_EA7329B20CAF", "station_group_id": "SG_F000601D58A7", "operator_id": "jr_east", "operator_ids": "jr_east", "name_en": "辰野", "name_ja": "辰野", "label_rank": 72, "tags": ["tokyo", "v3"]}}]}