{"type": "FeatureCollection", "features": [{"type": "Feature", "bbox": [137.8856316207142, 34.71865916919583, 137.8856316207142, 34.71865916919583], "geometry": {"type": "Point", "coordinates": [137.8856316207142, 34.71865916919583]}, "properties": {"id": "PS_BBAA05231ADB", "station_group_id": "SG_285CF451F3C3", "operator_id": "jr_central", "operator_ids": "jr_central", "name_en": "御厨", "name_ja": "御厨", "label_rank": 72, "tags": ["tokyo", "v3"]}}, {"type": "Feature", "bbox": [137.96184499999998, 34.752455, 137.96184499999998, 34.752455], "geometry": {"type": "Point", "coordinates": [137.96184499999998, 34.752455]}, "properties": {"id": "PS_7666C2E33039", "station_group_id": "SG_7DEBB5FF5634", "operator_id": "jr_central", "operator_ids": "jr_central", "name_en": "愛野", "name_ja": "愛野", "label_rank": 72, "tags": ["tokyo", "v3"]}}, {"type": "Feature", "bbox": [138.01514, 34.769149999999996, 138.01514, 34.769149999999996], "geometry": {"type": "Point", "coordinates": [138.01514, 34.769149999999996]}, "properties": {"id": "PS_EE83212E0D35", "station_group_id": "SG_730E2B5D2F29", "operator_id": "jr_central", "operator_ids": "jr_central", "name_en": "掛川", "name_ja": "掛川", "label_rank": 72, "tags": ["tokyo", "v3"]}}, {"type": "Feature", "bbox": [138.014565, 34.769405, 138.014565, 34.769405], "geometry": {"type": "Point", "coordinates": [138.014565, 34.769405]}, "properties": {"id": "PS_A4B8A5855619", "station_group_id": "SG_730E2B5D2F29", "operator_id": "jr_central", "operator_ids": "jr_central", "name_en": "掛川", "name_ja": "掛川", "label_rank": 72, "tags": ["tokyo", "v3"]}}, {"type": "Feature", "bbox": [137.85227, 34.710215, 137.85227, 34.710215], "geometry": {"type": "Point", "coordinates": [137.85227, 34.710215]}, "properties": {"id": "PS_4A0658221B9E", "station_group_id": "SG_FD02BFDC35B4", "operator_id": "jr_central", "operator_ids": "jr_central", "name_en": "磐田", "name_ja": "磐田", "label_rank": 72, "tags": ["tokyo", "v3"]}}, {"type": "Feature", "bbox": [138.08567, 34.761775, 138.08567, 34.761775], "geometry": {"type": "Point", "coordinates": [138.08567, 34.761775]}, "properties": {"id": "PS_72BCFF94F12E", "station_group_id": "SG_1D678B18EEC3", "operator_id": "jr_central", "operator_ids": "jr_central", "name_en": "菊川", "name_ja": "菊川", "label_rank": 72, "tags": ["tokyo", "v3"]}}, {"type": "Feature", "bbox": [137.925995, 34.741434999999996, 137.925995, 34.741434999999996], "geometry": {"type": "Point", "coordinates": [137.925995, 34.741434999999996]}, "properties": {"id": "PS_1EF742EE6D76", "station_group_id": "SG_D8F170F955F1", "operator_id": "jr_central", "operator_ids": "jr_central", "name_en": "袋井", "name_ja": "袋井", "label_rank": 72, "tags": ["tokyo", "v3"]}}]}