<?xml version="1.0" encoding="UTF-8"?>
<kml xmlns="http://www.opengis.net/kml/2.2">
  <Document>
    <name>大館能代空港リムジンバス </name>
    <description><![CDATA[鷹巣・大館市街地　－＞　大館能代空港<br>大館能代空港　　　－＞　鷹巣・大館市街地]]></description>
    <Style id="icon-503-DB4436-labelson">
      <IconStyle>
        <color>ff3644db</color>
        <scale>1.1</scale>
        <Icon>
          <href>https://www.gstatic.com/mapspro/images/stock/503-wht-blank_maps.png</href>
        </Icon>
        <hotSpot x="16" xunits="pixels" y="32" yunits="insetPixels"/>
      </IconStyle>
    </Style>
    <Style id="line-3333FF-7000-normal">
      <LineStyle>
        <color>ffff3333</color>
        <width>7</width>
      </LineStyle>
    </Style>
    <Style id="line-3333FF-7000-highlight">
      <LineStyle>
        <color>ffff3333</color>
        <width>10.5</width>
      </LineStyle>
    </Style>
    <StyleMap id="line-3333FF-7000">
      <Pair>
        <key>normal</key>
        <styleUrl>#line-3333FF-7000-normal</styleUrl>
      </Pair>
      <Pair>
        <key>highlight</key>
        <styleUrl>#line-3333FF-7000-highlight</styleUrl>
      </Pair>
    </StyleMap>
    <Style id="line-FF0000-7000-normal">
      <LineStyle>
        <color>ff0000ff</color>
        <width>7</width>
      </LineStyle>
    </Style>
    <Style id="line-FF0000-7000-highlight">
      <LineStyle>
        <color>ff0000ff</color>
        <width>10.5</width>
      </LineStyle>
    </Style>
    <StyleMap id="line-FF0000-7000">
      <Pair>
        <key>normal</key>
        <styleUrl>#line-FF0000-7000-normal</styleUrl>
      </Pair>
      <Pair>
        <key>highlight</key>
        <styleUrl>#line-FF0000-7000-highlight</styleUrl>
      </Pair>
    </StyleMap>
    <Folder>
      <name>【往路　青】大館能代空港行き</name>
      <Placemark>
        <name>始発:大館市役所</name>
        <description><![CDATA[大館能代空港リムジンバス 往路<br>乗車停留所]]></description>
        <styleUrl>#icon-503-DB4436-labelson</styleUrl>
        <Point>
          <coordinates>
            140.5644102,40.2712905,0
          </coordinates>
        </Point>
      </Placemark>
      <Placemark>
        <name>往1.大館鳳鳴高校前</name>
        <description><![CDATA[大館能代空港リムジンバス 往路<br>乗車専用停留所]]></description>
        <styleUrl>#icon-503-DB4436-labelson</styleUrl>
        <Point>
          <coordinates>
            140.5724926,40.2718821,0
          </coordinates>
        </Point>
      </Placemark>
      <Placemark>
        <name>往2.城南小学校前</name>
        <description><![CDATA[所在地：棚谷文房具店前<br><br>大館能代空港リムジンバス 往路<br>乗車専用停留所]]></description>
        <styleUrl>#icon-503-DB4436-labelson</styleUrl>
        <Point>
          <coordinates>
            140.5645806,40.2697591,0
          </coordinates>
        </Point>
      </Placemark>
      <Placemark>
        <name>往3.風呂屋町</name>
        <description><![CDATA[大館能代空港リムジンバス 往路<br>乗車専用停留所]]></description>
        <styleUrl>#icon-503-DB4436-labelson</styleUrl>
        <Point>
          <coordinates>
            140.5617263,40.270086,0
          </coordinates>
        </Point>
      </Placemark>
      <Placemark>
        <name>往4.長倉町</name>
        <description><![CDATA[大館能代空港リムジンバス 往路<br>乗車専用停留所]]></description>
        <styleUrl>#icon-503-DB4436-labelson</styleUrl>
        <Point>
          <coordinates>
            140.5604323,40.2717153,0
          </coordinates>
        </Point>
      </Placemark>
      <Placemark>
        <name>往5.末広町</name>
        <description><![CDATA[大館能代空港リムジンバス 往路<br>乗車専用停留所]]></description>
        <styleUrl>#icon-503-DB4436-labelson</styleUrl>
        <Point>
          <coordinates>
            140.5570987,40.2720262,0
          </coordinates>
        </Point>
      </Placemark>
      <Placemark>
        <name>往6.看護福祉大前</name>
        <description><![CDATA[大館能代空港リムジンバス 往路<br>乗車専用停留所]]></description>
        <styleUrl>#icon-503-DB4436-labelson</styleUrl>
        <Point>
          <coordinates>
            140.5543995,40.280228,0
          </coordinates>
        </Point>
      </Placemark>
      <Placemark>
        <name>往7.大館駅前</name>
        <description><![CDATA[2番乗り場<br><br>大館能代空港リムジンバス 往路<br>乗車専用停留所]]></description>
        <styleUrl>#icon-503-DB4436-labelson</styleUrl>
        <Point>
          <coordinates>
            140.5568643,40.2876295,0
          </coordinates>
        </Point>
      </Placemark>
      <Placemark>
        <name>往8.中道１丁目</name>
        <description><![CDATA[大館能代空港リムジンバス 往路<br>乗車専用停留所]]></description>
        <styleUrl>#icon-503-DB4436-labelson</styleUrl>
        <Point>
          <coordinates>
            140.5561986,40.2836968,0
          </coordinates>
        </Point>
      </Placemark>
      <Placemark>
        <name>往9.清水４丁目</name>
        <description><![CDATA[大館能代空港リムジンバス 往路<br>乗車専用停留所]]></description>
        <styleUrl>#icon-503-DB4436-labelson</styleUrl>
        <Point>
          <coordinates>
            140.5493485,40.2838354,0
          </coordinates>
        </Point>
      </Placemark>
      <Placemark>
        <name>往10.大館桂桜高校前</name>
        <description><![CDATA[大館能代空港リムジンバス 往路<br>乗車専用停留所]]></description>
        <styleUrl>#icon-503-DB4436-labelson</styleUrl>
        <Point>
          <coordinates>
            140.5299663,40.2746695,0
          </coordinates>
        </Point>
      </Placemark>
      <Placemark>
        <name>往11.餅田</name>
        <description><![CDATA[大館能代空港リムジンバス 往路<br>乗車専用停留所]]></description>
        <styleUrl>#icon-503-DB4436-labelson</styleUrl>
        <Point>
          <coordinates>
            140.5236353,40.2753146,0
          </coordinates>
        </Point>
      </Placemark>
      <Placemark>
        <name>往12.中立花</name>
        <description><![CDATA[大館能代空港リムジンバス 往路<br>乗車専用停留所]]></description>
        <styleUrl>#icon-503-DB4436-labelson</styleUrl>
        <Point>
          <coordinates>
            140.5028263,40.2756886,0
          </coordinates>
        </Point>
      </Placemark>
      <Placemark>
        <name>往13.山瀬小学校前</name>
        <description><![CDATA[大館能代空港リムジンバス 往路<br>乗車専用停留所]]></description>
        <styleUrl>#icon-503-DB4436-labelson</styleUrl>
        <Point>
          <coordinates>
            140.4593701,40.2795823,0
          </coordinates>
        </Point>
      </Placemark>
      <Placemark>
        <name>往14.谷地の平団地前</name>
        <description><![CDATA[大館能代空港リムジンバス 往路<br>乗車専用停留所]]></description>
        <styleUrl>#icon-503-DB4436-labelson</styleUrl>
        <Point>
          <coordinates>
            140.451465,40.2789351,0
          </coordinates>
        </Point>
      </Placemark>
      <Placemark>
        <name>往15.早口</name>
        <description><![CDATA[大館能代空港リムジンバス 往路<br>乗車専用停留所]]></description>
        <styleUrl>#icon-503-DB4436-labelson</styleUrl>
        <Point>
          <coordinates>
            140.4427254,40.2731202,0
          </coordinates>
        </Point>
      </Placemark>
      <Placemark>
        <name>往16.糠沢</name>
        <description><![CDATA[大館能代空港リムジンバス 往路<br>乗車専用停留所]]></description>
        <styleUrl>#icon-503-DB4436-labelson</styleUrl>
        <Point>
          <coordinates>
            140.3991943,40.2572561,0
          </coordinates>
        </Point>
      </Placemark>
      <Placemark>
        <name>往17.いとく鷹巣ショッピングセンター</name>
        <description><![CDATA[大館能代空港リムジンバス 往路<br>乗車専用停留所]]></description>
        <styleUrl>#icon-503-DB4436-labelson</styleUrl>
        <Point>
          <coordinates>
            140.3810407,40.2323226,0
          </coordinates>
        </Point>
      </Placemark>
      <Placemark>
        <name>往18.鷹巣駅前</name>
        <description><![CDATA[大館能代空港リムジンバス 往路<br>乗車専用停留所]]></description>
        <styleUrl>#icon-503-DB4436-labelson</styleUrl>
        <Point>
          <coordinates>
            140.3699477,40.2316477,0
          </coordinates>
        </Point>
      </Placemark>
      <Placemark>
        <name>往19.北秋田地域振興局前</name>
        <description><![CDATA[大館能代空港リムジンバス 往路<br>乗車専用停留所]]></description>
        <styleUrl>#icon-503-DB4436-labelson</styleUrl>
        <Point>
          <coordinates>
            140.360269,40.2264071,0
          </coordinates>
        </Point>
      </Placemark>
      <Placemark>
        <name>終点.大館能代空港</name>
        <description>大館能代空港リムジンバス 往路終点</description>
        <styleUrl>#icon-503-DB4436-labelson</styleUrl>
        <Point>
          <coordinates>
            140.3718542,40.1958398,0
          </coordinates>
        </Point>
      </Placemark>
      <Placemark>
        <name>リムジンバス往路ルート</name>
        <description>大館鳳鳴高校前→大館能代空港</description>
        <styleUrl>#line-3333FF-7000</styleUrl>
        <LineString>
          <tessellate>1</tessellate>
          <coordinates>
            140.5643628,40.2712423,0
            140.5643244,40.2710449,0
            140.5652358,40.2709573,0
            140.566394,40.270841,0
            140.5666731,40.2709106,0
            140.5675296,40.2711826,0
            140.5682359,40.2715058,0
            140.5720894,40.2725614,0
            140.5724863,40.2715596,0
            140.5720632,40.2714563,0
            140.5713719,40.2713084,0
            140.5707523,40.2711785,0
            140.5701662,40.2710567,0
            140.5692275,40.2708613,0
            140.5680024,40.2706055,0
            140.5666432,40.2703026,0
            140.5648434,40.2699219,0
            140.5635211,40.2695269,0
            140.5614866,40.2689426,0
            140.5614424,40.2691514,0
            140.5614746,40.2694011,0
            140.5617267,40.2700416,0
            140.5619761,40.2705471,0
            140.5623047,40.2711826,0
            140.5622216,40.2712307,0
            140.562019,40.2712522,0
            140.5607437,40.2716625,0
            140.5592845,40.2721199,0
            140.5589144,40.2721751,0
            140.558736,40.2721894,0
            140.5570744,40.2720667,0
            140.5549984,40.2719439,0
            140.5542849,40.2719162,0
            140.5541414,40.2720012,0
            140.5541065,40.2722764,0
            140.5541427,40.2734705,0
            140.5541602,40.2745132,0
            140.5542192,40.2756274,0
            140.5543292,40.277067,0
            140.5543801,40.2780493,0
            140.554423,40.2786693,0
            140.5544525,40.2795451,0
            140.5544659,40.280206,0
            140.5544968,40.2811688,0
            140.5544995,40.2816169,0
            140.5545263,40.2826625,0
            140.5545571,40.2837654,0
            140.554588,40.2848478,0
            140.5546068,40.285568,0
            140.5547449,40.285923,0
            140.5549313,40.2862238,0
            140.5557252,40.2869491,0
            140.5562684,40.2874227,0
            140.5566104,40.2875557,0
            140.5565366,40.2878012,0
            140.5567338,40.2878442,0
            140.5568182,40.287612,0
            140.5568585,40.2875209,0
            140.5566871,40.2874724,0
            140.556893,40.2870775,0
            140.5575451,40.2868672,0
            140.557926,40.2867476,0
            140.5582814,40.286632,0
            140.5596319,40.2862473,0
            140.5598002,40.2861967,0
            140.5598344,40.286146,0
            140.5597968,40.2852314,0
            140.5597271,40.2844744,0
            140.55966,40.2836099,0
            140.5594964,40.2835321,0
            140.5584906,40.2835976,0
            140.5570798,40.2836968,0
            140.5564964,40.2837142,0
            140.555567,40.2837429,0
            140.5537418,40.283795,0
            140.551938,40.2838227,0
            140.5501342,40.2838482,0
            140.5493684,40.2838718,0
            140.5474573,40.283883,0
            140.5453183,40.2838994,0
            140.5438243,40.283928,0
            140.5423437,40.2839598,0
            140.5416021,40.2838063,0
            140.5411957,40.2836927,0
            140.5407357,40.2832375,0
            140.5403857,40.2825909,0
            140.5400719,40.282018,0
            140.5397232,40.281353,0
            140.5394952,40.2810245,0
            140.5391492,40.2806317,0
            140.538708,40.2802828,0
            140.5382453,40.2797548,0
            140.5375278,40.2789384,0
            140.5369538,40.2782744,0
            140.5360472,40.2773147,0
            140.5349301,40.276224,0
            140.5344728,40.2758433,0
            140.5342193,40.2756315,0
            140.53399,40.2753726,0
            140.5335997,40.2748478,0
            140.5330954,40.2742461,0
            140.5328916,40.2741898,0
            140.5316712,40.2744405,0
            140.5305272,40.2746452,0
            140.5299881,40.2747199,0
            140.5294275,40.274856,0
            140.5283895,40.2750381,0
            140.5275406,40.2751701,0
            140.5259769,40.2752591,0
            140.525195,40.2752929,0
            140.5236568,40.2753512,0
            140.5222352,40.2754023,0
            140.5203979,40.2753747,0
            140.5184425,40.2752959,0
            140.5179892,40.2752693,0
            140.5170049,40.2752898,0
            140.5162793,40.275563,0
            140.5152521,40.2760347,0
            140.5146164,40.2763212,0
            140.5142368,40.2764276,0
            140.513923,40.2764368,0
            140.5125685,40.2762291,0
            140.5116753,40.2760991,0
            140.5099815,40.2758341,0
            140.5090387,40.2756571,0
            140.5077969,40.2754699,0
            140.5069224,40.2753328,0
            140.5066583,40.2753266,0
            140.5052944,40.275343,0
            140.5033135,40.2756469,0
            140.5028321,40.2757308,0
            140.5025773,40.2758034,0
            140.501267,40.2760019,0
            140.5003336,40.2760664,0
            140.4996094,40.2760695,0
            140.4986854,40.2759794,0
            140.498275,40.2759221,0
            140.4973322,40.275742,0
            140.4968508,40.2755957,0
            140.4950081,40.2748948,0
            140.494481,40.2747137,0
            140.4938762,40.2746042,0
            140.4932566,40.2745439,0
            140.4928221,40.2745562,0
            140.4923768,40.2746247,0
            140.4919142,40.2747291,0
            140.4911953,40.274992,0
            140.4907313,40.2751895,0
            140.4899655,40.2754842,0
            140.4895672,40.2755814,0
            140.4891019,40.2756766,0
            140.4882328,40.2758474,0
            140.4876669,40.2760285,0
            140.4873249,40.2761595,0
            140.4866517,40.2764081,0
            140.4863472,40.2765217,0
            140.4857746,40.2766578,0
            140.4850799,40.2767857,0
            140.4844992,40.2768655,0
            140.4838823,40.2768859,0
            140.4833405,40.2768931,0
            140.4827879,40.2768696,0
            140.4818639,40.2768348,0
            140.4807481,40.2767478,0
            140.4794472,40.2766885,0
            140.4786855,40.2766905,0
            140.4773243,40.2767366,0
            140.4766645,40.2767724,0
            140.4756546,40.2768737,0
            140.4749183,40.2769565,0
            140.4744221,40.2770312,0
            140.4733251,40.2772563,0
            140.4724118,40.2774712,0
            140.4715294,40.2776963,0
            140.4706161,40.2779674,0
            140.4699053,40.2781526,0
            140.4688069,40.2784637,0
            140.4671212,40.2788657,0
            140.4667443,40.2789343,0
            140.466181,40.2790376,0
            140.4652905,40.2791788,0
            140.464734,40.2792515,0
            140.4635498,40.2793722,0
            140.4620236,40.2794858,0
            140.4609977,40.2795676,0
            140.4601823,40.2796075,0
            140.4593548,40.2796321,0
            140.4580486,40.2796454,0
            140.4565398,40.2795881,0
            140.4545389,40.2794786,0
            140.4535438,40.2793538,0
            140.4527002,40.2792003,0
            140.4520042,40.2790939,0
            140.4514678,40.2789752,0
            140.4503909,40.2787982,0
            140.4497632,40.2786499,0
            140.4481861,40.2782754,0
            140.4472004,40.2780063,0
            140.4466183,40.2777567,0
            140.4462281,40.2774231,0
            140.4459196,40.277019,0
            140.4457641,40.2766946,0
            140.4451767,40.2758617,0
            140.4445946,40.2750043,0
            140.4440528,40.2745326,0
            140.443377,40.273829,0
            140.442709,40.273138,0
            140.4419151,40.2723542,0
            140.4414685,40.2718814,0
            140.4409133,40.2713954,0
            140.4406692,40.2711345,0
            140.4396138,40.2707825,0
            140.4385851,40.2704243,0
            140.4381479,40.2702289,0
            140.4376464,40.2698493,0
            140.4371998,40.2692803,0
            140.436493,40.2682447,0
            140.4357715,40.2671692,0
            140.4351962,40.266367,0
            140.4346839,40.2657714,0
            140.4340267,40.2651635,0
            140.4334205,40.2647532,0
            140.43286,40.2644451,0
            140.4323383,40.2642118,0
            140.4316986,40.2640082,0
            140.4310092,40.2638567,0
            140.4304567,40.2637769,0
            140.4297982,40.2637288,0
            140.4288393,40.2637482,0
            140.4282506,40.2638158,0
            140.4269256,40.2641105,0
            140.4255348,40.2642793,0
            140.4245196,40.2644124,0
            140.4236037,40.264441,0
            140.4222277,40.2644052,0
            140.4207806,40.2643735,0
            140.4193242,40.2643438,0
            140.417621,40.2642691,0
            140.4152982,40.2642251,0
            140.4135561,40.2641821,0
            140.4118556,40.264134,0
            140.4110643,40.2641003,0
            140.4102717,40.2638444,0
            140.4094081,40.2633071,0
            140.4087456,40.2629572,0
            140.4078792,40.2625529,0
            140.4070866,40.2622377,0
            140.4063047,40.2618816,0
            140.4058032,40.2616257,0
            140.4053164,40.2613167,0
            140.4047759,40.2608398,0
            140.4041603,40.2601039,0
            140.403876,40.2596689,0
            140.4035836,40.2592043,0
            140.4032484,40.2587417,0
            140.4028863,40.2583753,0
            140.4026315,40.2581737,0
            140.4021996,40.2579312,0
            140.4016659,40.2577295,0
            140.4007807,40.2575648,0
            140.4000498,40.2574645,0
            140.3995831,40.2573693,0
            140.399166,40.2572772,0
            140.3987154,40.25714,0
            140.3980596,40.2568207,0
            140.397664,40.2565935,0
            140.3967561,40.2560981,0
            140.3959903,40.2557675,0
            140.3954579,40.2556079,0
            140.3949764,40.2555086,0
            140.3942415,40.2553981,0
            140.3933752,40.2552507,0
            140.3921588,40.2550521,0
            140.3915633,40.2549426,0
            140.3910363,40.2548392,0
            140.390233,40.2547031,0
            140.3891467,40.254569,0
            140.3879571,40.2544257,0
            140.3866737,40.2541207,0
            140.3858502,40.2537901,0
            140.3851528,40.2533951,0
            140.3845936,40.2530839,0
            140.38408,40.2527973,0
            140.3833839,40.252479,0
            140.3829454,40.2523326,0
            140.3824975,40.2521822,0
            140.3817478,40.2520399,0
            140.3813575,40.2519846,0
            140.381273,40.251914,0
            140.3813924,40.2514769,0
            140.3816231,40.2506612,0
            140.38167,40.2504339,0
            140.3818484,40.2498095,0
            140.3819489,40.2494861,0
            140.3822131,40.2486805,0
            140.3824773,40.2477511,0
            140.382649,40.2469128,0
            140.3827161,40.2462628,0
            140.3827134,40.2452657,0
            140.3825887,40.2444182,0
            140.3823164,40.2435306,0
            140.3819101,40.242595,0
            140.3815104,40.2417279,0
            140.3812113,40.2408639,0
            140.3809887,40.2400398,0
            140.3808881,40.2391052,0
            140.3808828,40.2379954,0
            140.3809538,40.2371242,0
            140.3810598,40.2361537,0
            140.3811724,40.23535,0
            140.3812502,40.2345299,0
            140.381439,40.232413,0
            140.3813321,40.2324004,0
            140.3802189,40.2322304,0
            140.3802404,40.231741,0
            140.3804375,40.2307868,0
            140.3791138,40.2305073,0
            140.3778318,40.2302881,0
            140.376083,40.229981,0
            140.3751053,40.2298059,0
            140.3733954,40.2295018,0
            140.3724016,40.2294015,0
            140.3714374,40.2293103,0
            140.3699702,40.2291864,0
            140.3699112,40.2302513,0
            140.3699018,40.2312147,0
            140.3698106,40.2316806,0
            140.3699005,40.2316898,0
            140.3699219,40.2315731,0
            140.3699608,40.2312096,0
            140.3699581,40.2309219,0
            140.3700587,40.2292202,0
            140.3700668,40.2283929,0
            140.3700735,40.2283217,0
            140.3700391,40.2282517,0
            140.3699648,40.2281943,0
            140.3695706,40.2276066,0
            140.3686506,40.2263492,0
            140.3684386,40.2263523,0
            140.367234,40.226609,0
            140.366135,40.226601,0
            140.3660302,40.2267117,0
            140.3659617,40.2269308,0
            140.3638139,40.2267619,0
            140.3626863,40.226702,0
            140.3603035,40.2264782,0
            140.359759,40.2263943,0
            140.359649,40.226257,0
            140.3600299,40.2250979,0
            140.3611887,40.2216615,0
            140.3615587,40.2205392,0
            140.3622615,40.2185689,0
            140.36327,40.2154434,0
            140.3639566,40.2130142,0
            140.3638601,40.2116419,0
            140.3633398,40.2099049,0
            140.3627336,40.2084423,0
            140.3625083,40.2070822,0
            140.3625029,40.2061317,0
            140.3628248,40.2043085,0
            140.3633076,40.2026082,0
            140.3635758,40.2013463,0
            140.3635436,40.1992443,0
            140.3636348,40.1991543,0
            140.3659683,40.1988756,0
            140.3691065,40.1984372,0
            140.3709894,40.1981955,0
            140.3740257,40.1978021,0
            140.3742403,40.1977038,0
            140.3740793,40.1970359,0
            140.3739345,40.196413,0
            140.3740686,40.1962778,0
            140.3742885,40.1962245,0
            140.3742778,40.1960606,0
            140.3741759,40.1956181,0
            140.3738701,40.1956468,0
            140.373618,40.1956919,0
            140.3733283,40.1957042,0
            140.3724485,40.195823,0
            140.3719067,40.1959049,0
          </coordinates>
        </LineString>
      </Placemark>
    </Folder>
    <Folder>
      <name>【復路　赤】鷹巣・大館行き</name>
      <Placemark>
        <name>始発.大館能代空港</name>
        <description><![CDATA[大館能代空港リムジンバス 復路<br>乗車専用停留所]]></description>
        <styleUrl>#icon-503-DB4436-labelson</styleUrl>
        <Point>
          <coordinates>
            140.3718365,40.1958411,0
          </coordinates>
        </Point>
      </Placemark>
      <Placemark>
        <name>1.北秋田振興局前</name>
        <description><![CDATA[大館能代空港リムジンバス 復路<br>降車専用停留所]]></description>
        <styleUrl>#icon-503-DB4436-labelson</styleUrl>
        <Point>
          <coordinates>
            140.3605915,40.226608,0
          </coordinates>
        </Point>
      </Placemark>
      <Placemark>
        <name>2.鷹巣駅前</name>
        <description><![CDATA[大館能代空港リムジンバス 復路<br>降車専用停留所]]></description>
        <styleUrl>#icon-503-DB4436-labelson</styleUrl>
        <Point>
          <coordinates>
            140.36978,40.2315006,0
          </coordinates>
        </Point>
      </Placemark>
      <Placemark>
        <name>3.いとく鷹巣ショッピングセンター前</name>
        <description><![CDATA[大館能代空港リムジンバス 復路<br>降車専用停留所]]></description>
        <styleUrl>#icon-503-DB4436-labelson</styleUrl>
        <Point>
          <coordinates>
            140.3802011,40.2322482,0
          </coordinates>
        </Point>
      </Placemark>
      <Placemark>
        <name>4.糠沢</name>
        <description><![CDATA[大館能代空港リムジンバス 復路<br>降車専用停留所]]></description>
        <styleUrl>#icon-503-DB4436-labelson</styleUrl>
        <Point>
          <coordinates>
            140.3990885,40.2573579,0
          </coordinates>
        </Point>
      </Placemark>
      <Placemark>
        <name>5.早口</name>
        <description><![CDATA[大館能代空港リムジンバス 復路<br>降車専用停留所]]></description>
        <styleUrl>#icon-503-DB4436-labelson</styleUrl>
        <Point>
          <coordinates>
            140.4416715,40.2722246,0
          </coordinates>
        </Point>
      </Placemark>
      <Placemark>
        <name>6.谷地の平団地前</name>
        <description><![CDATA[大館能代空港リムジンバス 復路<br>降車専用停留所]]></description>
        <styleUrl>#icon-503-DB4436-labelson</styleUrl>
        <Point>
          <coordinates>
            140.4514798,40.2790439,0
          </coordinates>
        </Point>
      </Placemark>
      <Placemark>
        <name>7.山瀬小学校前</name>
        <description><![CDATA[大館能代空港リムジンバス 復路<br>降車専用停留所]]></description>
        <styleUrl>#icon-503-DB4436-labelson</styleUrl>
        <Point>
          <coordinates>
            140.4610022,40.2796159,0
          </coordinates>
        </Point>
      </Placemark>
      <Placemark>
        <name>8.中立花</name>
        <description><![CDATA[大館能代空港リムジンバス 復路<br>降車専用停留所]]></description>
        <styleUrl>#icon-503-DB4436-labelson</styleUrl>
        <Point>
          <coordinates>
            140.5032686,40.2757375,0
          </coordinates>
        </Point>
      </Placemark>
      <Placemark>
        <name>9.餅田</name>
        <description><![CDATA[大館能代空港リムジンバス 復路<br>降車専用停留所]]></description>
        <styleUrl>#icon-503-DB4436-labelson</styleUrl>
        <Point>
          <coordinates>
            140.5237378,40.275451,0
          </coordinates>
        </Point>
      </Placemark>
      <Placemark>
        <name>10.大館桂桜高校前</name>
        <description><![CDATA[大館能代空港リムジンバス 復路<br>降車専用停留所]]></description>
        <styleUrl>#icon-503-DB4436-labelson</styleUrl>
        <Point>
          <coordinates>
            140.5298909,40.2748557,0
          </coordinates>
        </Point>
      </Placemark>
      <Placemark>
        <name>11.清水四丁目</name>
        <description><![CDATA[大館能代空港リムジンバス 復路<br>降車専用停留所]]></description>
        <styleUrl>#icon-503-DB4436-labelson</styleUrl>
        <Point>
          <coordinates>
            140.5500842,40.2839299,0
          </coordinates>
        </Point>
      </Placemark>
      <Placemark>
        <name>12.中道一丁目</name>
        <description><![CDATA[大館能代空港リムジンバス 復路<br>降車専用停留所]]></description>
        <styleUrl>#icon-503-DB4436-labelson</styleUrl>
        <Point>
          <coordinates>
            140.5566372,40.2837971,0
          </coordinates>
        </Point>
      </Placemark>
      <Placemark>
        <name>13.大館駅前（1番乗降場)</name>
        <description><![CDATA[大館能代空港リムジンバス 復路<br>降車専用停留所]]></description>
        <styleUrl>#icon-503-DB4436-labelson</styleUrl>
        <Point>
          <coordinates>
            140.5568557,40.2876476,0
          </coordinates>
        </Point>
      </Placemark>
      <Placemark>
        <name>14.看護福祉大前</name>
        <description><![CDATA[大館能代空港リムジンバス 復路<br>降車専用停留所]]></description>
        <styleUrl>#icon-503-DB4436-labelson</styleUrl>
        <Point>
          <coordinates>
            140.5546428,40.2802057,0
          </coordinates>
        </Point>
      </Placemark>
      <Placemark>
        <name>15.病院前</name>
        <description><![CDATA[大館能代空港リムジンバス 復路<br>降車専用停留所]]></description>
        <styleUrl>#icon-503-DB4436-labelson</styleUrl>
        <Point>
          <coordinates>
            140.5550109,40.2720158,0
          </coordinates>
        </Point>
      </Placemark>
      <Placemark>
        <name>16.末広町</name>
        <description><![CDATA[大館能代空港リムジンバス 復路<br>降車専用停留所]]></description>
        <styleUrl>#icon-503-DB4436-labelson</styleUrl>
        <Point>
          <coordinates>
            140.5577905,40.2721943,0
          </coordinates>
        </Point>
      </Placemark>
      <Placemark>
        <name>17.長倉町</name>
        <description><![CDATA[大館能代空港リムジンバス 復路<br>降車専用停留所]]></description>
        <styleUrl>#icon-503-DB4436-labelson</styleUrl>
        <Point>
          <coordinates>
            140.5614967,40.2714934,0
          </coordinates>
        </Point>
      </Placemark>
      <Placemark>
        <name>18.大館市役所前</name>
        <description><![CDATA[大館能代空港リムジンバス 復路<br>降車専用停留所]]></description>
        <styleUrl>#icon-503-DB4436-labelson</styleUrl>
        <Point>
          <coordinates>
            140.5651651,40.2709869,0
          </coordinates>
        </Point>
      </Placemark>
      <Placemark>
        <name>19.大館鳳鳴高校前</name>
        <description><![CDATA[大館能代空港リムジンバス 復路<br>降車停留所]]></description>
        <styleUrl>#icon-503-DB4436-labelson</styleUrl>
        <Point>
          <coordinates>
            140.5725169,40.2718138,0
          </coordinates>
        </Point>
      </Placemark>
      <Placemark>
        <name>終点:城南小学校前</name>
        <description><![CDATA[大館能代空港リムジンバス 復路<br>降車停留所]]></description>
        <styleUrl>#icon-503-DB4436-labelson</styleUrl>
        <Point>
          <coordinates>
            140.5643153,40.2697221,0
          </coordinates>
        </Point>
      </Placemark>
      <Placemark>
        <name>リムジンバス復路ルート</name>
        <description>大館能代空港→大館鳳鳴高校前</description>
        <styleUrl>#line-FF0000-7000</styleUrl>
        <LineString>
          <tessellate>1</tessellate>
          <coordinates>
            140.371702,40.195897,0
            140.370802,40.196052,0
            140.370721,40.196151,0
            140.370834,40.196647,0
            140.370941,40.196679,0
            140.373468,40.196331,0
            140.373698,40.196405,0
            140.373929,40.197323,0
            140.374133,40.198154,0
            140.371966,40.198429,0
            140.370405,40.198613,0
            140.369037,40.198753,0
            140.367572,40.198867,0
            140.366119,40.198966,0
            140.36467,40.199179,0
            140.363586,40.199343,0
            140.363656,40.200154,0
            140.363656,40.200551,0
            140.36349,40.201686,0
            140.363216,40.202764,0
            140.362916,40.203887,0
            140.362668,40.204927,0
            140.362481,40.206083,0
            140.362492,40.207275,0
            140.36268,40.208373,0
            140.363055,40.209417,0
            140.363522,40.210528,0
            140.363801,40.211605,0
            140.363892,40.212695,0
            140.363839,40.213608,0
            140.363426,40.21494,0
            140.363082,40.215996,0
            140.362701,40.217148,0
            140.362358,40.2182,0
            140.361536,40.220609,0
            140.361107,40.221842,0
            140.360474,40.223779,0
            140.360143,40.224758,0
            140.359649,40.226257,0
            140.359821,40.226445,0
            140.362417,40.226712,0
            140.363801,40.226789,0
            140.364912,40.226896,0
            140.366054,40.226966,0
            140.366135,40.226601,0
            140.367234,40.226609,0
            140.368565,40.226318,0
            140.369503,40.227605,0
            140.3699479,40.228236,0
            140.3700147,40.2282912,0
            140.3700628,40.228313,0
            140.369981,40.229218,0
            140.369858,40.231221,0
            140.369809,40.23188,0
            140.369917,40.231909,0
            140.370077,40.229226,0
            140.373039,40.22948,0
            140.373446,40.229595,0
            140.376225,40.230066,0
            140.377411,40.230263,0
            140.38049,40.230828,0
            140.380039,40.232196,0
            140.381101,40.232396,0
            140.381439,40.232413,0
            140.381273,40.23378,0
            140.380994,40.23616,0
            140.380731,40.238134,0
            140.38072,40.240279,0
            140.380978,40.241082,0
            140.381804,40.242642,0
            140.382276,40.243674,0
            140.382609,40.244743,0
            140.382705,40.245836,0
            140.382485,40.24713,0
            140.381547,40.250549,0
            140.381166,40.252002,0
            140.382727,40.252317,0
            140.384261,40.252981,0
            140.386332,40.25407,0
            140.387748,40.254413,0
            140.391369,40.254925,0
            140.394813,40.255535,0
            140.395837,40.255744,0
            140.397055,40.256309,0
            140.398713,40.257181,0
            140.399512,40.25741,0
            140.399957,40.25748,0
            140.401813,40.257787,0
            140.40272,40.258249,0
            140.403321,40.258864,0
            140.404109,40.260079,0
            140.404694,40.260796,0
            140.405343,40.261352,0
            140.406373,40.26195,0
            140.408272,40.262765,0
            140.409586,40.263436,0
            140.410225,40.26385,0
            140.411019,40.264099,0
            140.411716,40.264152,0
            140.413932,40.264197,0
            140.418143,40.264312,0
            140.421984,40.264435,0
            140.423636,40.26448,0
            140.424998,40.264394,0
            140.426715,40.264083,0
            140.427954,40.263878,0
            140.429633,40.263751,0
            140.431055,40.26389,0
            140.432321,40.264226,0
            140.433437,40.264791,0
            140.4337749,40.265018,0
            140.434161,40.265335,0
            140.43481,40.265933,0
            140.435942,40.267456,0
            140.437106,40.269195,0
            140.437803,40.270067,0
            140.438662,40.270477,0
            140.440652,40.271176,0
            140.441751,40.27222,0
            140.443377,40.273829,0
            140.444171,40.274709,0
            140.444997,40.275703,0
            140.446086,40.277291,0
            140.446596,40.277762,0
            140.446874,40.277934,0
            140.449079,40.278507,0
            140.450174,40.278777,0
            140.451627,40.279055,0
            140.453666,40.279387,0
            140.456053,40.279595,0
            140.457512,40.279665,0
            140.459288,40.279653,0
            140.460994,40.279595,0
            140.463343,40.279391,0
            140.465521,40.27917,0
            140.467055,40.27892,0
            140.469072,40.278412,0
            140.471368,40.27777,0
            140.474582,40.277021,0
            140.477436,40.276743,0
            140.479587,40.276702,0
            140.482886,40.276906,0
            140.484018,40.276931,0
            140.484983,40.276833,0
            140.486448,40.276518,0
            140.488476,40.275805,0
            140.489666,40.275584,0
            140.491319,40.274975,0
            140.492021,40.274721,0
            140.492697,40.274565,0
            140.494081,40.274639,0
            140.495272,40.275007,0
            140.49619,40.275355,0
            140.497348,40.27576,0
            140.498287,40.275953,0
            140.49965,40.276084,0
            140.500637,40.276084,0
            140.501667,40.275957,0
            140.503496,40.27567,0
            140.505052,40.275408,0
            140.506838,40.275384,0
            140.507954,40.275535,0
            140.50923,40.275732,0
            140.510674,40.275945,0
            140.514128,40.276493,0
            140.514482,40.276415,0
            140.515904,40.275744,0
            140.5168,40.275388,0
            140.517411,40.275286,0
            140.519493,40.275351,0
            140.520866,40.2754,0
            140.522094,40.275433,0
            140.523725,40.275392,0
            140.524991,40.275343,0
            140.526756,40.275273,0
            140.528242,40.275106,0
            140.529873,40.274807,0
            140.532968,40.274209,0
            140.534304,40.275744,0
            140.534872,40.276293,0
            140.535838,40.277168,0
            140.538,40.27953,0
            140.538644,40.280295,0
            140.539309,40.280884,0
            140.539926,40.281805,0
            140.540704,40.283229,0
            140.541181,40.283704,0
            140.541707,40.283892,0
            140.542415,40.284003,0
            140.544088,40.28397,0
            140.546218,40.283945,0
            140.547763,40.283937,0
            140.550102,40.283913,0
            140.553364,40.283835,0
            140.554554,40.283806,0
            140.554592,40.285541,0
            140.554731,40.285947,0
            140.555048,40.28638,0
            140.556577,40.287649,0
            140.55655,40.287808,0
            140.556727,40.287853,0
            140.5568475,40.2875218,0
            140.5566871,40.2874724,0
            140.556893,40.2870775,0
            140.5580545,40.2867036,0
            140.559779,40.286167,0
            140.559533,40.283594,0
            140.556625,40.283741,0
            140.554656,40.283782,0
            140.554624,40.28106,0
            140.554597,40.280131,0
            140.554517,40.278593,0
            140.554436,40.277046,0
            140.554292,40.274479,0
            140.554254,40.271946,0
            140.555086,40.272003,0
            140.557741,40.272151,0
            140.558921,40.27222,0
            140.559688,40.272065,0
            140.560466,40.271799,0
            140.561609,40.27141,0
            140.562301,40.271238,0
            140.563588,40.271136,0
            140.565042,40.270972,0
            140.566394,40.270841,0
            140.567397,40.271103,0
            140.56767,40.271226,0
            140.5681,40.271455,0
            140.569843,40.271946,0
            140.5720894,40.2725614,0
            140.5724056,40.271773,0
            140.5724594,40.2715588,0
            140.5691267,40.2708737,0
            140.5666263,40.2703305,0
            140.5652688,40.2700405,0
            140.5643404,40.2697873,0
          </coordinates>
        </LineString>
      </Placemark>
    </Folder>
  </Document>
</kml>
