{"type": "FeatureCollection", "features": [{"type": "Feature", "bbox": [141.14875, 39.68769, 141.14875, 39.68769], "geometry": {"type": "Point", "coordinates": [141.14875, 39.68769]}, "properties": {"id": "PS_E9711FAC5D5A", "station_group_id": "SG_A89DC012F456", "name_en": "仙北町", "name_ja": "仙北町", "label_rank": 72, "tags": ["tokyo", "v3"]}}, {"type": "Feature", "bbox": [141.12261999999998, 39.2822, 141.12261999999998, 39.2822], "geometry": {"type": "Point", "coordinates": [141.12261999999998, 39.2822]}, "properties": {"id": "PS_D9128A37D609", "station_group_id": "SG_82FBFA5C5623", "name_en": "北上", "name_ja": "北上", "label_rank": 72, "tags": ["tokyo", "v3"]}}, {"type": "Feature", "bbox": [141.12142, 39.28141, 141.12142, 39.28141], "geometry": {"type": "Point", "coordinates": [141.12142, 39.28141]}, "properties": {"id": "PS_1096FFCD3EB8", "station_group_id": "SG_82FBFA5C5623", "name_en": "北上", "name_ja": "北上", "label_rank": 72, "tags": ["tokyo", "v3"]}}, {"type": "Feature", "bbox": [141.154625, 39.58086, 141.154625, 39.58086], "geometry": {"type": "Point", "coordinates": [141.154625, 39.58086]}, "properties": {"id": "PS_DDFD82232FD8", "station_group_id": "SG_35588DFF1A42", "name_en": "古館", "name_ja": "古館", "label_rank": 72, "tags": ["tokyo", "v3"]}}, {"type": "Feature", "bbox": [141.14659, 39.65375, 141.14659, 39.65375], "geometry": {"type": "Point", "coordinates": [141.14659, 39.65375]}, "properties": {"id": "PS_B44AE8089B11", "station_group_id": "SG_5ED00ED4B4D1", "name_en": "岩手飯岡", "name_ja": "岩手飯岡", "label_rank": 72, "tags": ["tokyo", "v3"]}}, {"type": "Feature", "bbox": [141.17361499999998, 39.4065, 141.17361499999998, 39.4065], "geometry": {"type": "Point", "coordinates": [141.17361499999998, 39.4065]}, "properties": {"id": "PS_945B8A2A6E1B", "station_group_id": "SG_EB32FC73EBDC", "name_en": "新花巻", "name_ja": "新花巻", "label_rank": 72, "tags": ["tokyo", "v3"]}}, {"type": "Feature", "bbox": [141.16055, 39.538624999999996, 141.16055, 39.538624999999996], "geometry": {"type": "Point", "coordinates": [141.16055, 39.538624999999996]}, "properties": {"id": "PS_1533A853B5FE", "station_group_id": "SG_7F4F6609FEB5", "name_en": "日詰", "name_ja": "日詰", "label_rank": 72, "tags": ["tokyo", "v3"]}}, {"type": "Feature", "bbox": [141.12049, 39.32265, 141.12049, 39.32265], "geometry": {"type": "Point", "coordinates": [141.12049, 39.32265]}, "properties": {"id": "PS_909046C54179", "station_group_id": "SG_F5A2FF0799C0", "name_en": "村崎野", "name_ja": "村崎野", "label_rank": 72, "tags": ["tokyo", "v3"]}}, {"type": "Feature", "bbox": [140.72229249999998, 39.7004425, 140.72229249999998, 39.7004425], "geometry": {"type": "Point", "coordinates": [140.72229249999998, 39.7004425]}, "properties": {"id": "PS_26B0A309683E", "station_group_id": "SG_FF89869BB89F", "name_en": "田沢湖", "name_ja": "田沢湖", "label_rank": 72, "tags": ["tokyo", "v3"]}}, {"type": "Feature", "bbox": [141.13653, 39.70155, 141.13653, 39.70155], "geometry": {"type": "Point", "coordinates": [141.13653, 39.70155]}, "properties": {"id": "PS_ED05054CCB1E", "station_group_id": "SG_AD1907A0B6B8", "name_en": "盛岡", "name_ja": "盛岡", "label_rank": 72, "tags": ["tokyo", "v3"]}}, {"type": "Feature", "bbox": [141.136375, 39.701195, 141.136375, 39.701195], "geometry": {"type": "Point", "coordinates": [141.136375, 39.701195]}, "properties": {"id": "PS_86490B7C7AC2", "station_group_id": "SG_AD1907A0B6B8", "name_en": "盛岡", "name_ja": "盛岡", "label_rank": 72, "tags": ["tokyo", "v3"]}}, {"type": "Feature", "bbox": [141.14811, 39.612804999999994, 141.14811, 39.612804999999994], "geometry": {"type": "Point", "coordinates": [141.14811, 39.612804999999994]}, "properties": {"id": "PS_E4EE7B11869F", "station_group_id": "SG_2AE85DE71CEA", "name_en": "矢幅", "name_ja": "矢幅", "label_rank": 72, "tags": ["tokyo", "v3"]}}, {"type": "Feature", "bbox": [141.146885, 39.490895, 141.146885, 39.490895], "geometry": {"type": "Point", "coordinates": [141.146885, 39.490895]}, "properties": {"id": "PS_E043DC768D85", "station_group_id": "SG_E328162353DE", "name_en": "石鳥谷", "name_ja": "石鳥谷", "label_rank": 72, "tags": ["tokyo", "v3"]}}, {"type": "Feature", "bbox": [141.159915, 39.55476, 141.159915, 39.55476], "geometry": {"type": "Point", "coordinates": [141.159915, 39.55476]}, "properties": {"id": "PS_3E96CB270DF9", "station_group_id": "SG_D7F3FAFD2245", "name_en": "紫波中央", "name_ja": "紫波中央", "label_rank": 72, "tags": ["tokyo", "v3"]}}, {"type": "Feature", "bbox": [141.110325, 39.393745, 141.110325, 39.393745], "geometry": {"type": "Point", "coordinates": [141.110325, 39.393745]}, "properties": {"id": "PS_B90600258A9A", "station_group_id": "SG_C4E5F67115E3", "name_en": "花巻", "name_ja": "花巻", "label_rank": 72, "tags": ["tokyo", "v3"]}}, {"type": "Feature", "bbox": [141.12731, 39.442255, 141.12731, 39.442255], "geometry": {"type": "Point", "coordinates": [141.12731, 39.442255]}, "properties": {"id": "PS_6A04A2AD69E5", "station_group_id": "SG_DA54FF0D69A8", "name_en": "花巻空港", "name_ja": "花巻空港", "label_rank": 72, "tags": ["tokyo", "v3"]}}, {"type": "Feature", "bbox": [140.97481, 39.68923, 140.97481, 39.68923], "geometry": {"type": "Point", "coordinates": [140.97481, 39.68923]}, "properties": {"id": "PS_88629CF1C99C", "station_group_id": "SG_262D8EF493E1", "name_en": "雫石", "name_ja": "雫石", "label_rank": 72, "tags": ["tokyo", "v3"]}}]}