{"type": "FeatureCollection", "features": [{"type": "Feature", "bbox": [141.07157, 38.748850000000004, 141.07157, 38.748850000000004], "geometry": {"type": "Point", "coordinates": [141.07157, 38.748850000000004]}, "properties": {"id": "PS_A26741CC7C62", "station_group_id": "SG_0624C2FF41A6", "operator_id": "jr_east", "operator_ids": "jr_east", "name_en": "くりこま高原", "name_ja": "くりこま高原", "label_rank": 72, "tags": ["tokyo", "v3"]}}, {"type": "Feature", "bbox": [140.88213000000002, 38.260540000000006, 140.88213000000002, 38.260540000000006], "geometry": {"type": "Point", "coordinates": [140.88213000000002, 38.260540000000006]}, "properties": {"id": "PS_6E9E8A2B3714", "station_group_id": "SG_844B0E4F7AF0", "operator_id": "jr_east", "operator_ids": "jr_east", "name_en": "仙台", "name_ja": "仙台", "label_rank": 72, "tags": ["tokyo", "v3"]}}, {"type": "Feature", "bbox": [140.88250499999998, 38.259745, 140.88250499999998, 38.259745], "geometry": {"type": "Point", "coordinates": [140.88250499999998, 38.259745]}, "properties": {"id": "PS_E5F2E7A1D164", "station_group_id": "SG_844B0E4F7AF0", "operator_id": "jr_east", "operator_ids": "jr_east", "name_en": "仙台", "name_ja": "仙台", "label_rank": 72, "tags": ["tokyo", "v3"]}}, {"type": "Feature", "bbox": [140.9848, 38.32935, 140.9848, 38.32935], "geometry": {"type": "Point", "coordinates": [140.9848, 38.32935]}, "properties": {"id": "PS_2F438FAF082F", "station_group_id": "SG_6AD70C5DCD64", "operator_id": "jr_east", "operator_ids": "jr_east", "name_en": "利府", "name_ja": "利府", "label_rank": 72, "tags": ["tokyo", "v3"]}}, {"type": "Feature", "bbox": [140.96783, 38.570915, 140.96783, 38.570915], "geometry": {"type": "Point", "coordinates": [140.96783, 38.570915]}, "properties": {"id": "PS_5F08C3567AD0", "station_group_id": "SG_8BD52FFDB7DF", "operator_id": "jr_east", "operator_ids": "jr_east", "name_en": "古川", "name_ja": "古川", "label_rank": 72, "tags": ["tokyo", "v3"]}}, {"type": "Feature", "bbox": [141.08227, 38.43157, 141.08227, 38.43157], "geometry": {"type": "Point", "coordinates": [141.08227, 38.43157]}, "properties": {"id": "PS_0CDB3E467399", "station_group_id": "SG_9FB73CA13B50", "operator_id": "jr_east", "operator_ids": "jr_east", "name_en": "品井沼", "name_ja": "品井沼", "label_rank": 72, "tags": ["tokyo", "v3"]}}, {"type": "Feature", "bbox": [140.99478, 38.301114999999996, 140.99478, 38.301114999999996], "geometry": {"type": "Point", "coordinates": [140.99478, 38.301114999999996]}, "properties": {"id": "PS_ABA844E45A37", "station_group_id": "SG_3EF743708980", "operator_id": "jr_east", "operator_ids": "jr_east", "name_en": "国府多賀城", "name_ja": "国府多賀城", "label_rank": 72, "tags": ["tokyo", "v3"]}}, {"type": "Feature", "bbox": [141.009545, 38.309665, 141.009545, 38.309665], "geometry": {"type": "Point", "coordinates": [141.009545, 38.309665]}, "properties": {"id": "PS_271D69D48DFE", "station_group_id": "SG_9F5D9B65F1E2", "operator_id": "jr_east", "operator_ids": "jr_east", "name_en": "塩釜", "name_ja": "塩釜", "label_rank": 72, "tags": ["tokyo", "v3"]}}, {"type": "Feature", "bbox": [141.064415, 38.54066, 141.064415, 38.54066], "geometry": {"type": "Point", "coordinates": [141.064415, 38.54066]}, "properties": {"id": "PS_ECB5B4C92D8C", "station_group_id": "SG_D5ABC48960B1", "operator_id": "jr_east", "operator_ids": "jr_east", "name_en": "小牛田", "name_ja": "小牛田", "label_rank": 72, "tags": ["tokyo", "v3"]}}, {"type": "Feature", "bbox": [140.9555, 38.300985, 140.9555, 38.300985], "geometry": {"type": "Point", "coordinates": [140.9555, 38.300985]}, "properties": {"id": "PS_8F65422E1A49", "station_group_id": "SG_A232BBB2699E", "operator_id": "jr_east", "operator_ids": "jr_east", "name_en": "岩切", "name_ja": "岩切", "label_rank": 72, "tags": ["tokyo", "v3"]}}, {"type": "Feature", "bbox": [141.06518, 38.397645, 141.06518, 38.397645], "geometry": {"type": "Point", "coordinates": [141.06518, 38.397645]}, "properties": {"id": "PS_89FCF8ABAC87", "station_group_id": "SG_C1016CBB43D5", "operator_id": "jr_east", "operator_ids": "jr_east", "name_en": "愛宕", "name_ja": "愛宕", "label_rank": 72, "tags": ["tokyo", "v3"]}}, {"type": "Feature", "bbox": [140.973175, 38.317315, 140.973175, 38.317315], "geometry": {"type": "Point", "coordinates": [140.973175, 38.317315]}, "properties": {"id": "PS_455C66C9FE7C", "station_group_id": "SG_3D4BFB9580DE", "operator_id": "jr_east", "operator_ids": "jr_east", "name_en": "新利府", "name_ja": "新利府", "label_rank": 72, "tags": ["tokyo", "v3"]}}, {"type": "Feature", "bbox": [141.119465, 38.711515000000006, 141.119465, 38.711515000000006], "geometry": {"type": "Point", "coordinates": [141.119465, 38.711515000000006]}, "properties": {"id": "PS_478EB0A86310", "station_group_id": "SG_16B6358F85D9", "operator_id": "jr_east", "operator_ids": "jr_east", "name_en": "新田", "name_ja": "新田", "label_rank": 72, "tags": ["tokyo", "v3"]}}, {"type": "Feature", "bbox": [140.91985, 38.276365, 140.91985, 38.276365], "geometry": {"type": "Point", "coordinates": [140.91985, 38.276365]}, "properties": {"id": "PS_A18238ABAAC7", "station_group_id": "SG_E3A3E147C081", "operator_id": "jr_east", "operator_ids": "jr_east", "name_en": "東仙台", "name_ja": "東仙台", "label_rank": 72, "tags": ["tokyo", "v3"]}}, {"type": "Feature", "bbox": [141.07492000000002, 38.512705, 141.07492000000002, 38.512705], "geometry": {"type": "Point", "coordinates": [141.07492000000002, 38.512705]}, "properties": {"id": "PS_978CA3A0E733", "station_group_id": "SG_D0C10272C97B", "operator_id": "jr_east", "operator_ids": "jr_east", "name_en": "松山町", "name_ja": "松山町", "label_rank": 72, "tags": ["tokyo", "v3"]}}, {"type": "Feature", "bbox": [141.065405, 38.37944, 141.065405, 38.37944], "geometry": {"type": "Point", "coordinates": [141.065405, 38.37944]}, "properties": {"id": "PS_98CB772D90F8", "station_group_id": "SG_F8565F22DDF2", "operator_id": "jr_east", "operator_ids": "jr_east", "name_en": "松島", "name_ja": "松島", "label_rank": 72, "tags": ["tokyo", "v3"]}}, {"type": "Feature", "bbox": [141.08529499999997, 38.681655, 141.08529499999997, 38.681655], "geometry": {"type": "Point", "coordinates": [141.08529499999997, 38.681655]}, "properties": {"id": "PS_FF4B78E46F04", "station_group_id": "SG_274A1E4CF015", "operator_id": "jr_east", "operator_ids": "jr_east", "name_en": "梅ヶ沢", "name_ja": "梅ヶ沢", "label_rank": 72, "tags": ["tokyo", "v3"]}}, {"type": "Feature", "bbox": [141.07385499999998, 38.655609999999996, 141.07385499999998, 38.655609999999996], "geometry": {"type": "Point", "coordinates": [141.07385499999998, 38.655609999999996]}, "properties": {"id": "PS_79A1B8BBEE64", "station_group_id": "SG_A19471BE4963", "operator_id": "jr_east", "operator_ids": "jr_east", "name_en": "瀬峰", "name_ja": "瀬峰", "label_rank": 72, "tags": ["tokyo", "v3"]}}, {"type": "Feature", "bbox": [141.059035, 38.596270000000004, 141.059035, 38.596270000000004], "geometry": {"type": "Point", "coordinates": [141.059035, 38.596270000000004]}, "properties": {"id": "PS_516611026A70", "station_group_id": "SG_256B6A639149", "operator_id": "jr_east", "operator_ids": "jr_east", "name_en": "田尻", "name_ja": "田尻", "label_rank": 72, "tags": ["tokyo", "v3"]}}, {"type": "Feature", "bbox": [140.979635, 38.2996, 140.979635, 38.2996], "geometry": {"type": "Point", "coordinates": [140.979635, 38.2996]}, "properties": {"id": "PS_81F31F708A49", "station_group_id": "SG_8503DC13E803", "operator_id": "jr_east", "operator_ids": "jr_east", "name_en": "陸前山王", "name_ja": "陸前山王", "label_rank": 72, "tags": ["tokyo", "v3"]}}, {"type": "Feature", "bbox": [141.07355, 38.382825, 141.07355, 38.382825], "geometry": {"type": "Point", "coordinates": [141.07355, 38.382825]}, "properties": {"id": "PS_B4D292BE3A96", "station_group_id": "SG_C5E90B64BEF3", "operator_id": "jr_east", "operator_ids": "jr_east", "name_en": "高城町", "name_ja": "高城町", "label_rank": 72, "tags": ["tokyo", "v3"]}}, {"type": "Feature", "bbox": [141.097965, 38.474515, 141.097965, 38.474515], "geometry": {"type": "Point", "coordinates": [141.097965, 38.474515]}, "properties": {"id": "PS_D82175117D38", "station_group_id": "SG_C9B5BB354C07", "operator_id": "jr_east", "operator_ids": "jr_east", "name_en": "鹿島台", "name_ja": "鹿島台", "label_rank": 72, "tags": ["tokyo", "v3"]}}]}