{"type": "FeatureCollection", "features": [{"type": "Feature", "bbox": [141.00761603198828, 37.24272137672518, 141.00761603198828, 37.24272137672518], "geometry": {"type": "Point", "coordinates": [141.00761603198828, 37.24272137672518]}, "properties": {"id": "PS_J_37_2427214_141_0076160_0", "station_group_id": "SG_J", "name_en": "Jヴィレッジ", "name_ja": "Jヴィレッジ", "label_rank": 72, "tags": ["tokyo", "v3"]}}, {"type": "Feature", "bbox": [140.97105, 37.63802, 140.97105, 37.63802], "geometry": {"type": "Point", "coordinates": [140.97105, 37.63802]}, "properties": {"id": "PS_57AA81783233", "station_group_id": "SG_77A3629D44DA", "name_en": "原ノ町", "name_ja": "原ノ町", "label_rank": 72, "tags": ["tokyo", "v3"]}}, {"type": "Feature", "bbox": [141.005855, 37.453735, 141.005855, 37.453735], "geometry": {"type": "Point", "coordinates": [141.005855, 37.453735]}, "properties": {"id": "PS_795E6F4EA2FF", "station_group_id": "SG_A19002F6A7A8", "name_en": "双葉", "name_ja": "双葉", "label_rank": 72, "tags": ["tokyo", "v3"]}}, {"type": "Feature", "bbox": [140.99201499999998, 37.365785, 140.99201499999998, 37.365785], "geometry": {"type": "Point", "coordinates": [140.99201499999998, 37.365785]}, "properties": {"id": "PS_F638DE4D02A4", "station_group_id": "SG_49F85B630696", "name_en": "夜ノ森", "name_ja": "夜ノ森", "label_rank": 72, "tags": ["tokyo", "v3"]}}, {"type": "Feature", "bbox": [140.984195, 37.40932, 140.984195, 37.40932], "geometry": {"type": "Point", "coordinates": [140.984195, 37.40932]}, "properties": {"id": "PS_4E12818E1954", "station_group_id": "SG_4AC06A15B878", "name_en": "大野", "name_ja": "大野", "label_rank": 72, "tags": ["tokyo", "v3"]}}, {"type": "Feature", "bbox": [141.02274, 37.334050000000005, 141.02274, 37.334050000000005], "geometry": {"type": "Point", "coordinates": [141.02274, 37.334050000000005]}, "properties": {"id": "PS_5BC779E45851", "station_group_id": "SG_9502AC69B976", "name_en": "富岡", "name_ja": "富岡", "label_rank": 72, "tags": ["tokyo", "v3"]}}, {"type": "Feature", "bbox": [140.996365, 37.562975, 140.996365, 37.562975], "geometry": {"type": "Point", "coordinates": [140.996365, 37.562975]}, "properties": {"id": "PS_307A8A31E05B", "station_group_id": "SG_CB966F7DC08D", "name_en": "小高", "name_ja": "小高", "label_rank": 72, "tags": ["tokyo", "v3"]}}, {"type": "Feature", "bbox": [141.00252999999998, 37.25799, 141.00252999999998, 37.25799], "geometry": {"type": "Point", "coordinates": [141.00252999999998, 37.25799]}, "properties": {"id": "PS_632C5C11511B", "station_group_id": "SG_E433CAB2EC87", "name_en": "木戸", "name_ja": "木戸", "label_rank": 72, "tags": ["tokyo", "v3"]}}, {"type": "Feature", "bbox": [140.98437, 37.528665000000004, 140.98437, 37.528665000000004], "geometry": {"type": "Point", "coordinates": [140.98437, 37.528665000000004]}, "properties": {"id": "PS_6CC6AE31C6B4", "station_group_id": "SG_452CCF98A24B", "name_en": "桃内", "name_ja": "桃内", "label_rank": 72, "tags": ["tokyo", "v3"]}}, {"type": "Feature", "bbox": [140.989775, 37.49222, 140.989775, 37.49222], "geometry": {"type": "Point", "coordinates": [140.989775, 37.49222]}, "properties": {"id": "PS_5EA3D538CE34", "station_group_id": "SG_2AF8459DCCE2", "name_en": "浪江", "name_ja": "浪江", "label_rank": 72, "tags": ["tokyo", "v3"]}}, {"type": "Feature", "bbox": [140.99151, 37.60507, 140.99151, 37.60507], "geometry": {"type": "Point", "coordinates": [140.99151, 37.60507]}, "properties": {"id": "PS_11BEBD361CD0", "station_group_id": "SG_C12CEA8308EF", "name_en": "磐城太田", "name_ja": "磐城太田", "label_rank": 72, "tags": ["tokyo", "v3"]}}, {"type": "Feature", "bbox": [141.00269, 37.28245, 141.00269, 37.28245], "geometry": {"type": "Point", "coordinates": [141.00269, 37.28245]}, "properties": {"id": "PS_AFA1FA067EC4", "station_group_id": "SG_B29CF85F37BB", "name_en": "竜田", "name_ja": "竜田", "label_rank": 72, "tags": ["tokyo", "v3"]}}, {"type": "Feature", "bbox": [140.97008, 37.702835, 140.97008, 37.702835], "geometry": {"type": "Point", "coordinates": [140.97008, 37.702835]}, "properties": {"id": "PS_427234224F7A", "station_group_id": "SG_08814670004C", "name_en": "鹿島", "name_ja": "鹿島", "label_rank": 72, "tags": ["tokyo", "v3"]}}]}