{"type": "FeatureCollection", "features": [{"type": "Feature", "bbox": [140.892355, 37.058220000000006, 140.892355, 37.058220000000006], "geometry": {"type": "Point", "coordinates": [140.892355, 37.058220000000006]}, "properties": {"id": "PS_1C923A512333", "station_group_id": "SG_527DB5C58EC2", "name_en": "いわき", "name_ja": "いわき", "label_rank": 72, "tags": ["tokyo", "v3"]}}, {"type": "Feature", "bbox": [140.995775, 37.14247, 140.995775, 37.14247], "geometry": {"type": "Point", "coordinates": [140.995775, 37.14247]}, "properties": {"id": "PS_DABBD3CBBC7F", "station_group_id": "SG_BB58CE5E4F02", "name_en": "久ノ浜", "name_ja": "久ノ浜", "label_rank": 72, "tags": ["tokyo", "v3"]}}, {"type": "Feature", "bbox": [140.854935, 37.03599, 140.854935, 37.03599], "geometry": {"type": "Point", "coordinates": [140.854935, 37.03599]}, "properties": {"id": "PS_708FA14C0610", "station_group_id": "SG_09797546452C", "name_en": "内郷", "name_ja": "内郷", "label_rank": 72, "tags": ["tokyo", "v3"]}}, {"type": "Feature", "bbox": [140.78663, 36.88363, 140.78663, 36.88363], "geometry": {"type": "Point", "coordinates": [140.78663, 36.88363]}, "properties": {"id": "PS_8BFE5C2C96ED", "station_group_id": "SG_75D9EDA3DE89", "name_en": "勿来", "name_ja": "勿来", "label_rank": 72, "tags": ["tokyo", "v3"]}}, {"type": "Feature", "bbox": [140.72905500000002, 36.75332, 140.72905500000002, 36.75332], "geometry": {"type": "Point", "coordinates": [140.72905500000002, 36.75332]}, "properties": {"id": "PS_2BF37338B4F1", "station_group_id": "SG_F85F78D8FBAB", "name_en": "南中郷", "name_ja": "南中郷", "label_rank": 72, "tags": ["tokyo", "v3"]}}, {"type": "Feature", "bbox": [140.98086, 37.102325, 140.98086, 37.102325], "geometry": {"type": "Point", "coordinates": [140.98086, 37.102325]}, "properties": {"id": "PS_5E2026277852", "station_group_id": "SG_1CAE9A66A99A", "name_en": "四ツ倉", "name_ja": "四ツ倉", "label_rank": 72, "tags": ["tokyo", "v3"]}}, {"type": "Feature", "bbox": [140.778005, 36.846064999999996, 140.778005, 36.846064999999996], "geometry": {"type": "Point", "coordinates": [140.778005, 36.846064999999996]}, "properties": {"id": "PS_8D2BCF00EBEE", "station_group_id": "SG_2F4AAB6C0FDB", "name_en": "大津港", "name_ja": "大津港", "label_rank": 72, "tags": ["tokyo", "v3"]}}, {"type": "Feature", "bbox": [140.99881, 37.21155, 140.99881, 37.21155], "geometry": {"type": "Point", "coordinates": [140.99881, 37.21155]}, "properties": {"id": "PS_A9F18832106A", "station_group_id": "SG_C5BC17124737", "name_en": "広野", "name_ja": "広野", "label_rank": 72, "tags": ["tokyo", "v3"]}}, {"type": "Feature", "bbox": [140.99565, 37.172145, 140.99565, 37.172145], "geometry": {"type": "Point", "coordinates": [140.99565, 37.172145]}, "properties": {"id": "PS_B9F9953E44EE", "station_group_id": "SG_CF098951FE7E", "name_en": "末続", "name_ja": "末続", "label_rank": 72, "tags": ["tokyo", "v3"]}}, {"type": "Feature", "bbox": [140.79648500000002, 36.92049, 140.79648500000002, 36.92049], "geometry": {"type": "Point", "coordinates": [140.79648500000002, 36.92049]}, "properties": {"id": "PS_CC5F589B9279", "station_group_id": "SG_68EAAAC24ED1", "name_en": "植田", "name_ja": "植田", "label_rank": 72, "tags": ["tokyo", "v3"]}}, {"type": "Feature", "bbox": [140.854085, 36.955574999999996, 140.854085, 36.955574999999996], "geometry": {"type": "Point", "coordinates": [140.854085, 36.955574999999996]}, "properties": {"id": "PS_9651387F677F", "station_group_id": "SG_0D3B2E60AD25", "name_en": "泉", "name_ja": "泉", "label_rank": 72, "tags": ["tokyo", "v3"]}}, {"type": "Feature", "bbox": [140.84984, 37.006945, 140.84984, 37.006945], "geometry": {"type": "Point", "coordinates": [140.84984, 37.006945]}, "properties": {"id": "PS_CA7A49B89E85", "station_group_id": "SG_6748DF9EF3EF", "name_en": "湯本", "name_ja": "湯本", "label_rank": 72, "tags": ["tokyo", "v3"]}}, {"type": "Feature", "bbox": [140.746345, 36.7907, 140.746345, 36.7907], "geometry": {"type": "Point", "coordinates": [140.746345, 36.7907]}, "properties": {"id": "PS_0C3B0C0FE58E", "station_group_id": "SG_1D2F5222E2E5", "name_en": "磯原", "name_ja": "磯原", "label_rank": 72, "tags": ["tokyo", "v3"]}}, {"type": "Feature", "bbox": [140.94725, 37.07385, 140.94725, 37.07385], "geometry": {"type": "Point", "coordinates": [140.94725, 37.07385]}, "properties": {"id": "PS_D62A0644E95A", "station_group_id": "SG_408690A4B980", "name_en": "草野", "name_ja": "草野", "label_rank": 72, "tags": ["tokyo", "v3"]}}]}