{"type": "FeatureCollection", "features": [{"type": "Feature", "bbox": [140.38904, 37.40043, 140.4759, 37.75232], "geometry": {"type": "LineString", "coordinates": [[140.45857, 37.75232], [140.45856, 37.74868], [140.45855, 37.74455], [140.45854, 37.74453], [140.45854, 37.74435], [140.45851, 37.74002], [140.45848, 37.73967], [140.45843, 37.73914], [140.45842, 37.73901], [140.45841, 37.73895], [140.4584, 37.73882], [140.45836, 37.73852], [140.45823, 37.7378], [140.45811, 37.73718], [140.45769, 37.73488], [140.45763, 37.73463], [140.45741, 37.73343], [140.45732, 37.73294], [140.45728, 37.73273], [140.45723, 37.73246], [140.45698, 37.73119], [140.45689, 37.7307], [140.45672, 37.72985], [140.45657, 37.72911], [140.45642, 37.72835], [140.45638, 37.72823], [140.45637, 37.72817], [140.45631, 37.72785], [140.45618, 37.72725], [140.45597, 37.72619], [140.45563, 37.72451], [140.45555, 37.72404], [140.45548, 37.72363], [140.4552, 37.72214], [140.45509, 37.72155], [140.45467, 37.71931], [140.45448, 37.71833], [140.45444, 37.71811], [140.4543, 37.71734], [140.45409, 37.71622], [140.454, 37.71572], [140.45392, 37.71532], [140.45389, 37.71513], [140.45386, 37.71497], [140.4538, 37.71462], [140.45379, 37.71459], [140.45368, 37.71385], [140.45362, 37.71343], [140.45355, 37.71294], [140.45346, 37.71186], [140.45339, 37.71037], [140.45336, 37.7097], [140.45334, 37.70947], [140.45333, 37.70884], [140.45337, 37.708], [140.45342, 37.70736], [140.45343, 37.70729], [140.45355, 37.70614], [140.45355, 37.7061], [140.45359, 37.70565], [140.45361, 37.70559], [140.45366, 37.70504], [140.45374, 37.70434], [140.45388, 37.70365], [140.45398, 37.70327], [140.45413, 37.70274], [140.45428, 37.70231], [140.45453, 37.7016], [140.45488, 37.70067], [140.45516, 37.7], [140.45537, 37.69958], [140.45563, 37.69907], [140.45586, 37.69867], [140.45639, 37.69769], [140.45671, 37.69712], [140.45715, 37.69634], [140.45741, 37.69587], [140.45748, 37.69573], [140.4579, 37.69495], [140.45814, 37.69452], [140.45843, 37.69396], [140.45873, 37.69346], [140.45902, 37.6929], [140.45924, 37.69248], [140.45967, 37.69169], [140.46024, 37.69066], [140.4605, 37.69019], [140.46086, 37.68953], [140.46115, 37.68901], [140.46154, 37.68829], [140.46187, 37.68768], [140.46189, 37.68763], [140.4621, 37.68724], [140.46271, 37.68613], [140.46304, 37.68555], [140.46378, 37.68417], [140.46395, 37.6839], [140.46427, 37.6833], [140.4645, 37.68287], [140.46489, 37.68218], [140.46509, 37.68166], [140.46525, 37.68134], [140.46566, 37.68072], [140.46615, 37.67982], [140.46637, 37.67939], [140.46646, 37.67923], [140.46682, 37.67864], [140.46705, 37.67816], [140.46749, 37.67728], [140.46771, 37.67684], [140.46782, 37.67665], [140.46818, 37.67595], [140.46857, 37.67522], [140.46879, 37.6748], [140.46929, 37.67385], [140.46949, 37.6735], [140.46965, 37.6732], [140.46988, 37.67274], [140.47015, 37.67226], [140.47042, 37.67172], [140.47075, 37.67111], [140.47089, 37.67083], [140.4713, 37.67009], [140.47151, 37.66969], [140.4728, 37.66739], [140.47331, 37.66639], [140.4734, 37.66617], [140.47384, 37.66512], [140.47404, 37.66463], [140.47443, 37.66333], [140.47496, 37.66165], [140.4753, 37.66005], [140.47561, 37.65829], [140.4757, 37.65738], [140.47572, 37.65708], [140.47589, 37.65544], [140.4759, 37.65441], [140.47577, 37.653], [140.47564, 37.65125], [140.47537, 37.64839], [140.47534, 37.64818], [140.47532, 37.64798], [140.47529, 37.64764], [140.47523, 37.64708], [140.47504, 37.64535], [140.47457, 37.64045], [140.47439, 37.63882], [140.47433, 37.63809], [140.47412, 37.63591], [140.47391, 37.6342], [140.47379, 37.63325], [140.47358, 37.63083], [140.47339, 37.62911], [140.47329, 37.62817], [140.4732, 37.62718], [140.47307, 37.62567], [140.47301, 37.62499], [140.4727, 37.62203], [140.4725, 37.62012], [140.47238, 37.61908], [140.47183, 37.61318], [140.47161, 37.61114], [140.47151, 37.61021], [140.47096, 37.60533], [140.47073, 37.60215], [140.47048, 37.59966], [140.47035, 37.59832], [140.46982, 37.59319], [140.46981, 37.59305], [140.4697, 37.59209], [140.46968, 37.59195], [140.4694, 37.58937], [140.46897, 37.58657], [140.46892, 37.58636], [140.46859, 37.58507], [140.46825, 37.58381], [140.46814, 37.58349], [140.46804, 37.5832], [140.46794, 37.58291], [140.46716, 37.58078], [140.46692, 37.58023], [140.46599, 37.57853], [140.46525, 37.57717], [140.46478, 37.57631], [140.46439, 37.57561], [140.46415, 37.5752], [140.46296, 37.57307], [140.46287, 37.57289], [140.46247, 37.57215], [140.46187, 37.57104], [140.46101, 37.56946], [140.45945, 37.56657], [140.45898, 37.56571], [140.4584, 37.56464], [140.45822, 37.56429], [140.4571, 37.56225], [140.45483, 37.55809], [140.45371, 37.55603], [140.45343, 37.55552], [140.45269, 37.55417], [140.45244, 37.55372], [140.45127, 37.55155], [140.45062, 37.55038], [140.45047, 37.55011], [140.44974, 37.54875], [140.44905, 37.54746], [140.44822, 37.54596], [140.44732, 37.54427], [140.44683, 37.5434], [140.44626, 37.54231], [140.44523, 37.54041], [140.4448, 37.53962], [140.44358, 37.5374], [140.44333, 37.5369], [140.44196, 37.53438], [140.44079, 37.53221], [140.44061, 37.5319], [140.43967, 37.53013], [140.43895, 37.52877], [140.43814, 37.5273], [140.43705, 37.52528], [140.43648, 37.52424], [140.43551, 37.52244], [140.4352, 37.52189], [140.43489, 37.5213], [140.43453, 37.52062], [140.43391, 37.51949], [140.43341, 37.51857], [140.43193, 37.51592], [140.43151, 37.51513], [140.43099, 37.51415], [140.43081, 37.51375], [140.4305, 37.51307], [140.43023, 37.51235], [140.42988, 37.51151], [140.42944, 37.51044], [140.429, 37.50935], [140.42814, 37.50724], [140.42736, 37.50536], [140.42675, 37.50385], [140.42641, 37.50304], [140.42626, 37.50266], [140.42613, 37.50234], [140.42559, 37.50093], [140.42547, 37.50063], [140.42515, 37.49981], [140.42461, 37.49841], [140.42428, 37.49749], [140.42414, 37.49717], [140.42391, 37.49661], [140.42367, 37.49599], [140.42327, 37.495], [140.42274, 37.49365], [140.42213, 37.49207], [140.42178, 37.49118], [140.42104, 37.48929], [140.42064, 37.48824], [140.41935, 37.48487], [140.4185, 37.48265], [140.41792, 37.48119], [140.41775, 37.48076], [140.41733, 37.47966], [140.41684, 37.47838], [140.41553, 37.47501], [140.41545, 37.4748], [140.41534, 37.4745], [140.41448, 37.4723], [140.41431, 37.47184], [140.41312, 37.4688], [140.41216, 37.46635], [140.41211, 37.4662], [140.411, 37.46335], [140.41057, 37.46224], [140.41001, 37.46078], [140.40875, 37.45761], [140.40816, 37.45603], [140.40798, 37.45559], [140.40679, 37.45251], [140.40653, 37.45183], [140.40622, 37.45104], [140.40551, 37.44922], [140.40522, 37.44844], [140.40423, 37.4459], [140.40404, 37.44539], [140.40385, 37.44489], [140.40345, 37.44387], [140.40274, 37.44203], [140.40254, 37.44148], [140.40176, 37.43934], [140.40147, 37.43856], [140.40114, 37.43769], [140.40081, 37.43677], [140.40053, 37.43599], [140.4, 37.4345], [140.3995, 37.43305], [140.39939, 37.43272], [140.39897, 37.4314], [140.39867, 37.43042], [140.39809, 37.4287], [140.39763, 37.42722], [140.39747, 37.42671], [140.39728, 37.42615], [140.39667, 37.42434], [140.39636, 37.42335], [140.39623, 37.42298], [140.39513, 37.41971], [140.39468, 37.41848], [140.39385, 37.41582], [140.39324, 37.41391], [140.39223, 37.41077], [140.39151, 37.4086], [140.39122, 37.40779], [140.39039, 37.4052], [140.39024, 37.40473], [140.39007, 37.40421], [140.38904, 37.40043]]}, "properties": {"id": "TRACK_TOKYO_3071", "line_name": "東北新幹線", "station_group_ids": [], "mode": "shinkansen", "operator_id": "jr_east", "line_color": "#2D9C5B", "tags": ["tokyo", "track_centerline"]}}]}