{"type": "FeatureCollection", "features": [{"type": "Feature", "bbox": [140.02177, 36.93278, 140.18778, 37.12221], "geometry": {"type": "LineString", "coordinates": [[140.02177, 36.93278], [140.02184, 36.93284], [140.02459, 36.93534], [140.02491, 36.93562], [140.02558, 36.93622], [140.02657, 36.93712], [140.02909, 36.93942], [140.03101, 36.94118], [140.03174, 36.94186], [140.03471, 36.94464], [140.03695, 36.94671], [140.03766, 36.94736], [140.0394, 36.94895], [140.04189, 36.95122], [140.04498, 36.95412], [140.04615, 36.95516], [140.04877, 36.9576], [140.05057, 36.95959], [140.05283, 36.9622], [140.05414, 36.9637], [140.05713, 36.96707], [140.05926, 36.96955], [140.06071, 36.97124], [140.06476, 36.97593], [140.06563, 36.97692], [140.06968, 36.98158], [140.07137, 36.98354], [140.07206, 36.98432], [140.07233, 36.98467], [140.07288, 36.98532], [140.07382, 36.98639], [140.07532, 36.98812], [140.07576, 36.98864], [140.07596, 36.98886], [140.07784, 36.99101], [140.08104, 36.99489], [140.08278, 36.99707], [140.08303, 36.99736], [140.084, 36.99858], [140.0851, 36.99999], [140.08616, 37.00137], [140.08636, 37.00167], [140.08747, 37.00309], [140.08798, 37.00375], [140.08853, 37.00449], [140.08913, 37.00529], [140.08954, 37.00587], [140.09003, 37.00653], [140.09069, 37.00742], [140.09137, 37.00836], [140.09255, 37.00996], [140.0936, 37.0114], [140.09617, 37.01495], [140.09941, 37.01942], [140.10175, 37.02267], [140.10179, 37.02272], [140.10362, 37.02524], [140.10745, 37.03047], [140.10908, 37.03273], [140.11116, 37.03554], [140.11347, 37.03874], [140.11473, 37.04048], [140.11565, 37.04177], [140.1194, 37.04682], [140.12043, 37.04821], [140.12143, 37.04954], [140.12168, 37.04991], [140.12448, 37.05383], [140.1247, 37.05408], [140.12579, 37.05546], [140.12661, 37.05645], [140.12732, 37.05735], [140.12921, 37.05959], [140.13019, 37.06065], [140.13149, 37.06203], [140.13311, 37.06376], [140.13984, 37.07092], [140.14152, 37.07272], [140.14347, 37.07486], [140.14405, 37.07552], [140.1465, 37.07813], [140.15324, 37.08529], [140.15329, 37.08535], [140.1536, 37.08567], [140.1543, 37.08641], [140.15458, 37.08672], [140.15574, 37.08798], [140.15581, 37.08805], [140.15723, 37.08957], [140.15786, 37.09025], [140.16156, 37.09421], [140.1663, 37.09929], [140.16994, 37.10319], [140.17039, 37.10365], [140.17155, 37.10489], [140.17157, 37.10491], [140.17179, 37.10513], [140.17588, 37.1095], [140.17663, 37.11029], [140.17761, 37.11135], [140.17778, 37.11155], [140.17849, 37.11231], [140.17864, 37.11248], [140.17874, 37.11259], [140.17879, 37.11265], [140.181, 37.11494], [140.18105, 37.115], [140.18126, 37.11522], [140.1816, 37.11559], [140.18411, 37.11827], [140.18772, 37.12215], [140.18778, 37.12221]]}, "properties": {"id": "TRACK_TOKYO_3076", "line_name": "東北新幹線", "station_group_ids": [], "mode": "shinkansen", "operator_id": "jr_east", "line_color": "#2D9C5B", "tags": ["tokyo", "track_centerline"]}}]}