{"type": "FeatureCollection", "features": [{"type": "Feature", "bbox": [140.20693, 36.07994, 140.24762, 36.11962], "geometry": {"type": "LineString", "coordinates": [[140.20693, 36.07994], [140.20701, 36.08011], [140.20717, 36.08042], [140.20743, 36.08093], [140.20752, 36.08112], [140.20761, 36.08127], [140.20788, 36.08181], [140.20802, 36.08207], [140.20807, 36.0822], [140.2081, 36.08226], [140.20813, 36.08232], [140.20821, 36.08245], [140.20859, 36.08323], [140.20877, 36.08358], [140.20915, 36.08435], [140.20941, 36.08486], [140.20952, 36.08509], [140.2096, 36.08526], [140.20978, 36.0856], [140.20999, 36.086], [140.21025, 36.08653], [140.2103, 36.08662], [140.21039, 36.0868], [140.21186, 36.0896], [140.21262, 36.09107], [140.21293, 36.0916], [140.21306, 36.09181], [140.21334, 36.09214], [140.21364, 36.09246], [140.21395, 36.09273], [140.21419, 36.09292], [140.21448, 36.09311], [140.21485, 36.09333], [140.21542, 36.09368], [140.21568, 36.09384], [140.21952, 36.09618], [140.22111, 36.09713], [140.22161, 36.09746], [140.22197, 36.09769], [140.22286, 36.09835], [140.22393, 36.09924], [140.22661, 36.10155], [140.23026, 36.10472], [140.23297, 36.10704], [140.23581, 36.10948], [140.23817, 36.11151], [140.23984, 36.11291], [140.24211, 36.11487], [140.243, 36.11564], [140.24479, 36.11717], [140.24671, 36.11881], [140.24675, 36.11886], [140.24762, 36.11962]]}, "properties": {"id": "TRACK_TOKYO_2423", "line_name": "常磐線", "station_group_ids": [], "mode": "rail", "operator_id": "jr_east", "tags": ["tokyo", "track_centerline"]}}, {"type": "Feature", "bbox": [140.29364, 36.16218, 140.29532, 36.16481], "geometry": {"type": "LineString", "coordinates": [[140.29364, 36.16218], [140.29503, 36.16433], [140.29532, 36.16481]]}, "properties": {"id": "TRACK_TOKYO_2425", "line_name": "常磐線", "station_group_ids": [], "mode": "rail", "operator_id": "jr_east", "tags": ["tokyo", "track_centerline"]}}, {"type": "Feature", "bbox": [140.14118, 35.9767, 140.1578, 36.00617], "geometry": {"type": "LineString", "coordinates": [[140.1578, 36.00617], [140.15716, 36.00513], [140.1568, 36.00457], [140.15627, 36.00377], [140.15591, 36.0032], [140.1556, 36.00275], [140.15505, 36.00187], [140.15498, 36.00175], [140.15437, 36.00076], [140.15305, 35.99871], [140.15238, 35.99763], [140.15228, 35.99746], [140.15167, 35.99651], [140.1506, 35.99484], [140.15028, 35.99433], [140.14926, 35.99273], [140.14846, 35.99149], [140.14764, 35.99023], [140.14751, 35.99004], [140.14698, 35.98919], [140.14602, 35.98772], [140.14568, 35.98717], [140.14549, 35.98687], [140.14468, 35.98559], [140.14406, 35.98459], [140.1438, 35.98418], [140.14333, 35.98344], [140.14287, 35.98272], [140.14254, 35.98215], [140.14232, 35.9817], [140.14212, 35.98131], [140.14202, 35.98113], [140.14176, 35.98049], [140.14157, 35.97985], [140.14145, 35.9794], [140.14142, 35.97906], [140.14134, 35.97819], [140.14128, 35.97759], [140.14118, 35.9767]]}, "properties": {"id": "TRACK_TOKYO_2430", "line_name": "常磐線", "station_group_ids": [], "mode": "rail", "operator_id": "jr_east", "tags": ["tokyo", "track_centerline"]}}, {"type": "Feature", "bbox": [140.15879, 36.00882, 140.16517, 36.02951], "geometry": {"type": "LineString", "coordinates": [[140.16517, 36.02951], [140.16499, 36.02927], [140.16487, 36.02912], [140.16457, 36.02871], [140.16417, 36.02814], [140.16394, 36.02778], [140.16392, 36.02771], [140.16386, 36.02763], [140.16376, 36.02744], [140.16368, 36.02729], [140.16353, 36.027], [140.16341, 36.02671], [140.16331, 36.02647], [140.1632, 36.02622], [140.16316, 36.02611], [140.16308, 36.02593], [140.16304, 36.0258], [140.16289, 36.02536], [140.16275, 36.02486], [140.16273, 36.02474], [140.1627, 36.02467], [140.16266, 36.02448], [140.16222, 36.02267], [140.16219, 36.02259], [140.162, 36.0218], [140.1617, 36.02059], [140.1616, 36.02017], [140.16143, 36.01949], [140.16129, 36.01891], [140.16129, 36.0189], [140.16114, 36.01826], [140.16102, 36.01782], [140.16091, 36.0174], [140.16085, 36.01709], [140.16075, 36.01671], [140.16064, 36.01625], [140.16062, 36.01623], [140.16057, 36.01597], [140.16049, 36.01567], [140.16042, 36.01536], [140.16039, 36.01522], [140.16037, 36.01514], [140.16035, 36.01509], [140.16011, 36.01406], [140.1601, 36.01402], [140.16009, 36.01394], [140.16005, 36.01379], [140.16005, 36.01375], [140.16002, 36.0137], [140.16001, 36.01367], [140.15986, 36.01305], [140.15959, 36.01195], [140.1593, 36.01074], [140.15879, 36.00882]]}, "properties": {"id": "TRACK_TOKYO_2431", "line_name": "常磐線", "station_group_ids": [], "mode": "rail", "operator_id": "jr_east", "tags": ["tokyo", "track_centerline"]}}, {"type": "Feature", "bbox": [140.28055, 36.16481, 140.29765, 36.19033], "geometry": {"type": "LineString", "coordinates": [[140.28055, 36.19033], [140.28144, 36.1889], [140.28224, 36.1876], [140.28279, 36.1867], [140.28321, 36.18598], [140.28375, 36.18505], [140.28409, 36.18462], [140.28432, 36.18433], [140.28461, 36.18404], [140.28859, 36.18054], [140.29129, 36.17815], [140.29381, 36.17588], [140.29524, 36.17461], [140.29616, 36.17377], [140.29651, 36.17332], [140.29697, 36.17261], [140.29713, 36.17231], [140.29744, 36.17157], [140.29762, 36.17078], [140.29765, 36.17037], [140.29763, 36.16986], [140.29754, 36.16878], [140.29739, 36.1683], [140.29708, 36.16753], [140.29574, 36.16547], [140.29571, 36.16542], [140.29532, 36.16481]]}, "properties": {"id": "TRACK_TOKYO_2432", "line_name": "常磐線", "station_group_ids": [], "mode": "rail", "operator_id": "jr_east", "tags": ["tokyo", "track_centerline"]}}, {"type": "Feature", "bbox": [140.24762, 36.11962, 140.2496, 36.12124], "geometry": {"type": "LineString", "coordinates": [[140.24762, 36.11962], [140.2496, 36.12124]]}, "properties": {"id": "TRACK_TOKYO_2433", "line_name": "常磐線", "station_group_ids": [], "mode": "rail", "operator_id": "jr_east", "tags": ["tokyo", "track_centerline"]}}, {"type": "Feature", "bbox": [140.1668, 36.03168, 140.20555, 36.07725], "geometry": {"type": "LineString", "coordinates": [[140.20555, 36.07725], [140.20541, 36.077], [140.20526, 36.07671], [140.20513, 36.07644], [140.20504, 36.07624], [140.20493, 36.07603], [140.20482, 36.07583], [140.20478, 36.07573], [140.20472, 36.07562], [140.20463, 36.07543], [140.20456, 36.0753], [140.20397, 36.07418], [140.20375, 36.0738], [140.20361, 36.0736], [140.20339, 36.07327], [140.20319, 36.07303], [140.20291, 36.07274], [140.2027, 36.07258], [140.20241, 36.07235], [140.20212, 36.07214], [140.20199, 36.07204], [140.20147, 36.07169], [140.20053, 36.07111], [140.19994, 36.07074], [140.19965, 36.07056], [140.19939, 36.0704], [140.19814, 36.06962], [140.19792, 36.06948], [140.19765, 36.06931], [140.19735, 36.06912], [140.19728, 36.06907], [140.19644, 36.06855], [140.19563, 36.06804], [140.19558, 36.06801], [140.19547, 36.06795], [140.19534, 36.06786], [140.19506, 36.06769], [140.19421, 36.06716], [140.19338, 36.06666], [140.19326, 36.0666], [140.19308, 36.06649], [140.19209, 36.06591], [140.19173, 36.06569], [140.19139, 36.06551], [140.19122, 36.06541], [140.19039, 36.06493], [140.18974, 36.06451], [140.18929, 36.06416], [140.18892, 36.06378], [140.18888, 36.06371], [140.1887, 36.06348], [140.18843, 36.0631], [140.18833, 36.06292], [140.18817, 36.06259], [140.18799, 36.06216], [140.18787, 36.06173], [140.18765, 36.06067], [140.18756, 36.06015], [140.18744, 36.05955], [140.18735, 36.05909], [140.18723, 36.05863], [140.1871, 36.05826], [140.18705, 36.05812], [140.18686, 36.05773], [140.18675, 36.05752], [140.18663, 36.05732], [140.18657, 36.05723], [140.18627, 36.05685], [140.18611, 36.05667], [140.18581, 36.05638], [140.18561, 36.05617], [140.18499, 36.05553], [140.18482, 36.05535], [140.18429, 36.05482], [140.18396, 36.05447], [140.18373, 36.05425], [140.18339, 36.05389], [140.18248, 36.05286], [140.18164, 36.05173], [140.18058, 36.05031], [140.18052, 36.05023], [140.17897, 36.04812], [140.17837, 36.0473], [140.17827, 36.04717], [140.17796, 36.04677], [140.17782, 36.04657], [140.17629, 36.04452], [140.17594, 36.04404], [140.17572, 36.04373], [140.17522, 36.04306], [140.17495, 36.04269], [140.17471, 36.04238], [140.17429, 36.04179], [140.17394, 36.04134], [140.17372, 36.04103], [140.17353, 36.0408], [140.17324, 36.0404], [140.17316, 36.04029], [140.17305, 36.04014], [140.1729, 36.03995], [140.17248, 36.03937], [140.17168, 36.03827], [140.17138, 36.03786], [140.17133, 36.03778], [140.17125, 36.03768], [140.17073, 36.03698], [140.17019, 36.03624], [140.17014, 36.03619], [140.16985, 36.03579], [140.16979, 36.03572], [140.16911, 36.0348], [140.16901, 36.03468], [140.1678, 36.03303], [140.1676, 36.03275], [140.16732, 36.03239], [140.16711, 36.03209], [140.1668, 36.03168]]}, "properties": {"id": "TRACK_TOKYO_2434", "line_name": "常磐線", "station_group_ids": [], "mode": "rail", "operator_id": "jr_east", "tags": ["tokyo", "track_centerline"]}}, {"type": "Feature", "bbox": [140.14088, 35.97366, 140.14118, 35.9767], "geometry": {"type": "LineString", "coordinates": [[140.14088, 35.97366], [140.14103, 35.97534], [140.14107, 35.97563], [140.14118, 35.9767]]}, "properties": {"id": "TRACK_TOKYO_2436", "line_name": "常磐線", "station_group_ids": [], "mode": "rail", "operator_id": "jr_east", "tags": ["tokyo", "track_centerline"]}}, {"type": "Feature", "bbox": [140.16517, 36.02951, 140.1668, 36.03168], "geometry": {"type": "LineString", "coordinates": [[140.1668, 36.03168], [140.16517, 36.02951]]}, "properties": {"id": "TRACK_TOKYO_2437", "line_name": "常磐線", "station_group_ids": [], "mode": "rail", "operator_id": "jr_east", "tags": ["tokyo", "track_centerline"]}}, {"type": "Feature", "bbox": [140.20555, 36.07725, 140.20693, 36.07994], "geometry": {"type": "LineString", "coordinates": [[140.20693, 36.07994], [140.20555, 36.07725]]}, "properties": {"id": "TRACK_TOKYO_2438", "line_name": "常磐線", "station_group_ids": [], "mode": "rail", "operator_id": "jr_east", "tags": ["tokyo", "track_centerline"]}}, {"type": "Feature", "bbox": [140.2496, 36.12124, 140.29364, 36.16218], "geometry": {"type": "LineString", "coordinates": [[140.2496, 36.12124], [140.24978, 36.1214], [140.25051, 36.12205], [140.25089, 36.12239], [140.25187, 36.12323], [140.25443, 36.12546], [140.25726, 36.12792], [140.2598, 36.13008], [140.26007, 36.13031], [140.26052, 36.1307], [140.26055, 36.13073], [140.26313, 36.13296], [140.26415, 36.13384], [140.26484, 36.13444], [140.26649, 36.13587], [140.26878, 36.1378], [140.26987, 36.13869], [140.27097, 36.13947], [140.2715, 36.13979], [140.27177, 36.13995], [140.27286, 36.14055], [140.27522, 36.14165], [140.27933, 36.14357], [140.28158, 36.14458], [140.28202, 36.14481], [140.28258, 36.14512], [140.28295, 36.14537], [140.28323, 36.14561], [140.2836, 36.14599], [140.28394, 36.1464], [140.28431, 36.14696], [140.28491, 36.14796], [140.28638, 36.1504], [140.28771, 36.15262], [140.28802, 36.15312], [140.2904, 36.15693], [140.29121, 36.15822], [140.29301, 36.16112], [140.29345, 36.16186], [140.29364, 36.16218]]}, "properties": {"id": "TRACK_TOKYO_2441", "line_name": "常磐線", "station_group_ids": [], "mode": "rail", "operator_id": "jr_east", "tags": ["tokyo", "track_centerline"]}}, {"type": "Feature", "bbox": [140.13815, 35.93123, 140.14088, 35.97366], "geometry": {"type": "LineString", "coordinates": [[140.14088, 35.97366], [140.14086, 35.97339], [140.14081, 35.97293], [140.14064, 35.97122], [140.14037, 35.96835], [140.14021, 35.96655], [140.14009, 35.96555], [140.14007, 35.96537], [140.13992, 35.96378], [140.13962, 35.9608], [140.13946, 35.95902], [140.13929, 35.9572], [140.13925, 35.95676], [140.13905, 35.95475], [140.1389, 35.95299], [140.13858, 35.94968], [140.13853, 35.9492], [140.13835, 35.94726], [140.13824, 35.94594], [140.13822, 35.94571], [140.13821, 35.94551], [140.13816, 35.94462], [140.13815, 35.94404], [140.13817, 35.94259], [140.13819, 35.94082], [140.13821, 35.93879], [140.13823, 35.93837], [140.13824, 35.93799], [140.13827, 35.93566], [140.1383, 35.93301], [140.13829, 35.93183], [140.13828, 35.93158], [140.13828, 35.93123]]}, "properties": {"id": "TRACK_TOKYO_2443", "line_name": "常磐線", "station_group_ids": [], "mode": "rail", "operator_id": "jr_east", "tags": ["tokyo", "track_centerline"]}}, {"type": "Feature", "bbox": [140.1578, 36.00617, 140.15879, 36.00882], "geometry": {"type": "LineString", "coordinates": [[140.1578, 36.00617], [140.15796, 36.00648], [140.15804, 36.00665], [140.15818, 36.00702], [140.15841, 36.00764], [140.15855, 36.00805], [140.15879, 36.00882]]}, "properties": {"id": "TRACK_TOKYO_2444", "line_name": "常磐線", "station_group_ids": [], "mode": "rail", "operator_id": "jr_east", "tags": ["tokyo", "track_centerline"]}}]}