{"type": "FeatureCollection", "features": [{"type": "Feature", "bbox": [140.31481, 35.77583, 140.31612, 35.77671], "geometry": {"type": "LineString", "coordinates": [[140.31612, 35.77671], [140.31481, 35.77583]]}, "properties": {"id": "TRACK_TOKYO_0202", "line_name": "東成田線", "station_group_ids": [], "mode": "private", "operator_id": "keisei", "line_color": "#2457C5", "tags": ["tokyo", "track_centerline"]}}, {"type": "Feature", "bbox": [140.31612, 35.77401, 140.37806, 35.77902], "geometry": {"type": "LineString", "coordinates": [[140.37806, 35.77581], [140.37607, 35.77649], [140.37598, 35.77651], [140.37558, 35.77666], [140.37496, 35.77686], [140.37494, 35.77688], [140.37462, 35.77699], [140.37439, 35.77707], [140.37171, 35.77789], [140.37079, 35.77799], [140.37043, 35.77801], [140.37003, 35.77803], [140.36923, 35.77808], [140.36881, 35.77807], [140.36806, 35.77804], [140.36754, 35.77799], [140.36726, 35.77796], [140.36684, 35.77789], [140.36621, 35.77775], [140.36587, 35.77767], [140.36508, 35.77745], [140.36434, 35.77724], [140.36285, 35.77679], [140.36284, 35.77678], [140.36277, 35.77678], [140.36264, 35.77673], [140.36241, 35.77666], [140.36234, 35.77665], [140.36195, 35.77652], [140.36173, 35.77647], [140.35966, 35.77592], [140.35951, 35.77589], [140.35909, 35.77578], [140.35864, 35.77568], [140.35808, 35.77555], [140.3576, 35.77544], [140.35743, 35.77542], [140.3574, 35.77541], [140.3568, 35.77532], [140.35601, 35.77525], [140.35569, 35.77522], [140.35519, 35.77517], [140.35513, 35.77517], [140.35414, 35.77508], [140.35384, 35.77505], [140.35382, 35.77506], [140.35286, 35.77496], [140.35276, 35.77497], [140.35158, 35.77485], [140.3515, 35.77486], [140.3512, 35.77483], [140.35116, 35.77482], [140.35056, 35.77478], [140.35008, 35.77473], [140.34984, 35.77471], [140.34903, 35.77463], [140.34854, 35.77458], [140.34847, 35.77459], [140.34827, 35.77456], [140.34808, 35.77455], [140.3478, 35.77452], [140.34776, 35.77453], [140.34775, 35.77452], [140.34768, 35.77451], [140.34762, 35.77451], [140.3471, 35.77446], [140.34678, 35.77443], [140.34674, 35.77442], [140.3458, 35.77435], [140.34571, 35.77434], [140.34464, 35.77426], [140.34425, 35.77423], [140.34343, 35.77417], [140.34246, 35.77411], [140.34159, 35.77406], [140.34104, 35.77403], [140.34048, 35.77401], [140.33969, 35.77402], [140.33823, 35.77407], [140.33791, 35.7741], [140.33777, 35.77411], [140.33718, 35.77416], [140.33679, 35.77419], [140.33676, 35.7742], [140.33627, 35.77425], [140.3359, 35.77429], [140.33526, 35.77438], [140.335, 35.77443], [140.33462, 35.77449], [140.33437, 35.77454], [140.33378, 35.77466], [140.33302, 35.77482], [140.33256, 35.77492], [140.33248, 35.77495], [140.33203, 35.77505], [140.33152, 35.7752], [140.33141, 35.77523], [140.33107, 35.77533], [140.33082, 35.7754], [140.33069, 35.77544], [140.33055, 35.77549], [140.33043, 35.77551], [140.33, 35.77566], [140.32991, 35.77567], [140.32943, 35.77584], [140.32936, 35.77586], [140.32909, 35.77596], [140.32839, 35.77623], [140.32822, 35.7763], [140.32783, 35.77647], [140.32773, 35.77651], [140.3274, 35.77666], [140.32713, 35.77678], [140.32679, 35.77694], [140.32604, 35.7773], [140.32516, 35.77772], [140.32515, 35.77773], [140.32404, 35.77826], [140.32335, 35.77857], [140.32291, 35.77874], [140.32288, 35.77875], [140.32264, 35.77882], [140.32231, 35.77891], [140.32193, 35.77897], [140.32165, 35.779], [140.32131, 35.77902], [140.32075, 35.77901], [140.32044, 35.77899], [140.31997, 35.77891], [140.31982, 35.77887], [140.31968, 35.77884], [140.31929, 35.7787], [140.31922, 35.77869], [140.3188, 35.77851], [140.31849, 35.77835], [140.3181, 35.77809], [140.3177, 35.77782], [140.31732, 35.77754], [140.31699, 35.77731], [140.31667, 35.77709], [140.31666, 35.77708], [140.31663, 35.77707], [140.31653, 35.77699], [140.31651, 35.77699], [140.31612, 35.77671]]}, "properties": {"id": "TRACK_TOKYO_0203", "line_name": "東成田線", "station_group_ids": [], "mode": "private", "operator_id": "keisei", "line_color": "#2457C5", "tags": ["tokyo", "track_centerline"]}}, {"type": "Feature", "bbox": [140.38676, 35.76902, 140.38774, 35.77035], "geometry": {"type": "LineString", "coordinates": [[140.38774, 35.76902], [140.38676, 35.77035]]}, "properties": {"id": "TRACK_TOKYO_0204", "line_name": "東成田線", "station_group_ids": [], "mode": "private", "operator_id": "keisei", "line_color": "#2457C5", "tags": ["tokyo", "track_centerline"]}}, {"type": "Feature", "bbox": [140.37806, 35.77035, 140.38676, 35.77581], "geometry": {"type": "LineString", "coordinates": [[140.38676, 35.77035], [140.38612, 35.77119], [140.38554, 35.77196], [140.38496, 35.77268], [140.3846, 35.77315], [140.38423, 35.77349], [140.38389, 35.77373], [140.38303, 35.77416], [140.38217, 35.77452], [140.38096, 35.7749], [140.37983, 35.77525], [140.37852, 35.77564], [140.37806, 35.77581]]}, "properties": {"id": "TRACK_TOKYO_0205", "line_name": "東成田線", "station_group_ids": [], "mode": "private", "operator_id": "keisei", "line_color": "#2457C5", "tags": ["tokyo", "track_centerline"]}}, {"type": "Feature", "bbox": [140.3871, 35.76693, 140.38896, 35.77178], "geometry": {"type": "LineString", "coordinates": [[140.3871, 35.76693], [140.3877, 35.7678], [140.388, 35.76828], [140.38883, 35.76973], [140.38893, 35.77001], [140.38896, 35.77025], [140.38893, 35.77063], [140.3889, 35.77096], [140.38882, 35.77116], [140.38866, 35.77143], [140.38846, 35.77178]]}, "properties": {"id": "TRACK_TOKYO_0206", "line_name": "本線", "station_group_ids": [], "mode": "private", "operator_id": "keisei", "line_color": "#2457C5", "tags": ["tokyo", "track_centerline"]}}, {"type": "Feature", "bbox": [140.38676, 35.77178, 140.38846, 35.77414], "geometry": {"type": "LineString", "coordinates": [[140.38846, 35.77178], [140.38676, 35.77414]]}, "properties": {"id": "TRACK_TOKYO_0207", "line_name": "本線", "station_group_ids": [], "mode": "private", "operator_id": "keisei", "line_color": "#2457C5", "tags": ["tokyo", "track_centerline"]}}, {"type": "Feature", "bbox": [140.38551, 35.76452, 140.3871, 35.76693], "geometry": {"type": "LineString", "coordinates": [[140.38551, 35.76452], [140.3871, 35.76693]]}, "properties": {"id": "TRACK_TOKYO_0208", "line_name": "本線", "station_group_ids": [], "mode": "private", "operator_id": "keisei", "line_color": "#2457C5", "tags": ["tokyo", "track_centerline"]}}, {"type": "Feature", "bbox": [140.38449, 35.77414, 140.38676, 35.77733], "geometry": {"type": "LineString", "coordinates": [[140.38676, 35.77414], [140.3865, 35.77451], [140.38618, 35.77491], [140.3861, 35.77504], [140.38585, 35.77542], [140.38556, 35.77584], [140.38531, 35.77623], [140.38504, 35.77657], [140.38496, 35.77668], [140.38449, 35.77733]]}, "properties": {"id": "TRACK_TOKYO_0209", "line_name": "本線", "station_group_ids": [], "mode": "private", "operator_id": "keisei", "line_color": "#2457C5", "tags": ["tokyo", "track_centerline"]}}, {"type": "Feature", "bbox": [140.25102, 35.73008, 140.2697, 35.73644], "geometry": {"type": "LineString", "coordinates": [[140.25102, 35.73008], [140.25109, 35.73012], [140.25274, 35.73098], [140.25339, 35.73128], [140.25404, 35.73146], [140.25712, 35.73224], [140.25999, 35.73295], [140.26124, 35.73326], [140.26139, 35.7333], [140.26328, 35.73377], [140.26577, 35.7344], [140.26692, 35.73469], [140.26755, 35.73486], [140.26797, 35.735], [140.26837, 35.73521], [140.26876, 35.73549], [140.26895, 35.73567], [140.26925, 35.73599], [140.2697, 35.73644]]}, "properties": {"id": "TRACK_TOKYO_0210", "line_name": "本線", "station_group_ids": [], "mode": "private", "operator_id": "keisei", "line_color": "#2457C5", "tags": ["tokyo", "track_centerline"]}}, {"type": "Feature", "bbox": [140.22901, 35.72517, 140.23072, 35.72524], "geometry": {"type": "LineString", "coordinates": [[140.23072, 35.72524], [140.22901, 35.72517]]}, "properties": {"id": "TRACK_TOKYO_0211", "line_name": "本線", "station_group_ids": [], "mode": "private", "operator_id": "keisei", "line_color": "#2457C5", "tags": ["tokyo", "track_centerline"]}}, {"type": "Feature", "bbox": [140.31481, 35.77583, 140.31612, 35.77671], "geometry": {"type": "LineString", "coordinates": [[140.31612, 35.77671], [140.31481, 35.77583]]}, "properties": {"id": "TRACK_TOKYO_0212", "line_name": "本線", "station_group_ids": [], "mode": "private", "operator_id": "keisei", "line_color": "#2457C5", "tags": ["tokyo", "track_centerline"]}}, {"type": "Feature", "bbox": [140.31612, 35.77401, 140.37806, 35.77902], "geometry": {"type": "LineString", "coordinates": [[140.37806, 35.77581], [140.37607, 35.77649], [140.37598, 35.77651], [140.37558, 35.77666], [140.37496, 35.77686], [140.37494, 35.77688], [140.37462, 35.77699], [140.37439, 35.77707], [140.37171, 35.77789], [140.37079, 35.77799], [140.37043, 35.77801], [140.37003, 35.77803], [140.36923, 35.77808], [140.36881, 35.77807], [140.36806, 35.77804], [140.36754, 35.77799], [140.36726, 35.77796], [140.36684, 35.77789], [140.36621, 35.77775], [140.36587, 35.77767], [140.36508, 35.77745], [140.36434, 35.77724], [140.36285, 35.77679], [140.36284, 35.77678], [140.36277, 35.77678], [140.36264, 35.77673], [140.36241, 35.77666], [140.36234, 35.77665], [140.36195, 35.77652], [140.36173, 35.77647], [140.35966, 35.77592], [140.35951, 35.77589], [140.35909, 35.77578], [140.35864, 35.77568], [140.35808, 35.77555], [140.3576, 35.77544], [140.35743, 35.77542], [140.3574, 35.77541], [140.3568, 35.77532], [140.35601, 35.77525], [140.35569, 35.77522], [140.35519, 35.77517], [140.35513, 35.77517], [140.35414, 35.77508], [140.35384, 35.77505], [140.35382, 35.77506], [140.35286, 35.77496], [140.35276, 35.77497], [140.35158, 35.77485], [140.3515, 35.77486], [140.3512, 35.77483], [140.35116, 35.77482], [140.35056, 35.77478], [140.35008, 35.77473], [140.34984, 35.77471], [140.34903, 35.77463], [140.34854, 35.77458], [140.34847, 35.77459], [140.34827, 35.77456], [140.34808, 35.77455], [140.3478, 35.77452], [140.34776, 35.77453], [140.34775, 35.77452], [140.34768, 35.77451], [140.34762, 35.77451], [140.3471, 35.77446], [140.34678, 35.77443], [140.34674, 35.77442], [140.3458, 35.77435], [140.34571, 35.77434], [140.34464, 35.77426], [140.34425, 35.77423], [140.34343, 35.77417], [140.34246, 35.77411], [140.34159, 35.77406], [140.34104, 35.77403], [140.34048, 35.77401], [140.33969, 35.77402], [140.33823, 35.77407], [140.33791, 35.7741], [140.33777, 35.77411], [140.33718, 35.77416], [140.33679, 35.77419], [140.33676, 35.7742], [140.33627, 35.77425], [140.3359, 35.77429], [140.33526, 35.77438], [140.335, 35.77443], [140.33462, 35.77449], [140.33437, 35.77454], [140.33378, 35.77466], [140.33302, 35.77482], [140.33256, 35.77492], [140.33248, 35.77495], [140.33203, 35.77505], [140.33152, 35.7752], [140.33141, 35.77523], [140.33107, 35.77533], [140.33082, 35.7754], [140.33069, 35.77544], [140.33055, 35.77549], [140.33043, 35.77551], [140.33, 35.77566], [140.32991, 35.77567], [140.32943, 35.77584], [140.32936, 35.77586], [140.32909, 35.77596], [140.32839, 35.77623], [140.32822, 35.7763], [140.32783, 35.77647], [140.32773, 35.77651], [140.3274, 35.77666], [140.32713, 35.77678], [140.32679, 35.77694], [140.32604, 35.7773], [140.32516, 35.77772], [140.32515, 35.77773], [140.32404, 35.77826], [140.32335, 35.77857], [140.32291, 35.77874], [140.32288, 35.77875], [140.32264, 35.77882], [140.32231, 35.77891], [140.32193, 35.77897], [140.32165, 35.779], [140.32131, 35.77902], [140.32075, 35.77901], [140.32044, 35.77899], [140.31997, 35.77891], [140.31982, 35.77887], [140.31968, 35.77884], [140.31929, 35.7787], [140.31922, 35.77869], [140.3188, 35.77851], [140.31849, 35.77835], [140.3181, 35.77809], [140.3177, 35.77782], [140.31732, 35.77754], [140.31699, 35.77731], [140.31667, 35.77709], [140.31666, 35.77708], [140.31663, 35.77707], [140.31653, 35.77699], [140.31651, 35.77699], [140.31612, 35.77671]]}, "properties": {"id": "TRACK_TOKYO_0213", "line_name": "本線", "station_group_ids": [], "mode": "private", "operator_id": "keisei", "line_color": "#2457C5", "tags": ["tokyo", "track_centerline"]}}, {"type": "Feature", "bbox": [140.37806, 35.77581, 140.38449, 35.77779], "geometry": {"type": "LineString", "coordinates": [[140.38449, 35.77733], [140.38415, 35.77749], [140.38381, 35.77766], [140.38341, 35.77775], [140.38308, 35.77779], [140.38269, 35.77778], [140.38245, 35.77771], [140.38211, 35.77762], [140.38177, 35.77744], [140.38135, 35.77715], [140.38088, 35.77683], [140.3804, 35.77646], [140.38012, 35.77629], [140.3797, 35.7761], [140.37931, 35.77594], [140.37915, 35.7759], [140.37878, 35.77586], [140.37849, 35.77583], [140.37806, 35.77581]]}, "properties": {"id": "TRACK_TOKYO_0214", "line_name": "本線", "station_group_ids": [], "mode": "private", "operator_id": "keisei", "line_color": "#2457C5", "tags": ["tokyo", "track_centerline"]}}, {"type": "Feature", "bbox": [140.29486, 35.76033, 140.31481, 35.77583], "geometry": {"type": "LineString", "coordinates": [[140.31481, 35.77583], [140.31464, 35.77569], [140.3146, 35.77567], [140.31457, 35.77564], [140.31452, 35.77562], [140.31422, 35.77536], [140.31419, 35.77535], [140.31332, 35.77465], [140.31319, 35.77455], [140.3129, 35.7743], [140.31229, 35.77375], [140.31219, 35.77365], [140.31191, 35.7734], [140.31157, 35.77303], [140.31121, 35.77258], [140.31085, 35.77218], [140.31049, 35.77183], [140.31028, 35.77167], [140.31009, 35.77154], [140.30989, 35.77142], [140.30988, 35.77142], [140.3098, 35.77136], [140.30975, 35.77134], [140.30962, 35.77128], [140.30954, 35.77124], [140.30947, 35.77119], [140.30909, 35.77103], [140.30882, 35.77092], [140.30857, 35.77083], [140.30797, 35.77066], [140.30788, 35.77062], [140.30777, 35.77057], [140.30767, 35.77051], [140.30742, 35.77029], [140.30718, 35.77004], [140.30582, 35.76856], [140.30568, 35.76842], [140.30554, 35.76826], [140.3055, 35.76822], [140.3054, 35.76811], [140.30538, 35.7681], [140.30517, 35.76788], [140.30516, 35.76785], [140.30502, 35.76771], [140.30491, 35.7676], [140.30443, 35.76707], [140.30427, 35.76689], [140.30387, 35.76645], [140.30369, 35.76623], [140.30337, 35.76593], [140.30315, 35.76577], [140.30295, 35.76566], [140.30275, 35.76559], [140.30188, 35.76536], [140.30127, 35.76513], [140.30094, 35.76498], [140.30089, 35.76496], [140.30071, 35.76486], [140.30051, 35.76472], [140.30047, 35.76469], [140.30032, 35.76459], [140.30017, 35.76444], [140.3, 35.76426], [140.29945, 35.76364], [140.2989, 35.76295], [140.29852, 35.7625], [140.29802, 35.76204], [140.2977, 35.76176], [140.29695, 35.76122], [140.29658, 35.7609], [140.29643, 35.76082], [140.29619, 35.76072], [140.29589, 35.76062], [140.2956, 35.76054], [140.29486, 35.76033]]}, "properties": {"id": "TRACK_TOKYO_0215", "line_name": "本線", "station_group_ids": [], "mode": "private", "operator_id": "keisei", "line_color": "#2457C5", "tags": ["tokyo", "track_centerline"]}}, {"type": "Feature", "bbox": [140.2811, 35.75274, 140.29403, 35.76009], "geometry": {"type": "LineString", "coordinates": [[140.2811, 35.75274], [140.2816, 35.75324], [140.28206, 35.75379], [140.2824, 35.75419], [140.28266, 35.75454], [140.28331, 35.75544], [140.28336, 35.7555], [140.28367, 35.75583], [140.2837, 35.75585], [140.28376, 35.75592], [140.2843, 35.75644], [140.28438, 35.7565], [140.28475, 35.75683], [140.285, 35.757], [140.28507, 35.75707], [140.28531, 35.75721], [140.28553, 35.75733], [140.28573, 35.75742], [140.28628, 35.75765], [140.28715, 35.75793], [140.28865, 35.7584], [140.28913, 35.75855], [140.29206, 35.75946], [140.29268, 35.75965], [140.29366, 35.75996], [140.29403, 35.76009]]}, "properties": {"id": "TRACK_TOKYO_0216", "line_name": "本線", "station_group_ids": [], "mode": "private", "operator_id": "keisei", "line_color": "#2457C5", "tags": ["tokyo", "track_centerline"]}}, {"type": "Feature", "bbox": [140.2697, 35.73644, 140.27065, 35.73739], "geometry": {"type": "LineString", "coordinates": [[140.2697, 35.73644], [140.27065, 35.73739]]}, "properties": {"id": "TRACK_TOKYO_0217", "line_name": "本線", "station_group_ids": [], "mode": "private", "operator_id": "keisei", "line_color": "#2457C5", "tags": ["tokyo", "track_centerline"]}}, {"type": "Feature", "bbox": [140.25042, 35.72978, 140.25102, 35.73008], "geometry": {"type": "LineString", "coordinates": [[140.25042, 35.72978], [140.25102, 35.73008]]}, "properties": {"id": "TRACK_TOKYO_0218", "line_name": "本線", "station_group_ids": [], "mode": "private", "operator_id": "keisei", "line_color": "#2457C5", "tags": ["tokyo", "track_centerline"]}}, {"type": "Feature", "bbox": [140.23072, 35.72524, 140.25042, 35.72978], "geometry": {"type": "LineString", "coordinates": [[140.23072, 35.72524], [140.23172, 35.72529], [140.23205, 35.72531], [140.23211, 35.72532], [140.23218, 35.72532], [140.23232, 35.72533], [140.23285, 35.72539], [140.23311, 35.72544], [140.23388, 35.72559], [140.23408, 35.72561], [140.23439, 35.72566], [140.23494, 35.72571], [140.23596, 35.72575], [140.23844, 35.72583], [140.23852, 35.72583], [140.23859, 35.72583], [140.23921, 35.72585], [140.24017, 35.72587], [140.24129, 35.72591], [140.24175, 35.72592], [140.24206, 35.72592], [140.24259, 35.72594], [140.24285, 35.72596], [140.2433, 35.72602], [140.24334, 35.72602], [140.24372, 35.72609], [140.24395, 35.72615], [140.24441, 35.72627], [140.24483, 35.7264], [140.245, 35.72647], [140.24568, 35.72673], [140.24588, 35.72683], [140.24614, 35.72696], [140.24669, 35.72729], [140.24672, 35.72731], [140.24752, 35.72799], [140.24839, 35.72862], [140.24883, 35.72893], [140.24952, 35.72931], [140.25042, 35.72978]]}, "properties": {"id": "TRACK_TOKYO_0219", "line_name": "本線", "station_group_ids": [], "mode": "private", "operator_id": "keisei", "line_color": "#2457C5", "tags": ["tokyo", "track_centerline"]}}, {"type": "Feature", "bbox": [140.29403, 35.76009, 140.29486, 35.76033], "geometry": {"type": "LineString", "coordinates": [[140.29403, 35.76009], [140.29486, 35.76033]]}, "properties": {"id": "TRACK_TOKYO_0220", "line_name": "本線", "station_group_ids": [], "mode": "private", "operator_id": "keisei", "line_color": "#2457C5", "tags": ["tokyo", "track_centerline"]}}, {"type": "Feature", "bbox": [140.28031, 35.75196, 140.2811, 35.75274], "geometry": {"type": "LineString", "coordinates": [[140.28031, 35.75196], [140.2811, 35.75274]]}, "properties": {"id": "TRACK_TOKYO_0221", "line_name": "本線", "station_group_ids": [], "mode": "private", "operator_id": "keisei", "line_color": "#2457C5", "tags": ["tokyo", "track_centerline"]}}, {"type": "Feature", "bbox": [140.27065, 35.73739, 140.28031, 35.75196], "geometry": {"type": "LineString", "coordinates": [[140.27065, 35.73739], [140.271, 35.73776], [140.27129, 35.73814], [140.27157, 35.73858], [140.27179, 35.73903], [140.27194, 35.73936], [140.27206, 35.73976], [140.27225, 35.74043], [140.2725, 35.74131], [140.27278, 35.74224], [140.27288, 35.74251], [140.27305, 35.74294], [140.27366, 35.7442], [140.27389, 35.74467], [140.27425, 35.74537], [140.27465, 35.74602], [140.27491, 35.74646], [140.27514, 35.74676], [140.27575, 35.74741], [140.27718, 35.74886], [140.2783, 35.74999], [140.28031, 35.75196]]}, "properties": {"id": "TRACK_TOKYO_0222", "line_name": "本線", "station_group_ids": [], "mode": "private", "operator_id": "keisei", "line_color": "#2457C5", "tags": ["tokyo", "track_centerline"]}}, {"type": "Feature", "bbox": [140.12685, 35.71547, 140.14453, 35.71734], "geometry": {"type": "LineString", "coordinates": [[140.14453, 35.71734], [140.14421, 35.7173], [140.14371, 35.71726], [140.14315, 35.7172], [140.14214, 35.7171], [140.14132, 35.71701], [140.1413, 35.71701], [140.13999, 35.71688], [140.13938, 35.71681], [140.13899, 35.71676], [140.13872, 35.71674], [140.13849, 35.71672], [140.1384, 35.71671], [140.13799, 35.71666], [140.1376, 35.71662], [140.13727, 35.71659], [140.13633, 35.71648], [140.13626, 35.71648], [140.13613, 35.71646], [140.13584, 35.71643], [140.13523, 35.71636], [140.13497, 35.71633], [140.1349, 35.71633], [140.13392, 35.71622], [140.13369, 35.71619], [140.13342, 35.71617], [140.13267, 35.71609], [140.12806, 35.71559], [140.12796, 35.71559], [140.12786, 35.71557], [140.1277, 35.71555], [140.12724, 35.7155], [140.12685, 35.71547]]}, "properties": {"id": "TRACK_TOKYO_0223", "line_name": "本線", "station_group_ids": [], "mode": "private", "operator_id": "keisei", "line_color": "#2457C5", "tags": ["tokyo", "track_centerline"]}}, {"type": "Feature", "bbox": [140.14453, 35.71734, 140.14533, 35.71747], "geometry": {"type": "LineString", "coordinates": [[140.14453, 35.71734], [140.14533, 35.71747]]}, "properties": {"id": "TRACK_TOKYO_0227", "line_name": "本線", "station_group_ids": [], "mode": "private", "operator_id": "keisei", "line_color": "#2457C5", "tags": ["tokyo", "track_centerline"]}}, {"type": "Feature", "bbox": [140.15535, 35.72158, 140.15698, 35.72197], "geometry": {"type": "LineString", "coordinates": [[140.15698, 35.72197], [140.1568, 35.72193], [140.15641, 35.72184], [140.15535, 35.72158]]}, "properties": {"id": "TRACK_TOKYO_0235", "line_name": "本線", "station_group_ids": [], "mode": "private", "operator_id": "keisei", "line_color": "#2457C5", "tags": ["tokyo", "track_centerline"]}}, {"type": "Feature", "bbox": [140.1813, 35.72509, 140.22901, 35.73929], "geometry": {"type": "LineString", "coordinates": [[140.22901, 35.72517], [140.22853, 35.72515], [140.22801, 35.72512], [140.2279, 35.72512], [140.22757, 35.72511], [140.22717, 35.72509], [140.22697, 35.72509], [140.22674, 35.72512], [140.22651, 35.72516], [140.22621, 35.72524], [140.22604, 35.72529], [140.22581, 35.72536], [140.22553, 35.72546], [140.22495, 35.72573], [140.22407, 35.72614], [140.22406, 35.72615], [140.22316, 35.72658], [140.22258, 35.72684], [140.22217, 35.72703], [140.22183, 35.7272], [140.2215, 35.72734], [140.22087, 35.72759], [140.22049, 35.72773], [140.22047, 35.72774], [140.21829, 35.72858], [140.21748, 35.7289], [140.21659, 35.72925], [140.21579, 35.72955], [140.21515, 35.7298], [140.21477, 35.72998], [140.21439, 35.73024], [140.2141, 35.7305], [140.2139, 35.73072], [140.2137, 35.73095], [140.21328, 35.73146], [140.21292, 35.73193], [140.21202, 35.73302], [140.21184, 35.73325], [140.21165, 35.7335], [140.2114, 35.7338], [140.21087, 35.73422], [140.21057, 35.73443], [140.20956, 35.73502], [140.20942, 35.73509], [140.20863, 35.73555], [140.20848, 35.73562], [140.20817, 35.7358], [140.20762, 35.73611], [140.20365, 35.73832], [140.20295, 35.7387], [140.20237, 35.73901], [140.20214, 35.7391], [140.20194, 35.73918], [140.20165, 35.73925], [140.2013, 35.73929], [140.20095, 35.73929], [140.20065, 35.73926], [140.19968, 35.73902], [140.19847, 35.7387], [140.19829, 35.73865], [140.19471, 35.7377], [140.19423, 35.73758], [140.19012, 35.73649], [140.18992, 35.73643], [140.18977, 35.73639], [140.18921, 35.73625], [140.18912, 35.73623], [140.18905, 35.73621], [140.18782, 35.73588], [140.18741, 35.73576], [140.18734, 35.73575], [140.18716, 35.73569], [140.18683, 35.73559], [140.18667, 35.73553], [140.18624, 35.73534], [140.18599, 35.73519], [140.18578, 35.73506], [140.18557, 35.7349], [140.18549, 35.73484], [140.18511, 35.73448], [140.1846, 35.73392], [140.18448, 35.73379], [140.18445, 35.73377], [140.18435, 35.73365], [140.18422, 35.73353], [140.18412, 35.73342], [140.18343, 35.73271], [140.18278, 35.73205], [140.18271, 35.73197], [140.18266, 35.73193], [140.18256, 35.73182], [140.18243, 35.7317], [140.18224, 35.73149], [140.18207, 35.73133], [140.18167, 35.73091], [140.1813, 35.73053]]}, "properties": {"id": "TRACK_TOKYO_0246", "line_name": "本線", "station_group_ids": [], "mode": "private", "operator_id": "keisei", "line_color": "#2457C5", "tags": ["tokyo", "track_centerline"]}}, {"type": "Feature", "bbox": [140.18031, 35.72952, 140.1813, 35.73053], "geometry": {"type": "LineString", "coordinates": [[140.1813, 35.73053], [140.18031, 35.72952]]}, "properties": {"id": "TRACK_TOKYO_0249", "line_name": "本線", "station_group_ids": [], "mode": "private", "operator_id": "keisei", "line_color": "#2457C5", "tags": ["tokyo", "track_centerline"]}}, {"type": "Feature", "bbox": [140.15698, 35.72197, 140.18031, 35.72952], "geometry": {"type": "LineString", "coordinates": [[140.15698, 35.72197], [140.15732, 35.72204], [140.15778, 35.72214], [140.15809, 35.72221], [140.15884, 35.72239], [140.15915, 35.72247], [140.15943, 35.72253], [140.15968, 35.7226], [140.1598, 35.72262], [140.15993, 35.72266], [140.16029, 35.72274], [140.16169, 35.72308], [140.16194, 35.72314], [140.16292, 35.72335], [140.16428, 35.72366], [140.16446, 35.72371], [140.16472, 35.72377], [140.16514, 35.72386], [140.16544, 35.72394], [140.16582, 35.72402], [140.16614, 35.7241], [140.16677, 35.72425], [140.16738, 35.72439], [140.16814, 35.72458], [140.16904, 35.72478], [140.16941, 35.72487], [140.16976, 35.72495], [140.1703, 35.72507], [140.17115, 35.72528], [140.17152, 35.72537], [140.17183, 35.72544], [140.17307, 35.72575], [140.17393, 35.72596], [140.17434, 35.72605], [140.17464, 35.72613], [140.17491, 35.72619], [140.17629, 35.72652], [140.17691, 35.72671], [140.17746, 35.72701], [140.17822, 35.72749], [140.17864, 35.72782], [140.17916, 35.72833], [140.17933, 35.72852], [140.17985, 35.72904], [140.18031, 35.72952]]}, "properties": {"id": "TRACK_TOKYO_0251", "line_name": "本線", "station_group_ids": [], "mode": "private", "operator_id": "keisei", "line_color": "#2457C5", "tags": ["tokyo", "track_centerline"]}}, {"type": "Feature", "bbox": [140.14533, 35.71747, 140.15535, 35.72158], "geometry": {"type": "LineString", "coordinates": [[140.14533, 35.71747], [140.1456, 35.71755], [140.14589, 35.71763], [140.1463, 35.71778], [140.14636, 35.7178], [140.1469, 35.71803], [140.14711, 35.71814], [140.14751, 35.71836], [140.14773, 35.7185], [140.14789, 35.7186], [140.14805, 35.71872], [140.14846, 35.71903], [140.14888, 35.71934], [140.14955, 35.71982], [140.15007, 35.72016], [140.15013, 35.72018], [140.15068, 35.72043], [140.15118, 35.7206], [140.15205, 35.7208], [140.15232, 35.72086], [140.15281, 35.72098], [140.15294, 35.72101], [140.1532, 35.72107], [140.15352, 35.72115], [140.15425, 35.72132], [140.15465, 35.72141], [140.15535, 35.72158]]}, "properties": {"id": "TRACK_TOKYO_0254", "line_name": "本線", "station_group_ids": [], "mode": "private", "operator_id": "keisei", "line_color": "#2457C5", "tags": ["tokyo", "track_centerline"]}}, {"type": "Feature", "bbox": [140.22802, 35.70639, 140.25547, 35.71085], "geometry": {"type": "LineString", "coordinates": [[140.22802, 35.7099], [140.22839, 35.70996], [140.22893, 35.71003], [140.22988, 35.71016], [140.23023, 35.71021], [140.23064, 35.71026], [140.23097, 35.7103], [140.23238, 35.71048], [140.2345, 35.71076], [140.23499, 35.7108], [140.23537, 35.71084], [140.23597, 35.71085], [140.23651, 35.71082], [140.23678, 35.7108], [140.23684, 35.71079], [140.23733, 35.71071], [140.23766, 35.71062], [140.23798, 35.71052], [140.23919, 35.71004], [140.24027, 35.70957], [140.24151, 35.70906], [140.24327, 35.7083], [140.24404, 35.70799], [140.24502, 35.70756], [140.24559, 35.70732], [140.24644, 35.70695], [140.24657, 35.7069], [140.24672, 35.70687], [140.24733, 35.70671], [140.2479, 35.70659], [140.24848, 35.70648], [140.24904, 35.70642], [140.24952, 35.70639], [140.25032, 35.70642], [140.25105, 35.7065], [140.25547, 35.7073]]}, "properties": {"id": "TRACK_TOKYO_2724", "line_name": "成田線", "station_group_ids": [], "mode": "rail", "operator_id": "jr_east", "line_color": "#339966", "tags": ["tokyo", "track_centerline"]}}, {"type": "Feature", "bbox": [140.40971, 35.89458, 140.41163, 35.89511], "geometry": {"type": "LineString", "coordinates": [[140.40971, 35.89458], [140.41163, 35.89511]]}, "properties": {"id": "TRACK_TOKYO_2728", "line_name": "成田線", "station_group_ids": [], "mode": "rail", "operator_id": "jr_east", "line_color": "#339966", "tags": ["tokyo", "track_centerline"]}}, {"type": "Feature", "bbox": [140.24343, 35.80838, 140.27661, 35.83526], "geometry": {"type": "LineString", "coordinates": [[140.27661, 35.80838], [140.27637, 35.80853], [140.27614, 35.80866], [140.27565, 35.80898], [140.27456, 35.80966], [140.27412, 35.80996], [140.2739, 35.81015], [140.2737, 35.81038], [140.27368, 35.81042], [140.27361, 35.8105], [140.27359, 35.81053], [140.27314, 35.81116], [140.27227, 35.81234], [140.27181, 35.813], [140.2718, 35.81303], [140.27179, 35.81303], [140.27135, 35.81366], [140.27088, 35.81435], [140.27083, 35.81442], [140.27079, 35.8145], [140.27078, 35.81451], [140.27076, 35.81453], [140.2701, 35.81546], [140.26978, 35.8159], [140.26925, 35.81661], [140.26849, 35.81751], [140.26711, 35.81902], [140.26709, 35.81903], [140.26667, 35.81951], [140.26644, 35.81977], [140.26635, 35.81987], [140.26633, 35.81989], [140.26626, 35.81997], [140.26582, 35.82046], [140.26537, 35.82098], [140.26535, 35.82099], [140.2649, 35.8215], [140.2643, 35.82217], [140.26358, 35.82297], [140.26286, 35.82377], [140.26265, 35.82402], [140.26264, 35.82403], [140.26178, 35.82498], [140.26128, 35.82551], [140.2612, 35.82559], [140.2609, 35.82592], [140.26067, 35.82613], [140.26064, 35.82615], [140.26033, 35.82643], [140.25993, 35.82675], [140.25955, 35.827], [140.25866, 35.82761], [140.25782, 35.82819], [140.25773, 35.82825], [140.25744, 35.82844], [140.2564, 35.82907], [140.25549, 35.82963], [140.2546, 35.8302], [140.25363, 35.83089], [140.25359, 35.83092], [140.25281, 35.83142], [140.25231, 35.83172], [140.25178, 35.83198], [140.2513, 35.8322], [140.25058, 35.83247], [140.24959, 35.83282], [140.24845, 35.83325], [140.24777, 35.8335], [140.24707, 35.83378], [140.24672, 35.83394], [140.2464, 35.83407], [140.24343, 35.83526]]}, "properties": {"id": "TRACK_TOKYO_2729", "line_name": "成田線", "station_group_ids": [], "mode": "rail", "operator_id": "jr_east", "line_color": "#339966", "tags": ["tokyo", "track_centerline"]}}, {"type": "Feature", "bbox": [140.31387, 35.79527, 140.32547, 35.79727], "geometry": {"type": "LineString", "coordinates": [[140.31387, 35.79527], [140.31414, 35.79539], [140.31434, 35.79553], [140.31443, 35.79561], [140.31459, 35.79579], [140.31475, 35.79599], [140.31486, 35.79612], [140.31499, 35.7963], [140.3151, 35.7964], [140.31516, 35.79647], [140.31536, 35.79663], [140.31575, 35.79685], [140.31604, 35.79702], [140.31632, 35.79712], [140.31644, 35.79716], [140.31668, 35.79723], [140.31684, 35.79727], [140.31705, 35.79726], [140.3173, 35.79725], [140.3201, 35.79701], [140.32163, 35.79687], [140.32411, 35.79666], [140.32447, 35.79663], [140.32466, 35.79661], [140.32488, 35.79653], [140.32509, 35.79642], [140.32532, 35.79633], [140.32547, 35.79628]]}, "properties": {"id": "TRACK_TOKYO_2730", "line_name": "成田線", "station_group_ids": [], "mode": "rail", "operator_id": "jr_east", "line_color": "#339966", "tags": ["tokyo", "track_centerline"]}}, {"type": "Feature", "bbox": [140.34728, 35.87646, 140.34845, 35.87766], "geometry": {"type": "LineString", "coordinates": [[140.34728, 35.87646], [140.34845, 35.87766]]}, "properties": {"id": "TRACK_TOKYO_2731", "line_name": "成田線", "station_group_ids": [], "mode": "rail", "operator_id": "jr_east", "line_color": "#339966", "tags": ["tokyo", "track_centerline"]}}, {"type": "Feature", "bbox": [140.27495, 35.73119, 140.27586, 35.73251], "geometry": {"type": "LineString", "coordinates": [[140.27495, 35.73119], [140.27586, 35.73251]]}, "properties": {"id": "TRACK_TOKYO_2733", "line_name": "成田線", "station_group_ids": [], "mode": "rail", "operator_id": "jr_east", "line_color": "#339966", "tags": ["tokyo", "track_centerline"]}}, {"type": "Feature", "bbox": [140.27661, 35.80717, 140.27849, 35.80838], "geometry": {"type": "LineString", "coordinates": [[140.27849, 35.80717], [140.27661, 35.80838]]}, "properties": {"id": "TRACK_TOKYO_2734", "line_name": "成田線", "station_group_ids": [], "mode": "rail", "operator_id": "jr_east", "line_color": "#339966", "tags": ["tokyo", "track_centerline"]}}, {"type": "Feature", "bbox": [140.19411, 35.8286, 140.24112, 35.8399], "geometry": {"type": "LineString", "coordinates": [[140.24112, 35.83617], [140.24009, 35.83656], [140.23944, 35.83682], [140.2388, 35.83706], [140.23865, 35.83713], [140.23685, 35.83856], [140.2367, 35.83868], [140.23576, 35.83938], [140.23536, 35.8396], [140.23507, 35.83971], [140.23457, 35.83983], [140.23411, 35.83989], [140.23369, 35.8399], [140.23311, 35.83986], [140.23245, 35.83978], [140.23133, 35.83964], [140.23113, 35.83962], [140.23078, 35.83958], [140.22773, 35.83935], [140.22638, 35.83925], [140.22519, 35.83908], [140.22495, 35.83904], [140.22119, 35.83831], [140.21988, 35.83806], [140.21867, 35.83783], [140.21683, 35.83747], [140.2159, 35.83724], [140.21561, 35.83713], [140.215, 35.83688], [140.21434, 35.83656], [140.2132, 35.83599], [140.21127, 35.83498], [140.20847, 35.83351], [140.20439, 35.83138], [140.20274, 35.83051], [140.20246, 35.83037], [140.20159, 35.82993], [140.20117, 35.82972], [140.19998, 35.82913], [140.19908, 35.8288], [140.19853, 35.82865], [140.19816, 35.82861], [140.19779, 35.8286], [140.19714, 35.82864], [140.19654, 35.82872], [140.19602, 35.82887], [140.19542, 35.82916], [140.19411, 35.83005]]}, "properties": {"id": "TRACK_TOKYO_2735", "line_name": "成田線", "station_group_ids": [], "mode": "rail", "operator_id": "jr_east", "line_color": "#339966", "tags": ["tokyo", "track_centerline"]}}, {"type": "Feature", "bbox": [140.33807, 35.83188, 140.33967, 35.83249], "geometry": {"type": "LineString", "coordinates": [[140.33967, 35.83249], [140.33807, 35.83188]]}, "properties": {"id": "TRACK_TOKYO_2736", "line_name": "成田線", "station_group_ids": [], "mode": "rail", "operator_id": "jr_east", "line_color": "#339966", "tags": ["tokyo", "track_centerline"]}}, {"type": "Feature", "bbox": [140.3871, 35.76693, 140.38896, 35.77178], "geometry": {"type": "LineString", "coordinates": [[140.3871, 35.76693], [140.3877, 35.7678], [140.388, 35.76828], [140.38883, 35.76973], [140.38893, 35.77001], [140.38896, 35.77025], [140.38893, 35.77063], [140.3889, 35.77096], [140.38882, 35.77116], [140.38866, 35.77143], [140.38846, 35.77178]]}, "properties": {"id": "TRACK_TOKYO_2737", "line_name": "成田線", "station_group_ids": [], "mode": "rail", "operator_id": "jr_east", "line_color": "#339966", "tags": ["tokyo", "track_centerline"]}}, {"type": "Feature", "bbox": [140.38676, 35.77178, 140.38846, 35.77414], "geometry": {"type": "LineString", "coordinates": [[140.38846, 35.77178], [140.38676, 35.77414]]}, "properties": {"id": "TRACK_TOKYO_2738", "line_name": "成田線", "station_group_ids": [], "mode": "rail", "operator_id": "jr_east", "line_color": "#339966", "tags": ["tokyo", "track_centerline"]}}, {"type": "Feature", "bbox": [140.24112, 35.83526, 140.24343, 35.83617], "geometry": {"type": "LineString", "coordinates": [[140.24343, 35.83526], [140.24112, 35.83617]]}, "properties": {"id": "TRACK_TOKYO_2739", "line_name": "成田線", "station_group_ids": [], "mode": "rail", "operator_id": "jr_east", "line_color": "#339966", "tags": ["tokyo", "track_centerline"]}}, {"type": "Feature", "bbox": [140.27114, 35.71746, 140.27285, 35.72451], "geometry": {"type": "LineString", "coordinates": [[140.27114, 35.71746], [140.27146, 35.71767], [140.27174, 35.7179], [140.27199, 35.71816], [140.27227, 35.71846], [140.27248, 35.71881], [140.27268, 35.71918], [140.27279, 35.71957], [140.27284, 35.71991], [140.27285, 35.72031], [140.27277, 35.72115], [140.27251, 35.72193], [140.27204, 35.72343], [140.27185, 35.72404], [140.27172, 35.72451]]}, "properties": {"id": "TRACK_TOKYO_2743", "line_name": "成田線", "station_group_ids": [], "mode": "rail", "operator_id": "jr_east", "line_color": "#339966", "tags": ["tokyo", "track_centerline"]}}, {"type": "Feature", "bbox": [140.27114, 35.71746, 140.2726, 35.72451], "geometry": {"type": "LineString", "coordinates": [[140.27114, 35.71746], [140.27147, 35.71778], [140.27187, 35.71822], [140.2721, 35.71857], [140.27229, 35.71891], [140.27249, 35.71936], [140.27258, 35.71965], [140.2726, 35.71991], [140.27255, 35.72061], [140.27211, 35.7222], [140.27184, 35.72302], [140.27168, 35.72357], [140.27166, 35.72421], [140.27172, 35.72451]]}, "properties": {"id": "TRACK_TOKYO_2744", "line_name": "成田線", "station_group_ids": [], "mode": "rail", "operator_id": "jr_east", "line_color": "#339966", "tags": ["tokyo", "track_centerline"]}}, {"type": "Feature", "bbox": [140.34845, 35.87766, 140.40971, 35.89458], "geometry": {"type": "LineString", "coordinates": [[140.34845, 35.87766], [140.34867, 35.87789], [140.34894, 35.87816], [140.34937, 35.8786], [140.34953, 35.87876], [140.35042, 35.87956], [140.3505, 35.87962], [140.35119, 35.88015], [140.35169, 35.88044], [140.3525, 35.88082], [140.3532, 35.88112], [140.35395, 35.88139], [140.35442, 35.88151], [140.35477, 35.88157], [140.35546, 35.88166], [140.3608, 35.88246], [140.36245, 35.8827], [140.36947, 35.88377], [140.3717, 35.88409], [140.37251, 35.88422], [140.37384, 35.88443], [140.37845, 35.88516], [140.38473, 35.88611], [140.38481, 35.88612], [140.38536, 35.8862], [140.38862, 35.88669], [140.38952, 35.88685], [140.38972, 35.8869], [140.38982, 35.88692], [140.39031, 35.88706], [140.3909, 35.88727], [140.39157, 35.88754], [140.39316, 35.88822], [140.39716, 35.88997], [140.39957, 35.89101], [140.40112, 35.89168], [140.40402, 35.89294], [140.40452, 35.89314], [140.4055, 35.89342], [140.40971, 35.89458]]}, "properties": {"id": "TRACK_TOKYO_2746", "line_name": "成田線", "station_group_ids": [], "mode": "rail", "operator_id": "jr_east", "line_color": "#339966", "tags": ["tokyo", "track_centerline"]}}, {"type": "Feature", "bbox": [140.31157, 35.78287, 140.31387, 35.79527], "geometry": {"type": "LineString", "coordinates": [[140.31281, 35.78287], [140.31253, 35.78314], [140.31242, 35.78325], [140.31227, 35.78341], [140.31213, 35.78354], [140.31211, 35.78358], [140.31201, 35.78368], [140.31173, 35.78404], [140.31161, 35.78437], [140.31157, 35.78477], [140.31159, 35.78591], [140.31168, 35.78699], [140.31174, 35.78748], [140.31174, 35.78749], [140.31181, 35.78812], [140.31185, 35.7886], [140.31184, 35.78931], [140.31181, 35.78952], [140.31177, 35.7901], [140.31175, 35.79053], [140.31177, 35.79096], [140.31183, 35.79156], [140.31184, 35.79163], [140.31197, 35.79231], [140.31209, 35.79269], [140.31222, 35.79301], [140.31243, 35.79336], [140.31262, 35.79365], [140.31277, 35.79385], [140.31278, 35.79385], [140.31294, 35.79408], [140.31336, 35.79463], [140.31355, 35.79487], [140.31376, 35.79514], [140.3138, 35.7952], [140.31387, 35.79527]]}, "properties": {"id": "TRACK_TOKYO_2748", "line_name": "成田線", "station_group_ids": [], "mode": "rail", "operator_id": "jr_east", "line_color": "#339966", "tags": ["tokyo", "track_centerline"]}}, {"type": "Feature", "bbox": [140.38551, 35.76452, 140.3871, 35.76693], "geometry": {"type": "LineString", "coordinates": [[140.38551, 35.76452], [140.3871, 35.76693]]}, "properties": {"id": "TRACK_TOKYO_2749", "line_name": "成田線", "station_group_ids": [], "mode": "rail", "operator_id": "jr_east", "line_color": "#339966", "tags": ["tokyo", "track_centerline"]}}, {"type": "Feature", "bbox": [140.25547, 35.7073, 140.27114, 35.71746], "geometry": {"type": "LineString", "coordinates": [[140.25547, 35.7073], [140.25634, 35.70771], [140.25674, 35.70792], [140.25702, 35.70815], [140.25729, 35.70841], [140.25767, 35.7088], [140.25791, 35.70927], [140.25821, 35.70993], [140.25844, 35.71047], [140.25871, 35.71097], [140.25899, 35.71134], [140.25932, 35.71163], [140.25982, 35.71196], [140.26039, 35.71231], [140.2609, 35.71257], [140.26156, 35.71288], [140.26159, 35.71289], [140.26346, 35.71376], [140.26581, 35.71489], [140.26708, 35.7155], [140.26889, 35.71636], [140.27001, 35.71688], [140.27114, 35.71746]]}, "properties": {"id": "TRACK_TOKYO_2750", "line_name": "成田線", "station_group_ids": [], "mode": "rail", "operator_id": "jr_east", "line_color": "#339966", "tags": ["tokyo", "track_centerline"]}}, {"type": "Feature", "bbox": [140.41163, 35.88819, 140.45673, 35.89614], "geometry": {"type": "LineString", "coordinates": [[140.41163, 35.89511], [140.41231, 35.89532], [140.41441, 35.89587], [140.41495, 35.89598], [140.41539, 35.89605], [140.4158, 35.8961], [140.41589, 35.8961], [140.41626, 35.89613], [140.41697, 35.89614], [140.41742, 35.89611], [140.41797, 35.89606], [140.41833, 35.89602], [140.41894, 35.89589], [140.4198, 35.8957], [140.42231, 35.8951], [140.42663, 35.89407], [140.42839, 35.89365], [140.43289, 35.89258], [140.43384, 35.89235], [140.43891, 35.89116], [140.44353, 35.89006], [140.44369, 35.89003], [140.44848, 35.88887], [140.45029, 35.88846], [140.45158, 35.88824], [140.45196, 35.88819], [140.45259, 35.88819], [140.45341, 35.88827], [140.45427, 35.88845], [140.4545, 35.88852], [140.45481, 35.88862], [140.45516, 35.88874], [140.45528, 35.88879], [140.45612, 35.88914], [140.45673, 35.88944]]}, "properties": {"id": "TRACK_TOKYO_2752", "line_name": "成田線", "station_group_ids": [], "mode": "rail", "operator_id": "jr_east", "line_color": "#339966", "tags": ["tokyo", "track_centerline"]}}, {"type": "Feature", "bbox": [140.33967, 35.83249, 140.34728, 35.87646], "geometry": {"type": "LineString", "coordinates": [[140.33967, 35.83249], [140.34059, 35.83282], [140.34187, 35.83329], [140.34279, 35.83365], [140.34311, 35.83383], [140.34376, 35.83425], [140.34378, 35.83429], [140.34397, 35.83448], [140.34411, 35.83462], [140.34451, 35.8351], [140.34468, 35.83539], [140.34479, 35.83573], [140.34487, 35.83607], [140.3449, 35.83657], [140.34491, 35.83757], [140.34493, 35.83829], [140.34499, 35.84509], [140.34499, 35.84514], [140.34506, 35.85067], [140.34507, 35.85104], [140.3451, 35.85298], [140.34507, 35.85342], [140.34502, 35.85365], [140.3449, 35.85397], [140.34439, 35.85512], [140.34342, 35.85714], [140.34328, 35.85756], [140.34324, 35.85779], [140.34308, 35.85979], [140.34302, 35.86055], [140.34295, 35.86217], [140.34298, 35.86255], [140.34303, 35.86279], [140.34312, 35.863], [140.3433, 35.86332], [140.34347, 35.86359], [140.34442, 35.8648], [140.34605, 35.86688], [140.34641, 35.86738], [140.34663, 35.86777], [140.3467, 35.86798], [140.34673, 35.86808], [140.34682, 35.86856], [140.34686, 35.86901], [140.34686, 35.86948], [140.3468, 35.86989], [140.34673, 35.87015], [140.34647, 35.87072], [140.34594, 35.87182], [140.34577, 35.87231], [140.34564, 35.87279], [140.3456, 35.87315], [140.34558, 35.87354], [140.34563, 35.87388], [140.3457, 35.87422], [140.34588, 35.87468], [140.34613, 35.87512], [140.34643, 35.87553], [140.34728, 35.87646]]}, "properties": {"id": "TRACK_TOKYO_2754", "line_name": "成田線", "station_group_ids": [], "mode": "rail", "operator_id": "jr_east", "line_color": "#339966", "tags": ["tokyo", "track_centerline"]}}, {"type": "Feature", "bbox": [140.32547, 35.77733, 140.38449, 35.79628], "geometry": {"type": "LineString", "coordinates": [[140.38449, 35.77733], [140.38389, 35.77813], [140.38332, 35.77893], [140.38273, 35.77975], [140.38228, 35.78036], [140.38211, 35.78058], [140.38084, 35.78238], [140.38038, 35.78299], [140.38011, 35.78334], [140.37975, 35.78383], [140.37947, 35.78426], [140.37927, 35.78452], [140.37902, 35.78484], [140.37893, 35.78495], [140.37872, 35.78519], [140.37848, 35.78548], [140.37824, 35.78573], [140.3781, 35.78588], [140.3779, 35.78607], [140.37691, 35.78699], [140.37643, 35.7874], [140.37545, 35.78817], [140.37464, 35.78872], [140.37408, 35.78909], [140.37387, 35.78921], [140.3737, 35.78931], [140.37287, 35.78981], [140.37274, 35.78988], [140.37263, 35.78995], [140.37233, 35.79008], [140.37188, 35.79032], [140.37171, 35.7904], [140.37069, 35.79081], [140.36905, 35.79145], [140.36828, 35.79172], [140.36789, 35.79186], [140.36723, 35.79203], [140.36655, 35.79222], [140.36634, 35.79227], [140.36605, 35.79236], [140.36555, 35.79243], [140.365, 35.79256], [140.36438, 35.79266], [140.36312, 35.79282], [140.36212, 35.79291], [140.35944, 35.79316], [140.35707, 35.79339], [140.35649, 35.79346], [140.35134, 35.79393], [140.34753, 35.79426], [140.34655, 35.79434], [140.34547, 35.79446], [140.34491, 35.7945], [140.34486, 35.79451], [140.34071, 35.79489], [140.3393, 35.79502], [140.33496, 35.79543], [140.33422, 35.79548], [140.33337, 35.79556], [140.33233, 35.79566], [140.33212, 35.79568], [140.32931, 35.79593], [140.32828, 35.79603], [140.32616, 35.79622], [140.32547, 35.79628]]}, "properties": {"id": "TRACK_TOKYO_2755", "line_name": "成田線", "station_group_ids": [], "mode": "rail", "operator_id": "jr_east", "line_color": "#339966", "tags": ["tokyo", "track_centerline"]}}, {"type": "Feature", "bbox": [140.38449, 35.77414, 140.38676, 35.77733], "geometry": {"type": "LineString", "coordinates": [[140.38676, 35.77414], [140.3865, 35.77451], [140.38618, 35.77491], [140.3861, 35.77504], [140.38585, 35.77542], [140.38556, 35.77584], [140.38531, 35.77623], [140.38504, 35.77657], [140.38496, 35.77668], [140.38449, 35.77733]]}, "properties": {"id": "TRACK_TOKYO_2756", "line_name": "成田線", "station_group_ids": [], "mode": "rail", "operator_id": "jr_east", "line_color": "#339966", "tags": ["tokyo", "track_centerline"]}}, {"type": "Feature", "bbox": [140.31278, 35.77553, 140.31429, 35.77898], "geometry": {"type": "LineString", "coordinates": [[140.31278, 35.77553], [140.31305, 35.77583], [140.31323, 35.77608], [140.31338, 35.77638], [140.31429, 35.77898]]}, "properties": {"id": "TRACK_TOKYO_2761", "line_name": "成田線", "station_group_ids": [], "mode": "rail", "operator_id": "jr_east", "line_color": "#339966", "tags": ["tokyo", "track_centerline"]}}, {"type": "Feature", "bbox": [140.27849, 35.78287, 140.31281, 35.80717], "geometry": {"type": "LineString", "coordinates": [[140.27849, 35.80717], [140.28006, 35.80617], [140.28042, 35.80593], [140.28045, 35.80591], [140.28045, 35.8059], [140.2805, 35.80588], [140.28056, 35.80584], [140.28459, 35.80324], [140.28459, 35.80322], [140.28465, 35.8032], [140.28468, 35.80317], [140.28531, 35.80277], [140.2856, 35.80258], [140.28585, 35.80244], [140.28608, 35.80231], [140.28641, 35.80216], [140.2866, 35.80209], [140.28684, 35.80201], [140.28715, 35.80192], [140.28747, 35.80184], [140.28793, 35.80175], [140.28828, 35.80169], [140.28866, 35.80162], [140.28886, 35.80157], [140.28919, 35.80149], [140.28945, 35.80141], [140.28973, 35.80131], [140.28996, 35.80121], [140.29028, 35.80108], [140.29061, 35.80092], [140.29083, 35.8008], [140.29107, 35.80065], [140.29126, 35.8005], [140.29149, 35.8003], [140.29172, 35.80003], [140.29181, 35.79991], [140.29199, 35.79961], [140.29223, 35.79922], [140.2923, 35.79908], [140.29273, 35.7984], [140.29302, 35.79799], [140.29317, 35.79782], [140.29325, 35.79774], [140.29327, 35.79772], [140.29372, 35.79736], [140.29419, 35.79711], [140.29475, 35.79686], [140.29556, 35.79651], [140.29692, 35.7959], [140.29789, 35.79548], [140.29826, 35.7953], [140.29858, 35.79509], [140.29885, 35.79485], [140.29909, 35.79459], [140.29936, 35.7942], [140.2995, 35.79396], [140.29965, 35.79366], [140.29965, 35.7936], [140.29968, 35.79358], [140.29972, 35.79349], [140.29973, 35.7934], [140.29975, 35.79338], [140.29979, 35.7933], [140.29979, 35.79325], [140.29999, 35.79267], [140.30005, 35.79249], [140.30031, 35.79175], [140.30042, 35.79142], [140.30089, 35.79003], [140.30101, 35.78966], [140.30111, 35.78946], [140.30123, 35.78914], [140.30134, 35.78896], [140.30145, 35.78877], [140.30169, 35.78843], [140.30214, 35.78799], [140.30303, 35.78742], [140.30304, 35.78741], [140.30313, 35.78736], [140.30415, 35.78667], [140.30452, 35.78638], [140.30518, 35.78579], [140.30523, 35.78574], [140.30539, 35.78559], [140.30586, 35.78513], [140.30649, 35.78451], [140.3068, 35.78426], [140.30711, 35.78406], [140.30723, 35.78398], [140.30756, 35.78382], [140.30798, 35.7837], [140.30849, 35.78361], [140.30887, 35.78357], [140.30931, 35.78354], [140.30995, 35.78355], [140.31049, 35.78356], [140.31091, 35.78351], [140.31123, 35.78344], [140.31169, 35.78333], [140.31232, 35.7831], [140.31262, 35.78298], [140.31281, 35.78287]]}, "properties": {"id": "TRACK_TOKYO_2762", "line_name": "成田線", "station_group_ids": [], "mode": "rail", "operator_id": "jr_east", "line_color": "#339966", "tags": ["tokyo", "track_centerline"]}}, {"type": "Feature", "bbox": [140.27586, 35.73251, 140.31278, 35.77553], "geometry": {"type": "LineString", "coordinates": [[140.27586, 35.73251], [140.27626, 35.73309], [140.2769, 35.73399], [140.27716, 35.73432], [140.27751, 35.73466], [140.27787, 35.73497], [140.27812, 35.73513], [140.27841, 35.73529], [140.27866, 35.73541], [140.27934, 35.73565], [140.28008, 35.73586], [140.28108, 35.73607], [140.28141, 35.73619], [140.2824, 35.73665], [140.28341, 35.73711], [140.2843, 35.73752], [140.28502, 35.73787], [140.28519, 35.73797], [140.28543, 35.73811], [140.28573, 35.73831], [140.28613, 35.73863], [140.2864, 35.7389], [140.28674, 35.73926], [140.28697, 35.73957], [140.28724, 35.74001], [140.28758, 35.74065], [140.28791, 35.74127], [140.28816, 35.74171], [140.28856, 35.7423], [140.28888, 35.74269], [140.28947, 35.74333], [140.28988, 35.74378], [140.29018, 35.7442], [140.29038, 35.74453], [140.29061, 35.74511], [140.29079, 35.74562], [140.29093, 35.746], [140.29119, 35.74658], [140.2915, 35.74708], [140.29173, 35.74736], [140.29211, 35.74771], [140.29262, 35.74811], [140.29368, 35.74868], [140.29474, 35.74923], [140.29701, 35.75048], [140.29884, 35.75144], [140.2989, 35.75147], [140.30115, 35.75262], [140.30238, 35.75324], [140.30249, 35.7533], [140.30265, 35.75339], [140.30284, 35.75347], [140.30304, 35.75357], [140.30328, 35.75367], [140.30333, 35.75371], [140.30335, 35.75371], [140.30422, 35.75411], [140.30434, 35.75417], [140.30436, 35.75418], [140.30481, 35.75437], [140.30486, 35.7544], [140.30499, 35.75445], [140.30508, 35.7545], [140.30521, 35.75456], [140.30544, 35.75467], [140.30554, 35.75471], [140.3058, 35.75485], [140.30626, 35.75511], [140.30651, 35.75527], [140.30671, 35.75544], [140.30701, 35.75571], [140.30726, 35.75598], [140.30735, 35.75611], [140.30741, 35.75618], [140.30746, 35.75627], [140.30751, 35.75637], [140.30756, 35.75645], [140.30757, 35.75649], [140.3076, 35.75657], [140.30773, 35.75695], [140.30779, 35.7572], [140.30783, 35.75736], [140.30785, 35.75753], [140.30785, 35.75789], [140.30783, 35.75835], [140.30777, 35.75876], [140.30768, 35.75915], [140.30741, 35.76017], [140.3074, 35.76019], [140.30707, 35.76143], [140.30697, 35.76181], [140.30689, 35.76206], [140.30671, 35.76265], [140.30667, 35.76289], [140.30666, 35.76294], [140.30665, 35.76297], [140.30662, 35.76332], [140.30662, 35.76373], [140.30667, 35.76403], [140.30679, 35.76443], [140.30691, 35.76472], [140.30738, 35.76573], [140.30755, 35.7661], [140.30759, 35.76623], [140.30766, 35.76645], [140.30772, 35.7667], [140.30774, 35.76684], [140.30772, 35.76706], [140.30769, 35.76726], [140.30768, 35.76737], [140.30767, 35.76746], [140.30759, 35.76822], [140.30757, 35.76865], [140.30758, 35.76897], [140.3076, 35.76911], [140.30766, 35.76942], [140.30772, 35.7696], [140.30793, 35.77012], [140.30799, 35.77022], [140.30817, 35.77057], [140.30842, 35.77098], [140.30852, 35.77114], [140.30868, 35.77137], [140.30888, 35.77164], [140.30907, 35.77184], [140.30949, 35.77227], [140.31031, 35.77309], [140.31034, 35.77311], [140.31083, 35.77362], [140.31126, 35.77402], [140.31238, 35.77514], [140.31242, 35.77517], [140.31278, 35.77553]]}, "properties": {"id": "TRACK_TOKYO_2763", "line_name": "成田線", "station_group_ids": [], "mode": "rail", "operator_id": "jr_east", "line_color": "#339966", "tags": ["tokyo", "track_centerline"]}}, {"type": "Feature", "bbox": [140.27172, 35.72451, 140.27495, 35.73119], "geometry": {"type": "LineString", "coordinates": [[140.27172, 35.72451], [140.27192, 35.72565], [140.27216, 35.72672], [140.27236, 35.72732], [140.27254, 35.72769], [140.27268, 35.72792], [140.27323, 35.7287], [140.27396, 35.72977], [140.27495, 35.73119]]}, "properties": {"id": "TRACK_TOKYO_2766", "line_name": "成田線", "station_group_ids": [], "mode": "rail", "operator_id": "jr_east", "line_color": "#339966", "tags": ["tokyo", "track_centerline"]}}, {"type": "Feature", "bbox": [140.31387, 35.79527, 140.33807, 35.83188], "geometry": {"type": "LineString", "coordinates": [[140.33807, 35.83188], [140.33736, 35.8316], [140.33703, 35.83139], [140.33673, 35.8312], [140.33633, 35.83088], [140.33597, 35.83058], [140.33559, 35.83023], [140.33521, 35.82987], [140.33504, 35.82971], [140.33494, 35.8296], [140.33476, 35.82944], [140.33456, 35.82923], [140.33441, 35.82909], [140.33431, 35.829], [140.33361, 35.82829], [140.33306, 35.82775], [140.33248, 35.82717], [140.33185, 35.82655], [140.33127, 35.82597], [140.33056, 35.82527], [140.33025, 35.82499], [140.3301, 35.82484], [140.32999, 35.82473], [140.32993, 35.82464], [140.32978, 35.82438], [140.32967, 35.82423], [140.32961, 35.82409], [140.32947, 35.82382], [140.32937, 35.82361], [140.32892, 35.82261], [140.32865, 35.82203], [140.32818, 35.82103], [140.32796, 35.82056], [140.32795, 35.82051], [140.32793, 35.82048], [140.32774, 35.82007], [140.32757, 35.81968], [140.32748, 35.81947], [140.32732, 35.81915], [140.32721, 35.81895], [140.32711, 35.81866], [140.32701, 35.81838], [140.32699, 35.81824], [140.32697, 35.8182], [140.32696, 35.81802], [140.32695, 35.81743], [140.32695, 35.81706], [140.32695, 35.81698], [140.32692, 35.81667], [140.32687, 35.81553], [140.32683, 35.81435], [140.3268, 35.81351], [140.32681, 35.81333], [140.3268, 35.81317], [140.32678, 35.81305], [140.32676, 35.81298], [140.32672, 35.81278], [140.32672, 35.81273], [140.32669, 35.81263], [140.32659, 35.81236], [140.32636, 35.81193], [140.32622, 35.81171], [140.32621, 35.81167], [140.32615, 35.81159], [140.32606, 35.81143], [140.32603, 35.8114], [140.32578, 35.81098], [140.32575, 35.81093], [140.32567, 35.81081], [140.32563, 35.81072], [140.32519, 35.81], [140.3247, 35.80919], [140.32435, 35.80862], [140.3241, 35.8082], [140.32385, 35.80779], [140.32381, 35.80771], [140.32377, 35.80765], [140.32373, 35.80763], [140.32345, 35.80712], [140.32335, 35.80696], [140.32332, 35.80693], [140.32309, 35.80653], [140.32307, 35.80651], [140.32301, 35.8064], [140.32279, 35.80602], [140.32277, 35.806], [140.32275, 35.80595], [140.32266, 35.8058], [140.32263, 35.80579], [140.32232, 35.80524], [140.32217, 35.80499], [140.32176, 35.80426], [140.32164, 35.80407], [140.32144, 35.80379], [140.32126, 35.80356], [140.32121, 35.80352], [140.32113, 35.80342], [140.32096, 35.80325], [140.32089, 35.80317], [140.32087, 35.80316], [140.32084, 35.80312], [140.32032, 35.80267], [140.32018, 35.80255], [140.31995, 35.80234], [140.31975, 35.80218], [140.31866, 35.8012], [140.31844, 35.80098], [140.31834, 35.80089], [140.31811, 35.80068], [140.31795, 35.8005], [140.31772, 35.80024], [140.31768, 35.80019], [140.31746, 35.79989], [140.31732, 35.79971], [140.31714, 35.79948], [140.31607, 35.79809], [140.31564, 35.79752], [140.31532, 35.79712], [140.31514, 35.79688], [140.31491, 35.79658], [140.31481, 35.79645], [140.31479, 35.79643], [140.31461, 35.7962], [140.31408, 35.79555], [140.31387, 35.79527]]}, "properties": {"id": "TRACK_TOKYO_2768", "line_name": "成田線", "station_group_ids": [], "mode": "rail", "operator_id": "jr_east", "line_color": "#339966", "tags": ["tokyo", "track_centerline"]}}, {"type": "Feature", "bbox": [140.31281, 35.77898, 140.31462, 35.78287], "geometry": {"type": "LineString", "coordinates": [[140.31281, 35.78287], [140.31329, 35.78239], [140.31329, 35.78238], [140.31364, 35.78204], [140.3143, 35.78136], [140.31442, 35.78118], [140.31443, 35.78117], [140.31448, 35.78106], [140.31448, 35.78103], [140.31453, 35.78095], [140.31458, 35.78079], [140.3146, 35.78062], [140.31462, 35.78034], [140.31461, 35.78023], [140.31458, 35.77995], [140.31455, 35.77978], [140.31442, 35.77937], [140.31429, 35.77898]]}, "properties": {"id": "TRACK_TOKYO_2769", "line_name": "成田線", "station_group_ids": [], "mode": "rail", "operator_id": "jr_east", "line_color": "#339966", "tags": ["tokyo", "track_centerline"]}}, {"type": "Feature", "bbox": [140.19209, 35.83005, 140.19411, 35.83143], "geometry": {"type": "LineString", "coordinates": [[140.19411, 35.83005], [140.19314, 35.83073], [140.19209, 35.83143]]}, "properties": {"id": "TRACK_TOKYO_2774", "line_name": "成田線", "station_group_ids": [], "mode": "rail", "operator_id": "jr_east", "line_color": "#339966", "tags": ["tokyo", "track_centerline"]}}, {"type": "Feature", "bbox": [140.1493, 35.83143, 140.19209, 35.83976], "geometry": {"type": "LineString", "coordinates": [[140.19209, 35.83143], [140.19148, 35.8318], [140.18993, 35.83265], [140.18943, 35.83288], [140.18592, 35.83427], [140.18397, 35.83503], [140.18053, 35.83645], [140.1803, 35.83656], [140.17906, 35.83705], [140.17852, 35.83724], [140.17742, 35.8375], [140.17625, 35.83774], [140.17116, 35.83878], [140.17057, 35.83887], [140.17005, 35.83892], [140.16908, 35.83895], [140.16476, 35.83911], [140.16413, 35.83913], [140.16041, 35.83925], [140.15909, 35.83928], [140.15739, 35.83933], [140.15701, 35.83937], [140.15648, 35.83945], [140.15494, 35.83967], [140.15454, 35.83972], [140.15375, 35.83976], [140.15349, 35.83976], [140.15305, 35.83975], [140.1524, 35.83967], [140.15185, 35.83949], [140.15134, 35.83933], [140.15097, 35.8392], [140.15061, 35.83913], [140.15021, 35.83909], [140.1493, 35.83898]]}, "properties": {"id": "TRACK_TOKYO_2777", "line_name": "成田線", "station_group_ids": [], "mode": "rail", "operator_id": "jr_east", "line_color": "#339966", "tags": ["tokyo", "track_centerline"]}}, {"type": "Feature", "bbox": [140.14668, 35.83878, 140.1493, 35.83898], "geometry": {"type": "LineString", "coordinates": [[140.1493, 35.83898], [140.14668, 35.83878]]}, "properties": {"id": "TRACK_TOKYO_2783", "line_name": "成田線", "station_group_ids": [], "mode": "rail", "operator_id": "jr_east", "line_color": "#339966", "tags": ["tokyo", "track_centerline"]}}, {"type": "Feature", "bbox": [140.13339, 35.8387, 140.14668, 35.84839], "geometry": {"type": "LineString", "coordinates": [[140.14668, 35.83878], [140.14559, 35.8387], [140.14507, 35.8387], [140.14456, 35.8387], [140.14403, 35.83875], [140.14353, 35.83883], [140.14314, 35.83895], [140.14292, 35.83906], [140.14274, 35.83915], [140.14232, 35.83943], [140.14149, 35.84011], [140.14118, 35.84037], [140.13917, 35.84199], [140.13843, 35.8426], [140.13747, 35.84338], [140.13731, 35.84351], [140.13715, 35.84365], [140.13618, 35.84445], [140.13497, 35.84545], [140.13475, 35.84567], [140.13456, 35.84588], [140.1344, 35.84609], [140.13432, 35.84622], [140.13419, 35.84652], [140.13378, 35.84753], [140.13365, 35.84786], [140.13339, 35.84839]]}, "properties": {"id": "TRACK_TOKYO_2784", "line_name": "成田線", "station_group_ids": [], "mode": "rail", "operator_id": "jr_east", "line_color": "#339966", "tags": ["tokyo", "track_centerline"]}}, {"type": "Feature", "bbox": [140.22555, 35.70959, 140.22802, 35.7099], "geometry": {"type": "LineString", "coordinates": [[140.22555, 35.70959], [140.2258, 35.70962], [140.22765, 35.70985], [140.22802, 35.7099]]}, "properties": {"id": "TRACK_TOKYO_2785", "line_name": "成田線", "station_group_ids": [], "mode": "rail", "operator_id": "jr_east", "line_color": "#339966", "tags": ["tokyo", "track_centerline"]}}, {"type": "Feature", "bbox": [140.19987, 35.68519, 140.20076, 35.68626], "geometry": {"type": "LineString", "coordinates": [[140.20076, 35.68626], [140.19987, 35.68519]]}, "properties": {"id": "TRACK_TOKYO_2866", "line_name": "総武線", "station_group_ids": [], "mode": "rail", "operator_id": "jr_east", "line_color": "#F4C300", "tags": ["tokyo", "track_centerline"]}}, {"type": "Feature", "bbox": [140.28868, 35.66363, 140.31649, 35.68344], "geometry": {"type": "LineString", "coordinates": [[140.31649, 35.66363], [140.31628, 35.66374], [140.31522, 35.66428], [140.31428, 35.66473], [140.31329, 35.66522], [140.31248, 35.66561], [140.31072, 35.66649], [140.30849, 35.6676], [140.30657, 35.66854], [140.30543, 35.66912], [140.30446, 35.6696], [140.30383, 35.66992], [140.30247, 35.67058], [140.30129, 35.67115], [140.30006, 35.67178], [140.29898, 35.67242], [140.29828, 35.67292], [140.29776, 35.67337], [140.29693, 35.67412], [140.29553, 35.67571], [140.29543, 35.67582], [140.29289, 35.67868], [140.29153, 35.68023], [140.28905, 35.68302], [140.28868, 35.68344]]}, "properties": {"id": "TRACK_TOKYO_2870", "line_name": "総武線", "station_group_ids": [], "mode": "rail", "operator_id": "jr_east", "line_color": "#F4C300", "tags": ["tokyo", "track_centerline"]}}, {"type": "Feature", "bbox": [140.28755, 35.68344, 140.28868, 35.68471], "geometry": {"type": "LineString", "coordinates": [[140.28755, 35.68471], [140.28868, 35.68344]]}, "properties": {"id": "TRACK_TOKYO_2874", "line_name": "総武線", "station_group_ids": [], "mode": "rail", "operator_id": "jr_east", "line_color": "#F4C300", "tags": ["tokyo", "track_centerline"]}}, {"type": "Feature", "bbox": [140.25547, 35.70454, 140.26689, 35.70763], "geometry": {"type": "LineString", "coordinates": [[140.25547, 35.7073], [140.25673, 35.70757], [140.25795, 35.70763], [140.2583, 35.70758], [140.25889, 35.70746], [140.25966, 35.70726], [140.26082, 35.70679], [140.26229, 35.7062], [140.26395, 35.70555], [140.26454, 35.70533], [140.2655, 35.70499], [140.26666, 35.70461], [140.26689, 35.70454]]}, "properties": {"id": "TRACK_TOKYO_2878", "line_name": "総武線", "station_group_ids": [], "mode": "rail", "operator_id": "jr_east", "line_color": "#F4C300", "tags": ["tokyo", "track_centerline"]}}, {"type": "Feature", "bbox": [140.22802, 35.70639, 140.25547, 35.71085], "geometry": {"type": "LineString", "coordinates": [[140.22802, 35.7099], [140.22839, 35.70996], [140.22893, 35.71003], [140.22988, 35.71016], [140.23023, 35.71021], [140.23064, 35.71026], [140.23097, 35.7103], [140.23238, 35.71048], [140.2345, 35.71076], [140.23499, 35.7108], [140.23537, 35.71084], [140.23597, 35.71085], [140.23651, 35.71082], [140.23678, 35.7108], [140.23684, 35.71079], [140.23733, 35.71071], [140.23766, 35.71062], [140.23798, 35.71052], [140.23919, 35.71004], [140.24027, 35.70957], [140.24151, 35.70906], [140.24327, 35.7083], [140.24404, 35.70799], [140.24502, 35.70756], [140.24559, 35.70732], [140.24644, 35.70695], [140.24657, 35.7069], [140.24672, 35.70687], [140.24733, 35.70671], [140.2479, 35.70659], [140.24848, 35.70648], [140.24904, 35.70642], [140.24952, 35.70639], [140.25032, 35.70642], [140.25105, 35.7065], [140.25547, 35.7073]]}, "properties": {"id": "TRACK_TOKYO_2879", "line_name": "総武線", "station_group_ids": [], "mode": "rail", "operator_id": "jr_east", "line_color": "#F4C300", "tags": ["tokyo", "track_centerline"]}}, {"type": "Feature", "bbox": [140.26689, 35.70406, 140.26898, 35.70454], "geometry": {"type": "LineString", "coordinates": [[140.26689, 35.70454], [140.26728, 35.70444], [140.26809, 35.70425], [140.26898, 35.70406]]}, "properties": {"id": "TRACK_TOKYO_2883", "line_name": "総武線", "station_group_ids": [], "mode": "rail", "operator_id": "jr_east", "line_color": "#F4C300", "tags": ["tokyo", "track_centerline"]}}, {"type": "Feature", "bbox": [140.26898, 35.68471, 140.28755, 35.70406], "geometry": {"type": "LineString", "coordinates": [[140.26898, 35.70406], [140.26945, 35.70395], [140.27034, 35.70367], [140.27084, 35.70343], [140.27132, 35.70309], [140.27174, 35.70268], [140.2722, 35.70216], [140.27223, 35.70213], [140.27337, 35.70082], [140.27458, 35.69944], [140.27584, 35.698], [140.27668, 35.69704], [140.27868, 35.69475], [140.28038, 35.69285], [140.28315, 35.68971], [140.28351, 35.6893], [140.28671, 35.68565], [140.28755, 35.68471]]}, "properties": {"id": "TRACK_TOKYO_2890", "line_name": "総武線", "station_group_ids": [], "mode": "rail", "operator_id": "jr_east", "line_color": "#F4C300", "tags": ["tokyo", "track_centerline"]}}, {"type": "Feature", "bbox": [140.22555, 35.70959, 140.22802, 35.7099], "geometry": {"type": "LineString", "coordinates": [[140.22555, 35.70959], [140.2258, 35.70962], [140.22765, 35.70985], [140.22802, 35.7099]]}, "properties": {"id": "TRACK_TOKYO_2892", "line_name": "総武線", "station_group_ids": [], "mode": "rail", "operator_id": "jr_east", "line_color": "#F4C300", "tags": ["tokyo", "track_centerline"]}}, {"type": "Feature", "bbox": [140.20076, 35.68626, 140.22555, 35.70959], "geometry": {"type": "LineString", "coordinates": [[140.22555, 35.70959], [140.22529, 35.70956], [140.22298, 35.70926], [140.22251, 35.70921], [140.22217, 35.70917], [140.22176, 35.70912], [140.22134, 35.70907], [140.22089, 35.70899], [140.2207, 35.70895], [140.22028, 35.70885], [140.21966, 35.70866], [140.21916, 35.70845], [140.21865, 35.70819], [140.21821, 35.70792], [140.21786, 35.70766], [140.21784, 35.70764], [140.21734, 35.70723], [140.21664, 35.7066], [140.21612, 35.70613], [140.21574, 35.70578], [140.21521, 35.70531], [140.2134, 35.70362], [140.21311, 35.70334], [140.21304, 35.70328], [140.2119, 35.70226], [140.21141, 35.7018], [140.20975, 35.70027], [140.20909, 35.69966], [140.20879, 35.69939], [140.20833, 35.69897], [140.20822, 35.69887], [140.20723, 35.69797], [140.20672, 35.6975], [140.20655, 35.69731], [140.20626, 35.69699], [140.20612, 35.69681], [140.20589, 35.69653], [140.20554, 35.69604], [140.2054, 35.69581], [140.20519, 35.69545], [140.20506, 35.69518], [140.20486, 35.69467], [140.20475, 35.69433], [140.20468, 35.69399], [140.20452, 35.69336], [140.20438, 35.69278], [140.20403, 35.69126], [140.204, 35.69114], [140.20383, 35.69046], [140.20373, 35.69018], [140.20363, 35.6899], [140.20351, 35.68967], [140.2033, 35.68936], [140.20295, 35.68889], [140.20286, 35.68877], [140.20271, 35.6886], [140.20233, 35.68814], [140.20223, 35.68801], [140.20222, 35.68801], [140.20124, 35.68685], [140.20122, 35.68683], [140.20106, 35.68663], [140.20076, 35.68626]]}, "properties": {"id": "TRACK_TOKYO_2896", "line_name": "総武線", "station_group_ids": [], "mode": "rail", "operator_id": "jr_east", "line_color": "#F4C300", "tags": ["tokyo", "track_centerline"]}}, {"type": "Feature", "bbox": [140.16599, 35.66323, 140.19987, 35.68519], "geometry": {"type": "LineString", "coordinates": [[140.16599, 35.66323], [140.1666, 35.66345], [140.16813, 35.66401], [140.1692, 35.66445], [140.17005, 35.66481], [140.17044, 35.66501], [140.17118, 35.66545], [140.17371, 35.667], [140.17679, 35.66888], [140.178, 35.66965], [140.1784, 35.66991], [140.1785, 35.66996], [140.1787, 35.67008], [140.17907, 35.67029], [140.17988, 35.67077], [140.1812, 35.67156], [140.18201, 35.67204], [140.18234, 35.67224], [140.1828, 35.67257], [140.18337, 35.67305], [140.18371, 35.67337], [140.18468, 35.67445], [140.185, 35.67482], [140.1854, 35.67527], [140.18587, 35.67581], [140.18641, 35.67642], [140.18707, 35.67716], [140.18717, 35.67725], [140.18723, 35.6773], [140.1873, 35.67735], [140.18732, 35.67737], [140.18759, 35.67762], [140.18804, 35.67796], [140.18852, 35.67828], [140.18875, 35.67841], [140.18892, 35.67849], [140.18907, 35.67856], [140.18929, 35.67867], [140.18957, 35.67876], [140.19005, 35.6789], [140.19077, 35.67911], [140.19092, 35.67916], [140.19103, 35.67919], [140.19154, 35.67934], [140.19235, 35.67959], [140.19237, 35.6796], [140.19256, 35.67965], [140.19272, 35.6797], [140.19336, 35.67988], [140.19363, 35.67996], [140.19389, 35.68004], [140.19413, 35.68012], [140.19457, 35.6803], [140.19518, 35.68058], [140.19551, 35.68074], [140.19589, 35.68096], [140.19631, 35.68124], [140.19639, 35.68131], [140.19644, 35.68134], [140.19651, 35.68139], [140.19688, 35.68168], [140.1973, 35.68207], [140.19745, 35.68224], [140.19792, 35.68285], [140.19825, 35.68325], [140.19838, 35.6834], [140.19866, 35.68376], [140.19901, 35.68415], [140.19944, 35.68468], [140.19947, 35.6847], [140.19987, 35.68519]]}, "properties": {"id": "TRACK_TOKYO_2906", "line_name": "総武線", "station_group_ids": [], "mode": "rail", "operator_id": "jr_east", "line_color": "#F4C300", "tags": ["tokyo", "track_centerline"]}}, {"type": "Feature", "bbox": [140.292302, 35.79628, 140.32547, 35.799769], "geometry": {"type": "LineString", "coordinates": [[140.32547, 35.79628], [140.316903, 35.797095], [140.31556, 35.797267], [140.313998, 35.797559], [140.311531, 35.798238], [140.309959, 35.798746], [140.308156, 35.799197], [140.307015, 35.799433], [140.305162, 35.799683], [140.303607, 35.799769], [140.29746, 35.799683], [140.292302, 35.799577]]}, "properties": {"id": "TRACK_TOKYO_4475", "line_name": "成田空港線", "station_group_ids": [], "mode": "private", "operator_id": "keisei", "line_color": "#2457C5", "tags": ["tokyo", "track_centerline"]}}, {"type": "Feature", "bbox": [140.203038, 35.782579, 140.290659, 35.799543], "geometry": {"type": "LineString", "coordinates": [[140.290659, 35.799543], [140.285227, 35.799447], [140.284279, 35.799361], [140.282866, 35.799197], [140.278327, 35.798267], [140.27033, 35.796521], [140.268001, 35.795978], [140.265779, 35.795241], [140.259012, 35.792444], [140.249409, 35.78838], [140.240863, 35.784782], [140.23861, 35.783888], [140.237443, 35.783552], [140.236231, 35.783201], [140.234791, 35.782922], [140.233343, 35.782722], [140.231539, 35.782579], [140.229722, 35.782636], [140.228379, 35.782707], [140.226668, 35.782929], [140.220064, 35.784074], [140.213678, 35.785132], [140.209903, 35.785783], [140.20736, 35.78642], [140.203038, 35.787721]]}, "properties": {"id": "TRACK_TOKYO_4476", "line_name": "成田空港線", "station_group_ids": [], "mode": "private", "operator_id": "keisei", "line_color": "#2457C5", "tags": ["tokyo", "track_centerline"]}}, {"type": "Feature", "bbox": [140.290659, 35.799543, 140.292302, 35.799577], "geometry": {"type": "LineString", "coordinates": [[140.292302, 35.799577], [140.290659, 35.799543]]}, "properties": {"id": "TRACK_TOKYO_4477", "line_name": "成田空港線", "station_group_ids": [], "mode": "private", "operator_id": "keisei", "line_color": "#2457C5", "tags": ["tokyo", "track_centerline"]}}, {"type": "Feature", "bbox": [140.32547, 35.77733, 140.38449, 35.79628], "geometry": {"type": "LineString", "coordinates": [[140.38449, 35.77733], [140.38389, 35.77813], [140.38332, 35.77893], [140.38273, 35.77975], [140.38228, 35.78036], [140.38211, 35.78058], [140.38084, 35.78238], [140.38038, 35.78299], [140.38011, 35.78334], [140.37975, 35.78383], [140.37947, 35.78426], [140.37927, 35.78452], [140.37902, 35.78484], [140.37893, 35.78495], [140.37872, 35.78519], [140.37848, 35.78548], [140.37824, 35.78573], [140.3781, 35.78588], [140.3779, 35.78607], [140.37691, 35.78699], [140.37643, 35.7874], [140.37545, 35.78817], [140.37464, 35.78872], [140.37408, 35.78909], [140.37387, 35.78921], [140.3737, 35.78931], [140.37287, 35.78981], [140.37274, 35.78988], [140.37263, 35.78995], [140.37233, 35.79008], [140.37188, 35.79032], [140.37171, 35.7904], [140.37069, 35.79081], [140.36905, 35.79145], [140.36828, 35.79172], [140.36789, 35.79186], [140.36723, 35.79203], [140.36655, 35.79222], [140.36634, 35.79227], [140.36605, 35.79236], [140.36555, 35.79243], [140.365, 35.79256], [140.36438, 35.79266], [140.36312, 35.79282], [140.36212, 35.79291], [140.35944, 35.79316], [140.35707, 35.79339], [140.35649, 35.79346], [140.35134, 35.79393], [140.34753, 35.79426], [140.34655, 35.79434], [140.34547, 35.79446], [140.34491, 35.7945], [140.34486, 35.79451], [140.34071, 35.79489], [140.3393, 35.79502], [140.33496, 35.79543], [140.33422, 35.79548], [140.33337, 35.79556], [140.33233, 35.79566], [140.33212, 35.79568], [140.32931, 35.79593], [140.32828, 35.79603], [140.32616, 35.79622], [140.32547, 35.79628]]}, "properties": {"id": "TRACK_TOKYO_4500", "line_name": "成田空港線", "station_group_ids": [], "mode": "private", "operator_id": "keisei", "line_color": "#2457C5", "tags": ["tokyo", "track_centerline"]}}, {"type": "Feature", "bbox": [140.38449, 35.77414, 140.38676, 35.77733], "geometry": {"type": "LineString", "coordinates": [[140.38676, 35.77414], [140.3865, 35.77451], [140.38618, 35.77491], [140.3861, 35.77504], [140.38585, 35.77542], [140.38556, 35.77584], [140.38531, 35.77623], [140.38504, 35.77657], [140.38496, 35.77668], [140.38449, 35.77733]]}, "properties": {"id": "TRACK_TOKYO_4501", "line_name": "成田空港線", "station_group_ids": [], "mode": "private", "operator_id": "keisei", "line_color": "#2457C5", "tags": ["tokyo", "track_centerline"]}}, {"type": "Feature", "bbox": [140.38676, 35.77178, 140.38846, 35.77414], "geometry": {"type": "LineString", "coordinates": [[140.38846, 35.77178], [140.38676, 35.77414]]}, "properties": {"id": "TRACK_TOKYO_4502", "line_name": "成田空港線", "station_group_ids": [], "mode": "private", "operator_id": "keisei", "line_color": "#2457C5", "tags": ["tokyo", "track_centerline"]}}, {"type": "Feature", "bbox": [140.3871, 35.76693, 140.38896, 35.77178], "geometry": {"type": "LineString", "coordinates": [[140.3871, 35.76693], [140.3877, 35.7678], [140.388, 35.76828], [140.38883, 35.76973], [140.38893, 35.77001], [140.38896, 35.77025], [140.38893, 35.77063], [140.3889, 35.77096], [140.38882, 35.77116], [140.38866, 35.77143], [140.38846, 35.77178]]}, "properties": {"id": "TRACK_TOKYO_4503", "line_name": "成田空港線", "station_group_ids": [], "mode": "private", "operator_id": "keisei", "line_color": "#2457C5", "tags": ["tokyo", "track_centerline"]}}, {"type": "Feature", "bbox": [140.38551, 35.76452, 140.3871, 35.76693], "geometry": {"type": "LineString", "coordinates": [[140.38551, 35.76452], [140.3871, 35.76693]]}, "properties": {"id": "TRACK_TOKYO_4504", "line_name": "成田空港線", "station_group_ids": [], "mode": "private", "operator_id": "keisei", "line_color": "#2457C5", "tags": ["tokyo", "track_centerline"]}}, {"type": "Feature", "bbox": [140.20248, 35.787721, 140.203038, 35.78791], "geometry": {"type": "LineString", "coordinates": [[140.203038, 35.787721], [140.20248, 35.78791]]}, "properties": {"id": "TRACK_TOKYO_4507", "line_name": "成田空港線", "station_group_ids": [], "mode": "private", "operator_id": "keisei", "line_color": "#2457C5", "tags": ["tokyo", "track_centerline"]}}, {"type": "Feature", "bbox": [140.11702, 35.80046, 140.17323, 35.80585], "geometry": {"type": "LineString", "coordinates": [[140.17323, 35.80153], [140.17127, 35.80241], [140.16979, 35.80293], [140.16861, 35.80326], [140.16778, 35.80348], [140.16774, 35.80349], [140.16718, 35.80362], [140.1665, 35.80377], [140.16647, 35.80378], [140.1653, 35.80402], [140.1631, 35.80448], [140.15972, 35.80517], [140.15762, 35.8054], [140.15564, 35.80559], [140.15443, 35.80566], [140.15294, 35.80574], [140.15034, 35.8058], [140.1476, 35.80585], [140.14469, 35.80579], [140.14405, 35.80577], [140.14335, 35.80573], [140.14319, 35.80571], [140.14104, 35.80548], [140.13678, 35.80491], [140.13582, 35.80479], [140.13243, 35.80423], [140.13078, 35.80396], [140.12765, 35.80343], [140.12628, 35.80319], [140.12466, 35.80281], [140.12357, 35.80252], [140.12173, 35.80195], [140.1213, 35.8018], [140.12001, 35.8014], [140.11702, 35.80046]]}, "properties": {"id": "TRACK_TOKYO_4510", "line_name": "成田空港線", "station_group_ids": [], "mode": "private", "operator_id": "keisei", "line_color": "#2457C5", "tags": ["tokyo", "track_centerline"]}}, {"type": "Feature", "bbox": [140.17323, 35.79842, 140.17884, 35.80153], "geometry": {"type": "LineString", "coordinates": [[140.17323, 35.80153], [140.17501, 35.80041], [140.17702, 35.79926], [140.17723, 35.79916], [140.17884, 35.79842]]}, "properties": {"id": "TRACK_TOKYO_4511", "line_name": "成田空港線", "station_group_ids": [], "mode": "private", "operator_id": "keisei", "line_color": "#2457C5", "tags": ["tokyo", "track_centerline"]}}, {"type": "Feature", "bbox": [140.17323, 35.79842, 140.17884, 35.80153], "geometry": {"type": "LineString", "coordinates": [[140.17323, 35.80153], [140.17446, 35.80108], [140.1753, 35.80068], [140.17643, 35.80007], [140.17658, 35.79998], [140.17722, 35.7996], [140.17884, 35.79842]]}, "properties": {"id": "TRACK_TOKYO_4514", "line_name": "成田空港線", "station_group_ids": [], "mode": "private", "operator_id": "keisei", "line_color": "#2457C5", "tags": ["tokyo", "track_centerline"]}}, {"type": "Feature", "bbox": [140.17884, 35.78791, 140.20248, 35.79842], "geometry": {"type": "LineString", "coordinates": [[140.20248, 35.78791], [140.198243, 35.789132], [140.19551, 35.78995], [140.19388, 35.79054], [140.19337, 35.79072], [140.19269, 35.79102], [140.19019, 35.79217], [140.18803, 35.79324], [140.18795, 35.79328], [140.18523, 35.79478], [140.1809, 35.79726], [140.17884, 35.79842]]}, "properties": {"id": "TRACK_TOKYO_4515", "line_name": "成田空港線", "station_group_ids": [], "mode": "private", "operator_id": "keisei", "line_color": "#2457C5", "tags": ["tokyo", "track_centerline"]}}]}