{"type": "FeatureCollection", "features": [{"type": "Feature", "bbox": [140.16995, 35.53259, 140.17025, 35.5345], "geometry": {"type": "LineString", "coordinates": [[140.16995, 35.53259], [140.17006, 35.53326], [140.17023, 35.53441], [140.17025, 35.5345]]}, "properties": {"id": "TRACK_TOKYO_0171", "line_name": "千原線", "station_group_ids": [], "mode": "private", "operator_id": "keisei", "line_color": "#2457C5", "tags": ["tokyo", "track_centerline"]}}, {"type": "Feature", "bbox": [140.14922, 35.58371, 140.14992, 35.58427], "geometry": {"type": "LineString", "coordinates": [[140.14992, 35.58371], [140.14922, 35.58427]]}, "properties": {"id": "TRACK_TOKYO_0172", "line_name": "千原線", "station_group_ids": [], "mode": "private", "operator_id": "keisei", "line_color": "#2457C5", "tags": ["tokyo", "track_centerline"]}}, {"type": "Feature", "bbox": [140.14992, 35.56109, 140.16033, 35.58371], "geometry": {"type": "LineString", "coordinates": [[140.15851, 35.56109], [140.15863, 35.56169], [140.15867, 35.56188], [140.15871, 35.56208], [140.15876, 35.56231], [140.15903, 35.56352], [140.15906, 35.56368], [140.15913, 35.56406], [140.15926, 35.56469], [140.15933, 35.56502], [140.15938, 35.56528], [140.15952, 35.566], [140.15956, 35.5663], [140.1596, 35.56657], [140.15981, 35.56804], [140.16003, 35.56975], [140.16003, 35.56986], [140.1601, 35.57058], [140.16013, 35.57085], [140.16015, 35.57102], [140.16019, 35.57155], [140.1602, 35.57181], [140.16028, 35.57284], [140.1603, 35.57308], [140.16033, 35.57351], [140.16032, 35.57394], [140.16028, 35.57432], [140.1602, 35.57463], [140.1601, 35.575], [140.16, 35.57529], [140.15987, 35.57565], [140.15954, 35.5762], [140.15932, 35.57651], [140.15874, 35.57714], [140.15798, 35.57773], [140.15761, 35.57798], [140.1574, 35.57813], [140.15596, 35.57908], [140.15531, 35.57949], [140.15502, 35.57966], [140.15468, 35.57992], [140.15442, 35.58011], [140.15385, 35.58054], [140.15304, 35.58119], [140.1522, 35.58188], [140.15193, 35.5821], [140.15104, 35.58281], [140.1508, 35.583], [140.15022, 35.58347], [140.14992, 35.58371]]}, "properties": {"id": "TRACK_TOKYO_0173", "line_name": "千原線", "station_group_ids": [], "mode": "private", "operator_id": "keisei", "line_color": "#2457C5", "tags": ["tokyo", "track_centerline"]}}, {"type": "Feature", "bbox": [140.13274, 35.58427, 140.14922, 35.5902], "geometry": {"type": "LineString", "coordinates": [[140.14922, 35.58427], [140.14884, 35.58454], [140.1483, 35.58499], [140.14818, 35.58511], [140.14798, 35.58527], [140.14706, 35.58605], [140.1468, 35.58624], [140.14632, 35.58659], [140.14599, 35.58687], [140.1458, 35.58704], [140.14576, 35.58707], [140.14542, 35.58737], [140.1449, 35.5878], [140.14466, 35.58798], [140.14411, 35.58842], [140.14355, 35.58875], [140.14311, 35.58895], [140.14269, 35.58915], [140.14214, 35.58938], [140.14153, 35.58951], [140.14057, 35.58961], [140.14044, 35.58962], [140.13941, 35.5897], [140.13928, 35.58971], [140.13829, 35.58976], [140.13819, 35.58976], [140.13625, 35.58985], [140.13616, 35.58986], [140.1337, 35.59001], [140.13303, 35.59014], [140.13274, 35.5902]]}, "properties": {"id": "TRACK_TOKYO_0174", "line_name": "千原線", "station_group_ids": [], "mode": "private", "operator_id": "keisei", "line_color": "#2457C5", "tags": ["tokyo", "track_centerline"]}}, {"type": "Feature", "bbox": [140.15828, 35.55982, 140.15851, 35.56109], "geometry": {"type": "LineString", "coordinates": [[140.15828, 35.55982], [140.15836, 35.56024], [140.15845, 35.56072], [140.15851, 35.56109]]}, "properties": {"id": "TRACK_TOKYO_0175", "line_name": "千原線", "station_group_ids": [], "mode": "private", "operator_id": "keisei", "line_color": "#2457C5", "tags": ["tokyo", "track_centerline"]}}, {"type": "Feature", "bbox": [140.16708, 35.5345, 140.17156, 35.54975], "geometry": {"type": "LineString", "coordinates": [[140.17025, 35.5345], [140.17035, 35.53506], [140.17049, 35.53589], [140.17051, 35.53598], [140.17052, 35.53604], [140.17054, 35.53621], [140.17058, 35.53652], [140.17088, 35.53867], [140.17096, 35.5393], [140.17115, 35.54071], [140.17125, 35.54168], [140.17146, 35.54325], [140.17156, 35.5447], [140.17155, 35.5453], [140.17145, 35.54585], [140.17128, 35.54634], [140.17103, 35.54693], [140.17075, 35.54735], [140.17053, 35.54762], [140.1703, 35.54788], [140.17007, 35.54811], [140.16967, 35.54842], [140.16885, 35.54895], [140.16825, 35.54928], [140.16708, 35.54975]]}, "properties": {"id": "TRACK_TOKYO_0176", "line_name": "千原線", "station_group_ids": [], "mode": "private", "operator_id": "keisei", "line_color": "#2457C5", "tags": ["tokyo", "track_centerline"]}}, {"type": "Feature", "bbox": [140.16561, 35.54975, 140.16708, 35.55028], "geometry": {"type": "LineString", "coordinates": [[140.16708, 35.54975], [140.16678, 35.54986], [140.16589, 35.55018], [140.16561, 35.55028]]}, "properties": {"id": "TRACK_TOKYO_0177", "line_name": "千原線", "station_group_ids": [], "mode": "private", "operator_id": "keisei", "line_color": "#2457C5", "tags": ["tokyo", "track_centerline"]}}, {"type": "Feature", "bbox": [140.1578, 35.55028, 140.16561, 35.55982], "geometry": {"type": "LineString", "coordinates": [[140.16561, 35.55028], [140.16488, 35.55054], [140.16179, 35.5516], [140.16132, 35.55179], [140.161, 35.55192], [140.16039, 35.55229], [140.15944, 35.553], [140.15895, 35.55349], [140.15856, 35.55398], [140.15818, 35.55461], [140.15789, 35.55563], [140.15784, 35.55597], [140.1578, 35.5567], [140.1579, 35.55771], [140.15826, 35.5597], [140.15828, 35.55982]]}, "properties": {"id": "TRACK_TOKYO_0178", "line_name": "千原線", "station_group_ids": [], "mode": "private", "operator_id": "keisei", "line_color": "#2457C5", "tags": ["tokyo", "track_centerline"]}}, {"type": "Feature", "bbox": [140.28868, 35.66363, 140.31649, 35.68344], "geometry": {"type": "LineString", "coordinates": [[140.31649, 35.66363], [140.31628, 35.66374], [140.31522, 35.66428], [140.31428, 35.66473], [140.31329, 35.66522], [140.31248, 35.66561], [140.31072, 35.66649], [140.30849, 35.6676], [140.30657, 35.66854], [140.30543, 35.66912], [140.30446, 35.6696], [140.30383, 35.66992], [140.30247, 35.67058], [140.30129, 35.67115], [140.30006, 35.67178], [140.29898, 35.67242], [140.29828, 35.67292], [140.29776, 35.67337], [140.29693, 35.67412], [140.29553, 35.67571], [140.29543, 35.67582], [140.29289, 35.67868], [140.29153, 35.68023], [140.28905, 35.68302], [140.28868, 35.68344]]}, "properties": {"id": "TRACK_TOKYO_2540", "line_name": "総武線", "station_group_ids": [], "mode": "rail", "operator_id": "jr_east", "line_color": "#F4C300", "tags": ["tokyo", "track_centerline"]}}, {"type": "Feature", "bbox": [140.31649, 35.66272, 140.31834, 35.66363], "geometry": {"type": "LineString", "coordinates": [[140.31834, 35.66272], [140.31649, 35.66363]]}, "properties": {"id": "TRACK_TOKYO_2561", "line_name": "総武線", "station_group_ids": [], "mode": "rail", "operator_id": "jr_east", "line_color": "#F4C300", "tags": ["tokyo", "track_centerline"]}}, {"type": "Feature", "bbox": [140.15046, 35.63692, 140.1638, 35.66235], "geometry": {"type": "LineString", "coordinates": [[140.1638, 35.66235], [140.16253, 35.66186], [140.1612, 35.66133], [140.16033, 35.66086], [140.15989, 35.66059], [140.15951, 35.66036], [140.15884, 35.65982], [140.1586, 35.6596], [140.15824, 35.65928], [140.1578, 35.65874], [140.15753, 35.65832], [140.1573, 35.65788], [140.15703, 35.65726], [140.1568, 35.65648], [140.1566, 35.65562], [140.15624, 35.65365], [140.15597, 35.6522], [140.15559, 35.65012], [140.15552, 35.64977], [140.15511, 35.64749], [140.15486, 35.64606], [140.15417, 35.64227], [140.15403, 35.64159], [140.15395, 35.64121], [140.1537, 35.64045], [140.15343, 35.63989], [140.15301, 35.63925], [140.15263, 35.63876], [140.15214, 35.63829], [140.15151, 35.63772], [140.15046, 35.63692]]}, "properties": {"id": "TRACK_TOKYO_2567", "line_name": "総武線", "station_group_ids": [], "mode": "rail", "operator_id": "jr_east", "line_color": "#F4C300", "tags": ["tokyo", "track_centerline"]}}, {"type": "Feature", "bbox": [140.16599, 35.66323, 140.19987, 35.68519], "geometry": {"type": "LineString", "coordinates": [[140.16599, 35.66323], [140.1666, 35.66345], [140.16813, 35.66401], [140.1692, 35.66445], [140.17005, 35.66481], [140.17044, 35.66501], [140.17118, 35.66545], [140.17371, 35.667], [140.17679, 35.66888], [140.178, 35.66965], [140.1784, 35.66991], [140.1785, 35.66996], [140.1787, 35.67008], [140.17907, 35.67029], [140.17988, 35.67077], [140.1812, 35.67156], [140.18201, 35.67204], [140.18234, 35.67224], [140.1828, 35.67257], [140.18337, 35.67305], [140.18371, 35.67337], [140.18468, 35.67445], [140.185, 35.67482], [140.1854, 35.67527], [140.18587, 35.67581], [140.18641, 35.67642], [140.18707, 35.67716], [140.18717, 35.67725], [140.18723, 35.6773], [140.1873, 35.67735], [140.18732, 35.67737], [140.18759, 35.67762], [140.18804, 35.67796], [140.18852, 35.67828], [140.18875, 35.67841], [140.18892, 35.67849], [140.18907, 35.67856], [140.18929, 35.67867], [140.18957, 35.67876], [140.19005, 35.6789], [140.19077, 35.67911], [140.19092, 35.67916], [140.19103, 35.67919], [140.19154, 35.67934], [140.19235, 35.67959], [140.19237, 35.6796], [140.19256, 35.67965], [140.19272, 35.6797], [140.19336, 35.67988], [140.19363, 35.67996], [140.19389, 35.68004], [140.19413, 35.68012], [140.19457, 35.6803], [140.19518, 35.68058], [140.19551, 35.68074], [140.19589, 35.68096], [140.19631, 35.68124], [140.19639, 35.68131], [140.19644, 35.68134], [140.19651, 35.68139], [140.19688, 35.68168], [140.1973, 35.68207], [140.19745, 35.68224], [140.19792, 35.68285], [140.19825, 35.68325], [140.19838, 35.6834], [140.19866, 35.68376], [140.19901, 35.68415], [140.19944, 35.68468], [140.19947, 35.6847], [140.19987, 35.68519]]}, "properties": {"id": "TRACK_TOKYO_2576", "line_name": "総武線", "station_group_ids": [], "mode": "rail", "operator_id": "jr_east", "line_color": "#F4C300", "tags": ["tokyo", "track_centerline"]}}, {"type": "Feature", "bbox": [140.1638, 35.66235, 140.16599, 35.66323], "geometry": {"type": "LineString", "coordinates": [[140.16599, 35.66323], [140.16567, 35.66309], [140.16534, 35.66296], [140.1638, 35.66235]]}, "properties": {"id": "TRACK_TOKYO_2584", "line_name": "総武線", "station_group_ids": [], "mode": "rail", "operator_id": "jr_east", "line_color": "#F4C300", "tags": ["tokyo", "track_centerline"]}}, {"type": "Feature", "bbox": [140.40838, 35.60852, 140.41218, 35.60855], "geometry": {"type": "LineString", "coordinates": [[140.41218, 35.60855], [140.40838, 35.60852]]}, "properties": {"id": "TRACK_TOKYO_2623", "line_name": "総武線", "station_group_ids": [], "mode": "rail", "operator_id": "jr_east", "line_color": "#F4C300", "tags": ["tokyo", "track_centerline"]}}, {"type": "Feature", "bbox": [140.31834, 35.62862, 140.36174, 35.66272], "geometry": {"type": "LineString", "coordinates": [[140.36174, 35.62862], [140.36127, 35.62886], [140.36074, 35.62911], [140.36044, 35.6293], [140.35913, 35.6302], [140.35745, 35.63141], [140.35694, 35.63177], [140.35621, 35.6323], [140.35542, 35.63288], [140.35491, 35.63324], [140.35387, 35.6341], [140.35353, 35.63443], [140.35331, 35.63465], [140.35304, 35.63497], [140.35277, 35.6353], [140.35249, 35.63573], [140.35233, 35.63601], [140.35219, 35.63628], [140.352, 35.6367], [140.35192, 35.63689], [140.35147, 35.63795], [140.35089, 35.63938], [140.35037, 35.64062], [140.35016, 35.64113], [140.34992, 35.64171], [140.34975, 35.6421], [140.34961, 35.64241], [140.34948, 35.64262], [140.3493, 35.64286], [140.34906, 35.64315], [140.34884, 35.64339], [140.34866, 35.64354], [140.3485, 35.64367], [140.3483, 35.64381], [140.34809, 35.64393], [140.34773, 35.64411], [140.34684, 35.64447], [140.34679, 35.6445], [140.34537, 35.64511], [140.34477, 35.64536], [140.34396, 35.6457], [140.34353, 35.64588], [140.34323, 35.64601], [140.34293, 35.64616], [140.34265, 35.64632], [140.34105, 35.64727], [140.33974, 35.64808], [140.33894, 35.64858], [140.3385, 35.64886], [140.33824, 35.64901], [140.33804, 35.64916], [140.33763, 35.6495], [140.33756, 35.64956], [140.33733, 35.64983], [140.33707, 35.65014], [140.33696, 35.6503], [140.33667, 35.65085], [140.33615, 35.65205], [140.33584, 35.6527], [140.33548, 35.65321], [140.3353, 35.65341], [140.3351, 35.6536], [140.33491, 35.65374], [140.33475, 35.65384], [140.3346, 35.65394], [140.3343, 35.65405], [140.33367, 35.65428], [140.33321, 35.65443], [140.33238, 35.65463], [140.33194, 35.65479], [140.33169, 35.65491], [140.33145, 35.65504], [140.33042, 35.6557], [140.3301, 35.65591], [140.3287, 35.65682], [140.32807, 35.65724], [140.32746, 35.65763], [140.32613, 35.65847], [140.32481, 35.65936], [140.32421, 35.65976], [140.32392, 35.65991], [140.32316, 35.6603], [140.32099, 35.66139], [140.31834, 35.66272]]}, "properties": {"id": "TRACK_TOKYO_2624", "line_name": "総武線", "station_group_ids": [], "mode": "rail", "operator_id": "jr_east", "line_color": "#F4C300", "tags": ["tokyo", "track_centerline"]}}, {"type": "Feature", "bbox": [140.41378, 35.60855, 140.45728, 35.63553], "geometry": {"type": "LineString", "coordinates": [[140.41378, 35.60855], [140.41561, 35.60858], [140.41593, 35.60858], [140.41619, 35.60858], [140.41771, 35.6086], [140.4201, 35.60862], [140.42252, 35.60864], [140.42253, 35.60866], [140.42261, 35.60864], [140.4249, 35.60866], [140.42649, 35.60867], [140.42695, 35.60869], [140.42742, 35.60873], [140.4276, 35.60876], [140.42799, 35.60881], [140.42844, 35.60889], [140.42862, 35.60893], [140.42893, 35.60904], [140.4293, 35.6092], [140.42969, 35.60942], [140.43007, 35.60964], [140.43074, 35.61003], [140.43133, 35.61038], [140.43171, 35.61059], [140.43228, 35.61093], [140.43233, 35.61096], [140.43313, 35.61142], [140.43357, 35.61167], [140.43382, 35.61182], [140.43434, 35.61211], [140.43467, 35.61233], [140.43507, 35.61265], [140.43546, 35.61304], [140.43621, 35.61381], [140.43779, 35.61544], [140.43859, 35.61627], [140.43954, 35.61725], [140.43982, 35.61755], [140.44078, 35.61855], [140.44192, 35.61971], [140.44224, 35.62005], [140.44226, 35.62006], [140.44228, 35.62009], [140.4427, 35.62052], [140.44272, 35.62052], [140.44276, 35.62059], [140.44278, 35.62059], [140.44285, 35.62067], [140.4441, 35.62196], [140.44449, 35.62236], [140.44543, 35.62334], [140.44547, 35.62338], [140.4455, 35.6234], [140.44552, 35.62342], [140.44574, 35.62366], [140.44583, 35.62374], [140.44636, 35.6243], [140.44653, 35.62448], [140.44823, 35.62624], [140.4483, 35.62631], [140.44859, 35.62661], [140.45001, 35.62808], [140.45041, 35.6285], [140.4507, 35.62879], [140.45091, 35.62902], [140.45098, 35.62908], [140.45212, 35.63026], [140.45219, 35.63031], [140.45303, 35.63119], [140.4539, 35.63208], [140.45575, 35.63397], [140.45572, 35.63397], [140.45576, 35.63398], [140.4558, 35.63403], [140.45601, 35.63425], [140.45728, 35.63553]]}, "properties": {"id": "TRACK_TOKYO_2625", "line_name": "総武線", "station_group_ids": [], "mode": "rail", "operator_id": "jr_east", "line_color": "#F4C300", "tags": ["tokyo", "track_centerline"]}}, {"type": "Feature", "bbox": [140.41218, 35.60855, 140.41378, 35.60856], "geometry": {"type": "LineString", "coordinates": [[140.41218, 35.60855], [140.41347, 35.60856], [140.41378, 35.60855]]}, "properties": {"id": "TRACK_TOKYO_2626", "line_name": "総武線", "station_group_ids": [], "mode": "rail", "operator_id": "jr_east", "line_color": "#F4C300", "tags": ["tokyo", "track_centerline"]}}, {"type": "Feature", "bbox": [140.36312, 35.60847, 140.40838, 35.62797], "geometry": {"type": "LineString", "coordinates": [[140.40838, 35.60852], [140.40821, 35.60852], [140.40476, 35.60849], [140.40468, 35.6085], [140.40449, 35.60849], [140.40438, 35.60849], [140.40183, 35.60847], [140.40144, 35.60849], [140.40115, 35.60854], [140.4006, 35.60864], [140.39973, 35.60883], [140.39872, 35.60904], [140.3986, 35.60908], [140.39804, 35.6092], [140.39767, 35.60928], [140.39727, 35.60936], [140.3964, 35.60955], [140.39566, 35.6097], [140.39563, 35.60972], [140.39547, 35.60975], [140.39538, 35.60977], [140.39504, 35.60984], [140.39499, 35.60986], [140.39475, 35.6099], [140.39446, 35.60996], [140.39421, 35.61003], [140.39317, 35.61025], [140.39273, 35.61034], [140.39272, 35.61035], [140.39106, 35.6107], [140.39087, 35.61074], [140.39022, 35.61088], [140.38989, 35.61095], [140.38973, 35.61098], [140.38886, 35.61117], [140.38737, 35.61149], [140.38729, 35.6115], [140.38701, 35.61157], [140.38656, 35.61166], [140.38599, 35.61178], [140.38594, 35.6118], [140.3858, 35.61182], [140.38564, 35.61187], [140.38499, 35.612], [140.38398, 35.61222], [140.38379, 35.61226], [140.38331, 35.61236], [140.38172, 35.6127], [140.38167, 35.61271], [140.3804, 35.61298], [140.38001, 35.61309], [140.37965, 35.61321], [140.37929, 35.61337], [140.37901, 35.61352], [140.37872, 35.61372], [140.37838, 35.61399], [140.37789, 35.61445], [140.37769, 35.61469], [140.37763, 35.61475], [140.37743, 35.61499], [140.37719, 35.61529], [140.37653, 35.61616], [140.37576, 35.61716], [140.37541, 35.61759], [140.37496, 35.61818], [140.37416, 35.61919], [140.37293, 35.62075], [140.37219, 35.6217], [140.37171, 35.62229], [140.37159, 35.62246], [140.37128, 35.62289], [140.37093, 35.6234], [140.37068, 35.62367], [140.37049, 35.62392], [140.37005, 35.62436], [140.3696, 35.62475], [140.36909, 35.62515], [140.36867, 35.62542], [140.36803, 35.62576], [140.36698, 35.62626], [140.36645, 35.6265], [140.36564, 35.62685], [140.36467, 35.62729], [140.36347, 35.62781], [140.36312, 35.62797]]}, "properties": {"id": "TRACK_TOKYO_2628", "line_name": "総武線", "station_group_ids": [], "mode": "rail", "operator_id": "jr_east", "line_color": "#F4C300", "tags": ["tokyo", "track_centerline"]}}, {"type": "Feature", "bbox": [140.1233, 35.6177, 140.14791, 35.63512], "geometry": {"type": "LineString", "coordinates": [[140.14791, 35.63512], [140.14752, 35.63483], [140.14601, 35.63372], [140.14556, 35.63338], [140.14531, 35.63321], [140.14519, 35.63312], [140.14474, 35.63281], [140.14097, 35.63003], [140.13983, 35.6292], [140.13694, 35.62711], [140.13622, 35.62657], [140.13248, 35.62385], [140.13041, 35.62235], [140.13039, 35.62234], [140.13001, 35.62207], [140.1262, 35.61958], [140.12572, 35.61927], [140.12568, 35.61924], [140.1233, 35.6177]]}, "properties": {"id": "TRACK_TOKYO_2633", "line_name": "総武線", "station_group_ids": [], "mode": "rail", "operator_id": "jr_east", "line_color": "#F4C300", "tags": ["tokyo", "track_centerline"]}}, {"type": "Feature", "bbox": [140.36174, 35.62797, 140.36312, 35.62862], "geometry": {"type": "LineString", "coordinates": [[140.36312, 35.62797], [140.36174, 35.62862]]}, "properties": {"id": "TRACK_TOKYO_2634", "line_name": "総武線", "station_group_ids": [], "mode": "rail", "operator_id": "jr_east", "line_color": "#F4C300", "tags": ["tokyo", "track_centerline"]}}, {"type": "Feature", "bbox": [140.14791, 35.63512, 140.15046, 35.63692], "geometry": {"type": "LineString", "coordinates": [[140.15046, 35.63692], [140.14791, 35.63512]]}, "properties": {"id": "TRACK_TOKYO_2635", "line_name": "総武線", "station_group_ids": [], "mode": "rail", "operator_id": "jr_east", "line_color": "#F4C300", "tags": ["tokyo", "track_centerline"]}}]}