{"type": "FeatureCollection", "features": [{"type": "Feature", "bbox": [140.19102, 35.11761, 140.22531, 35.12927], "geometry": {"type": "LineString", "coordinates": [[140.19102, 35.12885], [140.19245, 35.12908], [140.19264, 35.12912], [140.19334, 35.12923], [140.19365, 35.12927], [140.19439, 35.12927], [140.1946, 35.12924], [140.19492, 35.12918], [140.19512, 35.12911], [140.19541, 35.12899], [140.19575, 35.1288], [140.19605, 35.12859], [140.19624, 35.12842], [140.19644, 35.12818], [140.19668, 35.12786], [140.19696, 35.12743], [140.19726, 35.12695], [140.19755, 35.1264], [140.19767, 35.12619], [140.19781, 35.12604], [140.19838, 35.12547], [140.20017, 35.1239], [140.2008, 35.12335], [140.20091, 35.12323], [140.20093, 35.12322], [140.20096, 35.1232], [140.20156, 35.12266], [140.20184, 35.12238], [140.20192, 35.12232], [140.20287, 35.1214], [140.20318, 35.12113], [140.20321, 35.12109], [140.20385, 35.12047], [140.2041, 35.12021], [140.2044, 35.11994], [140.20472, 35.11972], [140.20485, 35.11966], [140.20513, 35.11954], [140.20539, 35.11946], [140.20549, 35.11945], [140.20559, 35.11942], [140.20604, 35.11936], [140.20618, 35.11935], [140.20742, 35.11917], [140.20802, 35.11908], [140.21215, 35.11848], [140.2137, 35.11825], [140.21765, 35.11767], [140.2182, 35.11761], [140.21881, 35.11763], [140.21916, 35.11765], [140.21936, 35.11767], [140.22016, 35.11774], [140.22073, 35.11778], [140.22462, 35.11814], [140.22531, 35.11821]]}, "properties": {"id": "TRACK_TOKYO_2158", "line_name": "外房線", "station_group_ids": [], "mode": "rail", "operator_id": "jr_east", "line_color": "#D9352A", "tags": ["tokyo", "track_centerline"]}}, {"type": "Feature", "bbox": [140.27946, 35.14152, 140.31111, 35.15281], "geometry": {"type": "LineString", "coordinates": [[140.31111, 35.15215], [140.31068, 35.15191], [140.31001, 35.15158], [140.30936, 35.15136], [140.30868, 35.15121], [140.30857, 35.1512], [140.30819, 35.15118], [140.30816, 35.15117], [140.30755, 35.15118], [140.30704, 35.15123], [140.30581, 35.15144], [140.30407, 35.15179], [140.30384, 35.15184], [140.30248, 35.15215], [140.30202, 35.15229], [140.30133, 35.1525], [140.30041, 35.15272], [140.30014, 35.15277], [140.29981, 35.15281], [140.29949, 35.15281], [140.29917, 35.15278], [140.29888, 35.15271], [140.29864, 35.15265], [140.29838, 35.15256], [140.29737, 35.15214], [140.29717, 35.15206], [140.29671, 35.15183], [140.29651, 35.15174], [140.29611, 35.15156], [140.2954, 35.15131], [140.29493, 35.1511], [140.29441, 35.15084], [140.2939, 35.15053], [140.29367, 35.15032], [140.29313, 35.1499], [140.2924, 35.1493], [140.29099, 35.14816], [140.28956, 35.14692], [140.2888, 35.14631], [140.2881, 35.1458], [140.28746, 35.14543], [140.28707, 35.14521], [140.28668, 35.14501], [140.28641, 35.1449], [140.28535, 35.14442], [140.28437, 35.14393], [140.28295, 35.14328], [140.28276, 35.1432], [140.281, 35.14235], [140.2802, 35.14194], [140.27978, 35.14172], [140.27946, 35.14152]]}, "properties": {"id": "TRACK_TOKYO_2164", "line_name": "外房線", "station_group_ids": [], "mode": "rail", "operator_id": "jr_east", "line_color": "#D9352A", "tags": ["tokyo", "track_centerline"]}}, {"type": "Feature", "bbox": [140.27847, 35.14098, 140.27946, 35.14152], "geometry": {"type": "LineString", "coordinates": [[140.27946, 35.14152], [140.27847, 35.14098]]}, "properties": {"id": "TRACK_TOKYO_2165", "line_name": "外房線", "station_group_ids": [], "mode": "rail", "operator_id": "jr_east", "line_color": "#D9352A", "tags": ["tokyo", "track_centerline"]}}, {"type": "Feature", "bbox": [140.31546, 35.15466, 140.32733, 35.16582], "geometry": {"type": "LineString", "coordinates": [[140.31546, 35.15466], [140.31689, 35.15524], [140.3179, 35.1556], [140.31944, 35.15605], [140.32006, 35.15628], [140.32076, 35.15663], [140.3213, 35.15707], [140.32178, 35.15761], [140.32239, 35.15838], [140.32445, 35.16103], [140.32495, 35.16167], [140.32535, 35.16222], [140.32564, 35.16266], [140.32581, 35.16307], [140.32605, 35.16411], [140.32614, 35.1644], [140.32634, 35.16482], [140.32654, 35.16512], [140.32674, 35.16534], [140.32733, 35.16582]]}, "properties": {"id": "TRACK_TOKYO_2170", "line_name": "外房線", "station_group_ids": [], "mode": "rail", "operator_id": "jr_east", "line_color": "#D9352A", "tags": ["tokyo", "track_centerline"]}}, {"type": "Feature", "bbox": [140.24977, 35.13694, 140.25117, 35.13749], "geometry": {"type": "LineString", "coordinates": [[140.25117, 35.13749], [140.24977, 35.13694]]}, "properties": {"id": "TRACK_TOKYO_2178", "line_name": "外房線", "station_group_ids": [], "mode": "rail", "operator_id": "jr_east", "line_color": "#D9352A", "tags": ["tokyo", "track_centerline"]}}, {"type": "Feature", "bbox": [140.15384, 35.12546, 140.15564, 35.12612], "geometry": {"type": "LineString", "coordinates": [[140.15384, 35.12546], [140.15564, 35.12612]]}, "properties": {"id": "TRACK_TOKYO_2180", "line_name": "外房線", "station_group_ids": [], "mode": "rail", "operator_id": "jr_east", "line_color": "#D9352A", "tags": ["tokyo", "track_centerline"]}}, {"type": "Feature", "bbox": [140.31111, 35.15215, 140.31283, 35.15309], "geometry": {"type": "LineString", "coordinates": [[140.31283, 35.15309], [140.31111, 35.15215]]}, "properties": {"id": "TRACK_TOKYO_2182", "line_name": "外房線", "station_group_ids": [], "mode": "rail", "operator_id": "jr_east", "line_color": "#D9352A", "tags": ["tokyo", "track_centerline"]}}, {"type": "Feature", "bbox": [140.22611, 35.1183, 140.24977, 35.13694], "geometry": {"type": "LineString", "coordinates": [[140.24977, 35.13694], [140.24847, 35.13642], [140.24704, 35.13588], [140.24674, 35.13576], [140.24661, 35.13569], [140.24623, 35.13547], [140.24552, 35.13501], [140.24508, 35.1347], [140.24491, 35.13457], [140.24478, 35.13447], [140.24465, 35.13437], [140.24461, 35.13433], [140.24448, 35.13419], [140.24429, 35.13398], [140.24396, 35.13359], [140.24392, 35.13354], [140.24389, 35.13346], [140.24384, 35.13319], [140.24377, 35.13289], [140.24373, 35.13272], [140.2437, 35.13245], [140.24369, 35.13243], [140.24364, 35.13218], [140.24353, 35.13172], [140.24347, 35.13152], [140.2434, 35.13135], [140.24328, 35.13112], [140.24312, 35.13089], [140.2431, 35.13084], [140.243, 35.13071], [140.24283, 35.13052], [140.2428, 35.13051], [140.24238, 35.13018], [140.2419, 35.12986], [140.24146, 35.12959], [140.24021, 35.12878], [140.23987, 35.12852], [140.23954, 35.12825], [140.23896, 35.12769], [140.23872, 35.1274], [140.23848, 35.12712], [140.23828, 35.12694], [140.23808, 35.12679], [140.23772, 35.12656], [140.2369, 35.12605], [140.23294, 35.12371], [140.23137, 35.12279], [140.2311, 35.12264], [140.23088, 35.12249], [140.23062, 35.12228], [140.23051, 35.12217], [140.23031, 35.12198], [140.23012, 35.12171], [140.22997, 35.12146], [140.22971, 35.12098], [140.22953, 35.12058], [140.22938, 35.1202], [140.22916, 35.11973], [140.2291, 35.11965], [140.22907, 35.11959], [140.22894, 35.11943], [140.22849, 35.11902], [140.22814, 35.11879], [140.22789, 35.11867], [140.22772, 35.11858], [140.22749, 35.11849], [140.22724, 35.11843], [140.22674, 35.11835], [140.22634, 35.11831], [140.2263, 35.1183], [140.22611, 35.1183]]}, "properties": {"id": "TRACK_TOKYO_2193", "line_name": "外房線", "station_group_ids": [], "mode": "rail", "operator_id": "jr_east", "line_color": "#D9352A", "tags": ["tokyo", "track_centerline"]}}, {"type": "Feature", "bbox": [140.18852, 35.12842, 140.19102, 35.12885], "geometry": {"type": "LineString", "coordinates": [[140.19102, 35.12885], [140.18852, 35.12842]]}, "properties": {"id": "TRACK_TOKYO_2194", "line_name": "外房線", "station_group_ids": [], "mode": "rail", "operator_id": "jr_east", "line_color": "#D9352A", "tags": ["tokyo", "track_centerline"]}}, {"type": "Feature", "bbox": [140.25117, 35.13749, 140.27847, 35.14098], "geometry": {"type": "LineString", "coordinates": [[140.27847, 35.14098], [140.27766, 35.1405], [140.27708, 35.14011], [140.27682, 35.13991], [140.27645, 35.13955], [140.27621, 35.13941], [140.2759, 35.13928], [140.27557, 35.13919], [140.27504, 35.13905], [140.27473, 35.139], [140.27466, 35.139], [140.27447, 35.139], [140.27439, 35.13901], [140.27406, 35.13904], [140.27368, 35.13911], [140.27361, 35.13913], [140.27339, 35.13919], [140.27317, 35.13925], [140.27279, 35.13939], [140.27245, 35.13955], [140.27194, 35.13982], [140.27165, 35.13996], [140.27095, 35.14028], [140.27034, 35.14054], [140.27, 35.14065], [140.26965, 35.1407], [140.26927, 35.14073], [140.26882, 35.14069], [140.26789, 35.14057], [140.26732, 35.14048], [140.26684, 35.14042], [140.26642, 35.1404], [140.26583, 35.14039], [140.26501, 35.14045], [140.26438, 35.1405], [140.26392, 35.1405], [140.2635, 35.14048], [140.26327, 35.14045], [140.26287, 35.14034], [140.2625, 35.14021], [140.2621, 35.14002], [140.26161, 35.13975], [140.26136, 35.13961], [140.26109, 35.13941], [140.26073, 35.13919], [140.26014, 35.13895], [140.25929, 35.13869], [140.25897, 35.13865], [140.25848, 35.13863], [140.25827, 35.13864], [140.2572, 35.13878], [140.25589, 35.13888], [140.25549, 35.13889], [140.25476, 35.13879], [140.25443, 35.13871], [140.25236, 35.13795], [140.25117, 35.13749]]}, "properties": {"id": "TRACK_TOKYO_2198", "line_name": "外房線", "station_group_ids": [], "mode": "rail", "operator_id": "jr_east", "line_color": "#D9352A", "tags": ["tokyo", "track_centerline"]}}, {"type": "Feature", "bbox": [140.31546, 35.15466, 140.32733, 35.16582], "geometry": {"type": "LineString", "coordinates": [[140.31546, 35.15466], [140.31607, 35.15504], [140.31706, 35.15554], [140.31761, 35.15574], [140.31808, 35.15589], [140.3187, 35.15605], [140.3192, 35.15618], [140.3196, 35.15631], [140.31994, 35.15644], [140.32024, 35.1566], [140.32051, 35.15677], [140.32097, 35.15716], [140.32133, 35.15759], [140.32165, 35.15807], [140.32332, 35.16084], [140.32453, 35.16291], [140.32522, 35.164], [140.32547, 35.16435], [140.32579, 35.1647], [140.32619, 35.16507], [140.32692, 35.16561], [140.32733, 35.16582]]}, "properties": {"id": "TRACK_TOKYO_2202", "line_name": "外房線", "station_group_ids": [], "mode": "rail", "operator_id": "jr_east", "line_color": "#D9352A", "tags": ["tokyo", "track_centerline"]}}, {"type": "Feature", "bbox": [140.15564, 35.12481, 140.18852, 35.12945], "geometry": {"type": "LineString", "coordinates": [[140.15564, 35.12612], [140.15571, 35.12613], [140.15605, 35.12625], [140.15645, 35.12637], [140.15677, 35.12646], [140.15688, 35.12648], [140.15719, 35.12657], [140.15758, 35.1266], [140.15792, 35.12657], [140.15831, 35.12649], [140.15869, 35.12637], [140.15918, 35.12617], [140.15981, 35.12586], [140.16019, 35.1257], [140.16142, 35.12524], [140.1619, 35.12507], [140.16233, 35.12494], [140.16264, 35.12487], [140.16328, 35.12481], [140.16388, 35.12482], [140.16431, 35.12486], [140.16456, 35.12489], [140.16476, 35.1249], [140.16493, 35.12493], [140.16513, 35.12498], [140.16563, 35.12513], [140.16603, 35.12526], [140.16645, 35.12546], [140.16807, 35.12627], [140.16826, 35.12636], [140.16838, 35.12641], [140.16884, 35.12666], [140.16927, 35.12687], [140.16982, 35.12714], [140.17, 35.12724], [140.1701, 35.12729], [140.17059, 35.12754], [140.17098, 35.12773], [140.17133, 35.12791], [140.17352, 35.129], [140.174, 35.12919], [140.1744, 35.1293], [140.17468, 35.12936], [140.17484, 35.12939], [140.17513, 35.12942], [140.17547, 35.12945], [140.17582, 35.12944], [140.17636, 35.12941], [140.17669, 35.12936], [140.17908, 35.12891], [140.18379, 35.12801], [140.18403, 35.12798], [140.18424, 35.12795], [140.18477, 35.12792], [140.1855, 35.12796], [140.18601, 35.12801], [140.18605, 35.12803], [140.18645, 35.12807], [140.18682, 35.12813], [140.18701, 35.12817], [140.18723, 35.12821], [140.18759, 35.12827], [140.18788, 35.12831], [140.18852, 35.12842]]}, "properties": {"id": "TRACK_TOKYO_2206", "line_name": "外房線", "station_group_ids": [], "mode": "rail", "operator_id": "jr_east", "line_color": "#D9352A", "tags": ["tokyo", "track_centerline"]}}, {"type": "Feature", "bbox": [140.31283, 35.15309, 140.31546, 35.15466], "geometry": {"type": "LineString", "coordinates": [[140.31283, 35.15309], [140.31412, 35.15386], [140.31434, 35.15399], [140.31504, 35.1544], [140.31546, 35.15466]]}, "properties": {"id": "TRACK_TOKYO_2209", "line_name": "外房線", "station_group_ids": [], "mode": "rail", "operator_id": "jr_east", "line_color": "#D9352A", "tags": ["tokyo", "track_centerline"]}}, {"type": "Feature", "bbox": [140.22531, 35.11821, 140.22611, 35.1183], "geometry": {"type": "LineString", "coordinates": [[140.22531, 35.11821], [140.22611, 35.1183]]}, "properties": {"id": "TRACK_TOKYO_2210", "line_name": "外房線", "station_group_ids": [], "mode": "rail", "operator_id": "jr_east", "line_color": "#D9352A", "tags": ["tokyo", "track_centerline"]}}, {"type": "Feature", "bbox": [140.10431, 35.10822, 140.15384, 35.12546], "geometry": {"type": "LineString", "coordinates": [[140.10431, 35.10822], [140.10571, 35.10964], [140.10601, 35.10996], [140.1064, 35.11037], [140.1067, 35.11067], [140.10705, 35.11103], [140.10743, 35.11141], [140.10754, 35.11152], [140.10837, 35.11238], [140.10884, 35.11285], [140.10904, 35.11305], [140.10965, 35.11368], [140.1097, 35.11372], [140.11011, 35.11415], [140.11024, 35.1143], [140.1103, 35.11435], [140.11084, 35.1149], [140.11113, 35.1152], [140.11196, 35.11598], [140.11237, 35.11635], [140.11283, 35.11677], [140.11312, 35.11702], [140.11381, 35.11759], [140.11422, 35.11789], [140.11495, 35.11843], [140.11582, 35.11893], [140.11594, 35.11901], [140.11619, 35.11916], [140.11681, 35.11952], [140.11741, 35.11986], [140.11751, 35.11992], [140.11776, 35.12006], [140.11802, 35.12021], [140.11896, 35.12075], [140.12024, 35.12149], [140.12136, 35.12216], [140.12175, 35.12237], [140.12184, 35.12242], [140.12245, 35.12278], [140.12268, 35.12292], [140.12324, 35.12326], [140.12342, 35.12336], [140.12362, 35.12347], [140.12368, 35.12351], [140.12404, 35.12372], [140.12436, 35.12387], [140.12443, 35.12389], [140.12485, 35.12406], [140.12538, 35.12424], [140.12577, 35.12436], [140.12582, 35.12437], [140.12637, 35.12448], [140.12682, 35.12453], [140.12711, 35.12455], [140.1286, 35.12454], [140.12913, 35.12452], [140.12941, 35.1245], [140.13018, 35.12441], [140.13057, 35.12434], [140.13079, 35.12429], [140.13236, 35.12381], [140.13402, 35.12328], [140.13414, 35.12324], [140.13432, 35.12319], [140.13504, 35.12297], [140.13533, 35.12287], [140.13645, 35.12252], [140.13937, 35.12163], [140.1394, 35.12161], [140.1398, 35.1215], [140.14021, 35.12141], [140.14077, 35.12132], [140.14104, 35.1213], [140.14143, 35.1213], [140.14179, 35.12132], [140.14214, 35.12137], [140.14238, 35.12143], [140.14267, 35.12149], [140.14331, 35.12173], [140.14362, 35.12184], [140.14386, 35.12193], [140.14475, 35.12224], [140.14478, 35.12225], [140.14529, 35.12243], [140.14536, 35.12246], [140.14544, 35.12248], [140.14609, 35.12271], [140.14631, 35.12279], [140.14639, 35.12282], [140.1469, 35.123], [140.14728, 35.12313], [140.14782, 35.12333], [140.14788, 35.12334], [140.14794, 35.12338], [140.14808, 35.12341], [140.14839, 35.12353], [140.1492, 35.12381], [140.14998, 35.12409], [140.15045, 35.12425], [140.15047, 35.12427], [140.15084, 35.1244], [140.15092, 35.12442], [140.15113, 35.1245], [140.15142, 35.1246], [140.15166, 35.12469], [140.15212, 35.12485], [140.15296, 35.12515], [140.15328, 35.12526], [140.15378, 35.12543], [140.15384, 35.12546]]}, "properties": {"id": "TRACK_TOKYO_2213", "line_name": "外房線", "station_group_ids": [], "mode": "rail", "operator_id": "jr_east", "line_color": "#D9352A", "tags": ["tokyo", "track_centerline"]}}]}