{"type": "FeatureCollection", "features": [{"type": "Feature", "bbox": [138.89631500000002, 37.25574, 138.89631500000002, 37.25574], "geometry": {"type": "Point", "coordinates": [138.89631500000002, 37.25574]}, "properties": {"id": "PS_6565FEDDD3BC", "station_group_id": "SG_FE1F93A81652", "name_en": "北堀之内", "name_ja": "北堀之内", "label_rank": 72, "tags": ["tokyo", "v3"]}}, {"type": "Feature", "bbox": [138.84012, 37.422135, 138.84012, 37.422135], "geometry": {"type": "Point", "coordinates": [138.84012, 37.422135]}, "properties": {"id": "PS_CAAAB1687B83", "station_group_id": "SG_84E55A034E66", "name_en": "宮内", "name_ja": "宮内", "label_rank": 72, "tags": ["tokyo", "v3"]}}, {"type": "Feature", "bbox": [138.95361, 37.23357, 138.95361, 37.23357], "geometry": {"type": "Point", "coordinates": [138.95361, 37.23357]}, "properties": {"id": "PS_5EDE23A6F1B9", "station_group_id": "SG_E9A382BD613E", "name_en": "小出", "name_ja": "小出", "label_rank": 72, "tags": ["tokyo", "v3"]}}, {"type": "Feature", "bbox": [138.81348500000001, 37.309675, 138.81348500000001, 37.309675], "geometry": {"type": "Point", "coordinates": [138.81348500000001, 37.309675]}, "properties": {"id": "PS_617771DDA6AD", "station_group_id": "SG_BE0B0E2F7E55", "name_en": "小千谷", "name_ja": "小千谷", "label_rank": 72, "tags": ["tokyo", "v3"]}}, {"type": "Feature", "bbox": [139.061745, 37.912005, 139.061745, 37.912005], "geometry": {"type": "Point", "coordinates": [139.061745, 37.912005]}, "properties": {"id": "PS_BE499D87CCB4", "station_group_id": "SG_71665F3CB98E", "name_en": "新潟", "name_ja": "新潟", "label_rank": 72, "tags": ["tokyo", "v3"]}}, {"type": "Feature", "bbox": [139.46331500000002, 38.21988, 139.46331500000002, 38.21988], "geometry": {"type": "Point", "coordinates": [139.46331500000002, 38.21988]}, "properties": {"id": "PS_E04CA538C33D", "station_group_id": "SG_CE4F5FC20BF8", "name_en": "村上", "name_ja": "村上", "label_rank": 72, "tags": ["tokyo", "v3"]}}, {"type": "Feature", "bbox": [138.93858, 37.64772, 138.93858, 37.64772], "geometry": {"type": "Point", "coordinates": [138.93858, 37.64772]}, "properties": {"id": "PS_1E9420C4833F", "station_group_id": "SG_9B6353F0046D", "name_en": "燕三条", "name_ja": "燕三条", "label_rank": 72, "tags": ["tokyo", "v3"]}}, {"type": "Feature", "bbox": [138.92828500000002, 37.238955000000004, 138.92828500000002, 37.238955000000004], "geometry": {"type": "Point", "coordinates": [138.92828500000002, 37.238955000000004]}, "properties": {"id": "PS_E1B35CB7861A", "station_group_id": "SG_CE01C5F772D3", "name_en": "越後堀之内", "name_ja": "越後堀之内", "label_rank": 72, "tags": ["tokyo", "v3"]}}, {"type": "Feature", "bbox": [138.86156499999998, 37.272864999999996, 138.86156499999998, 37.272864999999996], "geometry": {"type": "Point", "coordinates": [138.86156499999998, 37.272864999999996]}, "properties": {"id": "PS_AE6215FDDC55", "station_group_id": "SG_C3F324020771", "name_en": "越後川口", "name_ja": "越後川口", "label_rank": 72, "tags": ["tokyo", "v3"]}}, {"type": "Feature", "bbox": [138.834975, 37.368645, 138.834975, 37.368645], "geometry": {"type": "Point", "coordinates": [138.834975, 37.368645]}, "properties": {"id": "PS_834234CEA71C", "station_group_id": "SG_E7CF7E3F4A42", "name_en": "越後滝谷", "name_ja": "越後滝谷", "label_rank": 72, "tags": ["tokyo", "v3"]}}, {"type": "Feature", "bbox": [138.85397, 37.447765000000004, 138.85397, 37.447765000000004], "geometry": {"type": "Point", "coordinates": [138.85397, 37.447765000000004]}, "properties": {"id": "PS_0ED0AEDD6474", "station_group_id": "SG_E17DE6661F05", "name_en": "長岡", "name_ja": "長岡", "label_rank": 72, "tags": ["tokyo", "v3"]}}]}