{"type": "FeatureCollection", "features": [{"type": "Feature", "bbox": [133.08329, 34.400825, 133.08329, 34.400825], "geometry": {"type": "Point", "coordinates": [133.08329, 34.400825]}, "properties": {"id": "PS_90F327C1AC49", "station_group_id": "SG_0606E9317776", "name_en": "三原", "name_ja": "三原", "label_rank": 72, "tags": ["tokyo", "v3"]}}, {"type": "Feature", "bbox": [133.67836, 34.565079999999995, 133.67836, 34.565079999999995], "geometry": {"type": "Point", "coordinates": [133.67836, 34.565079999999995]}, "properties": {"id": "PS_C9A650FC6611", "station_group_id": "SG_10EA2F07CBE6", "name_en": "新倉敷", "name_ja": "新倉敷", "label_rank": 72, "tags": ["tokyo", "v3"]}}, {"type": "Feature", "bbox": [133.19021500000002, 34.430080000000004, 133.19021500000002, 34.430080000000004], "geometry": {"type": "Point", "coordinates": [133.19021500000002, 34.430080000000004]}, "properties": {"id": "PS_8C5F9423538E", "station_group_id": "SG_15B71C4DED8E", "name_en": "新尾道", "name_ja": "新尾道", "label_rank": 72, "tags": ["tokyo", "v3"]}}, {"type": "Feature", "bbox": [132.75971, 34.38935, 132.75971, 34.38935], "geometry": {"type": "Point", "coordinates": [132.75971, 34.38935]}, "properties": {"id": "PS_5F3685DD4E29", "station_group_id": "SG_B6DE6FA85C63", "name_en": "東広島", "name_ja": "東広島", "label_rank": 72, "tags": ["tokyo", "v3"]}}, {"type": "Feature", "bbox": [133.36135000000002, 34.489270000000005, 133.36135000000002, 34.489270000000005], "geometry": {"type": "Point", "coordinates": [133.36135000000002, 34.489270000000005]}, "properties": {"id": "PS_64D8C73E8338", "station_group_id": "SG_D12850522A72", "name_en": "福山", "name_ja": "福山", "label_rank": 72, "tags": ["tokyo", "v3"]}}]}