{"type": "FeatureCollection", "features": [{"type": "Feature", "bbox": [131.80401, 34.03371, 132.14869, 34.16314], "geometry": {"type": "LineString", "coordinates": [[132.14869, 34.16314], [132.14866, 34.16308], [132.14731, 34.16085], [132.14599, 34.1586], [132.14592, 34.1585], [132.14543, 34.1577], [132.1449, 34.15686], [132.14405, 34.15544], [132.14396, 34.1553], [132.14332, 34.15425], [132.14319, 34.15404], [132.14265, 34.15302], [132.14184, 34.15166], [132.14122, 34.1506], [132.1401, 34.14881], [132.13896, 34.14696], [132.13865, 34.14645], [132.13773, 34.14493], [132.13697, 34.14369], [132.1359, 34.14195], [132.13523, 34.14088], [132.13474, 34.14009], [132.1342, 34.1393], [132.13364, 34.13841], [132.13343, 34.13809], [132.13268, 34.13693], [132.1317, 34.13533], [132.13089, 34.13411], [132.12983, 34.13259], [132.12908, 34.1314], [132.12844, 34.13045], [132.12803, 34.12984], [132.12714, 34.12857], [132.12626, 34.12735], [132.12539, 34.12621], [132.12492, 34.12564], [132.12368, 34.12413], [132.12252, 34.12284], [132.12159, 34.12197], [132.12149, 34.12188], [132.12056, 34.121], [132.11939, 34.11991], [132.11858, 34.11918], [132.11761, 34.11838], [132.11654, 34.11753], [132.11577, 34.1169], [132.11489, 34.11625], [132.11449, 34.11597], [132.11374, 34.11545], [132.11288, 34.11486], [132.11009, 34.11308], [132.10799, 34.11184], [132.10768, 34.11166], [132.10564, 34.11053], [132.10322, 34.1094], [132.10153, 34.10869], [132.09996, 34.10807], [132.09798, 34.10734], [132.09783, 34.10731], [132.09739, 34.10715], [132.09678, 34.10693], [132.09662, 34.10688], [132.09617, 34.10674], [132.09597, 34.10668], [132.09408, 34.10603], [132.09233, 34.1055], [132.08961, 34.10478], [132.08751, 34.10429], [132.08624, 34.10406], [132.08535, 34.10389], [132.08355, 34.10354], [132.08173, 34.10319], [132.08139, 34.10312], [132.08101, 34.10306], [132.07756, 34.10236], [132.07475, 34.10185], [132.07185, 34.1013], [132.07057, 34.10106], [132.07031, 34.10101], [132.06888, 34.10073], [132.06768, 34.10052], [132.06632, 34.10024], [132.06393, 34.09978], [132.06168, 34.09936], [132.06004, 34.09907], [132.0595, 34.09897], [132.05936, 34.09894], [132.05904, 34.09889], [132.05871, 34.09881], [132.05818, 34.09873], [132.05624, 34.09837], [132.05424, 34.09799], [132.05366, 34.09788], [132.05027, 34.09725], [132.04774, 34.09677], [132.04246, 34.09582], [132.04164, 34.09567], [132.04129, 34.09561], [132.04034, 34.09543], [132.03993, 34.09535], [132.03784, 34.09497], [132.03521, 34.09449], [132.0341, 34.09427], [132.03299, 34.09408], [132.03224, 34.09393], [132.0312, 34.0937], [132.03011, 34.09344], [132.02843, 34.09294], [132.02762, 34.0927], [132.02499, 34.09181], [132.02462, 34.09167], [132.02367, 34.0913], [132.02247, 34.09083], [132.02236, 34.09079], [132.02002, 34.08985], [132.01804, 34.08903], [132.01654, 34.08841], [132.01505, 34.08774], [132.01368, 34.08708], [132.01269, 34.0866], [132.01164, 34.086], [132.0102, 34.08512], [132.00855, 34.08405], [132.00682, 34.08292], [132.00579, 34.08223], [132.00513, 34.0818], [132.00355, 34.08076], [132.00134, 34.0793], [131.99966, 34.07818], [131.99753, 34.07678], [131.99673, 34.07619], [131.99557, 34.07543], [131.99497, 34.07505], [131.99338, 34.07398], [131.99207, 34.07315], [131.99058, 34.07214], [131.98887, 34.07102], [131.98741, 34.07006], [131.98694, 34.06977], [131.98594, 34.06914], [131.98486, 34.06846], [131.9834, 34.06759], [131.98171, 34.06671], [131.98036, 34.06598], [131.97893, 34.06529], [131.97777, 34.06473], [131.97729, 34.0645], [131.97653, 34.06414], [131.97401, 34.06297], [131.97293, 34.06248], [131.97288, 34.06246], [131.97149, 34.06186], [131.96993, 34.06122], [131.96825, 34.0605], [131.96642, 34.05967], [131.96469, 34.05891], [131.96376, 34.05851], [131.96335, 34.05827], [131.96284, 34.05798], [131.96107, 34.05698], [131.9602, 34.05649], [131.95849, 34.05543], [131.95715, 34.05443], [131.95658, 34.05402], [131.95603, 34.05362], [131.9555, 34.05323], [131.95377, 34.05191], [131.95208, 34.05061], [131.951, 34.0498], [131.95026, 34.04924], [131.94935, 34.04857], [131.9488, 34.04815], [131.94674, 34.0466], [131.94578, 34.04591], [131.94413, 34.04483], [131.94325, 34.04428], [131.94219, 34.04365], [131.94114, 34.04304], [131.94052, 34.04273], [131.93983, 34.04239], [131.93807, 34.04153], [131.93686, 34.04099], [131.93526, 34.04049], [131.93291, 34.03995], [131.9328, 34.03993], [131.9309, 34.03953], [131.92859, 34.03903], [131.92618, 34.03863], [131.92498, 34.0385], [131.92353, 34.03843], [131.92207, 34.03839], [131.9206, 34.03835], [131.91882, 34.03835], [131.91776, 34.03827], [131.916, 34.03827], [131.91525, 34.0383], [131.91403, 34.03839], [131.91194, 34.0384], [131.91, 34.03833], [131.90862, 34.03826], [131.90765, 34.03818], [131.90456, 34.03789], [131.90448, 34.03787], [131.90222, 34.03757], [131.89953, 34.03717], [131.89692, 34.03679], [131.896, 34.03668], [131.8932, 34.03623], [131.89115, 34.03589], [131.88935, 34.03556], [131.8876, 34.03528], [131.88592, 34.03508], [131.88512, 34.03501], [131.88425, 34.03494], [131.88193, 34.03482], [131.88026, 34.03483], [131.87785, 34.03498], [131.87548, 34.03512], [131.87406, 34.03522], [131.87332, 34.03527], [131.87254, 34.03529], [131.86941, 34.03544], [131.86828, 34.03548], [131.86805, 34.03549], [131.86754, 34.03549], [131.86675, 34.03551], [131.86552, 34.03557], [131.86432, 34.03563], [131.863, 34.03566], [131.86219, 34.03569], [131.86133, 34.0357], [131.86008, 34.0357], [131.85931, 34.03567], [131.85869, 34.03561], [131.85809, 34.03555], [131.85722, 34.03545], [131.8562, 34.03531], [131.85471, 34.03511], [131.85332, 34.03486], [131.85253, 34.03471], [131.85096, 34.03445], [131.85016, 34.03433], [131.84937, 34.03421], [131.84779, 34.03402], [131.8471, 34.03394], [131.84604, 34.03387], [131.8448, 34.03381], [131.84475, 34.03381], [131.84287, 34.03374], [131.84169, 34.03371], [131.84032, 34.03372], [131.83893, 34.03378], [131.83769, 34.03388], [131.83592, 34.03413], [131.83479, 34.03431], [131.8338, 34.03449], [131.83344, 34.03455], [131.83233, 34.03479], [131.83118, 34.03505], [131.82958, 34.03551], [131.82833, 34.03584], [131.82772, 34.03605], [131.82706, 34.03627], [131.82437, 34.03731], [131.82289, 34.03791], [131.8218, 34.03846], [131.82174, 34.03849], [131.81938, 34.03973], [131.81779, 34.04053], [131.81592, 34.04147], [131.81363, 34.04266], [131.81243, 34.04328], [131.81189, 34.04356], [131.81024, 34.04443], [131.8087, 34.04523], [131.80738, 34.04595], [131.80672, 34.04638], [131.80598, 34.04691], [131.80528, 34.04761], [131.80401, 34.04899]]}, "properties": {"id": "GEOM_TOKYO_0679", "route_id": "R_A02272B9", "route_name": null, "route_color": "#1263D6", "route_text_color": null, "line_name": "山陽新幹線", "operator_id": "西日本旅客鉄道", "representation": "service_path", "min_zoom": 0, "max_zoom": 24, "offset_rank": 0}}, {"type": "Feature", "bbox": [131.80082, 34.04899, 131.80401, 34.05277], "geometry": {"type": "LineString", "coordinates": [[131.80401, 34.04899], [131.80273, 34.05036], [131.80213, 34.05101], [131.80173, 34.05148], [131.80135, 34.05198], [131.80082, 34.05277]]}, "properties": {"id": "GEOM_TOKYO_0680", "route_id": "R_A02272B9", "route_name": null, "route_color": "#1263D6", "route_text_color": null, "line_name": "山陽新幹線", "operator_id": "西日本旅客鉄道", "representation": "service_path", "min_zoom": 0, "max_zoom": 24, "offset_rank": 0}}, {"type": "Feature", "bbox": [131.39907, 34.05277, 131.80082, 34.10351], "geometry": {"type": "LineString", "coordinates": [[131.80082, 34.05277], [131.80059, 34.05311], [131.80031, 34.05357], [131.79999, 34.05413], [131.79955, 34.05506], [131.79922, 34.05588], [131.79884, 34.05711], [131.79841, 34.05837], [131.79803, 34.05959], [131.79798, 34.05976], [131.7976, 34.06085], [131.79726, 34.06183], [131.79703, 34.06247], [131.79685, 34.06303], [131.79654, 34.06399], [131.79615, 34.06514], [131.79596, 34.06572], [131.79559, 34.06692], [131.79514, 34.06829], [131.79492, 34.06894], [131.79477, 34.06936], [131.79458, 34.06991], [131.7942, 34.07061], [131.79387, 34.07123], [131.79362, 34.07173], [131.79328, 34.07239], [131.79299, 34.07294], [131.79275, 34.07339], [131.79242, 34.07401], [131.7922, 34.07449], [131.79198, 34.07494], [131.79183, 34.07523], [131.79158, 34.07564], [131.79126, 34.07622], [131.79098, 34.07668], [131.79065, 34.07724], [131.79021, 34.07789], [131.78965, 34.07868], [131.78922, 34.07926], [131.78877, 34.07981], [131.78833, 34.08031], [131.78766, 34.08095], [131.78713, 34.08139], [131.78649, 34.08194], [131.78588, 34.08236], [131.78543, 34.08269], [131.78495, 34.08304], [131.78438, 34.08343], [131.78373, 34.08393], [131.78315, 34.08433], [131.78262, 34.08472], [131.78189, 34.08524], [131.78117, 34.08578], [131.78071, 34.08609], [131.7802, 34.08641], [131.77985, 34.0866], [131.77872, 34.08738], [131.77785, 34.08783], [131.77631, 34.08853], [131.77622, 34.08858], [131.77449, 34.08925], [131.77326, 34.08963], [131.77158, 34.09013], [131.76962, 34.09065], [131.76698, 34.09112], [131.76581, 34.0913], [131.76479, 34.09146], [131.76319, 34.09165], [131.76255, 34.09171], [131.76205, 34.09175], [131.76083, 34.09184], [131.75962, 34.09193], [131.75811, 34.09199], [131.75686, 34.09197], [131.75578, 34.09194], [131.75512, 34.0919], [131.75413, 34.0918], [131.75338, 34.0917], [131.75149, 34.09137], [131.75036, 34.09119], [131.74934, 34.09102], [131.7483, 34.09084], [131.74755, 34.0907], [131.746, 34.09042], [131.74438, 34.0901], [131.74345, 34.08989], [131.74224, 34.08957], [131.73926, 34.08887], [131.73687, 34.0883], [131.73664, 34.08825], [131.73587, 34.08807], [131.7325, 34.08727], [131.73043, 34.0868], [131.72956, 34.0866], [131.72921, 34.08655], [131.7287, 34.08642], [131.72824, 34.08633], [131.72795, 34.08627], [131.72735, 34.08616], [131.72636, 34.08597], [131.72536, 34.08577], [131.72428, 34.08556], [131.72319, 34.08536], [131.72211, 34.08518], [131.72077, 34.0849], [131.71961, 34.08471], [131.71908, 34.08461], [131.71773, 34.08436], [131.71599, 34.08405], [131.71412, 34.0837], [131.71322, 34.08353], [131.71159, 34.08321], [131.7094, 34.08276], [131.70822, 34.08256], [131.70697, 34.08231], [131.70656, 34.08224], [131.70605, 34.08215], [131.70529, 34.082], [131.70466, 34.08187], [131.70404, 34.08176], [131.70343, 34.08165], [131.70264, 34.08153], [131.70187, 34.08139], [131.7011, 34.08129], [131.70025, 34.08119], [131.69944, 34.08112], [131.69909, 34.08109], [131.69841, 34.08103], [131.69762, 34.08096], [131.69684, 34.08093], [131.69593, 34.08092], [131.6951, 34.08089], [131.69501, 34.08089], [131.69403, 34.08088], [131.69264, 34.08086], [131.69255, 34.08087], [131.69225, 34.08087], [131.69204, 34.08087], [131.69167, 34.08087], [131.69043, 34.08088], [131.68991, 34.08089], [131.68879, 34.08089], [131.68768, 34.0809], [131.68657, 34.08091], [131.68546, 34.08092], [131.68427, 34.08093], [131.68367, 34.08093], [131.68234, 34.08093], [131.68171, 34.08093], [131.67957, 34.08087], [131.67902, 34.08083], [131.6784, 34.08078], [131.67779, 34.08071], [131.67729, 34.08068], [131.67618, 34.08059], [131.67509, 34.08054], [131.67399, 34.08046], [131.67288, 34.08037], [131.67178, 34.08025], [131.67068, 34.08011], [131.67067, 34.08011], [131.66957, 34.07996], [131.66846, 34.07983], [131.66736, 34.07969], [131.66626, 34.07954], [131.66517, 34.07939], [131.66407, 34.07922], [131.66297, 34.07907], [131.66187, 34.07891], [131.66078, 34.07875], [131.65976, 34.0786], [131.65968, 34.07859], [131.65858, 34.07844], [131.65749, 34.07831], [131.65639, 34.07816], [131.65529, 34.07801], [131.65419, 34.07786], [131.65309, 34.07772], [131.65199, 34.07756], [131.65089, 34.07741], [131.64979, 34.07727], [131.64882, 34.07715], [131.64868, 34.07713], [131.64758, 34.07698], [131.64647, 34.07684], [131.64537, 34.07669], [131.64426, 34.07653], [131.64314, 34.07638], [131.64203, 34.07624], [131.64198, 34.07623], [131.64091, 34.07609], [131.6398, 34.07595], [131.63869, 34.0758], [131.63758, 34.07564], [131.63647, 34.07548], [131.63536, 34.07534], [131.63426, 34.0752], [131.63316, 34.07506], [131.63205, 34.07491], [131.63104, 34.07477], [131.63095, 34.07476], [131.62984, 34.07461], [131.62874, 34.07446], [131.62763, 34.07435], [131.62685, 34.07424], [131.62587, 34.07412], [131.62489, 34.074], [131.62386, 34.07387], [131.62287, 34.07375], [131.62256, 34.07371], [131.62146, 34.07357], [131.61998, 34.07338], [131.61325, 34.07248], [131.61049, 34.0723], [131.60953, 34.07227], [131.60923, 34.07226], [131.60904, 34.07225], [131.60874, 34.07224], [131.60746, 34.07219], [131.60696, 34.07217], [131.60666, 34.07216], [131.60627, 34.07215], [131.60601, 34.07214], [131.60562, 34.07212], [131.60525, 34.07211], [131.60507, 34.0721], [131.6031, 34.07204], [131.60299, 34.07204], [131.60154, 34.07203], [131.60106, 34.07205], [131.59984, 34.07209], [131.59943, 34.0721], [131.5991, 34.07212], [131.59896, 34.07212], [131.59862, 34.07215], [131.59831, 34.07217], [131.59798, 34.0722], [131.59732, 34.07225], [131.59693, 34.07228], [131.59631, 34.07234], [131.59624, 34.07234], [131.59569, 34.07239], [131.5956, 34.0724], [131.59102, 34.07278], [131.58933, 34.07293], [131.58094, 34.07365], [131.57831, 34.07388], [131.57792, 34.07391], [131.57479, 34.07419], [131.57461, 34.07421], [131.57075, 34.07455], [131.57065, 34.07456], [131.57025, 34.0746], [131.57015, 34.07461], [131.56828, 34.07478], [131.56821, 34.07479], [131.56791, 34.07481], [131.56785, 34.07482], [131.56591, 34.075], [131.56577, 34.07502], [131.56554, 34.07503], [131.56546, 34.07504], [131.565, 34.07508], [131.56483, 34.0751], [131.56447, 34.07514], [131.56434, 34.07515], [131.56199, 34.07536], [131.56189, 34.07537], [131.55213, 34.07628], [131.55179, 34.07631], [131.55002, 34.07647], [131.54672, 34.07679], [131.54086, 34.07735], [131.53902, 34.07754], [131.53748, 34.07769], [131.52806, 34.07887], [131.52797, 34.07889], [131.52707, 34.07901], [131.52701, 34.07901], [131.52194, 34.07964], [131.51769, 34.08019], [131.51726, 34.08024], [131.51454, 34.08057], [131.50977, 34.08118], [131.50631, 34.08162], [131.50594, 34.08167], [131.50514, 34.08177], [131.5051, 34.08178], [131.5047, 34.08183], [131.50465, 34.08184], [131.50399, 34.08193], [131.5039, 34.08194], [131.50305, 34.08205], [131.50296, 34.08206], [131.50278, 34.08209], [131.50233, 34.08215], [131.50112, 34.08231], [131.50108, 34.08231], [131.49849, 34.08266], [131.49757, 34.08279], [131.49556, 34.08304], [131.49377, 34.08333], [131.493, 34.08349], [131.4923, 34.08365], [131.49151, 34.08387], [131.49078, 34.08413], [131.48941, 34.0847], [131.4856, 34.08591], [131.48349, 34.08659], [131.48187, 34.08706], [131.4794, 34.08791], [131.47786, 34.08845], [131.47752, 34.08857], [131.47553, 34.0892], [131.47458, 34.08951], [131.47147, 34.09063], [131.46702, 34.09223], [131.46659, 34.09238], [131.46214, 34.09395], [131.46186, 34.09405], [131.45697, 34.09577], [131.45374, 34.09691], [131.45169, 34.09764], [131.44958, 34.09839], [131.44866, 34.09872], [131.44721, 34.09923], [131.44291, 34.10076], [131.44264, 34.10083], [131.44194, 34.10102], [131.44102, 34.10125], [131.43827, 34.10194], [131.43557, 34.10255], [131.43308, 34.10298], [131.43192, 34.10318], [131.43076, 34.10333], [131.43026, 34.10338], [131.42769, 34.1035], [131.42738, 34.10351], [131.42466, 34.10333], [131.42317, 34.10315], [131.42037, 34.10269], [131.41849, 34.10238], [131.41643, 34.1019], [131.41411, 34.10128], [131.41314, 34.10094], [131.41, 34.09964], [131.40978, 34.09955], [131.40929, 34.09931], [131.409, 34.09917], [131.40857, 34.09897], [131.40718, 34.0983], [131.40283, 34.09624], [131.39988, 34.0948], [131.39907, 34.09434]]}, "properties": {"id": "GEOM_TOKYO_0682", "route_id": "R_A02272B9", "route_name": null, "route_color": "#1263D6", "route_text_color": null, "line_name": "山陽新幹線", "operator_id": "西日本旅客鉄道", "representation": "service_path", "min_zoom": 0, "max_zoom": 24, "offset_rank": 0}}]}