{"type": "FeatureCollection", "features": [{"type": "Feature", "bbox": [140.52441, 36.39505, 140.54016, 36.42961], "geometry": {"type": "LineString", "coordinates": [[140.52441, 36.39505], [140.52461, 36.39612], [140.52476, 36.39689], [140.52495, 36.39786], [140.52506, 36.39836], [140.52512, 36.39861], [140.52528, 36.39913], [140.52553, 36.39973], [140.52605, 36.4008], [140.52673, 36.40223], [140.52705, 36.40289], [140.52738, 36.40357], [140.52754, 36.40389], [140.52907, 36.40705], [140.52945, 36.4078], [140.53018, 36.40921], [140.53025, 36.40934], [140.53064, 36.41006], [140.53079, 36.41033], [140.53121, 36.41121], [140.5317, 36.41221], [140.53285, 36.41458], [140.53333, 36.41555], [140.53386, 36.41667], [140.53459, 36.41811], [140.53543, 36.41983], [140.53625, 36.42152], [140.5365, 36.42201], [140.53702, 36.42307], [140.53766, 36.42436], [140.53848, 36.42608], [140.53874, 36.42663], [140.53919, 36.42757], [140.53995, 36.42916], [140.54016, 36.42961]]}, "properties": {"id": "TRACK_TOKYO_2605", "line_name": "常磐線", "station_group_ids": [], "mode": "rail", "operator_id": "jr_east", "line_color": "#22A6B3", "tags": ["tokyo", "track_centerline"]}}, {"type": "Feature", "bbox": [140.66113, 36.58894, 140.66247, 36.59171], "geometry": {"type": "LineString", "coordinates": [[140.66247, 36.59171], [140.66113, 36.58894]]}, "properties": {"id": "TRACK_TOKYO_2606", "line_name": "常磐線", "station_group_ids": [], "mode": "rail", "operator_id": "jr_east", "line_color": "#22A6B3", "tags": ["tokyo", "track_centerline"]}}, {"type": "Feature", "bbox": [140.63374, 36.55282, 140.66113, 36.58894], "geometry": {"type": "LineString", "coordinates": [[140.63374, 36.55282], [140.63458, 36.55346], [140.63568, 36.55445], [140.63635, 36.5552], [140.63788, 36.55712], [140.63801, 36.55728], [140.63813, 36.55745], [140.6389, 36.55844], [140.64011, 36.55994], [140.64079, 36.56077], [140.64108, 36.56112], [140.6415, 36.56162], [140.6424, 36.56256], [140.64348, 36.56367], [140.64355, 36.56375], [140.64521, 36.56541], [140.647, 36.56718], [140.64752, 36.56769], [140.6488, 36.56894], [140.64909, 36.56927], [140.64937, 36.56972], [140.64972, 36.57039], [140.65025, 36.57187], [140.65034, 36.5721], [140.65089, 36.57348], [140.65128, 36.5743], [140.65164, 36.57491], [140.65166, 36.57495], [140.65211, 36.57554], [140.65355, 36.57715], [140.655, 36.57876], [140.65523, 36.57903], [140.656, 36.57987], [140.65729, 36.58133], [140.65755, 36.58167], [140.6578, 36.582], [140.65824, 36.58286], [140.65917, 36.58474], [140.65945, 36.58531], [140.66, 36.58658], [140.66012, 36.58682], [140.6603, 36.58724], [140.66083, 36.58828], [140.66113, 36.58894]]}, "properties": {"id": "TRACK_TOKYO_2607", "line_name": "常磐線", "station_group_ids": [], "mode": "rail", "operator_id": "jr_east", "line_color": "#22A6B3", "tags": ["tokyo", "track_centerline"]}}, {"type": "Feature", "bbox": [140.45772, 36.37043, 140.47567, 36.37295], "geometry": {"type": "LineString", "coordinates": [[140.47567, 36.37075], [140.47362, 36.37061], [140.47291, 36.37056], [140.47124, 36.37043], [140.47071, 36.37048], [140.47023, 36.37056], [140.46886, 36.37092], [140.46741, 36.37131], [140.46477, 36.37204], [140.46341, 36.37244], [140.46213, 36.37271], [140.46173, 36.37276], [140.46121, 36.3728], [140.45772, 36.37295]]}, "properties": {"id": "TRACK_TOKYO_2610", "line_name": "常磐線", "station_group_ids": [], "mode": "rail", "operator_id": "jr_east", "line_color": "#22A6B3", "tags": ["tokyo", "track_centerline"]}}, {"type": "Feature", "bbox": [140.35383, 36.37056, 140.41333, 36.3815], "geometry": {"type": "LineString", "coordinates": [[140.41333, 36.3815], [140.41179, 36.3813], [140.41147, 36.38126], [140.40873, 36.38086], [140.4046, 36.38031], [140.39759, 36.37935], [140.39022, 36.37837], [140.38448, 36.37758], [140.38185, 36.3772], [140.37666, 36.37649], [140.3755, 36.37633], [140.37185, 36.37582], [140.37169, 36.37579], [140.37162, 36.37578], [140.37132, 36.37572], [140.36812, 36.37529], [140.36541, 36.37492], [140.36407, 36.37473], [140.36379, 36.37466], [140.36321, 36.37446], [140.36266, 36.37423], [140.36092, 36.37352], [140.35928, 36.37282], [140.35753, 36.3721], [140.35593, 36.37141], [140.35394, 36.37061], [140.35383, 36.37056]]}, "properties": {"id": "TRACK_TOKYO_2612", "line_name": "常磐線", "station_group_ids": [], "mode": "rail", "operator_id": "jr_east", "line_color": "#22A6B3", "tags": ["tokyo", "track_centerline"]}}, {"type": "Feature", "bbox": [140.41333, 36.3815, 140.41699, 36.38201], "geometry": {"type": "LineString", "coordinates": [[140.41699, 36.38201], [140.41333, 36.3815]]}, "properties": {"id": "TRACK_TOKYO_2613", "line_name": "常磐線", "station_group_ids": [], "mode": "rail", "operator_id": "jr_east", "line_color": "#22A6B3", "tags": ["tokyo", "track_centerline"]}}, {"type": "Feature", "bbox": [140.49304, 36.36932, 140.52402, 36.3931], "geometry": {"type": "LineString", "coordinates": [[140.49304, 36.36932], [140.49668, 36.36993], [140.49717, 36.37008], [140.49816, 36.37035], [140.49948, 36.37073], [140.50022, 36.37094], [140.5016, 36.37148], [140.50299, 36.37211], [140.50504, 36.37308], [140.5062, 36.37362], [140.50714, 36.37405], [140.5078, 36.37438], [140.50793, 36.37445], [140.50817, 36.37456], [140.5096, 36.37534], [140.51155, 36.37638], [140.51201, 36.37663], [140.51458, 36.37802], [140.5157, 36.37864], [140.5178, 36.38002], [140.51832, 36.38041], [140.51873, 36.38072], [140.51913, 36.3811], [140.52059, 36.38287], [140.52147, 36.38391], [140.52193, 36.38457], [140.5222, 36.38497], [140.5225, 36.38546], [140.52277, 36.38611], [140.52295, 36.38673], [140.52315, 36.38798], [140.5233, 36.38878], [140.52366, 36.39097], [140.52382, 36.39197], [140.52402, 36.3931]]}, "properties": {"id": "TRACK_TOKYO_2614", "line_name": "常磐線", "station_group_ids": [], "mode": "rail", "operator_id": "jr_east", "line_color": "#22A6B3", "tags": ["tokyo", "track_centerline"]}}, {"type": "Feature", "bbox": [140.47875, 36.36857, 140.49304, 36.37098], "geometry": {"type": "LineString", "coordinates": [[140.47875, 36.37098], [140.47923, 36.37097], [140.47987, 36.37085], [140.4809, 36.3706], [140.48321, 36.36985], [140.48589, 36.36899], [140.48687, 36.36868], [140.48725, 36.36862], [140.48781, 36.36857], [140.48868, 36.36865], [140.48988, 36.3688], [140.49304, 36.36932]]}, "properties": {"id": "TRACK_TOKYO_2615", "line_name": "常磐線", "station_group_ids": [], "mode": "rail", "operator_id": "jr_east", "line_color": "#22A6B3", "tags": ["tokyo", "track_centerline"]}}, {"type": "Feature", "bbox": [140.6317, 36.55141, 140.63374, 36.55282], "geometry": {"type": "LineString", "coordinates": [[140.6317, 36.55141], [140.63281, 36.5522], [140.63374, 36.55282]]}, "properties": {"id": "TRACK_TOKYO_2616", "line_name": "常磐線", "station_group_ids": [], "mode": "rail", "operator_id": "jr_east", "line_color": "#22A6B3", "tags": ["tokyo", "track_centerline"]}}, {"type": "Feature", "bbox": [140.67494, 36.63551, 140.67565, 36.63777], "geometry": {"type": "LineString", "coordinates": [[140.67565, 36.63551], [140.67494, 36.63777]]}, "properties": {"id": "TRACK_TOKYO_2617", "line_name": "常磐線", "station_group_ids": [], "mode": "rail", "operator_id": "jr_east", "line_color": "#22A6B3", "tags": ["tokyo", "track_centerline"]}}, {"type": "Feature", "bbox": [140.68664, 36.67223, 140.71683, 36.71319], "geometry": {"type": "LineString", "coordinates": [[140.68664, 36.67223], [140.68689, 36.67259], [140.68735, 36.67318], [140.68763, 36.67355], [140.68829, 36.67441], [140.68881, 36.6751], [140.68922, 36.67564], [140.69013, 36.67686], [140.69051, 36.67737], [140.69088, 36.67787], [140.69125, 36.67832], [140.69186, 36.67906], [140.69209, 36.67932], [140.69241, 36.67964], [140.69277, 36.67994], [140.69473, 36.68148], [140.69492, 36.68163], [140.69526, 36.68189], [140.69577, 36.68229], [140.69657, 36.6829], [140.69709, 36.68331], [140.69743, 36.68357], [140.69814, 36.68412], [140.69838, 36.6843], [140.69907, 36.68486], [140.69973, 36.68535], [140.70007, 36.68559], [140.70056, 36.68591], [140.70124, 36.68626], [140.70198, 36.68658], [140.70233, 36.68673], [140.70261, 36.68685], [140.7029, 36.68698], [140.70324, 36.68711], [140.70361, 36.68726], [140.7041, 36.68744], [140.70438, 36.68754], [140.70515, 36.68781], [140.70573, 36.68803], [140.70631, 36.68827], [140.70699, 36.68858], [140.70744, 36.68882], [140.70756, 36.68889], [140.70773, 36.689], [140.70807, 36.68925], [140.7085, 36.6896], [140.70941, 36.69036], [140.71099, 36.69162], [140.71126, 36.69185], [140.71297, 36.69326], [140.71328, 36.69356], [140.71354, 36.69383], [140.71395, 36.69432], [140.71407, 36.69449], [140.71422, 36.69476], [140.71423, 36.69479], [140.71454, 36.69541], [140.71471, 36.69582], [140.71487, 36.69636], [140.71499, 36.69686], [140.71505, 36.69728], [140.7151, 36.69784], [140.71515, 36.69821], [140.71521, 36.69875], [140.7153, 36.69961], [140.71542, 36.70064], [140.71554, 36.70173], [140.71565, 36.70275], [140.71586, 36.70453], [140.71596, 36.7054], [140.71618, 36.70732], [140.71629, 36.70827], [140.71631, 36.70846], [140.71655, 36.71058], [140.71659, 36.71089], [140.71675, 36.71249], [140.71683, 36.71319]]}, "properties": {"id": "TRACK_TOKYO_2618", "line_name": "常磐線", "station_group_ids": [], "mode": "rail", "operator_id": "jr_east", "line_color": "#22A6B3", "tags": ["tokyo", "track_centerline"]}}, {"type": "Feature", "bbox": [140.34735, 36.3678, 140.35143, 36.36953], "geometry": {"type": "LineString", "coordinates": [[140.35143, 36.36953], [140.34962, 36.36875], [140.34846, 36.36827], [140.34735, 36.3678]]}, "properties": {"id": "TRACK_TOKYO_2621", "line_name": "常磐線", "station_group_ids": [], "mode": "rail", "operator_id": "jr_east", "line_color": "#22A6B3", "tags": ["tokyo", "track_centerline"]}}, {"type": "Feature", "bbox": [140.6189, 36.51185, 140.61997, 36.514], "geometry": {"type": "LineString", "coordinates": [[140.6189, 36.51185], [140.61937, 36.51278], [140.61967, 36.51339], [140.61997, 36.514]]}, "properties": {"id": "TRACK_TOKYO_2623", "line_name": "常磐線", "station_group_ids": [], "mode": "rail", "operator_id": "jr_east", "line_color": "#22A6B3", "tags": ["tokyo", "track_centerline"]}}, {"type": "Feature", "bbox": [140.47567, 36.37075, 140.47875, 36.37098], "geometry": {"type": "LineString", "coordinates": [[140.47875, 36.37098], [140.47827, 36.37093], [140.47567, 36.37075]]}, "properties": {"id": "TRACK_TOKYO_2626", "line_name": "常磐線", "station_group_ids": [], "mode": "rail", "operator_id": "jr_east", "line_color": "#22A6B3", "tags": ["tokyo", "track_centerline"]}}, {"type": "Feature", "bbox": [140.41699, 36.37311, 140.45496, 36.38452], "geometry": {"type": "LineString", "coordinates": [[140.45496, 36.37311], [140.45367, 36.37323], [140.45319, 36.37332], [140.45266, 36.37346], [140.45187, 36.37373], [140.45164, 36.37383], [140.45129, 36.374], [140.45091, 36.37429], [140.45057, 36.37461], [140.44522, 36.37973], [140.44407, 36.38081], [140.44292, 36.3819], [140.44153, 36.38293], [140.44094, 36.3833], [140.44031, 36.38363], [140.44018, 36.38368], [140.43965, 36.38388], [140.43872, 36.38417], [140.43822, 36.38429], [140.4372, 36.38447], [140.43635, 36.38452], [140.43579, 36.3845], [140.43488, 36.38441], [140.42701, 36.38336], [140.41902, 36.38228], [140.41699, 36.38201]]}, "properties": {"id": "TRACK_TOKYO_2627", "line_name": "常磐線", "station_group_ids": [], "mode": "rail", "operator_id": "jr_east", "line_color": "#22A6B3", "tags": ["tokyo", "track_centerline"]}}, {"type": "Feature", "bbox": [140.68525, 36.67053, 140.68664, 36.67223], "geometry": {"type": "LineString", "coordinates": [[140.68525, 36.67053], [140.68664, 36.67223]]}, "properties": {"id": "TRACK_TOKYO_2628", "line_name": "常磐線", "station_group_ids": [], "mode": "rail", "operator_id": "jr_east", "line_color": "#22A6B3", "tags": ["tokyo", "track_centerline"]}}, {"type": "Feature", "bbox": [140.45496, 36.37295, 140.45772, 36.37311], "geometry": {"type": "LineString", "coordinates": [[140.45772, 36.37295], [140.45496, 36.37311]]}, "properties": {"id": "TRACK_TOKYO_2629", "line_name": "常磐線", "station_group_ids": [], "mode": "rail", "operator_id": "jr_east", "line_color": "#22A6B3", "tags": ["tokyo", "track_centerline"]}}, {"type": "Feature", "bbox": [140.32619, 36.35892, 140.34735, 36.3678], "geometry": {"type": "LineString", "coordinates": [[140.32619, 36.35892], [140.32699, 36.35926], [140.33086, 36.36087], [140.33519, 36.3627], [140.3386, 36.36413], [140.33972, 36.3646], [140.34103, 36.36515], [140.34316, 36.36606], [140.34589, 36.3672], [140.34735, 36.3678]]}, "properties": {"id": "TRACK_TOKYO_2631", "line_name": "常磐線", "station_group_ids": [], "mode": "rail", "operator_id": "jr_east", "line_color": "#22A6B3", "tags": ["tokyo", "track_centerline"]}}, {"type": "Feature", "bbox": [140.32619, 36.35892, 140.34735, 36.3678], "geometry": {"type": "LineString", "coordinates": [[140.32619, 36.35892], [140.32843, 36.35948], [140.33283, 36.36057], [140.33348, 36.3608], [140.33394, 36.36102], [140.34032, 36.36369], [140.34159, 36.36422], [140.34294, 36.36479], [140.34412, 36.36541], [140.34682, 36.36736], [140.34735, 36.3678]]}, "properties": {"id": "TRACK_TOKYO_2632", "line_name": "常磐線", "station_group_ids": [], "mode": "rail", "operator_id": "jr_east", "line_color": "#22A6B3", "tags": ["tokyo", "track_centerline"]}}, {"type": "Feature", "bbox": [140.67346, 36.63777, 140.68525, 36.67053], "geometry": {"type": "LineString", "coordinates": [[140.67494, 36.63777], [140.6746, 36.63888], [140.67401, 36.64067], [140.67359, 36.64205], [140.67349, 36.64259], [140.67346, 36.64302], [140.67347, 36.64334], [140.67356, 36.64417], [140.67369, 36.6446], [140.67387, 36.64506], [140.67406, 36.64544], [140.67549, 36.64747], [140.67597, 36.64814], [140.67619, 36.64843], [140.67645, 36.64877], [140.67663, 36.64899], [140.67684, 36.64926], [140.67712, 36.64956], [140.67768, 36.65008], [140.67821, 36.65051], [140.67975, 36.65163], [140.68041, 36.65218], [140.68087, 36.65257], [140.68103, 36.65275], [140.68144, 36.6534], [140.68183, 36.65403], [140.68232, 36.65482], [140.68257, 36.6553], [140.68271, 36.65557], [140.68295, 36.65614], [140.68307, 36.65658], [140.68311, 36.65684], [140.68313, 36.65721], [140.68315, 36.65756], [140.68312, 36.65794], [140.68306, 36.65828], [140.68287, 36.65907], [140.68264, 36.65993], [140.68256, 36.66026], [140.68252, 36.66053], [140.68252, 36.66093], [140.68253, 36.66113], [140.68254, 36.66128], [140.68304, 36.66475], [140.68322, 36.66608], [140.68334, 36.66693], [140.68344, 36.66737], [140.68358, 36.66777], [140.68377, 36.66817], [140.68409, 36.66871], [140.68469, 36.66981], [140.68488, 36.67009], [140.68525, 36.67053]]}, "properties": {"id": "TRACK_TOKYO_2633", "line_name": "常磐線", "station_group_ids": [], "mode": "rail", "operator_id": "jr_east", "line_color": "#22A6B3", "tags": ["tokyo", "track_centerline"]}}, {"type": "Feature", "bbox": [140.5669, 36.46617, 140.6189, 36.51185], "geometry": {"type": "LineString", "coordinates": [[140.5669, 36.46617], [140.56791, 36.46696], [140.56891, 36.46774], [140.57027, 36.4688], [140.57046, 36.46895], [140.57132, 36.46961], [140.5715, 36.46976], [140.57213, 36.47025], [140.57293, 36.47085], [140.5733, 36.47115], [140.57404, 36.47173], [140.57533, 36.47271], [140.57628, 36.47339], [140.57719, 36.47402], [140.57862, 36.4749], [140.58079, 36.47626], [140.58091, 36.47633], [140.58137, 36.4766], [140.58239, 36.47725], [140.58417, 36.47835], [140.5863, 36.47967], [140.5879, 36.48068], [140.58822, 36.48086], [140.58992, 36.48193], [140.59105, 36.48263], [140.59174, 36.48313], [140.59261, 36.48377], [140.59288, 36.48395], [140.59308, 36.48408], [140.59468, 36.48514], [140.59647, 36.48628], [140.5974, 36.48685], [140.598, 36.48722], [140.59881, 36.48768], [140.59901, 36.4878], [140.59996, 36.48834], [140.60059, 36.4887], [140.60213, 36.48956], [140.60323, 36.4902], [140.60341, 36.49031], [140.60369, 36.49047], [140.60549, 36.4916], [140.60718, 36.49266], [140.608, 36.49316], [140.60832, 36.49339], [140.60851, 36.49353], [140.60869, 36.49369], [140.60898, 36.49397], [140.60916, 36.4942], [140.6093, 36.49441], [140.60935, 36.49448], [140.60957, 36.49485], [140.60976, 36.49524], [140.60992, 36.49571], [140.61001, 36.49607], [140.61007, 36.49645], [140.61008, 36.49667], [140.61008, 36.49674], [140.6102, 36.49798], [140.6103, 36.49918], [140.61036, 36.49976], [140.61047, 36.50035], [140.61057, 36.50077], [140.61065, 36.50108], [140.61081, 36.50159], [140.61092, 36.50188], [140.61101, 36.5021], [140.61115, 36.50237], [140.61115, 36.50239], [140.61135, 36.50268], [140.61169, 36.50316], [140.61209, 36.50356], [140.61241, 36.50388], [140.61398, 36.50517], [140.61455, 36.50563], [140.61531, 36.50628], [140.61572, 36.50672], [140.61603, 36.50705], [140.61632, 36.50735], [140.61672, 36.50787], [140.6172, 36.50861], [140.61804, 36.51012], [140.6189, 36.51185]]}, "properties": {"id": "TRACK_TOKYO_2634", "line_name": "常磐線", "station_group_ids": [], "mode": "rail", "operator_id": "jr_east", "line_color": "#22A6B3", "tags": ["tokyo", "track_centerline"]}}, {"type": "Feature", "bbox": [140.54016, 36.42961, 140.54086, 36.43133], "geometry": {"type": "LineString", "coordinates": [[140.54086, 36.43133], [140.54016, 36.42961]]}, "properties": {"id": "TRACK_TOKYO_2636", "line_name": "常磐線", "station_group_ids": [], "mode": "rail", "operator_id": "jr_east", "line_color": "#22A6B3", "tags": ["tokyo", "track_centerline"]}}, {"type": "Feature", "bbox": [140.35143, 36.36953, 140.35383, 36.37056], "geometry": {"type": "LineString", "coordinates": [[140.35383, 36.37056], [140.35143, 36.36953]]}, "properties": {"id": "TRACK_TOKYO_2637", "line_name": "常磐線", "station_group_ids": [], "mode": "rail", "operator_id": "jr_east", "line_color": "#22A6B3", "tags": ["tokyo", "track_centerline"]}}, {"type": "Feature", "bbox": [140.61997, 36.514, 140.6317, 36.55141], "geometry": {"type": "LineString", "coordinates": [[140.61997, 36.514], [140.62064, 36.51532], [140.62099, 36.51607], [140.6211, 36.51653], [140.62118, 36.51683], [140.62123, 36.51726], [140.62122, 36.51757], [140.62121, 36.51829], [140.62117, 36.52036], [140.62115, 36.52107], [140.6211, 36.52284], [140.62103, 36.52511], [140.621, 36.52647], [140.62101, 36.52741], [140.62103, 36.52803], [140.62109, 36.5287], [140.62117, 36.5292], [140.62127, 36.52974], [140.62149, 36.53058], [140.62166, 36.53123], [140.62185, 36.53187], [140.62237, 36.53374], [140.6229, 36.53566], [140.62294, 36.53579], [140.62345, 36.53758], [140.62381, 36.539], [140.62401, 36.53973], [140.6243, 36.54078], [140.62444, 36.5413], [140.62478, 36.5426], [140.62495, 36.54324], [140.625, 36.54343], [140.62502, 36.54353], [140.62514, 36.54401], [140.6256, 36.54573], [140.62577, 36.5463], [140.62592, 36.54655], [140.62617, 36.54697], [140.6264, 36.54729], [140.62665, 36.5476], [140.62699, 36.54794], [140.62763, 36.54842], [140.62782, 36.54856], [140.62956, 36.54984], [140.62981, 36.55002], [140.6317, 36.55141]]}, "properties": {"id": "TRACK_TOKYO_2643", "line_name": "常磐線", "station_group_ids": [], "mode": "rail", "operator_id": "jr_east", "line_color": "#22A6B3", "tags": ["tokyo", "track_centerline"]}}, {"type": "Feature", "bbox": [140.52402, 36.3931, 140.52441, 36.39505], "geometry": {"type": "LineString", "coordinates": [[140.52402, 36.3931], [140.52437, 36.39486], [140.52441, 36.39505]]}, "properties": {"id": "TRACK_TOKYO_2644", "line_name": "常磐線", "station_group_ids": [], "mode": "rail", "operator_id": "jr_east", "line_color": "#22A6B3", "tags": ["tokyo", "track_centerline"]}}, {"type": "Feature", "bbox": [140.56517, 36.46483, 140.5669, 36.46617], "geometry": {"type": "LineString", "coordinates": [[140.5669, 36.46617], [140.56517, 36.46483]]}, "properties": {"id": "TRACK_TOKYO_2646", "line_name": "常磐線", "station_group_ids": [], "mode": "rail", "operator_id": "jr_east", "line_color": "#22A6B3", "tags": ["tokyo", "track_centerline"]}}, {"type": "Feature", "bbox": [140.54086, 36.43133, 140.56517, 36.46483], "geometry": {"type": "LineString", "coordinates": [[140.56517, 36.46483], [140.56476, 36.46451], [140.56353, 36.46357], [140.56335, 36.46342], [140.56183, 36.46223], [140.56141, 36.4619], [140.56035, 36.46108], [140.55864, 36.45973], [140.55728, 36.45868], [140.55672, 36.45824], [140.55591, 36.45761], [140.55489, 36.4568], [140.55485, 36.45677], [140.55399, 36.45599], [140.55374, 36.45572], [140.55334, 36.45529], [140.55303, 36.45491], [140.5528, 36.45462], [140.55258, 36.45433], [140.55196, 36.45337], [140.55175, 36.45304], [140.551, 36.45187], [140.55003, 36.45029], [140.54906, 36.4487], [140.54878, 36.44824], [140.5482, 36.44728], [140.5479, 36.4468], [140.54741, 36.44602], [140.54644, 36.44444], [140.54578, 36.4434], [140.54536, 36.44271], [140.54531, 36.44263], [140.54521, 36.44246], [140.54514, 36.4423], [140.54504, 36.44208], [140.54465, 36.44107], [140.54407, 36.43955], [140.5434, 36.43788], [140.54278, 36.43627], [140.54208, 36.43445], [140.5416, 36.43325], [140.54142, 36.43279], [140.54114, 36.43207], [140.54086, 36.43133]]}, "properties": {"id": "TRACK_TOKYO_2647", "line_name": "常磐線", "station_group_ids": [], "mode": "rail", "operator_id": "jr_east", "line_color": "#22A6B3", "tags": ["tokyo", "track_centerline"]}}, {"type": "Feature", "bbox": [140.66247, 36.59171, 140.6769, 36.63551], "geometry": {"type": "LineString", "coordinates": [[140.66247, 36.59171], [140.6632, 36.59321], [140.66384, 36.59452], [140.66486, 36.59656], [140.666, 36.59876], [140.66632, 36.59972], [140.66663, 36.60074], [140.66673, 36.60119], [140.66724, 36.60433], [140.66735, 36.60486], [140.66778, 36.60746], [140.66804, 36.60848], [140.66827, 36.60905], [140.66852, 36.60953], [140.66867, 36.60984], [140.66926, 36.61094], [140.66963, 36.61163], [140.67076, 36.61367], [140.67128, 36.6146], [140.67181, 36.61555], [140.67202, 36.61599], [140.67223, 36.61651], [140.67289, 36.61844], [140.67316, 36.61926], [140.67399, 36.62168], [140.67436, 36.62266], [140.67454, 36.62321], [140.67468, 36.62357], [140.67511, 36.62488], [140.67595, 36.62729], [140.67679, 36.62989], [140.67685, 36.63019], [140.67689, 36.63048], [140.6769, 36.6308], [140.67688, 36.631], [140.67685, 36.63135], [140.67676, 36.63178], [140.67667, 36.63206], [140.67639, 36.63295], [140.67565, 36.63551]]}, "properties": {"id": "TRACK_TOKYO_2648", "line_name": "常磐線", "station_group_ids": [], "mode": "rail", "operator_id": "jr_east", "line_color": "#22A6B3", "tags": ["tokyo", "track_centerline"]}}, {"type": "Feature", "bbox": [140.27595, 36.24855, 140.28651, 36.29447], "geometry": {"type": "LineString", "coordinates": [[140.27616, 36.29447], [140.27605, 36.29396], [140.27598, 36.29352], [140.27595, 36.2929], [140.27595, 36.29196], [140.276, 36.29129], [140.27608, 36.29062], [140.27623, 36.28979], [140.27648, 36.28881], [140.27684, 36.28738], [140.27724, 36.28578], [140.27807, 36.28257], [140.27841, 36.28124], [140.27902, 36.27884], [140.2792, 36.27813], [140.27951, 36.27689], [140.27991, 36.27534], [140.28032, 36.27382], [140.28076, 36.27204], [140.28123, 36.27019], [140.28127, 36.27001], [140.28191, 36.26751], [140.28227, 36.26608], [140.28267, 36.26455], [140.28326, 36.26218], [140.28359, 36.26078], [140.28384, 36.25989], [140.28423, 36.25831], [140.28474, 36.2562], [140.28489, 36.25556], [140.2852, 36.25426], [140.28544, 36.25318], [140.28621, 36.24967], [140.28651, 36.24855]]}, "properties": {"id": "TRACK_TOKYO_2650", "line_name": "常磐線", "station_group_ids": [], "mode": "rail", "operator_id": "jr_east", "line_color": "#22A6B3", "tags": ["tokyo", "track_centerline"]}}, {"type": "Feature", "bbox": [140.27687, 36.29638, 140.30302, 36.34919], "geometry": {"type": "LineString", "coordinates": [[140.30302, 36.34919], [140.30175, 36.3482], [140.30117, 36.34767], [140.30081, 36.34724], [140.30049, 36.34681], [140.30016, 36.3463], [140.29985, 36.34569], [140.29959, 36.34505], [140.29934, 36.3443], [140.29903, 36.34321], [140.29866, 36.34197], [140.29834, 36.34098], [140.29808, 36.34013], [140.29749, 36.33827], [140.29691, 36.3365], [140.29599, 36.33363], [140.29562, 36.33244], [140.29522, 36.3312], [140.29507, 36.33071], [140.29479, 36.32984], [140.29462, 36.32932], [140.29395, 36.32717], [140.29339, 36.32536], [140.29285, 36.32366], [140.29273, 36.32327], [140.29237, 36.32213], [140.2919, 36.3207], [140.29138, 36.31903], [140.29066, 36.31677], [140.29026, 36.31555], [140.28998, 36.31462], [140.28978, 36.31395], [140.28937, 36.31265], [140.28895, 36.31155], [140.28834, 36.31037], [140.28806, 36.30994], [140.28766, 36.30937], [140.28725, 36.30887], [140.28586, 36.30725], [140.28515, 36.30643], [140.2848, 36.306], [140.28372, 36.30477], [140.28319, 36.30416], [140.28293, 36.30385], [140.2823, 36.30313], [140.28086, 36.30147], [140.28021, 36.30073], [140.27954, 36.29994], [140.27895, 36.29928], [140.2783, 36.29852], [140.27795, 36.2981], [140.27747, 36.29743], [140.27713, 36.29687], [140.27687, 36.29638]]}, "properties": {"id": "TRACK_TOKYO_2655", "line_name": "常磐線", "station_group_ids": [], "mode": "rail", "operator_id": "jr_east", "line_color": "#22A6B3", "tags": ["tokyo", "track_centerline"]}}, {"type": "Feature", "bbox": [140.30302, 36.34919, 140.3046, 36.34986], "geometry": {"type": "LineString", "coordinates": [[140.3046, 36.34986], [140.30341, 36.34935], [140.30313, 36.34924], [140.30302, 36.34919]]}, "properties": {"id": "TRACK_TOKYO_2656", "line_name": "常磐線", "station_group_ids": [], "mode": "rail", "operator_id": "jr_east", "line_color": "#22A6B3", "tags": ["tokyo", "track_centerline"]}}, {"type": "Feature", "bbox": [140.3046, 36.34986, 140.30745, 36.35106], "geometry": {"type": "LineString", "coordinates": [[140.30745, 36.35106], [140.3046, 36.34986]]}, "properties": {"id": "TRACK_TOKYO_2657", "line_name": "常磐線", "station_group_ids": [], "mode": "rail", "operator_id": "jr_east", "line_color": "#22A6B3", "tags": ["tokyo", "track_centerline"]}}, {"type": "Feature", "bbox": [140.28055, 36.16481, 140.29765, 36.19033], "geometry": {"type": "LineString", "coordinates": [[140.28055, 36.19033], [140.28144, 36.1889], [140.28224, 36.1876], [140.28279, 36.1867], [140.28321, 36.18598], [140.28375, 36.18505], [140.28409, 36.18462], [140.28432, 36.18433], [140.28461, 36.18404], [140.28859, 36.18054], [140.29129, 36.17815], [140.29381, 36.17588], [140.29524, 36.17461], [140.29616, 36.17377], [140.29651, 36.17332], [140.29697, 36.17261], [140.29713, 36.17231], [140.29744, 36.17157], [140.29762, 36.17078], [140.29765, 36.17037], [140.29763, 36.16986], [140.29754, 36.16878], [140.29739, 36.1683], [140.29708, 36.16753], [140.29574, 36.16547], [140.29571, 36.16542], [140.29532, 36.16481]]}, "properties": {"id": "TRACK_TOKYO_2660", "line_name": "常磐線", "station_group_ids": [], "mode": "rail", "operator_id": "jr_east", "line_color": "#22A6B3", "tags": ["tokyo", "track_centerline"]}}, {"type": "Feature", "bbox": [140.27898, 36.19033, 140.28055, 36.19266], "geometry": {"type": "LineString", "coordinates": [[140.27898, 36.19266], [140.28011, 36.19098], [140.28021, 36.19083], [140.28055, 36.19033]]}, "properties": {"id": "TRACK_TOKYO_2663", "line_name": "常磐線", "station_group_ids": [], "mode": "rail", "operator_id": "jr_east", "line_color": "#22A6B3", "tags": ["tokyo", "track_centerline"]}}, {"type": "Feature", "bbox": [140.30745, 36.35106, 140.32619, 36.35892], "geometry": {"type": "LineString", "coordinates": [[140.30745, 36.35106], [140.30792, 36.35127], [140.30951, 36.35193], [140.31181, 36.35289], [140.31298, 36.35337], [140.31367, 36.35368], [140.3147, 36.35409], [140.31578, 36.35456], [140.31914, 36.35596], [140.32068, 36.35662], [140.32394, 36.35798], [140.32481, 36.35835], [140.32539, 36.35858], [140.32619, 36.35892]]}, "properties": {"id": "TRACK_TOKYO_2667", "line_name": "常磐線", "station_group_ids": [], "mode": "rail", "operator_id": "jr_east", "line_color": "#22A6B3", "tags": ["tokyo", "track_centerline"]}}, {"type": "Feature", "bbox": [140.27616, 36.29447, 140.27687, 36.29638], "geometry": {"type": "LineString", "coordinates": [[140.27687, 36.29638], [140.27648, 36.29547], [140.27616, 36.29447]]}, "properties": {"id": "TRACK_TOKYO_2668", "line_name": "常磐線", "station_group_ids": [], "mode": "rail", "operator_id": "jr_east", "line_color": "#22A6B3", "tags": ["tokyo", "track_centerline"]}}, {"type": "Feature", "bbox": [140.28651, 36.24653, 140.28704, 36.24855], "geometry": {"type": "LineString", "coordinates": [[140.28651, 36.24855], [140.28704, 36.24653]]}, "properties": {"id": "TRACK_TOKYO_2670", "line_name": "常磐線", "station_group_ids": [], "mode": "rail", "operator_id": "jr_east", "line_color": "#22A6B3", "tags": ["tokyo", "track_centerline"]}}, {"type": "Feature", "bbox": [140.27734, 36.19266, 140.28964, 36.24653], "geometry": {"type": "LineString", "coordinates": [[140.28704, 36.24653], [140.28735, 36.24521], [140.28753, 36.24455], [140.28799, 36.24268], [140.28813, 36.24217], [140.28836, 36.2412], [140.28862, 36.2401], [140.28899, 36.23868], [140.28928, 36.23749], [140.28958, 36.23621], [140.28964, 36.23579], [140.28962, 36.23511], [140.28954, 36.23439], [140.28944, 36.23389], [140.28918, 36.23302], [140.28851, 36.23108], [140.28818, 36.23009], [140.28739, 36.22767], [140.28642, 36.22477], [140.28521, 36.22127], [140.28505, 36.2208], [140.28493, 36.22042], [140.28486, 36.22023], [140.28391, 36.21741], [140.28289, 36.21436], [140.28124, 36.20957], [140.28049, 36.20736], [140.28022, 36.20652], [140.27941, 36.20415], [140.27923, 36.20362], [140.2787, 36.20205], [140.27829, 36.2009], [140.27775, 36.19932], [140.27757, 36.19867], [140.2774, 36.19799], [140.27734, 36.19741], [140.27735, 36.19654], [140.27744, 36.19594], [140.27759, 36.19537], [140.27778, 36.19475], [140.27818, 36.19403], [140.27861, 36.19332], [140.27898, 36.19266]]}, "properties": {"id": "TRACK_TOKYO_2673", "line_name": "常磐線", "station_group_ids": [], "mode": "rail", "operator_id": "jr_east", "line_color": "#22A6B3", "tags": ["tokyo", "track_centerline"]}}]}