{"type": "FeatureCollection", "features": [{"type": "Feature", "bbox": [140.72229249999998, 39.7004425, 140.72229249999998, 39.7004425], "geometry": {"type": "Point", "coordinates": [140.72229249999998, 39.7004425]}, "properties": {"id": "PS_26B0A309683E", "station_group_id": "SG_FF89869BB89F", "operator_id": "jr_east", "operator_ids": "jr_east", "name_en": "田沢湖", "name_ja": "田沢湖", "label_rank": 72, "tags": ["tokyo", "v3"]}}, {"type": "Feature", "bbox": [140.97481, 39.68923, 140.97481, 39.68923], "geometry": {"type": "Point", "coordinates": [140.97481, 39.68923]}, "properties": {"id": "PS_88629CF1C99C", "station_group_id": "SG_262D8EF493E1", "operator_id": "jr_east", "operator_ids": "jr_east", "name_en": "雫石", "name_ja": "雫石", "label_rank": 72, "tags": ["tokyo", "v3"]}}]}