{"type": "FeatureCollection", "features": [{"type": "Feature", "bbox": [140.88213000000002, 38.260540000000006, 140.88213000000002, 38.260540000000006], "geometry": {"type": "Point", "coordinates": [140.88213000000002, 38.260540000000006]}, "properties": {"id": "PS_6E9E8A2B3714", "station_group_id": "SG_844B0E4F7AF0", "name_en": "仙台", "name_ja": "仙台", "label_rank": 72, "tags": ["tokyo", "v3"]}}, {"type": "Feature", "bbox": [140.88250499999998, 38.259745, 140.88250499999998, 38.259745], "geometry": {"type": "Point", "coordinates": [140.88250499999998, 38.259745]}, "properties": {"id": "PS_E5F2E7A1D164", "station_group_id": "SG_844B0E4F7AF0", "name_en": "仙台", "name_ja": "仙台", "label_rank": 72, "tags": ["tokyo", "v3"]}}, {"type": "Feature", "bbox": [140.9848, 38.32935, 140.9848, 38.32935], "geometry": {"type": "Point", "coordinates": [140.9848, 38.32935]}, "properties": {"id": "PS_2F438FAF082F", "station_group_id": "SG_6AD70C5DCD64", "name_en": "利府", "name_ja": "利府", "label_rank": 72, "tags": ["tokyo", "v3"]}}, {"type": "Feature", "bbox": [140.99478, 38.301114999999996, 140.99478, 38.301114999999996], "geometry": {"type": "Point", "coordinates": [140.99478, 38.301114999999996]}, "properties": {"id": "PS_ABA844E45A37", "station_group_id": "SG_3EF743708980", "name_en": "国府多賀城", "name_ja": "国府多賀城", "label_rank": 72, "tags": ["tokyo", "v3"]}}, {"type": "Feature", "bbox": [140.9555, 38.300985, 140.9555, 38.300985], "geometry": {"type": "Point", "coordinates": [140.9555, 38.300985]}, "properties": {"id": "PS_8F65422E1A49", "station_group_id": "SG_A232BBB2699E", "name_en": "岩切", "name_ja": "岩切", "label_rank": 72, "tags": ["tokyo", "v3"]}}, {"type": "Feature", "bbox": [140.973175, 38.317315, 140.973175, 38.317315], "geometry": {"type": "Point", "coordinates": [140.973175, 38.317315]}, "properties": {"id": "PS_455C66C9FE7C", "station_group_id": "SG_3D4BFB9580DE", "name_en": "新利府", "name_ja": "新利府", "label_rank": 72, "tags": ["tokyo", "v3"]}}, {"type": "Feature", "bbox": [140.91985, 38.276365, 140.91985, 38.276365], "geometry": {"type": "Point", "coordinates": [140.91985, 38.276365]}, "properties": {"id": "PS_A18238ABAAC7", "station_group_id": "SG_E3A3E147C081", "name_en": "東仙台", "name_ja": "東仙台", "label_rank": 72, "tags": ["tokyo", "v3"]}}, {"type": "Feature", "bbox": [140.979635, 38.2996, 140.979635, 38.2996], "geometry": {"type": "Point", "coordinates": [140.979635, 38.2996]}, "properties": {"id": "PS_81F31F708A49", "station_group_id": "SG_8503DC13E803", "name_en": "陸前山王", "name_ja": "陸前山王", "label_rank": 72, "tags": ["tokyo", "v3"]}}]}