{"type": "FeatureCollection", "features": [{"type": "Feature", "bbox": [140.86129, 38.03988, 140.86129, 38.03988], "geometry": {"type": "Point", "coordinates": [140.86129, 38.03988]}, "properties": {"id": "PS_AE0B7545D91D", "station_group_id": "SG_AF4383C443BD", "operator_id": "jr_east", "operator_ids": "jr_east", "name_en": "亘理", "name_ja": "亘理", "label_rank": 72, "tags": ["tokyo", "v3"]}}, {"type": "Feature", "bbox": [140.883295, 38.19722, 140.883295, 38.19722], "geometry": {"type": "Point", "coordinates": [140.883295, 38.19722]}, "properties": {"id": "PS_DF4C620D13FF", "station_group_id": "SG_8359AFCE3158", "operator_id": "jr_east", "operator_ids": "jr_east", "name_en": "南仙台", "name_ja": "南仙台", "label_rank": 72, "tags": ["tokyo", "v3"]}}, {"type": "Feature", "bbox": [140.88275, 38.173100000000005, 140.88275, 38.173100000000005], "geometry": {"type": "Point", "coordinates": [140.88275, 38.173100000000005]}, "properties": {"id": "PS_AE42D0F8E358", "station_group_id": "SG_607237ED1EDA", "operator_id": "jr_east", "operator_ids": "jr_east", "name_en": "名取", "name_ja": "名取", "label_rank": 72, "tags": ["tokyo", "v3"]}}, {"type": "Feature", "bbox": [140.7406, 38.047695000000004, 140.7406, 38.047695000000004], "geometry": {"type": "Point", "coordinates": [140.7406, 38.047695000000004]}, "properties": {"id": "PS_A175646FD796", "station_group_id": "SG_1BE575EAD1FB", "operator_id": "jr_east", "operator_ids": "jr_east", "name_en": "大河原", "name_ja": "大河原", "label_rank": 72, "tags": ["tokyo", "v3"]}}, {"type": "Feature", "bbox": [140.88373, 38.217745, 140.88373, 38.217745], "geometry": {"type": "Point", "coordinates": [140.88373, 38.217745]}, "properties": {"id": "PS_EA4920C84F88", "station_group_id": "SG_A70BB38AF1E4", "operator_id": "jr_east", "operator_ids": "jr_east", "name_en": "太子堂", "name_ja": "太子堂", "label_rank": 72, "tags": ["tokyo", "v3"]}}, {"type": "Feature", "bbox": [140.863655, 38.111864999999995, 140.863655, 38.111864999999995], "geometry": {"type": "Point", "coordinates": [140.863655, 38.111864999999995]}, "properties": {"id": "PS_6C7B6B6EC075", "station_group_id": "SG_E79A1ED08E80", "operator_id": "jr_east", "operator_ids": "jr_east", "name_en": "岩沼", "name_ja": "岩沼", "label_rank": 72, "tags": ["tokyo", "v3"]}}, {"type": "Feature", "bbox": [140.863655, 38.111864999999995, 140.863655, 38.111864999999995], "geometry": {"type": "Point", "coordinates": [140.863655, 38.111864999999995]}, "properties": {"id": "PS_3CAC314E6C18", "station_group_id": "SG_E79A1ED08E80", "operator_id": "jr_east", "operator_ids": "jr_east", "name_en": "岩沼", "name_ja": "岩沼", "label_rank": 72, "tags": ["tokyo", "v3"]}}, {"type": "Feature", "bbox": [140.80997000000002, 38.078869999999995, 140.80997000000002, 38.078869999999995], "geometry": {"type": "Point", "coordinates": [140.80997000000002, 38.078869999999995]}, "properties": {"id": "PS_C62294D2FFDE", "station_group_id": "SG_6387AE3C3D77", "operator_id": "jr_east", "operator_ids": "jr_east", "name_en": "槻木", "name_ja": "槻木", "label_rank": 72, "tags": ["tokyo", "v3"]}}, {"type": "Feature", "bbox": [140.890085, 38.002224999999996, 140.890085, 38.002224999999996], "geometry": {"type": "Point", "coordinates": [140.890085, 38.002224999999996]}, "properties": {"id": "PS_8FD8D465812E", "station_group_id": "SG_A4CCE8882F21", "operator_id": "jr_east", "operator_ids": "jr_east", "name_en": "浜吉田", "name_ja": "浜吉田", "label_rank": 72, "tags": ["tokyo", "v3"]}}, {"type": "Feature", "bbox": [140.7674, 38.05933, 140.7674, 38.05933], "geometry": {"type": "Point", "coordinates": [140.7674, 38.05933]}, "properties": {"id": "PS_FB4DACEA9144", "station_group_id": "SG_E7C7F052671F", "operator_id": "jr_east", "operator_ids": "jr_east", "name_en": "船岡", "name_ja": "船岡", "label_rank": 72, "tags": ["tokyo", "v3"]}}, {"type": "Feature", "bbox": [140.85475000000002, 38.067625, 140.85475000000002, 38.067625], "geometry": {"type": "Point", "coordinates": [140.85475000000002, 38.067625]}, "properties": {"id": "PS_7D89FAF4E72C", "station_group_id": "SG_E8A7C76A1928", "operator_id": "jr_east", "operator_ids": "jr_east", "name_en": "逢隈", "name_ja": "逢隈", "label_rank": 72, "tags": ["tokyo", "v3"]}}, {"type": "Feature", "bbox": [140.886155, 38.226955000000004, 140.886155, 38.226955000000004], "geometry": {"type": "Point", "coordinates": [140.886155, 38.226955000000004]}, "properties": {"id": "PS_056D5BB7A10E", "station_group_id": "SG_2E169508BC37", "operator_id": "jr_east", "operator_ids": "jr_east", "name_en": "長町", "name_ja": "長町", "label_rank": 72, "tags": ["tokyo", "v3"]}}, {"type": "Feature", "bbox": [140.880155, 38.143085, 140.880155, 38.143085], "geometry": {"type": "Point", "coordinates": [140.880155, 38.143085]}, "properties": {"id": "PS_4C15DA7265C0", "station_group_id": "SG_15AB162AE9F6", "operator_id": "jr_east", "operator_ids": "jr_east", "name_en": "館腰", "name_ja": "館腰", "label_rank": 72, "tags": ["tokyo", "v3"]}}]}