{"type": "FeatureCollection", "features": [{"type": "Feature", "bbox": [140.90105461500002, 37.924079135, 140.90105461500002, 37.924079135], "geometry": {"type": "Point", "coordinates": [140.90105461500002, 37.924079135]}, "properties": {"id": "PS_97246D4B3284", "station_group_id": "SG_632FBD97D9AE", "name_en": "坂元", "name_ja": "坂元", "label_rank": 72, "tags": ["tokyo", "v3"]}}, {"type": "Feature", "bbox": [140.88898331500002, 37.96631868, 140.88898331500002, 37.96631868], "geometry": {"type": "Point", "coordinates": [140.88898331500002, 37.96631868]}, "properties": {"id": "PS_A145875CEF9B", "station_group_id": "SG_3327793EEEE5", "name_en": "山下", "name_ja": "山下", "label_rank": 72, "tags": ["tokyo", "v3"]}}, {"type": "Feature", "bbox": [140.9256402, 37.879215474999995, 140.9256402, 37.879215474999995], "geometry": {"type": "Point", "coordinates": [140.9256402, 37.879215474999995]}, "properties": {"id": "PS_1D5855300D72", "station_group_id": "SG_97157B32CFA9", "name_en": "新地", "name_ja": "新地", "label_rank": 72, "tags": ["tokyo", "v3"]}}, {"type": "Feature", "bbox": [140.93466, 37.75613, 140.93466, 37.75613], "geometry": {"type": "Point", "coordinates": [140.93466, 37.75613]}, "properties": {"id": "PS_CD98B7F979C8", "station_group_id": "SG_E165EB32A07F", "name_en": "日立木", "name_ja": "日立木", "label_rank": 72, "tags": ["tokyo", "v3"]}}, {"type": "Feature", "bbox": [140.92570999999998, 37.802499999999995, 140.92570999999998, 37.802499999999995], "geometry": {"type": "Point", "coordinates": [140.92570999999998, 37.802499999999995]}, "properties": {"id": "PS_76CB659C301C", "station_group_id": "SG_3204C73DBDBE", "name_en": "相馬", "name_ja": "相馬", "label_rank": 72, "tags": ["tokyo", "v3"]}}, {"type": "Feature", "bbox": [140.925095, 37.842135, 140.925095, 37.842135], "geometry": {"type": "Point", "coordinates": [140.925095, 37.842135]}, "properties": {"id": "PS_D69E44B51031", "station_group_id": "SG_7F03E18BDF80", "name_en": "駒ヶ嶺", "name_ja": "駒ヶ嶺", "label_rank": 72, "tags": ["tokyo", "v3"]}}]}