{"type": "FeatureCollection", "features": [{"type": "Feature", "bbox": [140.97105, 37.63802, 140.97105, 37.63802], "geometry": {"type": "Point", "coordinates": [140.97105, 37.63802]}, "properties": {"id": "PS_57AA81783233", "station_group_id": "SG_77A3629D44DA", "name_en": "原ノ町", "name_ja": "原ノ町", "label_rank": 72, "tags": ["tokyo", "v3"]}}, {"type": "Feature", "bbox": [140.996365, 37.562975, 140.996365, 37.562975], "geometry": {"type": "Point", "coordinates": [140.996365, 37.562975]}, "properties": {"id": "PS_307A8A31E05B", "station_group_id": "SG_CB966F7DC08D", "name_en": "小高", "name_ja": "小高", "label_rank": 72, "tags": ["tokyo", "v3"]}}, {"type": "Feature", "bbox": [140.98437, 37.528665000000004, 140.98437, 37.528665000000004], "geometry": {"type": "Point", "coordinates": [140.98437, 37.528665000000004]}, "properties": {"id": "PS_6CC6AE31C6B4", "station_group_id": "SG_452CCF98A24B", "name_en": "桃内", "name_ja": "桃内", "label_rank": 72, "tags": ["tokyo", "v3"]}}, {"type": "Feature", "bbox": [140.989775, 37.49222, 140.989775, 37.49222], "geometry": {"type": "Point", "coordinates": [140.989775, 37.49222]}, "properties": {"id": "PS_5EA3D538CE34", "station_group_id": "SG_2AF8459DCCE2", "name_en": "浪江", "name_ja": "浪江", "label_rank": 72, "tags": ["tokyo", "v3"]}}, {"type": "Feature", "bbox": [140.99151, 37.60507, 140.99151, 37.60507], "geometry": {"type": "Point", "coordinates": [140.99151, 37.60507]}, "properties": {"id": "PS_11BEBD361CD0", "station_group_id": "SG_C12CEA8308EF", "name_en": "磐城太田", "name_ja": "磐城太田", "label_rank": 72, "tags": ["tokyo", "v3"]}}, {"type": "Feature", "bbox": [140.97008, 37.702835, 140.97008, 37.702835], "geometry": {"type": "Point", "coordinates": [140.97008, 37.702835]}, "properties": {"id": "PS_427234224F7A", "station_group_id": "SG_08814670004C", "name_en": "鹿島", "name_ja": "鹿島", "label_rank": 72, "tags": ["tokyo", "v3"]}}]}