{"type": "FeatureCollection", "features": [{"type": "Feature", "bbox": [141.00761603198828, 37.24272137672518, 141.00761603198828, 37.24272137672518], "geometry": {"type": "Point", "coordinates": [141.00761603198828, 37.24272137672518]}, "properties": {"id": "PS_J_37_2427214_141_0076160_0", "station_group_id": "SG_J", "operator_id": "jr_east", "operator_ids": "jr_east", "name_en": "Jヴィレッジ", "name_ja": "Jヴィレッジ", "label_rank": 72, "tags": ["tokyo", "v3"]}}, {"type": "Feature", "bbox": [141.005855, 37.453735, 141.005855, 37.453735], "geometry": {"type": "Point", "coordinates": [141.005855, 37.453735]}, "properties": {"id": "PS_795E6F4EA2FF", "station_group_id": "SG_A19002F6A7A8", "operator_id": "jr_east", "operator_ids": "jr_east", "name_en": "双葉", "name_ja": "双葉", "label_rank": 72, "tags": ["tokyo", "v3"]}}, {"type": "Feature", "bbox": [140.99201499999998, 37.365785, 140.99201499999998, 37.365785], "geometry": {"type": "Point", "coordinates": [140.99201499999998, 37.365785]}, "properties": {"id": "PS_F638DE4D02A4", "station_group_id": "SG_49F85B630696", "operator_id": "jr_east", "operator_ids": "jr_east", "name_en": "夜ノ森", "name_ja": "夜ノ森", "label_rank": 72, "tags": ["tokyo", "v3"]}}, {"type": "Feature", "bbox": [140.984195, 37.40932, 140.984195, 37.40932], "geometry": {"type": "Point", "coordinates": [140.984195, 37.40932]}, "properties": {"id": "PS_4E12818E1954", "station_group_id": "SG_4AC06A15B878", "operator_id": "jr_east", "operator_ids": "jr_east", "name_en": "大野", "name_ja": "大野", "label_rank": 72, "tags": ["tokyo", "v3"]}}, {"type": "Feature", "bbox": [141.00252999999998, 37.25799, 141.00252999999998, 37.25799], "geometry": {"type": "Point", "coordinates": [141.00252999999998, 37.25799]}, "properties": {"id": "PS_632C5C11511B", "station_group_id": "SG_E433CAB2EC87", "operator_id": "jr_east", "operator_ids": "jr_east", "name_en": "木戸", "name_ja": "木戸", "label_rank": 72, "tags": ["tokyo", "v3"]}}, {"type": "Feature", "bbox": [141.00269, 37.28245, 141.00269, 37.28245], "geometry": {"type": "Point", "coordinates": [141.00269, 37.28245]}, "properties": {"id": "PS_AFA1FA067EC4", "station_group_id": "SG_B29CF85F37BB", "operator_id": "jr_east", "operator_ids": "jr_east", "name_en": "竜田", "name_ja": "竜田", "label_rank": 72, "tags": ["tokyo", "v3"]}}]}