{"type": "FeatureCollection", "features": [{"type": "Feature", "bbox": [140.892355, 37.058220000000006, 140.892355, 37.058220000000006], "geometry": {"type": "Point", "coordinates": [140.892355, 37.058220000000006]}, "properties": {"id": "PS_1C923A512333", "station_group_id": "SG_527DB5C58EC2", "operator_id": "jr_east", "operator_ids": "jr_east", "name_en": "いわき", "name_ja": "いわき", "label_rank": 72, "tags": ["tokyo", "v3"]}}, {"type": "Feature", "bbox": [140.995775, 37.14247, 140.995775, 37.14247], "geometry": {"type": "Point", "coordinates": [140.995775, 37.14247]}, "properties": {"id": "PS_DABBD3CBBC7F", "station_group_id": "SG_BB58CE5E4F02", "operator_id": "jr_east", "operator_ids": "jr_east", "name_en": "久ノ浜", "name_ja": "久ノ浜", "label_rank": 72, "tags": ["tokyo", "v3"]}}, {"type": "Feature", "bbox": [140.854935, 37.03599, 140.854935, 37.03599], "geometry": {"type": "Point", "coordinates": [140.854935, 37.03599]}, "properties": {"id": "PS_708FA14C0610", "station_group_id": "SG_09797546452C", "operator_id": "jr_east", "operator_ids": "jr_east", "name_en": "内郷", "name_ja": "内郷", "label_rank": 72, "tags": ["tokyo", "v3"]}}, {"type": "Feature", "bbox": [140.98086, 37.102325, 140.98086, 37.102325], "geometry": {"type": "Point", "coordinates": [140.98086, 37.102325]}, "properties": {"id": "PS_5E2026277852", "station_group_id": "SG_1CAE9A66A99A", "operator_id": "jr_east", "operator_ids": "jr_east", "name_en": "四ツ倉", "name_ja": "四ツ倉", "label_rank": 72, "tags": ["tokyo", "v3"]}}, {"type": "Feature", "bbox": [140.99881, 37.21155, 140.99881, 37.21155], "geometry": {"type": "Point", "coordinates": [140.99881, 37.21155]}, "properties": {"id": "PS_A9F18832106A", "station_group_id": "SG_C5BC17124737", "operator_id": "jr_east", "operator_ids": "jr_east", "name_en": "広野", "name_ja": "広野", "label_rank": 72, "tags": ["tokyo", "v3"]}}, {"type": "Feature", "bbox": [140.99565, 37.172145, 140.99565, 37.172145], "geometry": {"type": "Point", "coordinates": [140.99565, 37.172145]}, "properties": {"id": "PS_B9F9953E44EE", "station_group_id": "SG_CF098951FE7E", "operator_id": "jr_east", "operator_ids": "jr_east", "name_en": "末続", "name_ja": "末続", "label_rank": 72, "tags": ["tokyo", "v3"]}}, {"type": "Feature", "bbox": [140.84984, 37.006945, 140.84984, 37.006945], "geometry": {"type": "Point", "coordinates": [140.84984, 37.006945]}, "properties": {"id": "PS_CA7A49B89E85", "station_group_id": "SG_6748DF9EF3EF", "operator_id": "jr_east", "operator_ids": "jr_east", "name_en": "湯本", "name_ja": "湯本", "label_rank": 72, "tags": ["tokyo", "v3"]}}, {"type": "Feature", "bbox": [140.94725, 37.07385, 140.94725, 37.07385], "geometry": {"type": "Point", "coordinates": [140.94725, 37.07385]}, "properties": {"id": "PS_D62A0644E95A", "station_group_id": "SG_408690A4B980", "operator_id": "jr_east", "operator_ids": "jr_east", "name_en": "草野", "name_ja": "草野", "label_rank": 72, "tags": ["tokyo", "v3"]}}]}