{"type": "FeatureCollection", "features": [{"type": "Feature", "bbox": [140.78663, 36.88363, 140.78663, 36.88363], "geometry": {"type": "Point", "coordinates": [140.78663, 36.88363]}, "properties": {"id": "PS_8BFE5C2C96ED", "station_group_id": "SG_75D9EDA3DE89", "name_en": "勿来", "name_ja": "勿来", "label_rank": 72, "tags": ["tokyo", "v3"]}}, {"type": "Feature", "bbox": [140.72905500000002, 36.75332, 140.72905500000002, 36.75332], "geometry": {"type": "Point", "coordinates": [140.72905500000002, 36.75332]}, "properties": {"id": "PS_2BF37338B4F1", "station_group_id": "SG_F85F78D8FBAB", "name_en": "南中郷", "name_ja": "南中郷", "label_rank": 72, "tags": ["tokyo", "v3"]}}, {"type": "Feature", "bbox": [140.778005, 36.846064999999996, 140.778005, 36.846064999999996], "geometry": {"type": "Point", "coordinates": [140.778005, 36.846064999999996]}, "properties": {"id": "PS_8D2BCF00EBEE", "station_group_id": "SG_2F4AAB6C0FDB", "name_en": "大津港", "name_ja": "大津港", "label_rank": 72, "tags": ["tokyo", "v3"]}}, {"type": "Feature", "bbox": [140.79648500000002, 36.92049, 140.79648500000002, 36.92049], "geometry": {"type": "Point", "coordinates": [140.79648500000002, 36.92049]}, "properties": {"id": "PS_CC5F589B9279", "station_group_id": "SG_68EAAAC24ED1", "name_en": "植田", "name_ja": "植田", "label_rank": 72, "tags": ["tokyo", "v3"]}}, {"type": "Feature", "bbox": [140.854085, 36.955574999999996, 140.854085, 36.955574999999996], "geometry": {"type": "Point", "coordinates": [140.854085, 36.955574999999996]}, "properties": {"id": "PS_9651387F677F", "station_group_id": "SG_0D3B2E60AD25", "name_en": "泉", "name_ja": "泉", "label_rank": 72, "tags": ["tokyo", "v3"]}}, {"type": "Feature", "bbox": [140.746345, 36.7907, 140.746345, 36.7907], "geometry": {"type": "Point", "coordinates": [140.746345, 36.7907]}, "properties": {"id": "PS_0C3B0C0FE58E", "station_group_id": "SG_1D2F5222E2E5", "name_en": "磯原", "name_ja": "磯原", "label_rank": 72, "tags": ["tokyo", "v3"]}}]}