{"type": "FeatureCollection", "features": [{"type": "Feature", "bbox": [140.795195, 35.739374999999995, 140.795195, 35.739374999999995], "geometry": {"type": "Point", "coordinates": [140.795195, 35.739374999999995]}, "properties": {"id": "PS_D55F2CE39241", "station_group_id": "SG_43EF9407F21E", "name_en": "松岸", "name_ja": "松岸", "label_rank": 72, "tags": ["tokyo", "v3"]}}, {"type": "Feature", "bbox": [140.737365, 35.74735, 140.737365, 35.74735], "geometry": {"type": "Point", "coordinates": [140.737365, 35.74735]}, "properties": {"id": "PS_AF087884609C", "station_group_id": "SG_E1172CCE16CC", "name_en": "猿田", "name_ja": "猿田", "label_rank": 72, "tags": ["tokyo", "v3"]}}, {"type": "Feature", "bbox": [140.82746500000002, 35.729325, 140.82746500000002, 35.729325], "geometry": {"type": "Point", "coordinates": [140.82746500000002, 35.729325]}, "properties": {"id": "PS_041C3EF943B7", "station_group_id": "SG_B5EEE0A655CE", "name_en": "銚子", "name_ja": "銚子", "label_rank": 72, "tags": ["tokyo", "v3"]}}]}