{"type": "FeatureCollection", "features": [{"type": "Feature", "bbox": [138.97724, 36.69118, 138.97794, 36.69495], "geometry": {"type": "LineString", "coordinates": [[138.97794, 36.69118], [138.97772, 36.69229], [138.97749, 36.69354], [138.97724, 36.69495]]}, "properties": {"id": "TRACK_TOKYO_2404", "line_name": "上越新幹線", "station_group_ids": [], "mode": "shinkansen", "operator_id": "jr_east", "line_color": "#E65045", "tags": ["tokyo", "track_centerline"]}}, {"type": "Feature", "bbox": [138.81079, 36.69495, 138.97724, 36.93397], "geometry": {"type": "LineString", "coordinates": [[138.81079, 36.93397], [138.81231, 36.93224], [138.81262, 36.93191], [138.81437, 36.92983], [138.81597, 36.92801], [138.81659, 36.92729], [138.81756, 36.92618], [138.81923, 36.92425], [138.82038, 36.92289], [138.82096, 36.92214], [138.82207, 36.92056], [138.82262, 36.91974], [138.82273, 36.91956], [138.82289, 36.91933], [138.82296, 36.91921], [138.82306, 36.91904], [138.82323, 36.91873], [138.82347, 36.91833], [138.8236, 36.91812], [138.82379, 36.91782], [138.82405, 36.91742], [138.82424, 36.91711], [138.82436, 36.91693], [138.82459, 36.91658], [138.82482, 36.91621], [138.82522, 36.91557], [138.82543, 36.91523], [138.82582, 36.91457], [138.82603, 36.91422], [138.82635, 36.9137], [138.82658, 36.91329], [138.82678, 36.913], [138.827, 36.91265], [138.82727, 36.91218], [138.82754, 36.91176], [138.82759, 36.91168], [138.82773, 36.91145], [138.82778, 36.91136], [138.82795, 36.91107], [138.82803, 36.91096], [138.82828, 36.91055], [138.82857, 36.91005], [138.82888, 36.90957], [138.82929, 36.90891], [138.82953, 36.90852], [138.82979, 36.90809], [138.83005, 36.90768], [138.83037, 36.90715], [138.83079, 36.90649], [138.83101, 36.90612], [138.83113, 36.90596], [138.83134, 36.90562], [138.83156, 36.90521], [138.83181, 36.90481], [138.83206, 36.90438], [138.83232, 36.90394], [138.83252, 36.90361], [138.8326, 36.90348], [138.83282, 36.9031], [138.83314, 36.90257], [138.83337, 36.90224], [138.83368, 36.90176], [138.83384, 36.90149], [138.83407, 36.9011], [138.83442, 36.90056], [138.83474, 36.90009], [138.83502, 36.89957], [138.83525, 36.89918], [138.83555, 36.89871], [138.83579, 36.89833], [138.83603, 36.89792], [138.83633, 36.89739], [138.83666, 36.89689], [138.83692, 36.89649], [138.8372, 36.89604], [138.83746, 36.89561], [138.8375, 36.89556], [138.83765, 36.8953], [138.83782, 36.89503], [138.83799, 36.89471], [138.83814, 36.89442], [138.83839, 36.89399], [138.83856, 36.89372], [138.83874, 36.89343], [138.83885, 36.89325], [138.83901, 36.89306], [138.83916, 36.89281], [138.83937, 36.89245], [138.83963, 36.89204], [138.83992, 36.89157], [138.84014, 36.89124], [138.84038, 36.89085], [138.84062, 36.89048], [138.8409, 36.89006], [138.84125, 36.88955], [138.84153, 36.88913], [138.84175, 36.88883], [138.84202, 36.88842], [138.84223, 36.88811], [138.8425, 36.8877], [138.84259, 36.88756], [138.84276, 36.8873], [138.84284, 36.88718], [138.84306, 36.88687], [138.8433, 36.88657], [138.8435, 36.88632], [138.84378, 36.88601], [138.84396, 36.88579], [138.84417, 36.88552], [138.84433, 36.88538], [138.84454, 36.88511], [138.84472, 36.88492], [138.8449, 36.88469], [138.84525, 36.8843], [138.84556, 36.88397], [138.84569, 36.88381], [138.84603, 36.88345], [138.84629, 36.88316], [138.8466, 36.88284], [138.84691, 36.8825], [138.84711, 36.8823], [138.84739, 36.88203], [138.84768, 36.88173], [138.84796, 36.88147], [138.84819, 36.88125], [138.84844, 36.88098], [138.84878, 36.88059], [138.84904, 36.88031], [138.84908, 36.88027], [138.84927, 36.88008], [138.84943, 36.87988], [138.84965, 36.87963], [138.84982, 36.87947], [138.85016, 36.87916], [138.85044, 36.87881], [138.8508, 36.87846], [138.85107, 36.87819], [138.85131, 36.878], [138.85164, 36.87771], [138.85191, 36.87748], [138.85209, 36.87732], [138.85232, 36.87709], [138.8526, 36.87682], [138.85288, 36.87656], [138.85306, 36.87637], [138.85333, 36.87611], [138.85346, 36.87599], [138.85395, 36.87552], [138.85427, 36.87528], [138.85489, 36.87476], [138.85516, 36.87453], [138.85555, 36.87422], [138.85598, 36.87384], [138.85628, 36.87359], [138.85638, 36.87351], [138.85675, 36.8732], [138.85729, 36.87273], [138.85778, 36.87233], [138.85827, 36.87193], [138.85868, 36.87165], [138.85918, 36.87125], [138.85957, 36.87094], [138.86, 36.87063], [138.86038, 36.87035], [138.86075, 36.8701], [138.86111, 36.86984], [138.86149, 36.86956], [138.86185, 36.86931], [138.86225, 36.86902], [138.86247, 36.86886], [138.86271, 36.86867], [138.86312, 36.86835], [138.86345, 36.86811], [138.86372, 36.86791], [138.86424, 36.86753], [138.86449, 36.86736], [138.86465, 36.86725], [138.86504, 36.86697], [138.86578, 36.86641], [138.86627, 36.86607], [138.86666, 36.86579], [138.86712, 36.86544], [138.86758, 36.86512], [138.86798, 36.86484], [138.86861, 36.86435], [138.86916, 36.86395], [138.86951, 36.86371], [138.87005, 36.86334], [138.87071, 36.86285], [138.87134, 36.86238], [138.87181, 36.86199], [138.87232, 36.86162], [138.87334, 36.86086], [138.87411, 36.86032], [138.87513, 36.85956], [138.8762, 36.85876], [138.87697, 36.8582], [138.87819, 36.85731], [138.87981, 36.85612], [138.88004, 36.85595], [138.88132, 36.85503], [138.88259, 36.8541], [138.88374, 36.85329], [138.8851, 36.85229], [138.88673, 36.85108], [138.88829, 36.84993], [138.89022, 36.84854], [138.89209, 36.84717], [138.89369, 36.846], [138.89529, 36.84481], [138.89653, 36.8439], [138.89729, 36.84334], [138.89957, 36.8417], [138.90164, 36.84018], [138.90305, 36.8391], [138.90462, 36.83796], [138.90475, 36.83786], [138.90623, 36.83676], [138.90672, 36.83642], [138.9069, 36.83627], [138.9073, 36.83598], [138.90774, 36.83565], [138.90805, 36.83543], [138.90853, 36.83508], [138.90895, 36.83476], [138.90963, 36.83427], [138.91018, 36.83386], [138.9111, 36.83318], [138.91173, 36.83272], [138.9123, 36.8323], [138.91271, 36.83201], [138.91321, 36.83163], [138.91363, 36.83132], [138.91425, 36.83087], [138.91469, 36.83055], [138.91494, 36.83037], [138.91518, 36.83019], [138.91553, 36.82993], [138.91571, 36.8298], [138.91609, 36.82951], [138.91649, 36.82922], [138.91685, 36.82895], [138.91727, 36.82865], [138.91791, 36.82819], [138.91891, 36.82744], [138.91976, 36.82681], [138.92107, 36.82587], [138.92252, 36.82479], [138.92345, 36.82411], [138.92393, 36.82376], [138.92421, 36.82355], [138.92517, 36.82287], [138.92622, 36.82207], [138.92719, 36.82138], [138.92816, 36.82066], [138.9288, 36.82018], [138.92965, 36.81954], [138.93016, 36.81919], [138.93076, 36.81874], [138.93132, 36.81831], [138.93165, 36.81808], [138.93216, 36.81771], [138.93248, 36.81747], [138.93307, 36.81702], [138.93364, 36.8166], [138.93423, 36.81618], [138.9353, 36.8154], [138.9363, 36.81468], [138.93683, 36.81428], [138.93785, 36.81353], [138.93866, 36.81294], [138.93996, 36.81198], [138.94038, 36.81167], [138.94095, 36.81125], [138.94202, 36.81047], [138.94296, 36.80978], [138.94403, 36.80899], [138.94491, 36.80836], [138.94584, 36.80768], [138.94646, 36.80721], [138.94694, 36.80687], [138.94744, 36.80645], [138.94804, 36.80597], [138.94853, 36.80556], [138.94853, 36.80555], [138.94923, 36.80494], [138.94996, 36.80425], [138.95075, 36.80351], [138.95111, 36.80314], [138.95166, 36.80256], [138.95209, 36.8021], [138.95276, 36.80139], [138.95311, 36.80099], [138.95341, 36.80062], [138.95376, 36.80021], [138.95417, 36.79972], [138.95437, 36.79947], [138.95481, 36.79893], [138.95499, 36.79868], [138.9552, 36.79839], [138.95555, 36.79793], [138.95621, 36.79702], [138.95663, 36.79641], [138.95695, 36.79595], [138.95761, 36.79493], [138.95824, 36.79389], [138.95869, 36.79308], [138.95911, 36.79231], [138.95949, 36.79156], [138.96006, 36.7903], [138.9601, 36.79021], [138.96082, 36.7885], [138.96124, 36.7874], [138.96137, 36.78697], [138.96159, 36.78634], [138.96181, 36.78567], [138.96234, 36.78384], [138.96271, 36.78232], [138.96285, 36.78159], [138.96297, 36.78101], [138.96314, 36.78011], [138.96324, 36.77943], [138.96335, 36.77842], [138.96343, 36.77785], [138.96346, 36.77757], [138.96355, 36.77635], [138.96362, 36.77528], [138.96369, 36.77434], [138.96376, 36.77347], [138.96383, 36.77257], [138.96391, 36.77142], [138.96396, 36.77083], [138.96399, 36.77026], [138.96409, 36.76921], [138.96419, 36.76781], [138.96432, 36.76649], [138.96446, 36.76431], [138.96453, 36.76346], [138.96459, 36.76255], [138.96471, 36.76106], [138.96485, 36.75987], [138.96502, 36.75843], [138.96522, 36.75704], [138.96527, 36.75655], [138.96534, 36.75619], [138.96548, 36.75528], [138.9656, 36.75448], [138.96576, 36.75368], [138.96578, 36.75359], [138.96585, 36.75309], [138.96589, 36.75285], [138.96594, 36.75251], [138.966, 36.75225], [138.96635, 36.75052], [138.96675, 36.74849], [138.96708, 36.74698], [138.9671, 36.74688], [138.96743, 36.7452], [138.96792, 36.74266], [138.96838, 36.74036], [138.96884, 36.73797], [138.96897, 36.73732], [138.96949, 36.73465], [138.9699, 36.73247], [138.97024, 36.7307], [138.97056, 36.72907], [138.97067, 36.72851], [138.97092, 36.72724], [138.97145, 36.72457], [138.97154, 36.72414], [138.97197, 36.72192], [138.97231, 36.72017], [138.97239, 36.71973], [138.97276, 36.71794], [138.97293, 36.71707], [138.97302, 36.71661], [138.97311, 36.71616], [138.97319, 36.71584], [138.97353, 36.71399], [138.97359, 36.71367], [138.97378, 36.71272], [138.974, 36.71153], [138.97406, 36.71126], [138.97424, 36.71036], [138.97432, 36.70986], [138.97457, 36.70854], [138.97469, 36.70793], [138.97493, 36.70673], [138.97502, 36.70625], [138.97507, 36.70603], [138.97547, 36.70399], [138.97578, 36.70236], [138.97584, 36.70207], [138.976, 36.70124], [138.97607, 36.70084], [138.97623, 36.69995], [138.97637, 36.69931], [138.97646, 36.69886], [138.97663, 36.69805], [138.97672, 36.69762], [138.97675, 36.69741], [138.97678, 36.69725], [138.97688, 36.69677], [138.977, 36.69616], [138.97724, 36.69495]]}, "properties": {"id": "TRACK_TOKYO_2405", "line_name": "上越新幹線", "station_group_ids": [], "mode": "shinkansen", "operator_id": "jr_east", "line_color": "#E65045", "tags": ["tokyo", "track_centerline"]}}, {"type": "Feature", "bbox": [138.96582, 36.3548, 138.99996, 36.6856], "geometry": {"type": "LineString", "coordinates": [[138.99996, 36.3548], [138.99878, 36.3564], [138.99827, 36.35718], [138.99794, 36.35774], [138.99785, 36.35787], [138.99757, 36.35832], [138.99728, 36.3588], [138.99681, 36.35957], [138.99667, 36.35976], [138.9966, 36.35989], [138.99648, 36.36008], [138.99637, 36.36031], [138.99626, 36.3605], [138.99617, 36.36069], [138.99604, 36.36093], [138.99587, 36.36129], [138.99573, 36.36159], [138.99564, 36.36178], [138.99558, 36.36192], [138.99541, 36.36229], [138.99533, 36.36247], [138.99527, 36.36265], [138.99518, 36.36286], [138.99513, 36.36298], [138.99499, 36.36332], [138.99483, 36.36375], [138.99475, 36.36397], [138.9946, 36.36439], [138.99451, 36.36465], [138.99435, 36.36509], [138.99423, 36.36547], [138.99408, 36.36597], [138.99398, 36.36631], [138.99388, 36.36667], [138.99373, 36.36727], [138.99364, 36.36769], [138.99355, 36.36812], [138.99347, 36.36853], [138.99339, 36.36895], [138.99325, 36.36974], [138.99312, 36.37047], [138.99304, 36.37097], [138.99295, 36.3716], [138.99294, 36.37167], [138.99289, 36.37197], [138.9928, 36.37255], [138.99276, 36.37282], [138.99269, 36.37333], [138.99262, 36.37369], [138.99256, 36.3741], [138.99249, 36.37456], [138.99242, 36.37507], [138.99233, 36.37558], [138.99227, 36.37598], [138.99217, 36.37668], [138.99206, 36.37745], [138.992, 36.37789], [138.9919, 36.37847], [138.99181, 36.37907], [138.99172, 36.37967], [138.99167, 36.38003], [138.99161, 36.38045], [138.99158, 36.38062], [138.99154, 36.38086], [138.99145, 36.38147], [138.99134, 36.38215], [138.99128, 36.38266], [138.99122, 36.3831], [138.99114, 36.38355], [138.99112, 36.38372], [138.99104, 36.38424], [138.991, 36.38452], [138.99094, 36.3849], [138.99089, 36.38519], [138.99083, 36.38558], [138.99079, 36.38585], [138.99074, 36.38622], [138.99067, 36.3866], [138.99064, 36.38679], [138.9906, 36.38711], [138.99049, 36.38778], [138.99043, 36.38816], [138.99033, 36.38894], [138.99019, 36.38977], [138.99013, 36.39015], [138.99003, 36.39088], [138.98997, 36.3913], [138.98979, 36.39247], [138.98975, 36.39274], [138.98972, 36.39294], [138.98968, 36.39322], [138.98948, 36.39457], [138.98942, 36.39494], [138.98937, 36.39522], [138.98931, 36.39556], [138.98924, 36.39606], [138.98917, 36.39658], [138.98905, 36.39734], [138.98895, 36.3978], [138.98889, 36.39834], [138.98884, 36.39872], [138.98871, 36.39963], [138.98864, 36.40005], [138.98857, 36.40051], [138.98825, 36.40261], [138.98797, 36.4044], [138.98774, 36.4059], [138.98762, 36.40676], [138.98756, 36.40712], [138.9875, 36.40757], [138.98749, 36.40767], [138.98745, 36.4079], [138.98733, 36.40859], [138.98709, 36.41025], [138.98701, 36.41077], [138.98694, 36.41122], [138.9869, 36.41152], [138.9868, 36.41211], [138.98673, 36.41252], [138.98652, 36.41392], [138.98645, 36.41438], [138.9864, 36.41474], [138.98632, 36.41522], [138.98611, 36.41656], [138.98611, 36.41661], [138.98608, 36.41679], [138.98602, 36.41726], [138.98593, 36.4178], [138.98585, 36.41827], [138.9858, 36.41858], [138.98568, 36.41932], [138.98564, 36.4198], [138.98547, 36.42092], [138.98535, 36.42181], [138.98508, 36.42359], [138.98493, 36.42435], [138.9848, 36.42528], [138.98476, 36.42556], [138.98468, 36.42609], [138.98467, 36.42613], [138.98462, 36.4265], [138.98443, 36.4279], [138.98431, 36.42864], [138.98417, 36.42963], [138.9841, 36.4301], [138.98381, 36.43184], [138.98354, 36.43369], [138.98343, 36.4344], [138.98314, 36.43636], [138.98295, 36.43758], [138.98279, 36.43858], [138.98275, 36.43887], [138.9826, 36.4398], [138.98235, 36.44147], [138.9822, 36.44243], [138.98195, 36.44429], [138.98189, 36.44464], [138.98151, 36.4473], [138.98148, 36.44753], [138.98133, 36.44847], [138.98107, 36.45004], [138.98098, 36.45066], [138.98066, 36.45269], [138.98054, 36.45349], [138.98027, 36.45534], [138.98015, 36.45628], [138.98011, 36.45647], [138.9799, 36.45775], [138.97984, 36.45828], [138.97952, 36.46028], [138.97942, 36.46106], [138.97912, 36.46292], [138.97899, 36.46382], [138.97879, 36.46518], [138.97867, 36.46597], [138.97856, 36.4667], [138.97847, 36.46733], [138.97815, 36.46946], [138.97812, 36.4697], [138.97772, 36.4722], [138.97765, 36.47265], [138.97732, 36.47485], [138.97729, 36.47506], [138.9771, 36.47628], [138.97704, 36.47667], [138.97697, 36.47718], [138.97681, 36.47821], [138.97674, 36.47869], [138.97646, 36.48038], [138.97635, 36.48116], [138.97619, 36.48228], [138.97605, 36.4832], [138.97593, 36.48386], [138.97575, 36.48521], [138.97574, 36.48523], [138.97568, 36.48556], [138.97563, 36.48587], [138.97545, 36.48713], [138.97526, 36.48834], [138.97508, 36.48959], [138.97502, 36.49003], [138.97485, 36.49104], [138.97465, 36.49247], [138.97439, 36.49414], [138.97439, 36.49418], [138.9742, 36.49538], [138.97402, 36.49657], [138.97379, 36.49817], [138.97359, 36.4995], [138.97334, 36.50093], [138.97314, 36.50224], [138.97302, 36.50312], [138.97292, 36.50362], [138.97279, 36.50453], [138.97271, 36.50507], [138.97258, 36.50588], [138.97248, 36.50655], [138.97239, 36.507], [138.97224, 36.50815], [138.97212, 36.50883], [138.97208, 36.50904], [138.97201, 36.50947], [138.97194, 36.51005], [138.97188, 36.51046], [138.97178, 36.51097], [138.97174, 36.51129], [138.9717, 36.5116], [138.97161, 36.51208], [138.97156, 36.51249], [138.9715, 36.51285], [138.97145, 36.5132], [138.97137, 36.51359], [138.9713, 36.51401], [138.97127, 36.51437], [138.97119, 36.51517], [138.97115, 36.51575], [138.9711, 36.51642], [138.97108, 36.51678], [138.97103, 36.51749], [138.97101, 36.51793], [138.97101, 36.51801], [138.97098, 36.51857], [138.97093, 36.51907], [138.97089, 36.51955], [138.97089, 36.52012], [138.97086, 36.52053], [138.9708, 36.52107], [138.97077, 36.52167], [138.97075, 36.52207], [138.97071, 36.5227], [138.97068, 36.52333], [138.97065, 36.52379], [138.97062, 36.52423], [138.9706, 36.52464], [138.97056, 36.52518], [138.97053, 36.52564], [138.97049, 36.52617], [138.97046, 36.52672], [138.97043, 36.52701], [138.9704, 36.52745], [138.97038, 36.52791], [138.97034, 36.52854], [138.97031, 36.52893], [138.97027, 36.52957], [138.97027, 36.52962], [138.97023, 36.53014], [138.97021, 36.5307], [138.97017, 36.53121], [138.97012, 36.53179], [138.97009, 36.53235], [138.97004, 36.53311], [138.97001, 36.53369], [138.96997, 36.53423], [138.96992, 36.53514], [138.96988, 36.53564], [138.96986, 36.53608], [138.9698, 36.53709], [138.96979, 36.53743], [138.96974, 36.53794], [138.96973, 36.53848], [138.96972, 36.53858], [138.9697, 36.53889], [138.96967, 36.53935], [138.96963, 36.5398], [138.96961, 36.54022], [138.96958, 36.54069], [138.96956, 36.54105], [138.96952, 36.54151], [138.96951, 36.54185], [138.96947, 36.54239], [138.96945, 36.5429], [138.96943, 36.54306], [138.96941, 36.54345], [138.9694, 36.54371], [138.96933, 36.54436], [138.9693, 36.54467], [138.9693, 36.54474], [138.9693, 36.54517], [138.96928, 36.54538], [138.96925, 36.54571], [138.96922, 36.54629], [138.96919, 36.54674], [138.96916, 36.54732], [138.96913, 36.54773], [138.96911, 36.54813], [138.96908, 36.54856], [138.96904, 36.5493], [138.969, 36.54963], [138.969, 36.54984], [138.96897, 36.55036], [138.96894, 36.55076], [138.96892, 36.55111], [138.96889, 36.55168], [138.96885, 36.55211], [138.96882, 36.55252], [138.9688, 36.55297], [138.96877, 36.55343], [138.96876, 36.55368], [138.96875, 36.55392], [138.96872, 36.55432], [138.96869, 36.55475], [138.96867, 36.55511], [138.96865, 36.55553], [138.96862, 36.55594], [138.96858, 36.55648], [138.96855, 36.55697], [138.96851, 36.5576], [138.96847, 36.55815], [138.96845, 36.55863], [138.9684, 36.55919], [138.96838, 36.55973], [138.96833, 36.5602], [138.9683, 36.56062], [138.96827, 36.56118], [138.96824, 36.5617], [138.96821, 36.56239], [138.96819, 36.56268], [138.96818, 36.56281], [138.96814, 36.56335], [138.96811, 36.56378], [138.96808, 36.56419], [138.96805, 36.56471], [138.96802, 36.56523], [138.96798, 36.56575], [138.96795, 36.56626], [138.96793, 36.56672], [138.96788, 36.56716], [138.96787, 36.56762], [138.96783, 36.568], [138.96781, 36.56846], [138.9678, 36.56881], [138.96776, 36.56927], [138.96773, 36.56968], [138.96771, 36.56998], [138.9677, 36.5703], [138.96767, 36.57063], [138.96765, 36.57096], [138.96764, 36.57124], [138.96761, 36.57157], [138.96761, 36.57168], [138.9676, 36.57189], [138.96756, 36.57232], [138.96754, 36.57271], [138.96754, 36.57304], [138.96749, 36.57352], [138.96747, 36.57381], [138.96745, 36.57434], [138.96743, 36.57471], [138.96743, 36.57495], [138.96742, 36.57546], [138.96742, 36.5759], [138.96742, 36.57634], [138.96742, 36.57688], [138.96744, 36.57752], [138.96743, 36.57792], [138.96746, 36.57834], [138.9675, 36.57873], [138.96751, 36.57905], [138.96754, 36.57952], [138.96757, 36.57986], [138.9676, 36.58024], [138.96761, 36.58053], [138.96764, 36.58069], [138.96768, 36.58092], [138.96775, 36.58152], [138.96783, 36.58224], [138.96789, 36.58265], [138.96797, 36.58314], [138.96803, 36.58354], [138.9681, 36.58401], [138.96817, 36.58442], [138.96823, 36.58482], [138.96827, 36.58513], [138.96833, 36.58556], [138.96838, 36.58594], [138.96843, 36.58627], [138.96846, 36.58645], [138.96849, 36.58682], [138.96851, 36.58737], [138.9685, 36.58778], [138.9684, 36.5891], [138.96828, 36.58969], [138.96801, 36.59058], [138.96753, 36.59182], [138.96701, 36.59331], [138.96671, 36.59439], [138.96664, 36.59462], [138.96629, 36.59596], [138.96614, 36.59707], [138.96598, 36.5986], [138.96592, 36.59956], [138.96589, 36.59999], [138.96586, 36.60046], [138.96585, 36.601], [138.96583, 36.60153], [138.96582, 36.60216], [138.96582, 36.60293], [138.96583, 36.60335], [138.96585, 36.60398], [138.96592, 36.60535], [138.96596, 36.60593], [138.96604, 36.6071], [138.96612, 36.60774], [138.96625, 36.60891], [138.96645, 36.61018], [138.96657, 36.61086], [138.96687, 36.61226], [138.96688, 36.61232], [138.96702, 36.61296], [138.96727, 36.61409], [138.96746, 36.61489], [138.96771, 36.61592], [138.9679, 36.61674], [138.96817, 36.61786], [138.96845, 36.61907], [138.96877, 36.62046], [138.96895, 36.62117], [138.96906, 36.62165], [138.96928, 36.62258], [138.96971, 36.6244], [138.97003, 36.62574], [138.97026, 36.62681], [138.97033, 36.62702], [138.97046, 36.62766], [138.97084, 36.62913], [138.97103, 36.63006], [138.97121, 36.63076], [138.97144, 36.63174], [138.97164, 36.6326], [138.97195, 36.63387], [138.97214, 36.63466], [138.97237, 36.6357], [138.97251, 36.63626], [138.97262, 36.63679], [138.97275, 36.6373], [138.9728, 36.63749], [138.97303, 36.63846], [138.97332, 36.63969], [138.97349, 36.64044], [138.97366, 36.64113], [138.97402, 36.64271], [138.97447, 36.64452], [138.97472, 36.64561], [138.97484, 36.64616], [138.97513, 36.64738], [138.97552, 36.64898], [138.97596, 36.65086], [138.97623, 36.65203], [138.97637, 36.65266], [138.97676, 36.65425], [138.97698, 36.65519], [138.97723, 36.65626], [138.97742, 36.65711], [138.97758, 36.65778], [138.97764, 36.65801], [138.97804, 36.65973], [138.97836, 36.66108], [138.97867, 36.66244], [138.97906, 36.66404], [138.97929, 36.66501], [138.97944, 36.66567], [138.97967, 36.66664], [138.97988, 36.66753], [138.97994, 36.66774], [138.98012, 36.66859], [138.98039, 36.66977], [138.9805, 36.67008], [138.98059, 36.6718], [138.98065, 36.67359], [138.98064, 36.67456], [138.98061, 36.67553], [138.98052, 36.67678], [138.98041, 36.67762], [138.98032, 36.67833], [138.98013, 36.67942], [138.97969, 36.6818], [138.97955, 36.68255], [138.97937, 36.68355], [138.97911, 36.68493], [138.97897, 36.6856]]}, "properties": {"id": "TRACK_TOKYO_2411", "line_name": "上越新幹線", "station_group_ids": [], "mode": "shinkansen", "operator_id": "jr_east", "line_color": "#E65045", "tags": ["tokyo", "track_centerline"]}}, {"type": "Feature", "bbox": [138.97794, 36.6856, 138.97897, 36.69118], "geometry": {"type": "LineString", "coordinates": [[138.97897, 36.6856], [138.97886, 36.68618], [138.97865, 36.68743], [138.97842, 36.68862], [138.97829, 36.68938], [138.978, 36.69094], [138.97794, 36.69118]]}, "properties": {"id": "TRACK_TOKYO_2412", "line_name": "上越新幹線", "station_group_ids": [], "mode": "shinkansen", "operator_id": "jr_east", "line_color": "#E65045", "tags": ["tokyo", "track_centerline"]}}, {"type": "Feature", "bbox": [138.97943, 36.68015, 138.99929, 36.73466], "geometry": {"type": "LineString", "coordinates": [[138.99929, 36.68015], [138.99845, 36.68079], [138.99799, 36.68114], [138.99785, 36.68125], [138.99772, 36.68136], [138.99759, 36.68147], [138.99748, 36.68158], [138.99742, 36.68164], [138.99739, 36.68168], [138.99733, 36.68175], [138.99727, 36.68184], [138.9968, 36.6824], [138.99666, 36.6826], [138.99656, 36.68283], [138.9964, 36.68334], [138.99619, 36.68401], [138.99599, 36.6847], [138.99598, 36.68476], [138.99583, 36.6852], [138.99566, 36.68571], [138.99524, 36.68679], [138.99505, 36.68725], [138.99489, 36.68772], [138.99465, 36.68832], [138.99448, 36.68879], [138.99428, 36.68925], [138.99411, 36.68971], [138.9938, 36.69029], [138.99352, 36.69073], [138.99304, 36.69151], [138.99276, 36.69198], [138.99255, 36.69241], [138.99235, 36.69288], [138.99227, 36.69317], [138.99221, 36.69341], [138.99197, 36.69405], [138.99174, 36.69452], [138.99149, 36.69491], [138.99117, 36.69529], [138.99087, 36.69559], [138.99045, 36.69594], [138.99013, 36.69616], [138.9898, 36.69637], [138.98948, 36.69653], [138.9892, 36.69665], [138.98902, 36.69672], [138.98849, 36.69688], [138.98799, 36.697], [138.98746, 36.69712], [138.98678, 36.69742], [138.98639, 36.69759], [138.98523, 36.69837], [138.98441, 36.69892], [138.98416, 36.69909], [138.98394, 36.69926], [138.9839, 36.69929], [138.98328, 36.69987], [138.9829, 36.70033], [138.98252, 36.70089], [138.982, 36.70186], [138.98192, 36.702], [138.98161, 36.70254], [138.981, 36.70362], [138.98072, 36.70415], [138.98061, 36.70434], [138.98055, 36.70446], [138.98023, 36.70499], [138.98021, 36.70503], [138.97988, 36.70561], [138.97949, 36.70667], [138.97943, 36.70741], [138.97943, 36.7079], [138.97949, 36.7084], [138.97955, 36.70887], [138.97972, 36.71], [138.97982, 36.71065], [138.97986, 36.71083], [138.97989, 36.71097], [138.97994, 36.71114], [138.98013, 36.71164], [138.98021, 36.7119], [138.98025, 36.71206], [138.98031, 36.71234], [138.98036, 36.713], [138.9804, 36.71357], [138.98042, 36.71387], [138.98046, 36.71447], [138.98046, 36.71462], [138.98055, 36.71569], [138.9807, 36.71649], [138.98085, 36.71694], [138.98091, 36.71714], [138.98101, 36.71732], [138.98115, 36.71759], [138.98135, 36.71788], [138.98158, 36.71817], [138.98194, 36.71859], [138.98209, 36.71879], [138.98223, 36.71903], [138.98242, 36.71939], [138.983, 36.72066], [138.98305, 36.72078], [138.98329, 36.72128], [138.98343, 36.72162], [138.98354, 36.72196], [138.98359, 36.72209], [138.98363, 36.72225], [138.98366, 36.7225], [138.98365, 36.72284], [138.98363, 36.72303], [138.98357, 36.72321], [138.98351, 36.72336], [138.98339, 36.72361], [138.98332, 36.72376], [138.98317, 36.72402], [138.98294, 36.72439], [138.98266, 36.72492], [138.9825, 36.72524], [138.98238, 36.72557], [138.98227, 36.72595], [138.98214, 36.72642], [138.98211, 36.72678], [138.98213, 36.72719], [138.98221, 36.72763], [138.98231, 36.72795], [138.98238, 36.72812], [138.98245, 36.72828], [138.98256, 36.72846], [138.98263, 36.72856], [138.98285, 36.72887], [138.98298, 36.72906], [138.98316, 36.72935], [138.98327, 36.72954], [138.98338, 36.72976], [138.98345, 36.72992], [138.98353, 36.73012], [138.98361, 36.73036], [138.9837, 36.73071], [138.98374, 36.73091], [138.98394, 36.73205], [138.98439, 36.73466]]}, "properties": {"id": "TRACK_TOKYO_2462", "line_name": "上越線", "station_group_ids": [], "mode": "rail", "operator_id": "jr_east", "line_color": "#00A7E3", "tags": ["tokyo", "track_centerline"]}}, {"type": "Feature", "bbox": [138.85084, 36.3548, 138.99996, 36.37982], "geometry": {"type": "LineString", "coordinates": [[138.85084, 36.36261], [138.85233, 36.36275], [138.85285, 36.36282], [138.8532, 36.36286], [138.85382, 36.36295], [138.85434, 36.36302], [138.85501, 36.36312], [138.8554, 36.36318], [138.85581, 36.36325], [138.85635, 36.36334], [138.85697, 36.36343], [138.85764, 36.36354], [138.85796, 36.3636], [138.85866, 36.36371], [138.85914, 36.36379], [138.85951, 36.36385], [138.85991, 36.36391], [138.86037, 36.36398], [138.86087, 36.36406], [138.8616, 36.36418], [138.86176, 36.3642], [138.86207, 36.36425], [138.86288, 36.36438], [138.86319, 36.36443], [138.86357, 36.36449], [138.86386, 36.36454], [138.86426, 36.3646], [138.8647, 36.36467], [138.865, 36.36472], [138.86519, 36.36475], [138.86548, 36.3648], [138.86577, 36.36484], [138.86618, 36.36491], [138.86672, 36.36499], [138.86705, 36.36504], [138.86731, 36.36508], [138.86771, 36.36515], [138.86816, 36.36522], [138.8682, 36.36523], [138.8685, 36.36527], [138.86892, 36.36534], [138.86914, 36.36537], [138.86958, 36.36544], [138.87002, 36.36551], [138.87032, 36.36555], [138.87064, 36.36561], [138.87094, 36.36565], [138.87133, 36.36572], [138.87183, 36.36579], [138.87421, 36.36617], [138.87716, 36.36664], [138.87989, 36.36706], [138.88121, 36.36727], [138.8815, 36.36731], [138.88217, 36.36742], [138.88345, 36.36761], [138.88469, 36.3678], [138.88632, 36.36806], [138.88754, 36.36826], [138.88798, 36.36833], [138.88857, 36.36845], [138.88885, 36.36849], [138.88922, 36.36858], [138.89078, 36.3689], [138.89116, 36.36896], [138.89156, 36.36905], [138.89216, 36.36919], [138.89306, 36.36938], [138.8938, 36.36954], [138.89497, 36.36978], [138.89511, 36.36981], [138.89605, 36.37002], [138.89846, 36.37056], [138.90097, 36.3711], [138.90173, 36.37126], [138.90361, 36.37167], [138.90618, 36.3722], [138.90838, 36.37267], [138.91014, 36.37304], [138.91142, 36.37332], [138.91246, 36.37354], [138.91297, 36.37364], [138.91438, 36.37395], [138.91453, 36.37398], [138.91558, 36.3742], [138.916, 36.3743], [138.91687, 36.37448], [138.91755, 36.37464], [138.91825, 36.37479], [138.91842, 36.37482], [138.91861, 36.37487], [138.92033, 36.37523], [138.92199, 36.37559], [138.92337, 36.37588], [138.92512, 36.37626], [138.92589, 36.37642], [138.92656, 36.37657], [138.92729, 36.37673], [138.92768, 36.3768], [138.93002, 36.3773], [138.93114, 36.37752], [138.93135, 36.37757], [138.93267, 36.37786], [138.93313, 36.37796], [138.93473, 36.3783], [138.93616, 36.37858], [138.93774, 36.37889], [138.93855, 36.37904], [138.93939, 36.37917], [138.93992, 36.37925], [138.94064, 36.37934], [138.94074, 36.37936], [138.94137, 36.37943], [138.94196, 36.37951], [138.942, 36.37951], [138.943, 36.3796], [138.94356, 36.37964], [138.94421, 36.37968], [138.94522, 36.37974], [138.94605, 36.3798], [138.94675, 36.37982], [138.94693, 36.37982], [138.94778, 36.37982], [138.94881, 36.37981], [138.94959, 36.37978], [138.94967, 36.37978], [138.95027, 36.37976], [138.95075, 36.37974], [138.95098, 36.37973], [138.95192, 36.37966], [138.95259, 36.37961], [138.95323, 36.37954], [138.95364, 36.37949], [138.95502, 36.37933], [138.95549, 36.37926], [138.95557, 36.37925], [138.95578, 36.37921], [138.95653, 36.3791], [138.9575, 36.37894], [138.95844, 36.37877], [138.95918, 36.3786], [138.96033, 36.3783], [138.96162, 36.37797], [138.96271, 36.37768], [138.96387, 36.37732], [138.96517, 36.37689], [138.96599, 36.37659], [138.96604, 36.37657], [138.96704, 36.3762], [138.96714, 36.37616], [138.96812, 36.37576], [138.96907, 36.37535], [138.9701, 36.37489], [138.97157, 36.3742], [138.97347, 36.37316], [138.9739, 36.37292], [138.97515, 36.37222], [138.97625, 36.3716], [138.9767, 36.37135], [138.97713, 36.3711], [138.98059, 36.36913], [138.98265, 36.36794], [138.98423, 36.36704], [138.98748, 36.36519], [138.98922, 36.36417], [138.98977, 36.36382], [138.99007, 36.36364], [138.99042, 36.36341], [138.99149, 36.36268], [138.99289, 36.36167], [138.99302, 36.36157], [138.99441, 36.36047], [138.99594, 36.35916], [138.99681, 36.35837], [138.998, 36.35704], [138.99996, 36.3548]]}, "properties": {"id": "TRACK_TOKYO_3877", "line_name": "北陸新幹線", "station_group_ids": [], "mode": "shinkansen", "operator_id": "jr_east", "line_color": "#2C62C9", "tags": ["tokyo", "track_centerline"]}}, {"type": "Feature", "bbox": [138.84756, 36.36247, 138.85084, 36.36261], "geometry": {"type": "LineString", "coordinates": [[138.85084, 36.36261], [138.8506, 36.36259], [138.85015, 36.36256], [138.8496, 36.36253], [138.84881, 36.3625], [138.84756, 36.36247]]}, "properties": {"id": "TRACK_TOKYO_3878", "line_name": "北陸新幹線", "station_group_ids": [], "mode": "shinkansen", "operator_id": "jr_east", "line_color": "#2C62C9", "tags": ["tokyo", "track_centerline"]}}, {"type": "Feature", "bbox": [138.63319, 36.34255, 138.63677, 36.34264], "geometry": {"type": "LineString", "coordinates": [[138.63677, 36.34255], [138.63567, 36.34258], [138.63404, 36.34262], [138.63319, 36.34264]]}, "properties": {"id": "TRACK_TOKYO_3879", "line_name": "北陸新幹線", "station_group_ids": [], "mode": "shinkansen", "operator_id": "jr_east", "line_color": "#2C62C9", "tags": ["tokyo", "track_centerline"]}}, {"type": "Feature", "bbox": [138.63677, 36.34245, 138.84756, 36.39825], "geometry": {"type": "LineString", "coordinates": [[138.84756, 36.36247], [138.84691, 36.36247], [138.84565, 36.36251], [138.84453, 36.3626], [138.84346, 36.36268], [138.84291, 36.36274], [138.84226, 36.36281], [138.84192, 36.36285], [138.84005, 36.36311], [138.83914, 36.36326], [138.83868, 36.36334], [138.83798, 36.36349], [138.83721, 36.36365], [138.83673, 36.36378], [138.83608, 36.36395], [138.8356, 36.36407], [138.8345, 36.36442], [138.83367, 36.36468], [138.83267, 36.36502], [138.83169, 36.36541], [138.83111, 36.36565], [138.83006, 36.36612], [138.82963, 36.36632], [138.82925, 36.3665], [138.82866, 36.36679], [138.82865, 36.3668], [138.82786, 36.36721], [138.82692, 36.36773], [138.82642, 36.36803], [138.82595, 36.36833], [138.82551, 36.3686], [138.82513, 36.36886], [138.82467, 36.36917], [138.82424, 36.36947], [138.82395, 36.36969], [138.82344, 36.37007], [138.82309, 36.37036], [138.82274, 36.37064], [138.82232, 36.371], [138.82184, 36.37141], [138.82116, 36.37202], [138.82051, 36.37264], [138.82039, 36.37275], [138.82015, 36.37299], [138.81943, 36.3737], [138.81837, 36.37478], [138.81799, 36.37515], [138.81733, 36.37582], [138.81684, 36.37632], [138.81645, 36.37673], [138.81519, 36.37799], [138.81484, 36.37835], [138.81415, 36.37904], [138.81343, 36.37977], [138.8133, 36.3799], [138.8125, 36.38067], [138.81158, 36.38151], [138.81078, 36.3822], [138.81008, 36.38279], [138.80942, 36.38334], [138.80885, 36.38379], [138.80882, 36.3838], [138.80838, 36.38413], [138.80779, 36.38456], [138.80707, 36.38506], [138.80654, 36.38541], [138.80596, 36.38578], [138.80591, 36.38582], [138.80548, 36.38608], [138.80505, 36.38635], [138.8045, 36.38668], [138.80374, 36.38711], [138.80239, 36.38783], [138.80205, 36.38802], [138.80137, 36.38835], [138.80093, 36.38856], [138.8, 36.38897], [138.799, 36.3894], [138.79798, 36.38982], [138.79739, 36.39005], [138.79641, 36.39042], [138.79637, 36.39043], [138.79525, 36.39082], [138.79439, 36.3911], [138.79358, 36.39134], [138.79289, 36.39154], [138.79225, 36.39171], [138.79086, 36.39206], [138.78981, 36.39229], [138.78879, 36.3925], [138.78769, 36.3927], [138.78707, 36.3928], [138.78649, 36.39289], [138.78582, 36.393], [138.78578, 36.393], [138.78428, 36.39318], [138.78327, 36.39329], [138.78208, 36.3934], [138.77911, 36.39365], [138.77782, 36.39377], [138.77623, 36.39389], [138.7752, 36.39398], [138.77481, 36.39401], [138.77406, 36.39407], [138.77291, 36.39416], [138.77232, 36.39421], [138.77132, 36.39431], [138.77071, 36.39435], [138.76928, 36.39448], [138.76719, 36.39467], [138.76586, 36.39479], [138.76313, 36.39503], [138.76194, 36.39514], [138.76016, 36.3953], [138.75898, 36.3954], [138.75699, 36.39558], [138.75625, 36.39565], [138.75618, 36.39566], [138.75522, 36.39574], [138.75466, 36.39579], [138.75369, 36.39588], [138.75149, 36.39607], [138.74972, 36.39623], [138.74923, 36.39627], [138.74871, 36.39631], [138.74816, 36.39636], [138.74684, 36.39647], [138.74533, 36.3966], [138.74293, 36.3968], [138.74146, 36.39693], [138.73976, 36.39708], [138.73697, 36.39733], [138.73472, 36.39755], [138.7324, 36.39775], [138.73044, 36.39792], [138.73036, 36.39793], [138.72858, 36.39806], [138.72803, 36.3981], [138.72634, 36.3982], [138.72521, 36.39825], [138.72463, 36.39824], [138.72295, 36.39823], [138.72132, 36.39819], [138.7202, 36.39814], [138.71938, 36.39806], [138.7191, 36.39804], [138.71791, 36.39791], [138.7169, 36.39779], [138.71582, 36.39764], [138.71471, 36.39746], [138.71357, 36.39726], [138.71267, 36.39707], [138.71216, 36.39695], [138.71151, 36.39679], [138.71057, 36.39657], [138.71, 36.39643], [138.70861, 36.39603], [138.70847, 36.39599], [138.70746, 36.39566], [138.70594, 36.39512], [138.70444, 36.39457], [138.70244, 36.39371], [138.70144, 36.39328], [138.70013, 36.39272], [138.69922, 36.39233], [138.69865, 36.39209], [138.69845, 36.392], [138.69767, 36.39167], [138.69719, 36.39145], [138.69604, 36.39097], [138.69475, 36.39042], [138.69368, 36.38996], [138.69267, 36.38954], [138.69188, 36.38921], [138.69077, 36.38875], [138.68961, 36.38828], [138.68881, 36.38794], [138.68742, 36.38738], [138.68669, 36.38707], [138.68574, 36.38669], [138.68464, 36.38625], [138.68389, 36.38594], [138.68315, 36.38561], [138.68212, 36.38516], [138.6816, 36.38492], [138.68101, 36.38464], [138.6804, 36.38435], [138.67966, 36.38397], [138.67892, 36.38356], [138.67874, 36.38346], [138.67828, 36.38319], [138.67781, 36.38289], [138.67708, 36.38243], [138.67652, 36.38205], [138.67609, 36.38176], [138.67566, 36.38145], [138.67513, 36.38107], [138.67433, 36.38044], [138.67373, 36.37994], [138.67325, 36.37952], [138.67288, 36.37919], [138.67251, 36.37884], [138.67216, 36.3785], [138.67181, 36.37814], [138.67146, 36.37776], [138.67103, 36.37728], [138.67051, 36.3767], [138.6702, 36.37633], [138.66989, 36.37595], [138.66959, 36.37557], [138.66907, 36.37479], [138.66854, 36.374], [138.66801, 36.37317], [138.66753, 36.37242], [138.66694, 36.37149], [138.66628, 36.37043], [138.66604, 36.37005], [138.66565, 36.36942], [138.66555, 36.36926], [138.66478, 36.36803], [138.66408, 36.3669], [138.66327, 36.36561], [138.6625, 36.36439], [138.66144, 36.36266], [138.66067, 36.36136], [138.66047, 36.36102], [138.65975, 36.35984], [138.65901, 36.35864], [138.65826, 36.35744], [138.6577, 36.35653], [138.65704, 36.35545], [138.65644, 36.3545], [138.65597, 36.35373], [138.6557, 36.3533], [138.65556, 36.35307], [138.65508, 36.35227], [138.65457, 36.35144], [138.65382, 36.35022], [138.65332, 36.3494], [138.65308, 36.349], [138.65283, 36.3486], [138.65227, 36.3478], [138.65161, 36.34697], [138.65113, 36.34642], [138.65053, 36.34586], [138.65016, 36.34554], [138.64987, 36.3453], [138.64942, 36.34495], [138.64892, 36.3446], [138.64871, 36.34443], [138.64821, 36.34412], [138.64802, 36.34401], [138.6479, 36.34395], [138.64773, 36.34386], [138.64757, 36.34377], [138.64756, 36.34377], [138.64736, 36.34368], [138.64697, 36.34351], [138.64657, 36.34336], [138.6458, 36.34311], [138.64551, 36.34302], [138.64509, 36.3429], [138.64474, 36.3428], [138.6443, 36.3427], [138.64378, 36.34259], [138.64337, 36.34253], [138.64313, 36.3425], [138.64244, 36.34246], [138.64122, 36.34245], [138.64023, 36.34249], [138.63784, 36.34254], [138.6371, 36.34255], [138.63677, 36.34255]]}, "properties": {"id": "TRACK_TOKYO_3881", "line_name": "北陸新幹線", "station_group_ids": [], "mode": "shinkansen", "operator_id": "jr_east", "line_color": "#2C62C9", "tags": ["tokyo", "track_centerline"]}}, {"type": "Feature", "bbox": [138.46347, 36.27763, 138.46582, 36.27867], "geometry": {"type": "LineString", "coordinates": [[138.46582, 36.27867], [138.46499, 36.2783], [138.46347, 36.27763]]}, "properties": {"id": "TRACK_TOKYO_3883", "line_name": "北陸新幹線", "station_group_ids": [], "mode": "shinkansen", "operator_id": "jr_east", "line_color": "#2C62C9", "tags": ["tokyo", "track_centerline"]}}, {"type": "Feature", "bbox": [138.25133, 36.27169, 138.46347, 36.39518], "geometry": {"type": "LineString", "coordinates": [[138.46347, 36.27763], [138.46265, 36.27725], [138.46253, 36.2772], [138.46188, 36.27691], [138.46153, 36.27675], [138.46025, 36.2762], [138.45872, 36.27553], [138.45859, 36.27548], [138.45681, 36.27476], [138.45554, 36.27428], [138.45421, 36.27383], [138.45308, 36.27349], [138.45148, 36.27308], [138.45032, 36.2728], [138.44882, 36.2725], [138.44821, 36.2724], [138.44697, 36.27219], [138.44589, 36.27204], [138.44444, 36.27187], [138.44359, 36.2718], [138.44285, 36.27174], [138.44222, 36.27171], [138.44165, 36.2717], [138.4406, 36.27169], [138.43888, 36.27172], [138.4372, 36.27178], [138.43718, 36.27178], [138.43632, 36.27181], [138.43617, 36.27183], [138.43558, 36.27188], [138.43488, 36.27196], [138.43384, 36.27208], [138.43371, 36.2721], [138.43314, 36.27218], [138.43301, 36.2722], [138.43224, 36.27233], [138.43086, 36.27259], [138.43031, 36.27271], [138.43013, 36.27275], [138.42969, 36.27285], [138.42774, 36.27335], [138.4267, 36.27364], [138.42503, 36.27416], [138.42418, 36.27445], [138.4233, 36.27478], [138.42254, 36.27509], [138.42126, 36.27565], [138.41996, 36.27626], [138.41941, 36.27652], [138.41885, 36.27682], [138.41779, 36.27738], [138.41686, 36.27791], [138.41673, 36.27799], [138.41524, 36.27887], [138.4131, 36.28015], [138.4113, 36.28125], [138.40953, 36.28234], [138.40798, 36.2833], [138.40747, 36.28361], [138.40638, 36.28428], [138.40593, 36.28454], [138.40415, 36.28564], [138.40355, 36.28601], [138.40234, 36.28674], [138.40055, 36.28783], [138.39922, 36.28866], [138.3969, 36.29006], [138.39511, 36.29116], [138.39469, 36.29142], [138.3933, 36.29227], [138.39152, 36.29335], [138.38583, 36.29684], [138.38568, 36.29693], [138.38515, 36.29725], [138.38392, 36.29801], [138.38212, 36.2991], [138.38122, 36.29965], [138.38074, 36.29994], [138.38032, 36.3002], [138.37897, 36.30102], [138.3775, 36.30192], [138.37676, 36.30237], [138.3754, 36.3032], [138.37361, 36.3043], [138.37187, 36.30535], [138.37154, 36.30555], [138.37107, 36.30581], [138.37074, 36.306], [138.37019, 36.30631], [138.36921, 36.30688], [138.36792, 36.30766], [138.36699, 36.30823], [138.36607, 36.30878], [138.36481, 36.30955], [138.36395, 36.31008], [138.36304, 36.31062], [138.36183, 36.31136], [138.36173, 36.31142], [138.36084, 36.31198], [138.35994, 36.31252], [138.35906, 36.31305], [138.35817, 36.3136], [138.35729, 36.31413], [138.3564, 36.31469], [138.35551, 36.31522], [138.35417, 36.31604], [138.35297, 36.31677], [138.35238, 36.31713], [138.35107, 36.31792], [138.35019, 36.31845], [138.34886, 36.31925], [138.3471, 36.32029], [138.34524, 36.32137], [138.344, 36.32207], [138.34161, 36.32339], [138.34031, 36.32412], [138.33891, 36.32491], [138.33845, 36.32516], [138.33661, 36.32619], [138.33526, 36.32694], [138.33433, 36.32746], [138.33389, 36.3277], [138.33341, 36.32798], [138.3325, 36.32848], [138.33248, 36.32849], [138.33169, 36.32893], [138.32976, 36.33], [138.32839, 36.33078], [138.32755, 36.33125], [138.32607, 36.33207], [138.32379, 36.33334], [138.32334, 36.33359], [138.3224, 36.33411], [138.32102, 36.33487], [138.32054, 36.33513], [138.3192, 36.33587], [138.31909, 36.33593], [138.31848, 36.33626], [138.31811, 36.33646], [138.31715, 36.33698], [138.31642, 36.33739], [138.31588, 36.33769], [138.31486, 36.33827], [138.31348, 36.33903], [138.31293, 36.33934], [138.31114, 36.34032], [138.30977, 36.34109], [138.30886, 36.34159], [138.30749, 36.34236], [138.30727, 36.34248], [138.30606, 36.34315], [138.30474, 36.34389], [138.30347, 36.34458], [138.30247, 36.34515], [138.302, 36.3454], [138.30044, 36.34628], [138.29917, 36.34699], [138.29813, 36.34758], [138.29776, 36.34778], [138.29677, 36.34833], [138.29592, 36.3488], [138.29497, 36.34931], [138.29258, 36.3506], [138.29021, 36.35193], [138.28913, 36.35253], [138.28897, 36.35265], [138.2889, 36.35269], [138.28832, 36.35305], [138.28699, 36.35387], [138.28586, 36.35458], [138.28442, 36.35549], [138.28326, 36.35623], [138.28288, 36.35649], [138.28281, 36.35654], [138.28172, 36.35724], [138.28077, 36.35793], [138.28022, 36.35838], [138.27947, 36.35903], [138.27842, 36.36005], [138.27774, 36.36074], [138.27707, 36.36145], [138.27676, 36.36181], [138.27613, 36.36253], [138.27553, 36.36326], [138.27495, 36.36401], [138.27468, 36.36439], [138.27413, 36.36516], [138.27384, 36.36563], [138.27336, 36.36645], [138.27126, 36.3702], [138.27082, 36.37105], [138.27066, 36.37136], [138.27018, 36.37232], [138.26979, 36.37318], [138.26944, 36.374], [138.26939, 36.37414], [138.26927, 36.37439], [138.26915, 36.37467], [138.26891, 36.3752], [138.26889, 36.37524], [138.26853, 36.37605], [138.26819, 36.37676], [138.26787, 36.37743], [138.26767, 36.37783], [138.26738, 36.37838], [138.26712, 36.37886], [138.26688, 36.37929], [138.26662, 36.37974], [138.26642, 36.38009], [138.26629, 36.38034], [138.26618, 36.38053], [138.26601, 36.38079], [138.26574, 36.38121], [138.26548, 36.38159], [138.26531, 36.38184], [138.26494, 36.38231], [138.2646, 36.3827], [138.26426, 36.3831], [138.26393, 36.38346], [138.26345, 36.38397], [138.26322, 36.38422], [138.2628, 36.38461], [138.2624, 36.38502], [138.26201, 36.38541], [138.26163, 36.38575], [138.26085, 36.38649], [138.26017, 36.38711], [138.25963, 36.38763], [138.25918, 36.38808], [138.25907, 36.38819], [138.25902, 36.38824], [138.25863, 36.38863], [138.25804, 36.38921], [138.25744, 36.38978], [138.25708, 36.39012], [138.25672, 36.39047], [138.25594, 36.39119], [138.25525, 36.39183], [138.25463, 36.39235], [138.25423, 36.39269], [138.2532, 36.39357], [138.25244, 36.39424], [138.25162, 36.39494], [138.25133, 36.39518]]}, "properties": {"id": "TRACK_TOKYO_3884", "line_name": "北陸新幹線", "station_group_ids": [], "mode": "shinkansen", "operator_id": "jr_east", "line_color": "#2C62C9", "tags": ["tokyo", "track_centerline"]}}, {"type": "Feature", "bbox": [138.46582, 36.27867, 138.63319, 36.34327], "geometry": {"type": "LineString", "coordinates": [[138.46582, 36.27867], [138.46589, 36.2787], [138.46596, 36.27873], [138.46664, 36.27903], [138.46812, 36.27969], [138.46914, 36.28012], [138.47163, 36.2812], [138.47302, 36.28185], [138.47398, 36.28229], [138.47537, 36.28291], [138.47634, 36.28335], [138.47705, 36.28371], [138.47778, 36.28411], [138.47811, 36.28429], [138.47877, 36.28466], [138.47971, 36.2852], [138.48078, 36.28585], [138.48214, 36.28667], [138.48268, 36.28701], [138.48328, 36.28743], [138.48421, 36.28808], [138.48496, 36.28859], [138.48622, 36.28943], [138.48653, 36.28963], [138.48748, 36.29027], [138.48833, 36.29084], [138.48959, 36.29168], [138.49085, 36.29254], [138.4921, 36.2934], [138.49272, 36.29381], [138.49403, 36.29468], [138.49521, 36.29546], [138.49576, 36.29583], [138.49686, 36.29656], [138.49731, 36.29686], [138.49816, 36.29741], [138.50017, 36.29874], [138.50149, 36.29961], [138.50262, 36.30035], [138.50414, 36.30133], [138.5043, 36.30143], [138.50516, 36.30198], [138.50563, 36.30227], [138.50701, 36.3031], [138.50731, 36.30328], [138.50805, 36.30373], [138.50813, 36.30377], [138.50954, 36.30452], [138.51055, 36.30502], [138.51146, 36.30548], [138.51267, 36.30606], [138.51308, 36.30626], [138.51387, 36.3066], [138.51443, 36.30683], [138.51528, 36.30718], [138.516, 36.30745], [138.51771, 36.30808], [138.52041, 36.30908], [138.52109, 36.30934], [138.52141, 36.30946], [138.52302, 36.31006], [138.52689, 36.3115], [138.5274, 36.31171], [138.52774, 36.31186], [138.52881, 36.31232], [138.52958, 36.31267], [138.53083, 36.31323], [138.53168, 36.31366], [138.53279, 36.3142], [138.53358, 36.31462], [138.53451, 36.31514], [138.536, 36.31599], [138.53639, 36.31622], [138.53691, 36.31655], [138.53759, 36.31697], [138.539, 36.31787], [138.53912, 36.31794], [138.53952, 36.3182], [138.54017, 36.31863], [138.54085, 36.3191], [138.54163, 36.31963], [138.54241, 36.3202], [138.54317, 36.32076], [138.54374, 36.32121], [138.54437, 36.32171], [138.54493, 36.3222], [138.54556, 36.32274], [138.54621, 36.32334], [138.54677, 36.32388], [138.5471, 36.32417], [138.54848, 36.32539], [138.54961, 36.32637], [138.54968, 36.32643], [138.55005, 36.32674], [138.55025, 36.32691], [138.55046, 36.32709], [138.55178, 36.3282], [138.5522, 36.32854], [138.55283, 36.32907], [138.55322, 36.32935], [138.55373, 36.32973], [138.55528, 36.33088], [138.55596, 36.33135], [138.5568, 36.33188], [138.55788, 36.33253], [138.55893, 36.33314], [138.55996, 36.33371], [138.5605, 36.33399], [138.56139, 36.33442], [138.56235, 36.33487], [138.56325, 36.33527], [138.56426, 36.33568], [138.56531, 36.33605], [138.56652, 36.33647], [138.56776, 36.33686], [138.5689, 36.33723], [138.56987, 36.3375], [138.57098, 36.33777], [138.57137, 36.33787], [138.57252, 36.33814], [138.57373, 36.33841], [138.57537, 36.3387], [138.57734, 36.33901], [138.58011, 36.33945], [138.58179, 36.33973], [138.58288, 36.33992], [138.58377, 36.34007], [138.58485, 36.34024], [138.58856, 36.3408], [138.59141, 36.34123], [138.5916, 36.34125], [138.59946, 36.34244], [138.59976, 36.34248], [138.60051, 36.3426], [138.60281, 36.34292], [138.60372, 36.34304], [138.60487, 36.34317], [138.60579, 36.34324], [138.60636, 36.34326], [138.60777, 36.34327], [138.60993, 36.34325], [138.61077, 36.34324], [138.61109, 36.34323], [138.61467, 36.34315], [138.61936, 36.34306], [138.62185, 36.343], [138.62189, 36.343], [138.62277, 36.34301], [138.62378, 36.34299], [138.6255, 36.34294], [138.6265, 36.34291], [138.62715, 36.34289], [138.62964, 36.34288], [138.63019, 36.34285], [138.63051, 36.34283], [138.63276, 36.34266], [138.63319, 36.34264]]}, "properties": {"id": "TRACK_TOKYO_3885", "line_name": "北陸新幹線", "station_group_ids": [], "mode": "shinkansen", "operator_id": "jr_east", "line_color": "#2C62C9", "tags": ["tokyo", "track_centerline"]}}]}