{"type": "FeatureCollection", "features": [{"type": "Feature", "bbox": [138.57021, 35.65978, 138.59802, 35.66677], "geometry": {"type": "LineString", "coordinates": [[138.59802, 35.65978], [138.59677, 35.65992], [138.59663, 35.65993], [138.5952, 35.66008], [138.59504, 35.6601], [138.59362, 35.66025], [138.59208, 35.6604], [138.59137, 35.66047], [138.59106, 35.6605], [138.5905, 35.66055], [138.58895, 35.66072], [138.58812, 35.6608], [138.58751, 35.66087], [138.58737, 35.66088], [138.58729, 35.66089], [138.5858, 35.66104], [138.58425, 35.66121], [138.58209, 35.66143], [138.58111, 35.66155], [138.58065, 35.66163], [138.57994, 35.66179], [138.57979, 35.66184], [138.57964, 35.6619], [138.57951, 35.66198], [138.57938, 35.66207], [138.57895, 35.66241], [138.57868, 35.66261], [138.57858, 35.66268], [138.57802, 35.66311], [138.57779, 35.66328], [138.5776, 35.66343], [138.57748, 35.66352], [138.57743, 35.66356], [138.5765, 35.66428], [138.57634, 35.6644], [138.57614, 35.66455], [138.57587, 35.66475], [138.57541, 35.66508], [138.57521, 35.66522], [138.57498, 35.66536], [138.57475, 35.66549], [138.57447, 35.66563], [138.57417, 35.66575], [138.57385, 35.66586], [138.57376, 35.66589], [138.57337, 35.666], [138.57293, 35.66612], [138.57195, 35.66634], [138.57021, 35.66677]]}, "properties": {"id": "TRACK_TOKYO_2716", "line_name": "中央線", "station_group_ids": [], "mode": "rail", "operator_id": "jr_east", "line_color": "#F15A24", "tags": ["tokyo", "track_centerline"]}}, {"type": "Feature", "bbox": [138.56731, 35.66677, 138.57021, 35.66748], "geometry": {"type": "LineString", "coordinates": [[138.57021, 35.66677], [138.56731, 35.66748]]}, "properties": {"id": "TRACK_TOKYO_2720", "line_name": "中央線", "station_group_ids": [], "mode": "rail", "operator_id": "jr_east", "line_color": "#F15A24", "tags": ["tokyo", "track_centerline"]}}, {"type": "Feature", "bbox": [138.60059, 35.65617, 138.63331, 35.65922], "geometry": {"type": "LineString", "coordinates": [[138.63331, 35.65748], [138.63283, 35.65746], [138.63149, 35.65739], [138.63113, 35.65737], [138.62658, 35.65714], [138.62511, 35.65705], [138.62188, 35.65686], [138.61981, 35.65676], [138.61842, 35.65668], [138.61713, 35.65661], [138.61555, 35.65653], [138.61398, 35.65645], [138.61243, 35.65638], [138.6122, 35.65637], [138.61179, 35.65635], [138.61086, 35.6563], [138.60929, 35.65622], [138.60842, 35.65617], [138.60764, 35.65617], [138.60728, 35.65619], [138.607, 35.65623], [138.60671, 35.65629], [138.60645, 35.65637], [138.60617, 35.65648], [138.60596, 35.65657], [138.60489, 35.65708], [138.60396, 35.65753], [138.60302, 35.65801], [138.60218, 35.65842], [138.6018, 35.65861], [138.60146, 35.65878], [138.60059, 35.65922]]}, "properties": {"id": "TRACK_TOKYO_2724", "line_name": "中央線", "station_group_ids": [], "mode": "rail", "operator_id": "jr_east", "line_color": "#F15A24", "tags": ["tokyo", "track_centerline"]}}, {"type": "Feature", "bbox": [138.59802, 35.65922, 138.60059, 35.65978], "geometry": {"type": "LineString", "coordinates": [[138.60059, 35.65922], [138.60031, 35.65935], [138.60011, 35.65943], [138.59988, 35.65951], [138.59961, 35.65957], [138.59934, 35.65963], [138.59904, 35.65968], [138.5988, 35.65971], [138.59802, 35.65978]]}, "properties": {"id": "TRACK_TOKYO_2734", "line_name": "中央線", "station_group_ids": [], "mode": "rail", "operator_id": "jr_east", "line_color": "#F15A24", "tags": ["tokyo", "track_centerline"]}}, {"type": "Feature", "bbox": [138.52076, 35.66748, 138.56731, 35.66974], "geometry": {"type": "LineString", "coordinates": [[138.56731, 35.66748], [138.5657, 35.66787], [138.56495, 35.66805], [138.56422, 35.66823], [138.56352, 35.66841], [138.56298, 35.66854], [138.56274, 35.6686], [138.56268, 35.66862], [138.56126, 35.66895], [138.56122, 35.66896], [138.56111, 35.66899], [138.56079, 35.66907], [138.56068, 35.6691], [138.55979, 35.66932], [138.55901, 35.66952], [138.55832, 35.66964], [138.55764, 35.66971], [138.55667, 35.66974], [138.55482, 35.66971], [138.55445, 35.6697], [138.55404, 35.66969], [138.55389, 35.66969], [138.55341, 35.66968], [138.55094, 35.66963], [138.5495, 35.66958], [138.54931, 35.66957], [138.54886, 35.66956], [138.54812, 35.66954], [138.54652, 35.66949], [138.54445, 35.66943], [138.54208, 35.66936], [138.53617, 35.66917], [138.53337, 35.66909], [138.53322, 35.66909], [138.53027, 35.669], [138.5273, 35.66891], [138.52445, 35.66883], [138.52407, 35.66882], [138.52291, 35.66878], [138.52248, 35.66877], [138.52236, 35.66877], [138.52218, 35.66876], [138.52076, 35.66872]]}, "properties": {"id": "TRACK_TOKYO_2741", "line_name": "中央線", "station_group_ids": [], "mode": "rail", "operator_id": "jr_east", "line_color": "#F15A24", "tags": ["tokyo", "track_centerline"]}}, {"type": "Feature", "bbox": [138.63566, 35.65757, 138.65866, 35.67321], "geometry": {"type": "LineString", "coordinates": [[138.65866, 35.67321], [138.65446, 35.66988], [138.65433, 35.66977], [138.65382, 35.66937], [138.65333, 35.66896], [138.65147, 35.66748], [138.65129, 35.66733], [138.65114, 35.66721], [138.65011, 35.66639], [138.64765, 35.66441], [138.64652, 35.66353], [138.64578, 35.66292], [138.6455, 35.66272], [138.64434, 35.66176], [138.64324, 35.66089], [138.64283, 35.66056], [138.64223, 35.66009], [138.6414, 35.65941], [138.64075, 35.65892], [138.64025, 35.65859], [138.64008, 35.6585], [138.63968, 35.65832], [138.63929, 35.65813], [138.63926, 35.65813], [138.63905, 35.65804], [138.63885, 35.65798], [138.63846, 35.65786], [138.63797, 35.65774], [138.63681, 35.65766], [138.63566, 35.65757]]}, "properties": {"id": "TRACK_TOKYO_2750", "line_name": "中央線", "station_group_ids": [], "mode": "rail", "operator_id": "jr_east", "line_color": "#F15A24", "tags": ["tokyo", "track_centerline"]}}, {"type": "Feature", "bbox": [138.74322, 35.67086, 138.74344, 35.67162], "geometry": {"type": "LineString", "coordinates": [[138.74322, 35.67162], [138.74328, 35.67135], [138.74336, 35.67107], [138.74344, 35.67086]]}, "properties": {"id": "TRACK_TOKYO_2756", "line_name": "中央線", "station_group_ids": [], "mode": "rail", "operator_id": "jr_east", "line_color": "#F15A24", "tags": ["tokyo", "track_centerline"]}}, {"type": "Feature", "bbox": [138.74321, 35.67162, 138.74334, 35.67406], "geometry": {"type": "LineString", "coordinates": [[138.74322, 35.67162], [138.74321, 35.67222], [138.74323, 35.67288], [138.74325, 35.67309], [138.74327, 35.67338], [138.74327, 35.67344], [138.74334, 35.67406]]}, "properties": {"id": "TRACK_TOKYO_2760", "line_name": "中央線", "station_group_ids": [], "mode": "rail", "operator_id": "jr_east", "line_color": "#F15A24", "tags": ["tokyo", "track_centerline"]}}, {"type": "Feature", "bbox": [138.51794, 35.66863, 138.52076, 35.66872], "geometry": {"type": "LineString", "coordinates": [[138.52076, 35.66872], [138.51794, 35.66863]]}, "properties": {"id": "TRACK_TOKYO_2771", "line_name": "中央線", "station_group_ids": [], "mode": "rail", "operator_id": "jr_east", "line_color": "#F15A24", "tags": ["tokyo", "track_centerline"]}}, {"type": "Feature", "bbox": [138.63331, 35.65748, 138.63566, 35.65757], "geometry": {"type": "LineString", "coordinates": [[138.63566, 35.65757], [138.63331, 35.65748]]}, "properties": {"id": "TRACK_TOKYO_2772", "line_name": "中央線", "station_group_ids": [], "mode": "rail", "operator_id": "jr_east", "line_color": "#F15A24", "tags": ["tokyo", "track_centerline"]}}, {"type": "Feature", "bbox": [138.88231, 35.59429, 138.88516, 35.59445], "geometry": {"type": "LineString", "coordinates": [[138.88516, 35.5944], [138.88476, 35.59435], [138.88422, 35.59431], [138.88367, 35.59429], [138.883, 35.59433], [138.88285, 35.59434], [138.88231, 35.59445]]}, "properties": {"id": "TRACK_TOKYO_2780", "line_name": "中央線", "station_group_ids": [], "mode": "rail", "operator_id": "jr_east", "line_color": "#F15A24", "tags": ["tokyo", "track_centerline"]}}, {"type": "Feature", "bbox": [138.94406, 35.61143, 138.96693, 35.61542], "geometry": {"type": "LineString", "coordinates": [[138.96693, 35.61237], [138.96684, 35.61234], [138.96634, 35.61218], [138.96527, 35.61184], [138.96515, 35.6118], [138.96416, 35.6115], [138.96375, 35.61145], [138.96341, 35.61143], [138.96283, 35.61144], [138.96243, 35.61147], [138.96219, 35.61152], [138.96191, 35.61155], [138.96159, 35.61164], [138.96143, 35.61169], [138.95929, 35.61259], [138.9589, 35.61275], [138.95832, 35.61296], [138.95782, 35.61308], [138.95765, 35.61309], [138.95745, 35.6131], [138.95723, 35.61311], [138.95709, 35.61311], [138.9557, 35.61304], [138.95543, 35.61301], [138.95537, 35.61301], [138.95485, 35.61301], [138.95422, 35.6131], [138.9538, 35.61322], [138.95314, 35.61355], [138.9521, 35.61424], [138.95175, 35.61445], [138.95099, 35.61489], [138.95044, 35.61509], [138.95009, 35.61519], [138.9494, 35.61534], [138.94868, 35.61542], [138.94841, 35.61541], [138.948, 35.61534], [138.94732, 35.61517], [138.94666, 35.61495], [138.94542, 35.61447], [138.94534, 35.61443], [138.94489, 35.61422], [138.94472, 35.61415], [138.94406, 35.61387]]}, "properties": {"id": "TRACK_TOKYO_2785", "line_name": "中央線", "station_group_ids": [], "mode": "rail", "operator_id": "jr_east", "line_color": "#F15A24", "tags": ["tokyo", "track_centerline"]}}, {"type": "Feature", "bbox": [138.82386, 35.60377, 138.82687, 35.60421], "geometry": {"type": "LineString", "coordinates": [[138.82386, 35.60377], [138.82389, 35.60377], [138.82456, 35.60383], [138.8255, 35.60396], [138.82685, 35.6042], [138.82687, 35.60421]]}, "properties": {"id": "TRACK_TOKYO_2788", "line_name": "中央線", "station_group_ids": [], "mode": "rail", "operator_id": "jr_east", "line_color": "#F15A24", "tags": ["tokyo", "track_centerline"]}}, {"type": "Feature", "bbox": [138.77831, 35.63966, 138.78048, 35.64009], "geometry": {"type": "LineString", "coordinates": [[138.77831, 35.64009], [138.77845, 35.64006], [138.77923, 35.63989], [138.78023, 35.6397], [138.78048, 35.63966]]}, "properties": {"id": "TRACK_TOKYO_2791", "line_name": "中央線", "station_group_ids": [], "mode": "rail", "operator_id": "jr_east", "line_color": "#F15A24", "tags": ["tokyo", "track_centerline"]}}, {"type": "Feature", "bbox": [138.94107, 35.61264, 138.94406, 35.61387], "geometry": {"type": "LineString", "coordinates": [[138.94406, 35.61387], [138.94133, 35.61274], [138.94107, 35.61264]]}, "properties": {"id": "TRACK_TOKYO_2798", "line_name": "中央線", "station_group_ids": [], "mode": "rail", "operator_id": "jr_east", "line_color": "#F15A24", "tags": ["tokyo", "track_centerline"]}}, {"type": "Feature", "bbox": [138.78048, 35.63903, 138.78276, 35.63966], "geometry": {"type": "LineString", "coordinates": [[138.78048, 35.63966], [138.78077, 35.63961], [138.78138, 35.63948], [138.78187, 35.63934], [138.78276, 35.63903]]}, "properties": {"id": "TRACK_TOKYO_2804", "line_name": "中央線", "station_group_ids": [], "mode": "rail", "operator_id": "jr_east", "line_color": "#F15A24", "tags": ["tokyo", "track_centerline"]}}, {"type": "Feature", "bbox": [138.81989, 35.60376, 138.82386, 35.60415], "geometry": {"type": "LineString", "coordinates": [[138.81989, 35.60415], [138.82009, 35.60412], [138.82071, 35.60401], [138.82188, 35.60385], [138.82278, 35.60377], [138.82324, 35.60376], [138.82386, 35.60377]]}, "properties": {"id": "TRACK_TOKYO_2806", "line_name": "中央線", "station_group_ids": [], "mode": "rail", "operator_id": "jr_east", "line_color": "#F15A24", "tags": ["tokyo", "track_centerline"]}}, {"type": "Feature", "bbox": [138.82687, 35.59445, 138.88231, 35.60569], "geometry": {"type": "LineString", "coordinates": [[138.88231, 35.59445], [138.88226, 35.59447], [138.88174, 35.59465], [138.88111, 35.59486], [138.88086, 35.59493], [138.88077, 35.59495], [138.88042, 35.59503], [138.87997, 35.59509], [138.87917, 35.59512], [138.87751, 35.59511], [138.87705, 35.59511], [138.87498, 35.59509], [138.87463, 35.5951], [138.87446, 35.5951], [138.87377, 35.59517], [138.87318, 35.59531], [138.87284, 35.59546], [138.87232, 35.59574], [138.87209, 35.59589], [138.87185, 35.59604], [138.87161, 35.59622], [138.87135, 35.59645], [138.87117, 35.59664], [138.87088, 35.59695], [138.8704, 35.59741], [138.87013, 35.59765], [138.86983, 35.59788], [138.86954, 35.59811], [138.86924, 35.59829], [138.86856, 35.59863], [138.86764, 35.59901], [138.86743, 35.59913], [138.8674, 35.59914], [138.86686, 35.59951], [138.86617, 35.6], [138.86591, 35.60019], [138.86573, 35.6003], [138.86557, 35.6004], [138.86533, 35.60054], [138.86503, 35.60069], [138.86467, 35.60079], [138.86425, 35.60089], [138.86378, 35.60096], [138.86324, 35.60105], [138.86245, 35.60119], [138.86194, 35.6013], [138.86159, 35.60139], [138.86122, 35.60154], [138.86086, 35.6017], [138.86055, 35.60188], [138.86035, 35.60203], [138.86021, 35.60212], [138.85994, 35.60233], [138.85991, 35.60237], [138.85987, 35.60242], [138.85961, 35.60271], [138.85944, 35.60291], [138.85927, 35.60305], [138.85923, 35.60308], [138.85873, 35.60341], [138.85852, 35.60354], [138.85825, 35.60371], [138.85816, 35.60377], [138.85779, 35.60399], [138.85733, 35.60419], [138.8569, 35.60427], [138.8563, 35.60436], [138.85586, 35.60439], [138.85554, 35.60439], [138.85523, 35.60437], [138.85464, 35.60427], [138.85401, 35.60413], [138.85327, 35.60391], [138.85265, 35.60366], [138.85182, 35.60329], [138.85174, 35.60325], [138.85151, 35.60313], [138.85114, 35.6029], [138.85088, 35.60277], [138.85077, 35.60271], [138.85039, 35.60251], [138.8501, 35.60236], [138.84978, 35.60222], [138.8494, 35.60209], [138.84899, 35.60195], [138.84847, 35.60185], [138.84807, 35.60181], [138.84769, 35.60179], [138.84595, 35.60187], [138.84498, 35.60194], [138.84445, 35.602], [138.84399, 35.6021], [138.8436, 35.60225], [138.84334, 35.60235], [138.84292, 35.6026], [138.84238, 35.60306], [138.84138, 35.60404], [138.8411, 35.60427], [138.84107, 35.6043], [138.84081, 35.60449], [138.84021, 35.60492], [138.83994, 35.60507], [138.83962, 35.6052], [138.83926, 35.6053], [138.83911, 35.60533], [138.83885, 35.60538], [138.83643, 35.60564], [138.83583, 35.60569], [138.83544, 35.60569], [138.83475, 35.60558], [138.8341, 35.60546], [138.83359, 35.60538], [138.83322, 35.60535], [138.83312, 35.60534], [138.83251, 35.6053], [138.83179, 35.60534], [138.83111, 35.6054], [138.83065, 35.60542], [138.83041, 35.60543], [138.83006, 35.60539], [138.8297, 35.60534], [138.82919, 35.60522], [138.82858, 35.60501], [138.82826, 35.6049], [138.82814, 35.60486], [138.82753, 35.60458], [138.82721, 35.60439], [138.827, 35.60428], [138.82687, 35.60421]]}, "properties": {"id": "TRACK_TOKYO_2811", "line_name": "中央線", "station_group_ids": [], "mode": "rail", "operator_id": "jr_east", "line_color": "#F15A24", "tags": ["tokyo", "track_centerline"]}}, {"type": "Feature", "bbox": [138.88516, 35.5944, 138.94107, 35.61264], "geometry": {"type": "LineString", "coordinates": [[138.94107, 35.61264], [138.94044, 35.61239], [138.94018, 35.61229], [138.93969, 35.61209], [138.93954, 35.61203], [138.93913, 35.61186], [138.93891, 35.61175], [138.93857, 35.61156], [138.93837, 35.61145], [138.93808, 35.61128], [138.93792, 35.61118], [138.93777, 35.61108], [138.93771, 35.61104], [138.93749, 35.61086], [138.93718, 35.61054], [138.93699, 35.61031], [138.93678, 35.61007], [138.93644, 35.60952], [138.93603, 35.6089], [138.93574, 35.60843], [138.93562, 35.60817], [138.93555, 35.60806], [138.93532, 35.60766], [138.93513, 35.60742], [138.93505, 35.60732], [138.93477, 35.60705], [138.93429, 35.60663], [138.9339, 35.60632], [138.93331, 35.60599], [138.93286, 35.60577], [138.93272, 35.60573], [138.93237, 35.60562], [138.93199, 35.6055], [138.93108, 35.60521], [138.93068, 35.60509], [138.92948, 35.60474], [138.92938, 35.60471], [138.92706, 35.60407], [138.92685, 35.60401], [138.92645, 35.60389], [138.92638, 35.60387], [138.92581, 35.60363], [138.92514, 35.60325], [138.92349, 35.60228], [138.923, 35.602], [138.9226, 35.60179], [138.92162, 35.6014], [138.92114, 35.60118], [138.92061, 35.60094], [138.91989, 35.60054], [138.9196, 35.60037], [138.91772, 35.59925], [138.91718, 35.59904], [138.91715, 35.59903], [138.9169, 35.59894], [138.91657, 35.59885], [138.91614, 35.59877], [138.91584, 35.59874], [138.91525, 35.59871], [138.91516, 35.59871], [138.9144, 35.59868], [138.91345, 35.59864], [138.91332, 35.59863], [138.91226, 35.59858], [138.91192, 35.59859], [138.91148, 35.5986], [138.91117, 35.59866], [138.91088, 35.59874], [138.91058, 35.59885], [138.91013, 35.59913], [138.90974, 35.59933], [138.90948, 35.59944], [138.90919, 35.59955], [138.90853, 35.59973], [138.90848, 35.59974], [138.90821, 35.5998], [138.90754, 35.59995], [138.90647, 35.60017], [138.90639, 35.60018], [138.90603, 35.60026], [138.90595, 35.60028], [138.90564, 35.60034], [138.90458, 35.60053], [138.90449, 35.60055], [138.90414, 35.60062], [138.90378, 35.60069], [138.90215, 35.601], [138.90143, 35.60109], [138.90122, 35.6011], [138.90064, 35.60106], [138.90026, 35.60101], [138.90023, 35.60101], [138.89965, 35.60087], [138.89918, 35.60071], [138.89863, 35.60047], [138.89751, 35.59984], [138.89724, 35.59973], [138.89688, 35.59963], [138.89507, 35.59912], [138.89373, 35.59875], [138.89261, 35.59844], [138.89243, 35.59835], [138.89221, 35.59824], [138.89147, 35.59773], [138.89078, 35.59725], [138.88935, 35.59621], [138.88828, 35.59547], [138.88761, 35.59507], [138.88696, 35.59484], [138.88652, 35.59473], [138.88595, 35.59458], [138.88547, 35.59446], [138.88516, 35.5944]]}, "properties": {"id": "TRACK_TOKYO_2812", "line_name": "中央線", "station_group_ids": [], "mode": "rail", "operator_id": "jr_east", "line_color": "#F15A24", "tags": ["tokyo", "track_centerline"]}}, {"type": "Feature", "bbox": [138.96693, 35.61237, 138.96983, 35.61341], "geometry": {"type": "LineString", "coordinates": [[138.96983, 35.61341], [138.96701, 35.61239], [138.96693, 35.61237]]}, "properties": {"id": "TRACK_TOKYO_2816", "line_name": "中央線", "station_group_ids": [], "mode": "rail", "operator_id": "jr_east", "line_color": "#F15A24", "tags": ["tokyo", "track_centerline"]}}, {"type": "Feature", "bbox": [138.78276, 35.60415, 138.81989, 35.63903], "geometry": {"type": "LineString", "coordinates": [[138.81989, 35.60415], [138.81943, 35.60434], [138.81915, 35.60446], [138.81854, 35.60484], [138.8185, 35.60487], [138.81827, 35.60504], [138.81799, 35.60525], [138.8176, 35.60558], [138.81582, 35.60733], [138.81255, 35.61059], [138.81054, 35.61253], [138.80341, 35.61943], [138.80171, 35.62108], [138.80126, 35.62152], [138.79957, 35.62318], [138.79468, 35.62805], [138.79225, 35.63048], [138.79093, 35.63174], [138.78758, 35.63497], [138.78443, 35.63801], [138.78437, 35.63807], [138.78417, 35.63822], [138.78413, 35.63826], [138.78363, 35.63859], [138.78342, 35.63871], [138.78327, 35.63879], [138.78276, 35.63903]]}, "properties": {"id": "TRACK_TOKYO_2817", "line_name": "中央線", "station_group_ids": [], "mode": "rail", "operator_id": "jr_east", "line_color": "#F15A24", "tags": ["tokyo", "track_centerline"]}}, {"type": "Feature", "bbox": [138.78276, 35.60415, 138.81989, 35.63903], "geometry": {"type": "LineString", "coordinates": [[138.78276, 35.63903], [138.78293, 35.6389], [138.78329, 35.63864], [138.78367, 35.63833], [138.78393, 35.63809], [138.78403, 35.638], [138.78412, 35.63792], [138.78418, 35.63785], [138.78733, 35.6348], [138.79194, 35.63034], [138.79443, 35.62787], [138.80079, 35.62158], [138.80147, 35.62092], [138.80307, 35.61937], [138.81021, 35.61248], [138.81223, 35.61052], [138.81363, 35.60914], [138.81553, 35.60723], [138.81725, 35.60552], [138.81766, 35.60517], [138.81777, 35.60508], [138.8179, 35.60498], [138.81848, 35.60463], [138.81892, 35.60441], [138.8195, 35.60422], [138.81989, 35.60415]]}, "properties": {"id": "TRACK_TOKYO_2818", "line_name": "中央線", "station_group_ids": [], "mode": "rail", "operator_id": "jr_east", "line_color": "#F15A24", "tags": ["tokyo", "track_centerline"]}}, {"type": "Feature", "bbox": [138.96983, 35.60798, 139.00221, 35.61392], "geometry": {"type": "LineString", "coordinates": [[139.00221, 35.60798], [139.00154, 35.60798], [138.99871, 35.60811], [138.99748, 35.60819], [138.99684, 35.60823], [138.99659, 35.60824], [138.99311, 35.60843], [138.99277, 35.60844], [138.99157, 35.60849], [138.99026, 35.60855], [138.99015, 35.60856], [138.98803, 35.60869], [138.98762, 35.60871], [138.98654, 35.60881], [138.98611, 35.60887], [138.9855, 35.60907], [138.98436, 35.60959], [138.98409, 35.60973], [138.98338, 35.61012], [138.98261, 35.61057], [138.98161, 35.61116], [138.98077, 35.61167], [138.98025, 35.61198], [138.97988, 35.61219], [138.97939, 35.6125], [138.97917, 35.61262], [138.97883, 35.6128], [138.97853, 35.61292], [138.97803, 35.6131], [138.97705, 35.61333], [138.97661, 35.6134], [138.97631, 35.61344], [138.97453, 35.6137], [138.97399, 35.61379], [138.97347, 35.61384], [138.9732, 35.61386], [138.97302, 35.61388], [138.97269, 35.6139], [138.97233, 35.61392], [138.9719, 35.61392], [138.97154, 35.61389], [138.97132, 35.61385], [138.97104, 35.61381], [138.97061, 35.61368], [138.96989, 35.61343], [138.96983, 35.61341]]}, "properties": {"id": "TRACK_TOKYO_2822", "line_name": "中央線", "station_group_ids": [], "mode": "rail", "operator_id": "jr_east", "line_color": "#F15A24", "tags": ["tokyo", "track_centerline"]}}, {"type": "Feature", "bbox": [138.74344, 35.64009, 138.77831, 35.67086], "geometry": {"type": "LineString", "coordinates": [[138.74344, 35.67086], [138.74358, 35.67043], [138.74368, 35.67023], [138.74373, 35.67012], [138.74394, 35.66989], [138.74533, 35.66838], [138.74687, 35.66669], [138.74806, 35.66536], [138.74962, 35.66362], [138.75317, 35.65947], [138.75334, 35.65926], [138.75633, 35.65607], [138.75752, 35.65481], [138.75763, 35.65469], [138.76436, 35.64753], [138.76473, 35.64716], [138.76503, 35.64683], [138.76523, 35.64659], [138.76547, 35.64618], [138.76567, 35.64585], [138.76583, 35.64551], [138.76597, 35.6453], [138.76619, 35.64511], [138.76654, 35.64478], [138.76667, 35.64466], [138.76698, 35.64441], [138.76717, 35.64429], [138.7674, 35.64418], [138.76764, 35.6441], [138.76802, 35.64398], [138.76818, 35.64395], [138.76832, 35.64395], [138.76856, 35.64394], [138.76991, 35.64395], [138.77129, 35.64399], [138.77171, 35.64399], [138.77209, 35.64396], [138.77249, 35.64391], [138.77286, 35.64381], [138.77293, 35.64376], [138.77299, 35.64371], [138.77532, 35.64162], [138.77563, 35.64133], [138.77572, 35.64125], [138.77593, 35.64107], [138.77611, 35.64092], [138.77638, 35.64072], [138.77669, 35.64053], [138.77696, 35.6404], [138.77735, 35.64028], [138.77831, 35.64009]]}, "properties": {"id": "TRACK_TOKYO_2829", "line_name": "中央線", "station_group_ids": [], "mode": "rail", "operator_id": "jr_east", "line_color": "#F15A24", "tags": ["tokyo", "track_centerline"]}}, {"type": "Feature", "bbox": [138.74344, 35.64009, 138.77831, 35.67086], "geometry": {"type": "LineString", "coordinates": [[138.74344, 35.67086], [138.74365, 35.67057], [138.74397, 35.67017], [138.74425, 35.66989], [138.74544, 35.66857], [138.74687, 35.667], [138.74691, 35.66696], [138.7535, 35.65971], [138.75373, 35.65947], [138.75374, 35.65945], [138.75676, 35.65615], [138.75788, 35.65494], [138.75893, 35.65379], [138.7645, 35.64771], [138.76457, 35.64764], [138.76557, 35.64651], [138.76564, 35.64643], [138.7664, 35.64573], [138.76673, 35.64544], [138.76711, 35.64522], [138.76724, 35.64513], [138.76764, 35.64497], [138.76777, 35.64493], [138.76792, 35.64489], [138.76853, 35.64479], [138.77001, 35.64476], [138.7702, 35.64472], [138.77121, 35.64474], [138.77142, 35.6448], [138.77161, 35.6448], [138.77198, 35.64472], [138.77232, 35.64463], [138.77258, 35.64452], [138.77286, 35.64433], [138.77307, 35.64421], [138.77336, 35.644], [138.77369, 35.64367], [138.77565, 35.64184], [138.77674, 35.64083], [138.77769, 35.64039], [138.77831, 35.64009]]}, "properties": {"id": "TRACK_TOKYO_2830", "line_name": "中央線", "station_group_ids": [], "mode": "rail", "operator_id": "jr_east", "line_color": "#F15A24", "tags": ["tokyo", "track_centerline"]}}, {"type": "Feature", "bbox": [138.49736, 35.66836, 138.50649, 35.68095], "geometry": {"type": "LineString", "coordinates": [[138.50649, 35.66836], [138.50628, 35.66837], [138.50607, 35.66839], [138.50594, 35.66841], [138.50575, 35.66844], [138.50549, 35.6685], [138.50523, 35.66857], [138.50494, 35.66866], [138.50477, 35.66872], [138.50455, 35.66879], [138.5045, 35.66881], [138.50407, 35.66898], [138.50366, 35.66917], [138.50329, 35.6694], [138.50288, 35.66965], [138.50251, 35.66988], [138.50225, 35.67007], [138.50212, 35.6702], [138.50184, 35.67053], [138.5016, 35.67081], [138.50133, 35.67121], [138.50113, 35.67153], [138.50098, 35.67181], [138.50082, 35.67219], [138.50071, 35.67246], [138.50058, 35.67286], [138.50051, 35.67315], [138.50039, 35.67379], [138.50037, 35.67387], [138.50029, 35.67435], [138.50018, 35.67498], [138.50013, 35.67522], [138.50009, 35.67546], [138.50006, 35.67572], [138.50004, 35.67587], [138.49999, 35.67628], [138.49991, 35.67668], [138.49986, 35.67697], [138.4998, 35.67725], [138.49972, 35.67757], [138.49963, 35.67788], [138.49953, 35.6782], [138.4994, 35.67854], [138.49926, 35.67887], [138.4991, 35.67917], [138.49899, 35.67936], [138.49887, 35.67952], [138.4987, 35.67975], [138.49847, 35.68001], [138.49825, 35.68022], [138.49799, 35.68046], [138.49795, 35.68049], [138.49781, 35.68061], [138.49771, 35.6807], [138.49736, 35.68095]]}, "properties": {"id": "TRACK_TOKYO_2852", "line_name": "中央線", "station_group_ids": [], "mode": "rail", "operator_id": "jr_east", "line_color": "#F15A24", "tags": ["tokyo", "track_centerline"]}}, {"type": "Feature", "bbox": [138.50649, 35.66834, 138.51794, 35.66863], "geometry": {"type": "LineString", "coordinates": [[138.51794, 35.66863], [138.5167, 35.6686], [138.51403, 35.66852], [138.51107, 35.66843], [138.50783, 35.66834], [138.50767, 35.66834], [138.50743, 35.66834], [138.50726, 35.66834], [138.50667, 35.66835], [138.50649, 35.66836]]}, "properties": {"id": "TRACK_TOKYO_2853", "line_name": "中央線", "station_group_ids": [], "mode": "rail", "operator_id": "jr_east", "line_color": "#F15A24", "tags": ["tokyo", "track_centerline"]}}, {"type": "Feature", "bbox": [138.49736, 35.66836, 138.50649, 35.68095], "geometry": {"type": "LineString", "coordinates": [[138.50649, 35.66836], [138.50627, 35.66839], [138.50602, 35.66843], [138.50574, 35.6685], [138.50549, 35.66858], [138.50523, 35.66867], [138.50483, 35.66883], [138.50464, 35.66891], [138.50451, 35.66896], [138.50416, 35.66912], [138.50373, 35.66935], [138.5034, 35.66956], [138.50293, 35.66988], [138.50273, 35.67001], [138.5025, 35.6702], [138.50233, 35.67037], [138.50205, 35.67066], [138.50181, 35.67095], [138.50156, 35.67131], [138.50137, 35.67164], [138.50124, 35.6719], [138.50106, 35.67229], [138.50097, 35.67253], [138.50087, 35.67287], [138.50086, 35.67292], [138.5008, 35.6732], [138.50069, 35.67383], [138.50068, 35.67393], [138.50062, 35.6744], [138.50055, 35.67504], [138.50051, 35.67558], [138.50047, 35.67591], [138.50045, 35.67609], [138.50043, 35.67632], [138.50037, 35.67679], [138.50032, 35.67707], [138.50026, 35.67736], [138.50016, 35.67768], [138.50004, 35.67801], [138.49992, 35.67831], [138.49978, 35.6786], [138.4996, 35.67891], [138.49941, 35.6792], [138.49926, 35.67942], [138.49907, 35.67964], [138.4989, 35.67982], [138.49871, 35.68001], [138.49853, 35.68018], [138.49833, 35.68034], [138.49804, 35.68054], [138.49802, 35.68055], [138.49785, 35.68066], [138.49771, 35.68075], [138.49754, 35.68085], [138.49736, 35.68095]]}, "properties": {"id": "TRACK_TOKYO_2854", "line_name": "中央線", "station_group_ids": [], "mode": "rail", "operator_id": "jr_east", "line_color": "#F15A24", "tags": ["tokyo", "track_centerline"]}}]}