{"type": "FeatureCollection", "features": [{"type": "Feature", "bbox": [135.76127, 34.96932, 136.01835, 35.05779], "geometry": {"type": "LineString", "coordinates": [[136.01835, 35.05779], [136.01827, 35.0577], [136.01715, 35.0566], [136.01686, 35.05631], [136.01675, 35.0562], [136.0167, 35.05616], [136.01661, 35.05606], [136.01578, 35.05523], [136.01543, 35.05489], [136.0148, 35.05426], [136.01463, 35.05408], [136.01441, 35.05387], [136.01384, 35.05331], [136.01299, 35.05247], [136.01272, 35.05221], [136.01201, 35.05151], [136.01138, 35.05091], [136.01087, 35.05041], [136.01065, 35.05019], [136.00928, 35.04886], [136.00923, 35.04881], [136.00908, 35.04866], [136.00856, 35.04815], [136.0082, 35.04781], [136.00754, 35.04715], [136.00642, 35.04605], [136.00621, 35.04585], [136.00618, 35.0458], [136.0056, 35.04524], [136.00525, 35.04489], [136.00495, 35.04459], [136.00493, 35.04456], [136.00426, 35.04391], [136.00353, 35.04317], [136.00336, 35.043], [136.00295, 35.04258], [136.00286, 35.0425], [136.00278, 35.04241], [136.00236, 35.04199], [136.00233, 35.04195], [136.00231, 35.04193], [136.00184, 35.04146], [136.0018, 35.04143], [136.00163, 35.04126], [136.00139, 35.04101], [136.0013, 35.04092], [136.00119, 35.0408], [136.00113, 35.04073], [136.00105, 35.04067], [136.00085, 35.04047], [136.00075, 35.04036], [136.00039, 35.04001], [136.0003, 35.0399], [135.99977, 35.03939], [135.99961, 35.03923], [135.99951, 35.03913], [135.99916, 35.03878], [135.99744, 35.03708], [135.99734, 35.03698], [135.99726, 35.03689], [135.99714, 35.03675], [135.99626, 35.0359], [135.9953, 35.03498], [135.99481, 35.03448], [135.99349, 35.03318], [135.99271, 35.03239], [135.99244, 35.03212], [135.99162, 35.03127], [135.99122, 35.03089], [135.99095, 35.03062], [135.98967, 35.02936], [135.98942, 35.02911], [135.98895, 35.02864], [135.98859, 35.02828], [135.98774, 35.02742], [135.98696, 35.02664], [135.98675, 35.02642], [135.98623, 35.0259], [135.98486, 35.02454], [135.98404, 35.02372], [135.98371, 35.02339], [135.98223, 35.02184], [135.98196, 35.02154], [135.98176, 35.02133], [135.98005, 35.0194], [135.97969, 35.019], [135.9792, 35.01842], [135.97909, 35.01828], [135.97863, 35.01774], [135.97832, 35.01737], [135.97773, 35.01669], [135.97745, 35.01637], [135.97709, 35.01596], [135.97561, 35.01421], [135.97469, 35.01315], [135.9745, 35.01292], [135.97349, 35.0117], [135.9721, 35.01012], [135.97121, 35.00908], [135.97065, 35.00843], [135.97024, 35.00797], [135.96942, 35.00701], [135.96834, 35.00574], [135.96712, 35.00433], [135.9664, 35.00348], [135.96618, 35.00323], [135.96601, 35.00303], [135.96482, 35.00172], [135.9638, 35.0006], [135.96316, 34.99997], [135.96249, 34.99932], [135.96214, 34.99902], [135.9613, 34.9983], [135.96045, 34.99763], [135.96018, 34.99741], [135.95923, 34.99663], [135.95863, 34.99614], [135.95703, 34.99482], [135.95565, 34.99369], [135.95466, 34.99288], [135.95443, 34.99269], [135.95368, 34.99208], [135.9533, 34.99177], [135.95273, 34.99128], [135.95237, 34.99099], [135.95227, 34.99091], [135.95202, 34.9907], [135.95131, 34.99013], [135.95074, 34.98968], [135.94943, 34.98858], [135.94812, 34.98751], [135.94739, 34.98691], [135.94642, 34.98611], [135.94557, 34.98542], [135.94477, 34.98477], [135.94454, 34.98458], [135.94399, 34.98413], [135.94387, 34.98403], [135.94288, 34.98321], [135.94227, 34.98272], [135.94205, 34.98253], [135.94161, 34.98218], [135.9402, 34.98102], [135.93911, 34.98013], [135.93819, 34.97939], [135.93738, 34.97873], [135.9365, 34.97798], [135.93526, 34.97698], [135.93414, 34.97607], [135.93331, 34.97539], [135.93223, 34.97461], [135.93176, 34.97427], [135.93137, 34.97398], [135.92999, 34.97315], [135.92941, 34.97284], [135.9288, 34.97252], [135.92621, 34.97141], [135.9243, 34.97076], [135.92255, 34.97026], [135.92115, 34.96992], [135.91915, 34.96958], [135.91895, 34.96953], [135.91764, 34.96941], [135.91709, 34.96936], [135.91603, 34.96932], [135.91451, 34.96934], [135.91234, 34.96948], [135.91068, 34.9696], [135.90689, 34.96985], [135.90273, 34.97017], [135.90154, 34.97029], [135.90121, 34.97033], [135.89992, 34.97054], [135.89966, 34.9706], [135.8988, 34.97077], [135.89815, 34.9709], [135.89793, 34.97094], [135.89777, 34.97097], [135.89637, 34.97123], [135.89494, 34.97151], [135.8945, 34.9716], [135.89425, 34.97164], [135.89389, 34.97172], [135.89372, 34.97175], [135.89311, 34.97187], [135.89235, 34.97202], [135.89208, 34.97208], [135.89169, 34.97215], [135.89098, 34.97228], [135.8897, 34.97245], [135.88939, 34.97251], [135.8879, 34.97273], [135.88756, 34.97277], [135.88583, 34.973], [135.88492, 34.97313], [135.88445, 34.9732], [135.88308, 34.9734], [135.88277, 34.97344], [135.88048, 34.97378], [135.88019, 34.97383], [135.87942, 34.97394], [135.87558, 34.97447], [135.87215, 34.97492], [135.86863, 34.97531], [135.86488, 34.97573], [135.86209, 34.97604], [135.85505, 34.97685], [135.8539, 34.97699], [135.85208, 34.97719], [135.8509, 34.97733], [135.8463, 34.97782], [135.8411, 34.97841], [135.84006, 34.97852], [135.83384, 34.9792], [135.83011, 34.97961], [135.8291, 34.97974], [135.82858, 34.97981], [135.82694, 34.98001], [135.82677, 34.98003], [135.82277, 34.98052], [135.82096, 34.98071], [135.82083, 34.98072], [135.81964, 34.98085], [135.81833, 34.98095], [135.81633, 34.98108], [135.81552, 34.98111], [135.81448, 34.98113], [135.8099, 34.98119], [135.8087, 34.98121], [135.8041, 34.98126], [135.80079, 34.98131], [135.79974, 34.98132], [135.79882, 34.98138], [135.79814, 34.98144], [135.79674, 34.98159], [135.7957, 34.98173], [135.79343, 34.98207], [135.79145, 34.98235], [135.78912, 34.98273], [135.78597, 34.98323], [135.78385, 34.98353], [135.78183, 34.98383], [135.77092, 34.98542], [135.76962, 34.98535], [135.76935, 34.98534], [135.76922, 34.98533], [135.76878, 34.98531], [135.76861, 34.9853], [135.76795, 34.98527], [135.76655, 34.98521], [135.7656, 34.98514], [135.76294, 34.98487], [135.76127, 34.98466]]}, "properties": {"id": "GEOM_TOKYO_0997", "route_id": "R_388BB890", "route_name": null, "route_color": "#1F78FF", "route_text_color": null, "line_name": "東海道新幹線", "operator_id": "jr_central", "representation": "service_path", "min_zoom": 0, "max_zoom": 24, "offset_rank": 0}}, {"type": "Feature", "bbox": [135.75684, 34.98459, 135.76127, 34.98466], "geometry": {"type": "LineString", "coordinates": [[135.75684, 34.98459], [135.75692, 34.98459], [135.76127, 34.98466]]}, "properties": {"id": "GEOM_TOKYO_0998", "route_id": "R_388BB890", "route_name": null, "route_color": "#1F78FF", "route_text_color": null, "line_name": "東海道新幹線", "operator_id": "jr_central", "representation": "service_path", "min_zoom": 0, "max_zoom": 24, "offset_rank": 0}}, {"type": "Feature", "bbox": [135.50412, 34.73509, 135.75684, 34.98481], "geometry": {"type": "LineString", "coordinates": [[135.50412, 34.73509], [135.5058, 34.73587], [135.50593, 34.73593], [135.50612, 34.73602], [135.50654, 34.73621], [135.50688, 34.73637], [135.50772, 34.73676], [135.50798, 34.73688], [135.50832, 34.73708], [135.5084, 34.73713], [135.50963, 34.73828], [135.51054, 34.73914], [135.51066, 34.73925], [135.51119, 34.73974], [135.51173, 34.74027], [135.51175, 34.74029], [135.51179, 34.74032], [135.51218, 34.74068], [135.5124, 34.74089], [135.51265, 34.74113], [135.5129, 34.74137], [135.51315, 34.74159], [135.5137, 34.74209], [135.51385, 34.74222], [135.51391, 34.74227], [135.51394, 34.74229], [135.51421, 34.74255], [135.51472, 34.74295], [135.51552, 34.74351], [135.51555, 34.74353], [135.51617, 34.74386], [135.51677, 34.74413], [135.51714, 34.74428], [135.51751, 34.74443], [135.51805, 34.74458], [135.51884, 34.74477], [135.51941, 34.74489], [135.52011, 34.745], [135.52098, 34.74514], [135.52169, 34.74524], [135.52219, 34.74531], [135.52652, 34.74589], [135.52962, 34.7463], [135.53081, 34.74648], [135.53194, 34.74668], [135.53259, 34.74683], [135.53318, 34.74696], [135.53416, 34.74725], [135.53518, 34.74757], [135.53608, 34.74786], [135.53718, 34.74831], [135.53838, 34.74883], [135.53937, 34.74933], [135.54089, 34.75018], [135.54186, 34.75076], [135.5423, 34.75105], [135.54251, 34.75119], [135.54309, 34.75165], [135.54377, 34.75215], [135.54427, 34.75259], [135.54458, 34.75287], [135.54497, 34.75325], [135.54575, 34.75399], [135.5478, 34.75586], [135.54894, 34.75693], [135.54949, 34.75744], [135.54958, 34.75754], [135.55047, 34.75836], [135.55113, 34.75897], [135.5515, 34.75932], [135.55204, 34.75984], [135.55251, 34.76024], [135.55256, 34.7603], [135.55324, 34.76091], [135.55396, 34.76153], [135.55571, 34.76297], [135.55573, 34.76298], [135.55613, 34.76331], [135.5581, 34.76489], [135.55843, 34.76515], [135.55914, 34.76572], [135.56095, 34.76715], [135.56173, 34.76779], [135.56175, 34.76779], [135.56237, 34.76831], [135.56434, 34.76987], [135.56479, 34.77025], [135.56537, 34.7707], [135.56598, 34.77121], [135.56605, 34.77127], [135.56703, 34.77207], [135.56724, 34.77224], [135.56745, 34.77241], [135.56772, 34.77264], [135.56805, 34.7729], [135.5687, 34.77343], [135.57135, 34.77558], [135.57159, 34.77579], [135.57169, 34.77586], [135.5732, 34.77708], [135.57339, 34.77725], [135.57467, 34.77828], [135.57551, 34.77894], [135.57632, 34.7796], [135.57639, 34.77964], [135.57656, 34.77978], [135.57664, 34.77985], [135.57809, 34.78103], [135.57898, 34.78176], [135.57957, 34.78224], [135.58038, 34.78289], [135.58081, 34.78325], [135.58127, 34.78362], [135.58253, 34.78462], [135.58295, 34.78496], [135.583, 34.78499], [135.58389, 34.78574], [135.58519, 34.78682], [135.58761, 34.78891], [135.58772, 34.78901], [135.58773, 34.78903], [135.58776, 34.78904], [135.58898, 34.79009], [135.58999, 34.79097], [135.59053, 34.79144], [135.59104, 34.79184], [135.59126, 34.79202], [135.59309, 34.79348], [135.59351, 34.79381], [135.59404, 34.79423], [135.59462, 34.79469], [135.59682, 34.79646], [135.59737, 34.7969], [135.59839, 34.7977], [135.59857, 34.79785], [135.59876, 34.798], [135.60137, 34.80007], [135.60207, 34.80069], [135.60247, 34.80104], [135.60315, 34.80168], [135.60409, 34.80258], [135.60463, 34.80312], [135.60511, 34.80363], [135.6053, 34.80381], [135.60597, 34.80454], [135.6062, 34.8048], [135.60685, 34.80559], [135.60778, 34.80673], [135.60864, 34.80779], [135.60871, 34.80789], [135.60883, 34.80804], [135.60919, 34.80847], [135.61049, 34.8101], [135.61133, 34.81114], [135.61172, 34.81163], [135.6118, 34.81173], [135.61207, 34.81207], [135.61219, 34.81223], [135.6124, 34.81248], [135.61269, 34.81284], [135.61293, 34.81313], [135.6131, 34.81335], [135.61317, 34.81343], [135.61353, 34.81388], [135.61357, 34.81391], [135.61369, 34.81408], [135.61372, 34.8141], [135.61405, 34.81452], [135.61412, 34.81461], [135.61497, 34.81567], [135.61528, 34.81606], [135.61532, 34.81609], [135.61598, 34.81692], [135.61675, 34.8179], [135.61683, 34.81799], [135.61747, 34.81878], [135.61814, 34.81961], [135.61876, 34.82039], [135.62004, 34.82195], [135.62117, 34.82334], [135.62131, 34.82352], [135.6216, 34.82386], [135.62218, 34.82459], [135.62413, 34.82705], [135.62522, 34.82843], [135.62568, 34.82903], [135.62574, 34.82909], [135.62728, 34.83103], [135.62742, 34.83119], [135.6278, 34.83167], [135.62789, 34.83177], [135.62923, 34.83345], [135.62928, 34.83351], [135.63111, 34.83579], [135.63174, 34.83657], [135.63265, 34.83777], [135.6334, 34.83875], [135.63412, 34.8397], [135.63564, 34.84164], [135.63588, 34.84196], [135.63709, 34.84354], [135.63859, 34.84551], [135.6401, 34.84746], [135.6416, 34.84941], [135.64176, 34.8496], [135.64311, 34.85136], [135.64462, 34.85331], [135.6461, 34.85526], [135.64757, 34.8572], [135.64761, 34.85726], [135.64901, 34.8591], [135.64934, 34.85954], [135.64974, 34.86005], [135.6501, 34.86051], [135.65051, 34.861], [135.65088, 34.86144], [135.65129, 34.86192], [135.65169, 34.86234], [135.6521, 34.86279], [135.65405, 34.86457], [135.65424, 34.86474], [135.65444, 34.86493], [135.65459, 34.86506], [135.65636, 34.86669], [135.65842, 34.86863], [135.6605, 34.87058], [135.66071, 34.87079], [135.66088, 34.87094], [135.66095, 34.87101], [135.66257, 34.87255], [135.66278, 34.87275], [135.66307, 34.87303], [135.66465, 34.87451], [135.66515, 34.875], [135.66666, 34.87647], [135.66741, 34.87717], [135.66786, 34.8776], [135.66871, 34.87843], [135.67023, 34.87989], [135.67074, 34.88038], [135.67277, 34.88231], [135.67482, 34.88426], [135.67528, 34.8847], [135.67545, 34.88486], [135.67689, 34.88623], [135.67725, 34.88657], [135.67768, 34.88699], [135.67799, 34.88729], [135.67817, 34.88746], [135.67886, 34.88816], [135.67993, 34.8893], [135.67997, 34.88935], [135.6807, 34.89012], [135.68115, 34.89064], [135.68162, 34.89114], [135.68204, 34.89161], [135.68211, 34.89167], [135.68228, 34.89183], [135.68252, 34.89207], [135.68299, 34.89248], [135.68394, 34.89334], [135.68448, 34.89385], [135.68461, 34.89398], [135.68485, 34.8942], [135.68533, 34.89467], [135.68576, 34.89512], [135.68656, 34.89594], [135.68711, 34.89653], [135.68753, 34.89698], [135.68836, 34.89789], [135.68921, 34.89881], [135.68966, 34.8993], [135.6902, 34.89983], [135.69055, 34.90016], [135.69103, 34.90057], [135.69141, 34.90088], [135.69204, 34.90139], [135.6926, 34.90179], [135.69371, 34.90256], [135.69426, 34.90289], [135.69484, 34.90324], [135.6954, 34.90357], [135.69575, 34.90376], [135.69918, 34.9055], [135.6996, 34.9057], [135.7004, 34.90611], [135.70138, 34.90661], [135.70204, 34.90698], [135.70257, 34.90728], [135.7032, 34.90766], [135.70414, 34.90828], [135.70476, 34.90873], [135.70481, 34.90876], [135.70547, 34.90925], [135.70636, 34.90995], [135.70683, 34.91034], [135.7073, 34.91078], [135.70777, 34.9112], [135.70823, 34.91169], [135.7084, 34.91186], [135.70865, 34.91211], [135.70909, 34.91261], [135.70954, 34.91315], [135.70987, 34.91359], [135.71024, 34.91408], [135.7106, 34.9146], [135.71092, 34.9151], [135.71153, 34.91616], [135.71201, 34.91704], [135.71213, 34.91727], [135.71292, 34.919], [135.71316, 34.91956], [135.71325, 34.9199], [135.71341, 34.92032], [135.71364, 34.9212], [135.71375, 34.92175], [135.71386, 34.92234], [135.71395, 34.92291], [135.71404, 34.92352], [135.7141, 34.92406], [135.71415, 34.92496], [135.71417, 34.92583], [135.71415, 34.9264], [135.71415, 34.9267], [135.71416, 34.92885], [135.71416, 34.92907], [135.71416, 34.92928], [135.71419, 34.93073], [135.71423, 34.93251], [135.71425, 34.93334], [135.71425, 34.93418], [135.71426, 34.93449], [135.71433, 34.93597], [135.71435, 34.9362], [135.71438, 34.93711], [135.71445, 34.93973], [135.71451, 34.94237], [135.71458, 34.94498], [135.71458, 34.94502], [135.71466, 34.94768], [135.71472, 34.95033], [135.71477, 34.95174], [135.71482, 34.95297], [135.71487, 34.95561], [135.71495, 34.95815], [135.71497, 34.95852], [135.71499, 34.95891], [135.71503, 34.95924], [135.71508, 34.95966], [135.71522, 34.96053], [135.71525, 34.96074], [135.71525, 34.9608], [135.71542, 34.96195], [135.71559, 34.96309], [135.71565, 34.96342], [135.71581, 34.96418], [135.71601, 34.96506], [135.71612, 34.96561], [135.71623, 34.96607], [135.71643, 34.96697], [135.71659, 34.96755], [135.71671, 34.96796], [135.71687, 34.96838], [135.71698, 34.96863], [135.71701, 34.96868], [135.71737, 34.96939], [135.71776, 34.97011], [135.718, 34.97056], [135.71827, 34.97099], [135.7185, 34.97133], [135.71877, 34.97173], [135.71913, 34.97226], [135.71945, 34.97269], [135.72005, 34.97342], [135.72053, 34.97397], [135.7209, 34.97437], [135.72106, 34.97452], [135.72126, 34.97473], [135.72179, 34.97516], [135.72248, 34.97564], [135.72306, 34.97602], [135.7239, 34.97653], [135.72505, 34.97715], [135.72621, 34.97778], [135.7279, 34.9787], [135.72999, 34.97982], [135.73136, 34.98055], [135.73221, 34.981], [135.73313, 34.98144], [135.73396, 34.98178], [135.73406, 34.98182], [135.73471, 34.98208], [135.73562, 34.98245], [135.73626, 34.98266], [135.73748, 34.983], [135.74034, 34.98379], [135.74268, 34.9844], [135.74345, 34.98457], [135.74426, 34.98472], [135.74451, 34.98474], [135.74461, 34.98475], [135.74516, 34.9848], [135.74542, 34.9848], [135.74579, 34.98481], [135.74717, 34.98479], [135.7474, 34.98481], [135.74896, 34.9846], [135.74952, 34.98454], [135.75531, 34.98458], [135.75684, 34.98459]]}, "properties": {"id": "GEOM_TOKYO_1001", "route_id": "R_388BB890", "route_name": null, "route_color": "#1F78FF", "route_text_color": null, "line_name": "東海道新幹線", "operator_id": "jr_central", "representation": "service_path", "min_zoom": 0, "max_zoom": 24, "offset_rank": 0}}]}