{"type": "FeatureCollection", "features": [{"type": "Feature", "bbox": [130.5010945, 33.3205875, 130.5010945, 33.3205875], "geometry": {"type": "Point", "coordinates": [130.5010945, 33.3205875]}, "properties": {"id": "PS_435871BFE411", "station_group_id": "SG_FCB073C83506", "name_en": "久留米", "name_ja": "久留米", "label_rank": 72, "tags": ["tokyo", "v3"]}}, {"type": "Feature", "bbox": [130.421175, 33.589574999999996, 130.421175, 33.589574999999996], "geometry": {"type": "Point", "coordinates": [130.421175, 33.589574999999996]}, "properties": {"id": "PS_A8F93C50157E", "station_group_id": "SG_91C721B8DCF1", "name_en": "博多", "name_ja": "博多", "label_rank": 72, "tags": ["tokyo", "v3"]}}, {"type": "Feature", "bbox": [130.421175, 33.589574999999996, 130.421175, 33.589574999999996], "geometry": {"type": "Point", "coordinates": [130.421175, 33.589574999999996]}, "properties": {"id": "PS_12A36A84944E", "station_group_id": "SG_91C721B8DCF1", "name_en": "博多", "name_ja": "博多", "label_rank": 72, "tags": ["tokyo", "v3"]}}, {"type": "Feature", "bbox": [131.160145, 34.053115, 131.160145, 34.053115], "geometry": {"type": "Point", "coordinates": [131.160145, 34.053115]}, "properties": {"id": "PS_3C607EEB91B5", "station_group_id": "SG_8DBCDB48907A", "name_en": "厚狭", "name_ja": "厚狭", "label_rank": 72, "tags": ["tokyo", "v3"]}}, {"type": "Feature", "bbox": [130.883155, 33.887115, 130.883155, 33.887115], "geometry": {"type": "Point", "coordinates": [130.883155, 33.887115]}, "properties": {"id": "PS_F9477C644AC9", "station_group_id": "SG_A2E83A698DEB", "name_en": "小倉", "name_ja": "小倉", "label_rank": 72, "tags": ["tokyo", "v3"]}}, {"type": "Feature", "bbox": [130.949115, 34.00707, 130.949115, 34.00707], "geometry": {"type": "Point", "coordinates": [130.949115, 34.00707]}, "properties": {"id": "PS_0D0A56FE2362", "station_group_id": "SG_82DEA8921D0E", "name_en": "新下関", "name_ja": "新下関", "label_rank": 72, "tags": ["tokyo", "v3"]}}, {"type": "Feature", "bbox": [131.397235, 34.0933, 131.397235, 34.0933], "geometry": {"type": "Point", "coordinates": [131.397235, 34.0933]}, "properties": {"id": "PS_8335DC5D5B05", "station_group_id": "SG_6AD2B2CBFA5F", "name_en": "新山口", "name_ja": "新山口", "label_rank": 72, "tags": ["tokyo", "v3"]}}, {"type": "Feature", "bbox": [130.49109750000002, 33.3704365, 130.49109750000002, 33.3704365], "geometry": {"type": "Point", "coordinates": [130.49109750000002, 33.3704365]}, "properties": {"id": "PS_0A0BA8190E1E", "station_group_id": "SG_12178E5C8FDE", "name_en": "新鳥栖", "name_ja": "新鳥栖", "label_rank": 72, "tags": ["tokyo", "v3"]}}, {"type": "Feature", "bbox": [130.4923975, 33.177694, 130.4923975, 33.177694], "geometry": {"type": "Point", "coordinates": [130.4923975, 33.177694]}, "properties": {"id": "PS_844D5612F835", "station_group_id": "SG_92C95F7F2B5A", "name_en": "筑後船小屋", "name_ja": "筑後船小屋", "label_rank": 72, "tags": ["tokyo", "v3"]}}]}