{"type": "FeatureCollection", "features": [{"type": "Feature", "bbox": [130.358385, 32.08959, 130.358385, 32.08959], "geometry": {"type": "Point", "coordinates": [130.358385, 32.08959]}, "properties": {"id": "PS_29D17EE6DA8F", "station_group_id": "SG_8D75863A6C61", "operator_id": "jr_kyushu", "operator_ids": "jr_kyushu", "name_en": "出水", "name_ja": "出水", "label_rank": 72, "tags": ["tokyo", "v3"]}}, {"type": "Feature", "bbox": [130.635033, 32.517586, 130.635033, 32.517586], "geometry": {"type": "Point", "coordinates": [130.635033, 32.517586]}, "properties": {"id": "PS_7ED308694562", "station_group_id": "SG_85E86529DBD0", "operator_id": "jr_kyushu", "operator_ids": "jr_kyushu", "name_en": "新八代", "name_ja": "新八代", "label_rank": 72, "tags": ["tokyo", "v3"]}}, {"type": "Feature", "bbox": [130.4887535, 33.071315999999996, 130.4887535, 33.071315999999996], "geometry": {"type": "Point", "coordinates": [130.4887535, 33.071315999999996]}, "properties": {"id": "PS_8B14AE274515", "station_group_id": "SG_AB868873FDE4", "operator_id": "jr_kyushu", "operator_ids": "jr_kyushu", "name_en": "新大牟田", "name_ja": "新大牟田", "label_rank": 72, "tags": ["tokyo", "v3"]}}, {"type": "Feature", "bbox": [130.428765, 32.210645, 130.428765, 32.210645], "geometry": {"type": "Point", "coordinates": [130.428765, 32.210645]}, "properties": {"id": "PS_CFE8C9EBB2D1", "station_group_id": "SG_F8A4D643F288", "operator_id": "jr_kyushu", "operator_ids": "jr_kyushu", "name_en": "新水俣", "name_ja": "新水俣", "label_rank": 72, "tags": ["tokyo", "v3"]}}, {"type": "Feature", "bbox": [130.5735715, 32.9425915, 130.5735715, 32.9425915], "geometry": {"type": "Point", "coordinates": [130.5735715, 32.9425915]}, "properties": {"id": "PS_AD0766A3E5B4", "station_group_id": "SG_7312373B4CA6", "operator_id": "jr_kyushu", "operator_ids": "jr_kyushu", "name_en": "新玉名", "name_ja": "新玉名", "label_rank": 72, "tags": ["tokyo", "v3"]}}, {"type": "Feature", "bbox": [130.688599, 32.7904015, 130.688599, 32.7904015], "geometry": {"type": "Point", "coordinates": [130.688599, 32.7904015]}, "properties": {"id": "PS_89C84DFB9AA0", "station_group_id": "SG_163790039015", "operator_id": "jr_kyushu", "operator_ids": "jr_kyushu", "name_en": "熊本", "name_ja": "熊本", "label_rank": 72, "tags": ["tokyo", "v3"]}}]}