{"type": "FeatureCollection", "features": [{"type": "Feature", "bbox": [141.12168, 39.28054, 141.12356, 39.28386], "geometry": {"type": "LineString", "coordinates": [[141.12356, 39.28386], [141.12285, 39.28272], [141.12234, 39.28188], [141.12168, 39.28054]]}, "properties": {"id": "TRACK_TOKYO_2987", "line_name": "東北新幹線", "station_group_ids": [], "mode": "shinkansen", "operator_id": "jr_east", "line_color": "#2D9C5B", "tags": ["tokyo", "track_centerline"]}}, {"type": "Feature", "bbox": [141.18822, 39.14381, 141.18919, 39.14651], "geometry": {"type": "LineString", "coordinates": [[141.18919, 39.14381], [141.18822, 39.14651]]}, "properties": {"id": "TRACK_TOKYO_2988", "line_name": "東北新幹線", "station_group_ids": [], "mode": "shinkansen", "operator_id": "jr_east", "line_color": "#2D9C5B", "tags": ["tokyo", "track_centerline"]}}, {"type": "Feature", "bbox": [141.11195, 39.14651, 141.18822, 39.28054], "geometry": {"type": "LineString", "coordinates": [[141.12168, 39.28054], [141.1215, 39.28008], [141.12088, 39.27869], [141.12087, 39.27867], [141.12003, 39.27689], [141.11924, 39.2752], [141.11852, 39.27367], [141.11762, 39.27177], [141.11691, 39.27028], [141.11665, 39.26973], [141.11571, 39.26775], [141.11495, 39.26615], [141.11421, 39.26455], [141.1137, 39.26328], [141.11313, 39.2618], [141.11311, 39.26174], [141.11292, 39.26114], [141.1125, 39.25939], [141.11232, 39.25841], [141.11219, 39.2575], [141.11204, 39.256], [141.11199, 39.25516], [141.11195, 39.2537], [141.11195, 39.25287], [141.11237, 39.24933], [141.11245, 39.24888], [141.1127, 39.24711], [141.11311, 39.2457], [141.1137, 39.24399], [141.11376, 39.24384], [141.11418, 39.24253], [141.11474, 39.24126], [141.11578, 39.23927], [141.11699, 39.23715], [141.11728, 39.23673], [141.11814, 39.23546], [141.11944, 39.2338], [141.12065, 39.23248], [141.1215, 39.23167], [141.12266, 39.23044], [141.12557, 39.22743], [141.12824, 39.22462], [141.1283, 39.22455], [141.13131, 39.22147], [141.13388, 39.21882], [141.13517, 39.21748], [141.13667, 39.21593], [141.13992, 39.21253], [141.14201, 39.21039], [141.14254, 39.20984], [141.1448, 39.2075], [141.14709, 39.20514], [141.14886, 39.2033], [141.14895, 39.2032], [141.15182, 39.20027], [141.15363, 39.19834], [141.15539, 39.19656], [141.15571, 39.19621], [141.15714, 39.19472], [141.15974, 39.19201], [141.16212, 39.18956], [141.16255, 39.18912], [141.16428, 39.18733], [141.16669, 39.18482], [141.16931, 39.18214], [141.16941, 39.18204], [141.17104, 39.18035], [141.1739, 39.17738], [141.17523, 39.17589], [141.1761, 39.17485], [141.17611, 39.17483], [141.17679, 39.174], [141.17804, 39.17223], [141.17915, 39.17045], [141.17968, 39.16954], [141.17995, 39.16897], [141.18047, 39.16789], [141.18101, 39.16666], [141.18127, 39.16595], [141.18188, 39.16428], [141.18233, 39.16305], [141.18284, 39.16162], [141.18307, 39.16097], [141.18336, 39.16018], [141.18377, 39.15899], [141.18426, 39.15762], [141.18467, 39.15644], [141.1853, 39.15472], [141.18549, 39.15418], [141.18578, 39.15333], [141.18648, 39.15143], [141.18713, 39.14957], [141.18786, 39.14753], [141.18822, 39.14651]]}, "properties": {"id": "TRACK_TOKYO_2989", "line_name": "東北新幹線", "station_group_ids": [], "mode": "shinkansen", "operator_id": "jr_east", "line_color": "#2D9C5B", "tags": ["tokyo", "track_centerline"]}}, {"type": "Feature", "bbox": [141.13841, 38.92493, 141.13979, 38.92796], "geometry": {"type": "LineString", "coordinates": [[141.13841, 38.92493], [141.13979, 38.92796]]}, "properties": {"id": "TRACK_TOKYO_2995", "line_name": "東北新幹線", "station_group_ids": [], "mode": "shinkansen", "operator_id": "jr_east", "line_color": "#2D9C5B", "tags": ["tokyo", "track_centerline"]}}, {"type": "Feature", "bbox": [141.07251, 38.75052, 141.13841, 38.92493], "geometry": {"type": "LineString", "coordinates": [[141.07251, 38.75052], [141.07295, 38.75124], [141.07355, 38.75231], [141.07392, 38.75292], [141.07406, 38.75314], [141.07428, 38.75348], [141.07471, 38.75415], [141.07527, 38.75502], [141.0757, 38.75573], [141.07607, 38.75636], [141.07647, 38.75711], [141.07707, 38.75817], [141.07751, 38.75897], [141.07787, 38.75962], [141.07832, 38.76042], [141.07871, 38.76112], [141.0788, 38.76129], [141.07908, 38.7618], [141.0794, 38.76237], [141.07965, 38.7628], [141.07997, 38.76336], [141.08023, 38.76383], [141.08054, 38.76443], [141.08099, 38.76523], [141.08146, 38.76608], [141.08201, 38.76703], [141.08249, 38.76791], [141.08287, 38.76856], [141.08328, 38.76927], [141.0834, 38.76949], [141.08379, 38.7702], [141.08428, 38.77108], [141.08469, 38.7718], [141.08508, 38.7725], [141.08552, 38.77333], [141.08601, 38.77418], [141.08657, 38.77516], [141.0871, 38.77611], [141.0876, 38.77703], [141.088, 38.77769], [141.08805, 38.77778], [141.0885, 38.77862], [141.0889, 38.77937], [141.0892, 38.77993], [141.08954, 38.78058], [141.08984, 38.78115], [141.09019, 38.78185], [141.09054, 38.78259], [141.09085, 38.78331], [141.09114, 38.784], [141.09149, 38.78483], [141.09182, 38.78573], [141.09196, 38.7861], [141.09211, 38.78653], [141.09234, 38.78733], [141.09257, 38.78808], [141.09284, 38.78893], [141.09314, 38.78993], [141.09365, 38.79155], [141.094, 38.79272], [141.09435, 38.7939], [141.09453, 38.79457], [141.09473, 38.79529], [141.09521, 38.79683], [141.09556, 38.79804], [141.09603, 38.79981], [141.09641, 38.80119], [141.09681, 38.80255], [141.09704, 38.80335], [141.09714, 38.80371], [141.09754, 38.80509], [141.09769, 38.80563], [141.09778, 38.80595], [141.09793, 38.80653], [141.09811, 38.80714], [141.09835, 38.80795], [141.09848, 38.80837], [141.09871, 38.80914], [141.09907, 38.81035], [141.09917, 38.8107], [141.09933, 38.81123], [141.09956, 38.81201], [141.09989, 38.81316], [141.10004, 38.81368], [141.10061, 38.81561], [141.10068, 38.81583], [141.1009, 38.81663], [141.1014, 38.81827], [141.10146, 38.81848], [141.10188, 38.81997], [141.10206, 38.82059], [141.10229, 38.82133], [141.10262, 38.82246], [141.10286, 38.82329], [141.103, 38.82375], [141.10321, 38.82452], [141.10345, 38.82529], [141.10371, 38.82621], [141.10397, 38.82699], [141.10433, 38.82819], [141.10437, 38.82835], [141.10453, 38.82886], [141.10475, 38.82965], [141.10506, 38.83063], [141.10542, 38.83179], [141.10552, 38.83233], [141.10585, 38.83334], [141.10621, 38.83452], [141.10652, 38.83562], [141.10671, 38.83625], [141.10722, 38.83777], [141.10735, 38.83814], [141.10839, 38.8412], [141.10868, 38.84205], [141.10871, 38.84214], [141.11015, 38.84644], [141.11108, 38.84925], [141.11124, 38.84969], [141.11224, 38.85266], [141.1137, 38.85705], [141.11414, 38.85839], [141.11495, 38.86084], [141.11598, 38.86396], [141.116, 38.86401], [141.11624, 38.86474], [141.11699, 38.86694], [141.11834, 38.87084], [141.11837, 38.87093], [141.1196, 38.87453], [141.1205, 38.87713], [141.12136, 38.87953], [141.12139, 38.87961], [141.12151, 38.87992], [141.1216, 38.88007], [141.1217, 38.88032], [141.12177, 38.8805], [141.12231, 38.88192], [141.12289, 38.88336], [141.12297, 38.88355], [141.12378, 38.88561], [141.12452, 38.88736], [141.12537, 38.88939], [141.12643, 38.8919], [141.12715, 38.89359], [141.12795, 38.89561], [141.12814, 38.89608], [141.12832, 38.89664], [141.12868, 38.89799], [141.12917, 38.89977], [141.12928, 38.90015], [141.1297, 38.90167], [141.13041, 38.90426], [141.13101, 38.90637], [141.13176, 38.90894], [141.1321, 38.91002], [141.13214, 38.91017], [141.1322, 38.91036], [141.13223, 38.91047], [141.13263, 38.91165], [141.13299, 38.91265], [141.13363, 38.9141], [141.13371, 38.91427], [141.13505, 38.9173], [141.13513, 38.91752], [141.13557, 38.9185], [141.13571, 38.91885], [141.13592, 38.91932], [141.13604, 38.91957], [141.13628, 38.92012], [141.13655, 38.92074], [141.13685, 38.92136], [141.13839, 38.92488], [141.13841, 38.92493]]}, "properties": {"id": "TRACK_TOKYO_2996", "line_name": "東北新幹線", "station_group_ids": [], "mode": "shinkansen", "operator_id": "jr_east", "line_color": "#2D9C5B", "tags": ["tokyo", "track_centerline"]}}, {"type": "Feature", "bbox": [141.13979, 38.92796, 141.19694, 39.14381], "geometry": {"type": "LineString", "coordinates": [[141.13979, 38.92796], [141.13981, 38.92799], [141.1402, 38.9289], [141.14068, 38.92993], [141.1413, 38.9313], [141.14172, 38.93228], [141.1419, 38.93272], [141.14201, 38.93298], [141.14294, 38.9351], [141.1437, 38.93683], [141.14471, 38.93911], [141.14489, 38.93961], [141.14519, 38.9404], [141.14549, 38.94121], [141.14559, 38.94151], [141.14634, 38.94385], [141.14775, 38.94834], [141.14836, 38.95024], [141.14895, 38.95208], [141.1501, 38.95568], [141.15112, 38.95897], [141.15162, 38.96057], [141.15246, 38.96332], [141.15367, 38.9671], [141.15386, 38.96771], [141.15526, 38.97222], [141.15661, 38.97644], [141.15689, 38.97732], [141.15705, 38.9777], [141.15736, 38.97856], [141.15749, 38.9789], [141.15758, 38.97916], [141.15787, 38.97989], [141.15822, 38.98077], [141.15853, 38.98159], [141.1588, 38.98231], [141.15894, 38.98265], [141.15925, 38.98348], [141.15981, 38.98495], [141.16009, 38.98568], [141.16025, 38.98611], [141.16065, 38.98715], [141.16103, 38.98814], [141.16141, 38.9891], [141.16183, 38.9902], [141.16211, 38.99094], [141.16234, 38.99156], [141.16259, 38.99218], [141.16282, 38.99278], [141.16309, 38.99349], [141.1634, 38.99428], [141.16345, 38.99443], [141.16381, 38.99537], [141.164, 38.99589], [141.16434, 38.99672], [141.16456, 38.99728], [141.16491, 38.99818], [141.16513, 38.9988], [141.16547, 38.99969], [141.16579, 39.00047], [141.16615, 39.00139], [141.16643, 39.00212], [141.16666, 39.0029], [141.16751, 39.00492], [141.16893, 39.00858], [141.16927, 39.00943], [141.17111, 39.01418], [141.17224, 39.01719], [141.17249, 39.01786], [141.17259, 39.01811], [141.17473, 39.0236], [141.17594, 39.02671], [141.17626, 39.02754], [141.17788, 39.03166], [141.17927, 39.03531], [141.17977, 39.03662], [141.18177, 39.04173], [141.18262, 39.0439], [141.1833, 39.04565], [141.18374, 39.04682], [141.18517, 39.05047], [141.18572, 39.05197], [141.18593, 39.05251], [141.18671, 39.05447], [141.18719, 39.0557], [141.188, 39.05787], [141.18863, 39.05952], [141.18923, 39.06111], [141.18972, 39.06232], [141.18991, 39.0628], [141.19031, 39.06377], [141.19124, 39.06619], [141.19153, 39.06699], [141.192, 39.06825], [141.19247, 39.06942], [141.1935, 39.07202], [141.19445, 39.07454], [141.19467, 39.07508], [141.19486, 39.07554], [141.19493, 39.07571], [141.1952, 39.07642], [141.19541, 39.07696], [141.1955, 39.07719], [141.19622, 39.07957], [141.19657, 39.08113], [141.19678, 39.0821], [141.19687, 39.08306], [141.19694, 39.0839], [141.19692, 39.08501], [141.19693, 39.08585], [141.19694, 39.08622], [141.19693, 39.08646], [141.19688, 39.08737], [141.19684, 39.08826], [141.19682, 39.08865], [141.1968, 39.08919], [141.19673, 39.09053], [141.19668, 39.09152], [141.19663, 39.09273], [141.19657, 39.09332], [141.19657, 39.09334], [141.19653, 39.0937], [141.19639, 39.09513], [141.19627, 39.09639], [141.19616, 39.09763], [141.19607, 39.09871], [141.19593, 39.10005], [141.19581, 39.10136], [141.19573, 39.10233], [141.19567, 39.10291], [141.19563, 39.1033], [141.19548, 39.10505], [141.19542, 39.1058], [141.19535, 39.10648], [141.19527, 39.10735], [141.19513, 39.10883], [141.19506, 39.10952], [141.19504, 39.10982], [141.19501, 39.11028], [141.19492, 39.11121], [141.19488, 39.11168], [141.19484, 39.11211], [141.19477, 39.11296], [141.19471, 39.11348], [141.19463, 39.11431], [141.19459, 39.11473], [141.19451, 39.11555], [141.19442, 39.1166], [141.19435, 39.11741], [141.19423, 39.11877], [141.19421, 39.11918], [141.19417, 39.11957], [141.19413, 39.12011], [141.19407, 39.12068], [141.19402, 39.12107], [141.19396, 39.12188], [141.19384, 39.12332], [141.19367, 39.12528], [141.19363, 39.12572], [141.19354, 39.12658], [141.19352, 39.12703], [141.19344, 39.12769], [141.1934, 39.12817], [141.19336, 39.12879], [141.1933, 39.12937], [141.19325, 39.1298], [141.19318, 39.13047], [141.19317, 39.13071], [141.19314, 39.13091], [141.19312, 39.13118], [141.19309, 39.13144], [141.19304, 39.13168], [141.193, 39.132], [141.19283, 39.13277], [141.19277, 39.13304], [141.19265, 39.13351], [141.19256, 39.13396], [141.19228, 39.13489], [141.19207, 39.13572], [141.1916, 39.13703], [141.19111, 39.13842], [141.19053, 39.14005], [141.18998, 39.14154], [141.1896, 39.14264], [141.18919, 39.14381]]}, "properties": {"id": "TRACK_TOKYO_2997", "line_name": "東北新幹線", "station_group_ids": [], "mode": "shinkansen", "operator_id": "jr_east", "line_color": "#2D9C5B", "tags": ["tokyo", "track_centerline"]}}, {"type": "Feature", "bbox": [141.12101, 39.2804, 141.12183, 39.28242], "geometry": {"type": "LineString", "coordinates": [[141.12183, 39.28242], [141.1215, 39.28162], [141.12101, 39.2804]]}, "properties": {"id": "TRACK_TOKYO_3030", "line_name": "東北線", "station_group_ids": [], "mode": "rail", "operator_id": "jr_east", "line_color": "#3AA76D", "tags": ["tokyo", "track_centerline"]}}, {"type": "Feature", "bbox": [141.11355, 39.14058, 141.1463, 39.19845], "geometry": {"type": "LineString", "coordinates": [[141.1463, 39.14058], [141.14629, 39.14125], [141.14628, 39.14153], [141.14625, 39.14307], [141.14625, 39.14395], [141.14624, 39.14434], [141.14623, 39.14507], [141.14621, 39.14631], [141.14621, 39.14725], [141.14618, 39.14798], [141.14609, 39.14868], [141.14595, 39.14971], [141.14589, 39.15023], [141.14574, 39.15101], [141.14553, 39.1518], [141.14526, 39.1527], [141.14512, 39.15317], [141.14501, 39.15351], [141.1447, 39.15439], [141.14444, 39.15506], [141.1439, 39.15616], [141.14343, 39.15718], [141.14308, 39.15787], [141.1426, 39.15863], [141.14174, 39.16005], [141.14086, 39.16147], [141.14074, 39.16167], [141.14005, 39.16281], [141.13931, 39.164], [141.13869, 39.16504], [141.13825, 39.16575], [141.13718, 39.16749], [141.13645, 39.16865], [141.13594, 39.16954], [141.13578, 39.1698], [141.13432, 39.17216], [141.13177, 39.17636], [141.13086, 39.17788], [141.13081, 39.17797], [141.12799, 39.18272], [141.12666, 39.1849], [141.12498, 39.18765], [141.12475, 39.18802], [141.12413, 39.18903], [141.12351, 39.18966], [141.12297, 39.19007], [141.12226, 39.1905], [141.1215, 39.19091], [141.12124, 39.19103], [141.12017, 39.19156], [141.11952, 39.19189], [141.11893, 39.19219], [141.11846, 39.19247], [141.11782, 39.19287], [141.11713, 39.19339], [141.11661, 39.19382], [141.11598, 39.19447], [141.11541, 39.19518], [141.11507, 39.19561], [141.11355, 39.19845]]}, "properties": {"id": "TRACK_TOKYO_3035", "line_name": "東北線", "station_group_ids": [], "mode": "rail", "operator_id": "jr_east", "line_color": "#3AA76D", "tags": ["tokyo", "track_centerline"]}}, {"type": "Feature", "bbox": [141.11233, 39.19845, 141.11355, 39.20072], "geometry": {"type": "LineString", "coordinates": [[141.11355, 39.19845], [141.11233, 39.20072]]}, "properties": {"id": "TRACK_TOKYO_3039", "line_name": "東北線", "station_group_ids": [], "mode": "rail", "operator_id": "jr_east", "line_color": "#3AA76D", "tags": ["tokyo", "track_centerline"]}}, {"type": "Feature", "bbox": [141.09828, 39.20072, 141.11233, 39.22693], "geometry": {"type": "LineString", "coordinates": [[141.11233, 39.20072], [141.11186, 39.20161], [141.11037, 39.20441], [141.11022, 39.20469], [141.11008, 39.20493], [141.1099, 39.20528], [141.1098, 39.20547], [141.10958, 39.20588], [141.10902, 39.20691], [141.10789, 39.20901], [141.10709, 39.21054], [141.10602, 39.21246], [141.10432, 39.21561], [141.10134, 39.22119], [141.10089, 39.22207], [141.1001, 39.22357], [141.09928, 39.22508], [141.09828, 39.22693]]}, "properties": {"id": "TRACK_TOKYO_3040", "line_name": "東北線", "station_group_ids": [], "mode": "rail", "operator_id": "jr_east", "line_color": "#3AA76D", "tags": ["tokyo", "track_centerline"]}}, {"type": "Feature", "bbox": [141.09734, 39.22693, 141.09828, 39.22872], "geometry": {"type": "LineString", "coordinates": [[141.09828, 39.22693], [141.09734, 39.22872]]}, "properties": {"id": "TRACK_TOKYO_3042", "line_name": "東北線", "station_group_ids": [], "mode": "rail", "operator_id": "jr_east", "line_color": "#3AA76D", "tags": ["tokyo", "track_centerline"]}}, {"type": "Feature", "bbox": [141.0966, 39.22872, 141.12101, 39.2804], "geometry": {"type": "LineString", "coordinates": [[141.12101, 39.2804], [141.12015, 39.27849], [141.11995, 39.27803], [141.11871, 39.27527], [141.11717, 39.27188], [141.11703, 39.27158], [141.11677, 39.27101], [141.11662, 39.27067], [141.11577, 39.2688], [141.11563, 39.26849], [141.1153, 39.26775], [141.11495, 39.267], [141.11457, 39.26622], [141.11415, 39.26548], [141.11398, 39.26521], [141.11386, 39.26504], [141.11294, 39.26378], [141.11179, 39.26225], [141.11098, 39.26121], [141.11051, 39.26057], [141.10901, 39.25855], [141.10725, 39.25623], [141.10679, 39.25562], [141.1062, 39.25482], [141.10554, 39.25393], [141.10508, 39.25333], [141.10475, 39.25287], [141.10403, 39.25183], [141.10309, 39.25048], [141.10228, 39.24932], [141.10185, 39.24856], [141.1014, 39.24763], [141.10094, 39.24649], [141.10067, 39.24573], [141.10025, 39.24467], [141.09963, 39.24313], [141.09897, 39.24142], [141.09844, 39.23991], [141.09827, 39.23931], [141.09762, 39.23709], [141.09709, 39.2351], [141.09682, 39.23404], [141.09668, 39.23333], [141.09663, 39.23292], [141.0966, 39.23225], [141.09663, 39.23135], [141.09675, 39.23044], [141.09675, 39.23042], [141.09703, 39.22938], [141.09713, 39.22916], [141.09734, 39.22872]]}, "properties": {"id": "TRACK_TOKYO_3046", "line_name": "東北線", "station_group_ids": [], "mode": "rail", "operator_id": "jr_east", "line_color": "#3AA76D", "tags": ["tokyo", "track_centerline"]}}, {"type": "Feature", "bbox": [141.14057, 39.09296, 141.14131, 39.095], "geometry": {"type": "LineString", "coordinates": [[141.14057, 39.09296], [141.14087, 39.09377], [141.14131, 39.095]]}, "properties": {"id": "TRACK_TOKYO_3048", "line_name": "東北線", "station_group_ids": [], "mode": "rail", "operator_id": "jr_east", "line_color": "#3AA76D", "tags": ["tokyo", "track_centerline"]}}, {"type": "Feature", "bbox": [141.14131, 39.095, 141.14666, 39.13788], "geometry": {"type": "LineString", "coordinates": [[141.14131, 39.095], [141.14158, 39.09573], [141.14201, 39.09691], [141.14221, 39.0975], [141.14285, 39.09922], [141.14381, 39.10185], [141.14391, 39.1021], [141.14437, 39.10332], [141.14516, 39.10547], [141.14573, 39.10721], [141.1461, 39.1084], [141.14634, 39.10937], [141.14648, 39.11033], [141.14654, 39.11084], [141.14662, 39.11158], [141.14666, 39.11238], [141.14663, 39.11464], [141.14659, 39.11667], [141.14658, 39.11818], [141.14655, 39.11985], [141.14655, 39.12019], [141.14652, 39.12273], [141.1465, 39.12426], [141.14649, 39.12555], [141.14646, 39.12745], [141.14647, 39.12816], [141.14646, 39.12886], [141.14645, 39.1303], [141.14642, 39.13257], [141.14638, 39.13466], [141.14636, 39.13639], [141.14634, 39.13788]]}, "properties": {"id": "TRACK_TOKYO_3050", "line_name": "東北線", "station_group_ids": [], "mode": "rail", "operator_id": "jr_east", "line_color": "#3AA76D", "tags": ["tokyo", "track_centerline"]}}, {"type": "Feature", "bbox": [141.1463, 39.13788, 141.14634, 39.14058], "geometry": {"type": "LineString", "coordinates": [[141.14634, 39.13788], [141.1463, 39.14058]]}, "properties": {"id": "TRACK_TOKYO_3057", "line_name": "東北線", "station_group_ids": [], "mode": "rail", "operator_id": "jr_east", "line_color": "#3AA76D", "tags": ["tokyo", "track_centerline"]}}, {"type": "Feature", "bbox": [141.15759, 38.83427, 141.17948, 38.85449], "geometry": {"type": "LineString", "coordinates": [[141.15759, 38.85449], [141.15778, 38.85441], [141.15821, 38.85424], [141.15892, 38.8539], [141.16023, 38.85323], [141.16176, 38.85249], [141.16218, 38.85227], [141.16252, 38.85205], [141.16263, 38.85198], [141.16293, 38.85173], [141.16392, 38.85078], [141.16539, 38.8494], [141.16664, 38.84822], [141.1684, 38.84653], [141.16977, 38.84524], [141.17, 38.84501], [141.17105, 38.844], [141.17307, 38.84207], [141.17417, 38.84103], [141.17477, 38.84045], [141.17572, 38.83956], [141.17649, 38.83884], [141.17692, 38.83841], [141.1772, 38.83808], [141.17739, 38.83777], [141.17756, 38.8375], [141.17784, 38.83702], [141.1783, 38.83625], [141.17948, 38.83427]]}, "properties": {"id": "TRACK_TOKYO_3063", "line_name": "東北線", "station_group_ids": [], "mode": "rail", "operator_id": "jr_east", "line_color": "#3AA76D", "tags": ["tokyo", "track_centerline"]}}, {"type": "Feature", "bbox": [141.15865, 38.76803, 141.15967, 38.76962], "geometry": {"type": "LineString", "coordinates": [[141.15967, 38.76962], [141.15865, 38.76803]]}, "properties": {"id": "TRACK_TOKYO_3068", "line_name": "東北線", "station_group_ids": [], "mode": "rail", "operator_id": "jr_east", "line_color": "#3AA76D", "tags": ["tokyo", "track_centerline"]}}, {"type": "Feature", "bbox": [141.13716, 38.92434, 141.1376, 38.92538], "geometry": {"type": "LineString", "coordinates": [[141.13716, 38.92434], [141.13743, 38.92498], [141.1376, 38.92538]]}, "properties": {"id": "TRACK_TOKYO_3069", "line_name": "東北線", "station_group_ids": [], "mode": "rail", "operator_id": "jr_east", "line_color": "#3AA76D", "tags": ["tokyo", "track_centerline"]}}, {"type": "Feature", "bbox": [141.12098, 38.89344, 141.13716, 38.92434], "geometry": {"type": "LineString", "coordinates": [[141.12098, 38.89344], [141.12151, 38.8939], [141.12198, 38.89427], [141.12264, 38.89475], [141.12322, 38.89516], [141.12382, 38.89555], [141.12448, 38.89594], [141.12567, 38.89662], [141.12578, 38.8967], [141.12607, 38.89687], [141.12648, 38.89714], [141.12707, 38.89764], [141.12746, 38.89802], [141.12779, 38.89839], [141.12795, 38.89863], [141.12807, 38.89891], [141.12818, 38.8992], [141.12832, 38.89976], [141.12913, 38.90264], [141.12961, 38.90434], [141.12972, 38.90484], [141.12974, 38.90506], [141.12974, 38.90568], [141.12956, 38.90871], [141.12949, 38.9098], [141.12953, 38.91013], [141.1296, 38.91046], [141.12971, 38.91071], [141.13022, 38.91153], [141.13105, 38.91284], [141.13145, 38.91347], [141.13175, 38.91392], [141.13248, 38.91509], [141.1331, 38.91606], [141.13348, 38.91666], [141.13371, 38.91704], [141.13448, 38.91829], [141.13483, 38.9189], [141.135, 38.91926], [141.13511, 38.91957], [141.13525, 38.91986], [141.13556, 38.92058], [141.136, 38.92163], [141.13635, 38.92248], [141.13674, 38.92341], [141.1369, 38.92376], [141.13716, 38.92434]]}, "properties": {"id": "TRACK_TOKYO_3070", "line_name": "東北線", "station_group_ids": [], "mode": "rail", "operator_id": "jr_east", "line_color": "#3AA76D", "tags": ["tokyo", "track_centerline"]}}, {"type": "Feature", "bbox": [141.12615, 39.04816, 141.12635, 39.05039], "geometry": {"type": "LineString", "coordinates": [[141.12615, 39.04816], [141.12619, 39.04854], [141.1263, 39.04988], [141.12635, 39.05039]]}, "properties": {"id": "TRACK_TOKYO_3072", "line_name": "東北線", "station_group_ids": [], "mode": "rail", "operator_id": "jr_east", "line_color": "#3AA76D", "tags": ["tokyo", "track_centerline"]}}, {"type": "Feature", "bbox": [141.10949, 38.98894, 141.12989, 39.04816], "geometry": {"type": "LineString", "coordinates": [[141.11739, 38.98894], [141.11676, 38.99034], [141.11613, 38.9915], [141.11588, 38.99186], [141.11544, 38.99237], [141.11471, 38.99312], [141.11425, 38.99359], [141.11297, 38.9949], [141.112, 38.99588], [141.11144, 38.99648], [141.11063, 38.99734], [141.11026, 38.99777], [141.11, 38.99821], [141.10975, 38.99877], [141.10961, 38.99925], [141.10953, 38.99967], [141.10951, 39.00002], [141.10949, 39.00019], [141.1095, 39.00056], [141.1096, 39.00109], [141.10973, 39.00156], [141.10985, 39.00197], [141.11003, 39.00239], [141.1102, 39.00271], [141.11029, 39.00289], [141.111, 39.00417], [141.11156, 39.0051], [141.11161, 39.00518], [141.11162, 39.0052], [141.11212, 39.00609], [141.11215, 39.00614], [141.11291, 39.00751], [141.11335, 39.00813], [141.11367, 39.00853], [141.11405, 39.00894], [141.11442, 39.00928], [141.11498, 39.00973], [141.11556, 39.01015], [141.11643, 39.01081], [141.11752, 39.0116], [141.11927, 39.0129], [141.11957, 39.01312], [141.12151, 39.01455], [141.12183, 39.01481], [141.12189, 39.01486], [141.12214, 39.01504], [141.12344, 39.01598], [141.12507, 39.01718], [141.12641, 39.01818], [141.12758, 39.01903], [141.12799, 39.01939], [141.12834, 39.01975], [141.12864, 39.02014], [141.12891, 39.02057], [141.12923, 39.02113], [141.12948, 39.02159], [141.12955, 39.02189], [141.12971, 39.02243], [141.12984, 39.02301], [141.12989, 39.0235], [141.12989, 39.02393], [141.12986, 39.0244], [141.12983, 39.02465], [141.12983, 39.02471], [141.12981, 39.02485], [141.12979, 39.02501], [141.12964, 39.02558], [141.12949, 39.02597], [141.12933, 39.02636], [141.12902, 39.027], [141.12865, 39.02773], [141.12841, 39.02818], [141.12833, 39.0284], [141.12668, 39.03169], [141.12553, 39.03408], [141.12531, 39.03463], [141.12523, 39.03483], [141.12506, 39.03552], [141.12503, 39.03586], [141.12502, 39.03634], [141.12507, 39.03699], [141.12518, 39.03817], [141.12535, 39.0394], [141.12543, 39.04054], [141.12556, 39.04218], [141.1257, 39.0436], [141.12588, 39.0453], [141.12604, 39.04703], [141.12615, 39.04816]]}, "properties": {"id": "TRACK_TOKYO_3073", "line_name": "東北線", "station_group_ids": [], "mode": "rail", "operator_id": "jr_east", "line_color": "#3AA76D", "tags": ["tokyo", "track_centerline"]}}, {"type": "Feature", "bbox": [141.1376, 38.92538, 141.13868, 38.92784], "geometry": {"type": "LineString", "coordinates": [[141.1376, 38.92538], [141.13868, 38.92784]]}, "properties": {"id": "TRACK_TOKYO_3074", "line_name": "東北線", "station_group_ids": [], "mode": "rail", "operator_id": "jr_east", "line_color": "#3AA76D", "tags": ["tokyo", "track_centerline"]}}, {"type": "Feature", "bbox": [141.17948, 38.83246, 141.18055, 38.83427], "geometry": {"type": "LineString", "coordinates": [[141.17948, 38.83427], [141.18055, 38.83246]]}, "properties": {"id": "TRACK_TOKYO_3075", "line_name": "東北線", "station_group_ids": [], "mode": "rail", "operator_id": "jr_east", "line_color": "#3AA76D", "tags": ["tokyo", "track_centerline"]}}, {"type": "Feature", "bbox": [141.13235, 38.92784, 141.13957, 38.95034], "geometry": {"type": "LineString", "coordinates": [[141.13868, 38.92784], [141.13894, 38.92843], [141.13915, 38.92895], [141.13932, 38.92943], [141.1394, 38.92968], [141.1395, 38.93006], [141.13957, 38.93057], [141.13957, 38.93099], [141.13957, 38.93115], [141.13952, 38.93153], [141.13945, 38.93191], [141.13935, 38.93226], [141.13914, 38.93286], [141.13893, 38.93335], [141.1386, 38.93414], [141.13823, 38.93507], [141.13781, 38.93623], [141.13722, 38.93773], [141.13691, 38.93856], [141.13661, 38.93926], [141.13615, 38.94039], [141.13563, 38.94177], [141.13525, 38.94271], [141.13481, 38.94387], [141.13446, 38.94482], [141.1337, 38.94676], [141.13333, 38.94772], [141.13235, 38.95034]]}, "properties": {"id": "TRACK_TOKYO_3077", "line_name": "東北線", "station_group_ids": [], "mode": "rail", "operator_id": "jr_east", "line_color": "#3AA76D", "tags": ["tokyo", "track_centerline"]}}, {"type": "Feature", "bbox": [141.1206, 38.71233, 141.15865, 38.76803], "geometry": {"type": "LineString", "coordinates": [[141.15865, 38.76803], [141.15797, 38.76696], [141.1578, 38.7667], [141.15664, 38.76492], [141.15488, 38.76225], [141.1528, 38.75904], [141.1526, 38.75873], [141.15132, 38.75674], [141.14941, 38.75373], [141.1491, 38.75333], [141.14877, 38.75292], [141.14871, 38.75283], [141.14863, 38.75274], [141.14848, 38.75259], [141.14769, 38.75188], [141.14759, 38.75179], [141.14594, 38.75033], [141.14507, 38.74953], [141.14479, 38.74923], [141.14456, 38.74889], [141.14426, 38.74833], [141.14403, 38.74785], [141.14391, 38.74758], [141.14096, 38.74087], [141.14075, 38.74038], [141.14035, 38.73945], [141.13856, 38.73536], [141.13819, 38.73452], [141.13644, 38.73053], [141.13511, 38.72753], [141.13498, 38.72724], [141.13466, 38.72651], [141.13323, 38.72328], [141.13302, 38.72286], [141.13273, 38.72233], [141.13252, 38.72199], [141.13103, 38.71993], [141.1304, 38.71908], [141.13032, 38.71898], [141.13018, 38.71879], [141.12971, 38.71813], [141.12886, 38.71693], [141.12852, 38.71653], [141.12809, 38.71607], [141.12765, 38.71566], [141.12726, 38.71532], [141.12687, 38.71509], [141.12627, 38.71477], [141.12563, 38.71447], [141.12352, 38.71363], [141.12152, 38.71279], [141.12124, 38.71264], [141.12102, 38.71253], [141.12076, 38.71241], [141.1206, 38.71233]]}, "properties": {"id": "TRACK_TOKYO_3078", "line_name": "東北線", "station_group_ids": [], "mode": "rail", "operator_id": "jr_east", "line_color": "#3AA76D", "tags": ["tokyo", "track_centerline"]}}, {"type": "Feature", "bbox": [141.1159, 38.86799, 141.1195, 38.87486], "geometry": {"type": "LineString", "coordinates": [[141.1161, 38.87486], [141.11606, 38.87451], [141.1159, 38.87271], [141.1159, 38.87241], [141.11593, 38.87206], [141.1161, 38.87153], [141.11642, 38.87074], [141.11661, 38.87035], [141.11699, 38.86983], [141.1173, 38.86948], [141.1174, 38.86938], [141.11751, 38.86928], [141.11794, 38.86887], [141.11852, 38.86848], [141.1195, 38.86799]]}, "properties": {"id": "TRACK_TOKYO_3079", "line_name": "東北線", "station_group_ids": [], "mode": "rail", "operator_id": "jr_east", "line_color": "#3AA76D", "tags": ["tokyo", "track_centerline"]}}, {"type": "Feature", "bbox": [141.11739, 38.98683, 141.11824, 38.98894], "geometry": {"type": "LineString", "coordinates": [[141.11739, 38.98894], [141.11779, 38.98794], [141.11824, 38.98683]]}, "properties": {"id": "TRACK_TOKYO_3083", "line_name": "東北線", "station_group_ids": [], "mode": "rail", "operator_id": "jr_east", "line_color": "#3AA76D", "tags": ["tokyo", "track_centerline"]}}, {"type": "Feature", "bbox": [141.1161, 38.87486, 141.12098, 38.89344], "geometry": {"type": "LineString", "coordinates": [[141.1161, 38.87486], [141.11613, 38.87517], [141.11616, 38.87557], [141.11624, 38.87631], [141.11633, 38.87707], [141.11652, 38.879], [141.11659, 38.87987], [141.11667, 38.88088], [141.11685, 38.88326], [141.11701, 38.88525], [141.11715, 38.88679], [141.11718, 38.8876], [141.11722, 38.88801], [141.11727, 38.88835], [141.11729, 38.88841], [141.11742, 38.88912], [141.1175, 38.88948], [141.11768, 38.88994], [141.11795, 38.89036], [141.11838, 38.89091], [141.11895, 38.89151], [141.11994, 38.89248], [141.12048, 38.89299], [141.12098, 38.89344]]}, "properties": {"id": "TRACK_TOKYO_3084", "line_name": "東北線", "station_group_ids": [], "mode": "rail", "operator_id": "jr_east", "line_color": "#3AA76D", "tags": ["tokyo", "track_centerline"]}}, {"type": "Feature", "bbox": [141.1161, 38.87486, 141.12098, 38.89344], "geometry": {"type": "LineString", "coordinates": [[141.1161, 38.87486], [141.11659, 38.87659], [141.11724, 38.87955], [141.11745, 38.88052], [141.11758, 38.88117], [141.11787, 38.88257], [141.11843, 38.88518], [141.11875, 38.88671], [141.11927, 38.88928], [141.1194, 38.88989], [141.11952, 38.89042], [141.11976, 38.89128], [141.11992, 38.8917], [141.12021, 38.89228], [141.12054, 38.89283], [141.12098, 38.89344]]}, "properties": {"id": "TRACK_TOKYO_3085", "line_name": "東北線", "station_group_ids": [], "mode": "rail", "operator_id": "jr_east", "line_color": "#3AA76D", "tags": ["tokyo", "track_centerline"]}}, {"type": "Feature", "bbox": [141.17592, 38.79773, 141.18392, 38.83246], "geometry": {"type": "LineString", "coordinates": [[141.18055, 38.83246], [141.18172, 38.83037], [141.18221, 38.82958], [141.18295, 38.82847], [141.18353, 38.82754], [141.18369, 38.82723], [141.18384, 38.82672], [141.18388, 38.8264], [141.18392, 38.82562], [141.18392, 38.82537], [141.18391, 38.82514], [141.18386, 38.82485], [141.18379, 38.82457], [141.18358, 38.82377], [141.18282, 38.82081], [141.18257, 38.81984], [141.18139, 38.81544], [141.18045, 38.812], [141.18032, 38.81153], [141.17939, 38.80859], [141.17839, 38.80547], [141.17768, 38.80327], [141.17719, 38.80178], [141.17592, 38.79773]]}, "properties": {"id": "TRACK_TOKYO_3090", "line_name": "東北線", "station_group_ids": [], "mode": "rail", "operator_id": "jr_east", "line_color": "#3AA76D", "tags": ["tokyo", "track_centerline"]}}, {"type": "Feature", "bbox": [141.1195, 38.86689, 141.12229, 38.86799], "geometry": {"type": "LineString", "coordinates": [[141.1195, 38.86799], [141.12151, 38.86717], [141.12229, 38.86689]]}, "properties": {"id": "TRACK_TOKYO_3092", "line_name": "東北線", "station_group_ids": [], "mode": "rail", "operator_id": "jr_east", "line_color": "#3AA76D", "tags": ["tokyo", "track_centerline"]}}, {"type": "Feature", "bbox": [141.12635, 39.05039, 141.14057, 39.09296], "geometry": {"type": "LineString", "coordinates": [[141.12635, 39.05039], [141.12649, 39.05168], [141.12666, 39.05335], [141.12681, 39.05464], [141.12686, 39.05501], [141.12691, 39.05548], [141.12711, 39.05679], [141.1272, 39.05722], [141.12725, 39.05745], [141.12755, 39.05838], [141.12818, 39.06], [141.12846, 39.06073], [141.12858, 39.06106], [141.12885, 39.06179], [141.12939, 39.06324], [141.12962, 39.06385], [141.13023, 39.06553], [141.13038, 39.06591], [141.1311, 39.06779], [141.13132, 39.06835], [141.13284, 39.07236], [141.13393, 39.07524], [141.13457, 39.07694], [141.13478, 39.07749], [141.13514, 39.07848], [141.13556, 39.0795], [141.136, 39.0807], [141.1364, 39.08178], [141.1368, 39.08284], [141.13688, 39.08305], [141.13718, 39.08382], [141.13749, 39.08464], [141.13775, 39.08532], [141.13789, 39.08568], [141.13807, 39.08622], [141.13832, 39.08687], [141.13879, 39.08813], [141.13968, 39.09051], [141.1398, 39.09085], [141.14018, 39.09186], [141.14057, 39.09296]]}, "properties": {"id": "TRACK_TOKYO_3093", "line_name": "東北線", "station_group_ids": [], "mode": "rail", "operator_id": "jr_east", "line_color": "#3AA76D", "tags": ["tokyo", "track_centerline"]}}, {"type": "Feature", "bbox": [141.15525, 38.85449, 141.15759, 38.85531], "geometry": {"type": "LineString", "coordinates": [[141.15525, 38.85531], [141.15568, 38.85521], [141.15618, 38.85506], [141.15673, 38.85486], [141.15728, 38.85463], [141.15759, 38.85449]]}, "properties": {"id": "TRACK_TOKYO_3094", "line_name": "東北線", "station_group_ids": [], "mode": "rail", "operator_id": "jr_east", "line_color": "#3AA76D", "tags": ["tokyo", "track_centerline"]}}, {"type": "Feature", "bbox": [141.13159, 38.95034, 141.13235, 38.95231], "geometry": {"type": "LineString", "coordinates": [[141.13235, 38.95034], [141.13159, 38.95231]]}, "properties": {"id": "TRACK_TOKYO_3095", "line_name": "東北線", "station_group_ids": [], "mode": "rail", "operator_id": "jr_east", "line_color": "#3AA76D", "tags": ["tokyo", "track_centerline"]}}, {"type": "Feature", "bbox": [141.12229, 38.85531, 141.15525, 38.86689], "geometry": {"type": "LineString", "coordinates": [[141.12229, 38.86689], [141.12365, 38.86638], [141.12413, 38.8662], [141.12513, 38.86581], [141.12589, 38.86551], [141.12623, 38.86532], [141.12649, 38.86516], [141.12755, 38.86444], [141.12924, 38.86327], [141.13127, 38.86187], [141.13296, 38.86073], [141.13368, 38.86033], [141.13436, 38.86008], [141.135, 38.8599], [141.13567, 38.85971], [141.13716, 38.85936], [141.13864, 38.85904], [141.14124, 38.85846], [141.14342, 38.85797], [141.14474, 38.85766], [141.14612, 38.85735], [141.14702, 38.85715], [141.14819, 38.85689], [141.1485, 38.85682], [141.15033, 38.85641], [141.15216, 38.85601], [141.15344, 38.85571], [141.15525, 38.85531]]}, "properties": {"id": "TRACK_TOKYO_3096", "line_name": "東北線", "station_group_ids": [], "mode": "rail", "operator_id": "jr_east", "line_color": "#3AA76D", "tags": ["tokyo", "track_centerline"]}}, {"type": "Feature", "bbox": [141.11824, 38.95231, 141.13159, 38.98683], "geometry": {"type": "LineString", "coordinates": [[141.13159, 38.95231], [141.13117, 38.95331], [141.13082, 38.95424], [141.13066, 38.95463], [141.13039, 38.95538], [141.12997, 38.95642], [141.12981, 38.95686], [141.12942, 38.9579], [141.1292, 38.95849], [141.12883, 38.95948], [141.12829, 38.96082], [141.1276, 38.96259], [141.12699, 38.96419], [141.12649, 38.96543], [141.12594, 38.96686], [141.12581, 38.96717], [141.12557, 38.96775], [141.12534, 38.96829], [141.12489, 38.96943], [141.12453, 38.97043], [141.12428, 38.9711], [141.1239, 38.97207], [141.12345, 38.97327], [141.12332, 38.97361], [141.1225, 38.97569], [141.12151, 38.97828], [141.12141, 38.97851], [141.12096, 38.97963], [141.12086, 38.97989], [141.12023, 38.98149], [141.11916, 38.98432], [141.11883, 38.98521], [141.11866, 38.98565], [141.11824, 38.98683]]}, "properties": {"id": "TRACK_TOKYO_3097", "line_name": "東北線", "station_group_ids": [], "mode": "rail", "operator_id": "jr_east", "line_color": "#3AA76D", "tags": ["tokyo", "track_centerline"]}}, {"type": "Feature", "bbox": [141.17552, 38.79648, 141.17592, 38.79773], "geometry": {"type": "LineString", "coordinates": [[141.17592, 38.79773], [141.17552, 38.79648]]}, "properties": {"id": "TRACK_TOKYO_3098", "line_name": "東北線", "station_group_ids": [], "mode": "rail", "operator_id": "jr_east", "line_color": "#3AA76D", "tags": ["tokyo", "track_centerline"]}}, {"type": "Feature", "bbox": [141.15967, 38.76962, 141.17552, 38.79648], "geometry": {"type": "LineString", "coordinates": [[141.17552, 38.79648], [141.17545, 38.79626], [141.17487, 38.79448], [141.17369, 38.79075], [141.17326, 38.78939], [141.17284, 38.7879], [141.17272, 38.7876], [141.17269, 38.78753], [141.17258, 38.78729], [141.17228, 38.7868], [141.17159, 38.78591], [141.17038, 38.78444], [141.16855, 38.78233], [141.16659, 38.78002], [141.16623, 38.7796], [141.16605, 38.77939], [141.16594, 38.77928], [141.16481, 38.7776], [141.16466, 38.77738], [141.16164, 38.77277], [141.15967, 38.76962]]}, "properties": {"id": "TRACK_TOKYO_3099", "line_name": "東北線", "station_group_ids": [], "mode": "rail", "operator_id": "jr_east", "line_color": "#3AA76D", "tags": ["tokyo", "track_centerline"]}}]}