{"type": "FeatureCollection", "features": [{"type": "Feature", "bbox": [140.96953, 37.70218, 140.97063, 37.70349], "geometry": {"type": "LineString", "coordinates": [[140.96953, 37.70349], [140.97063, 37.70218]]}, "properties": {"id": "TRACK_TOKYO_2331", "line_name": "常磐線", "station_group_ids": [], "mode": "rail", "operator_id": "jr_east", "line_color": "#22A6B3", "tags": ["tokyo", "track_centerline"]}}, {"type": "Feature", "bbox": [140.93506, 37.70349, 140.96953, 37.75566], "geometry": {"type": "LineString", "coordinates": [[140.93506, 37.75566], [140.93638, 37.7541], [140.93715, 37.75303], [140.93757, 37.75237], [140.93793, 37.75178], [140.93832, 37.75114], [140.93865, 37.7506], [140.93888, 37.75023], [140.93964, 37.74914], [140.94042, 37.74804], [140.9415, 37.74667], [140.94243, 37.74546], [140.94286, 37.74491], [140.94338, 37.74423], [140.94355, 37.74401], [140.9439, 37.74354], [140.94526, 37.74176], [140.94577, 37.7411], [140.94714, 37.73932], [140.9473, 37.73913], [140.94818, 37.73797], [140.94861, 37.73739], [140.94902, 37.73686], [140.94915, 37.73667], [140.94925, 37.73652], [140.94945, 37.7362], [140.94959, 37.73597], [140.94973, 37.7357], [140.94988, 37.73535], [140.95001, 37.73498], [140.95007, 37.73477], [140.95013, 37.73439], [140.95053, 37.73194], [140.95096, 37.72953], [140.95098, 37.72939], [140.9511, 37.72873], [140.95118, 37.72834], [140.95127, 37.72806], [140.95133, 37.72788], [140.95148, 37.72742], [140.95164, 37.72707], [140.95179, 37.72674], [140.95193, 37.72646], [140.95277, 37.72471], [140.95283, 37.72457], [140.95313, 37.72388], [140.95344, 37.72315], [140.9536, 37.7228], [140.95388, 37.72227], [140.95406, 37.72199], [140.95428, 37.72167], [140.95442, 37.72147], [140.95575, 37.71987], [140.95588, 37.71972], [140.95779, 37.71744], [140.95981, 37.71503], [140.96188, 37.71256], [140.96212, 37.71227], [140.96391, 37.71013], [140.96595, 37.70768], [140.96655, 37.70698], [140.96733, 37.70605], [140.968, 37.70524], [140.96837, 37.70482], [140.96849, 37.70467], [140.96926, 37.70381], [140.96953, 37.70349]]}, "properties": {"id": "TRACK_TOKYO_2346", "line_name": "常磐線", "station_group_ids": [], "mode": "rail", "operator_id": "jr_east", "line_color": "#22A6B3", "tags": ["tokyo", "track_centerline"]}}, {"type": "Feature", "bbox": [141.0073805989582, 37.24077448437496, 141.00775531337518, 37.24274025130564], "geometry": {"type": "LineString", "coordinates": [[141.00775531337518, 37.24270250214475], [141.0073805989582, 37.24077448437496], [141.0074767506014, 37.24274025130564]]}, "properties": {"id": "TRACK_TOKYO_2352", "line_name": "常磐線", "station_group_ids": [], "mode": "rail", "operator_id": "jr_east", "line_color": "#22A6B3", "tags": ["tokyo", "track_centerline"]}}, {"type": "Feature", "bbox": [141.00214, 37.25758, 141.00292, 37.2584], "geometry": {"type": "LineString", "coordinates": [[141.00292, 37.25758], [141.00214, 37.2584]]}, "properties": {"id": "TRACK_TOKYO_2353", "line_name": "常磐線", "station_group_ids": [], "mode": "rail", "operator_id": "jr_east", "line_color": "#22A6B3", "tags": ["tokyo", "track_centerline"]}}, {"type": "Feature", "bbox": [140.974, 37.49289, 140.9885, 37.52833], "geometry": {"type": "LineString", "coordinates": [[140.9885, 37.49289], [140.98774, 37.49329], [140.98689, 37.49373], [140.98624, 37.49409], [140.98513, 37.49473], [140.9845, 37.49513], [140.98397, 37.49554], [140.98375, 37.49578], [140.98352, 37.49602], [140.98302, 37.49661], [140.98247, 37.49738], [140.98186, 37.49836], [140.98125, 37.49932], [140.98106, 37.49962], [140.97932, 37.50238], [140.97917, 37.50261], [140.97888, 37.50305], [140.97828, 37.50401], [140.97796, 37.5045], [140.97772, 37.50488], [140.97749, 37.50524], [140.97691, 37.50616], [140.97557, 37.50829], [140.97495, 37.50927], [140.97447, 37.51033], [140.97414, 37.51143], [140.97404, 37.51239], [140.97401, 37.51267], [140.974, 37.5136], [140.974, 37.51365], [140.97411, 37.51465], [140.97423, 37.51528], [140.97429, 37.51558], [140.97454, 37.51629], [140.97472, 37.51682], [140.97497, 37.51754], [140.97515, 37.51805], [140.97545, 37.51891], [140.97562, 37.51945], [140.97587, 37.52022], [140.97607, 37.52075], [140.97614, 37.521], [140.97627, 37.52138], [140.97636, 37.52165], [140.97652, 37.5221], [140.97673, 37.52267], [140.97696, 37.52307], [140.97721, 37.52345], [140.97758, 37.52388], [140.97795, 37.52427], [140.97827, 37.52455], [140.97857, 37.52477], [140.97886, 37.52495], [140.97929, 37.52518], [140.97968, 37.52537], [140.97994, 37.52551], [140.97999, 37.52553], [140.98077, 37.52592], [140.98113, 37.52611], [140.98144, 37.52626], [140.98194, 37.5265], [140.98225, 37.52667], [140.98269, 37.52693], [140.98294, 37.52711], [140.98327, 37.5274], [140.98374, 37.52786], [140.98415, 37.52833]]}, "properties": {"id": "TRACK_TOKYO_2355", "line_name": "常磐線", "station_group_ids": [], "mode": "rail", "operator_id": "jr_east", "line_color": "#22A6B3", "tags": ["tokyo", "track_centerline"]}}, {"type": "Feature", "bbox": [140.98441, 37.41001, 141.0053, 37.45293], "geometry": {"type": "LineString", "coordinates": [[140.98441, 37.41001], [140.98471, 37.41057], [140.98495, 37.41092], [140.98508, 37.41106], [140.98542, 37.41145], [140.98564, 37.41165], [140.98661, 37.4123], [140.98734, 37.41274], [140.98745, 37.4128], [140.98961, 37.41402], [140.99659, 37.4179], [140.99687, 37.41808], [140.99893, 37.41928], [140.99967, 37.41973], [140.99999, 37.41991], [141.00022, 37.42005], [141.00047, 37.42023], [141.00085, 37.42051], [141.00096, 37.42058], [141.00123, 37.42082], [141.00146, 37.42105], [141.00166, 37.42127], [141.00187, 37.4215], [141.00209, 37.42179], [141.00226, 37.42203], [141.0024, 37.42227], [141.00253, 37.42253], [141.00267, 37.42285], [141.00276, 37.4231], [141.00283, 37.42329], [141.0029, 37.42364], [141.00294, 37.42387], [141.003, 37.42439], [141.00299, 37.42501], [141.00295, 37.42541], [141.0029, 37.42573], [141.00276, 37.42634], [141.00269, 37.42661], [141.00256, 37.42692], [141.00225, 37.42763], [141.00209, 37.428], [141.00175, 37.42876], [141.0017, 37.42888], [141.00151, 37.42931], [141.00138, 37.42963], [141.00129, 37.42989], [141.00124, 37.43008], [141.0012, 37.43029], [141.00117, 37.43047], [141.00115, 37.43068], [141.00112, 37.43113], [141.0011, 37.43134], [141.00101, 37.43257], [141.00095, 37.43332], [141.00087, 37.43453], [141.00084, 37.43495], [141.00081, 37.43548], [141.00084, 37.43587], [141.00088, 37.43617], [141.00097, 37.43659], [141.00161, 37.4391], [141.00186, 37.44006], [141.00206, 37.4408], [141.00225, 37.44163], [141.00246, 37.44246], [141.00256, 37.4429], [141.00292, 37.44438], [141.00302, 37.44478], [141.00313, 37.44523], [141.00333, 37.44604], [141.00353, 37.44679], [141.0036, 37.44705], [141.00365, 37.44726], [141.0038, 37.44781], [141.00385, 37.44802], [141.00389, 37.44822], [141.00405, 37.44886], [141.00433, 37.44999], [141.0046, 37.45103], [141.00474, 37.45155], [141.00484, 37.45189], [141.005, 37.45231], [141.00514, 37.45261], [141.0053, 37.45293]]}, "properties": {"id": "TRACK_TOKYO_2358", "line_name": "常磐線", "station_group_ids": [], "mode": "rail", "operator_id": "jr_east", "line_color": "#22A6B3", "tags": ["tokyo", "track_centerline"]}}, {"type": "Feature", "bbox": [140.9885, 37.49155, 140.99105, 37.49289], "geometry": {"type": "LineString", "coordinates": [[140.99105, 37.49155], [140.989, 37.4926], [140.9885, 37.49289]]}, "properties": {"id": "TRACK_TOKYO_2359", "line_name": "常磐線", "station_group_ids": [], "mode": "rail", "operator_id": "jr_east", "line_color": "#22A6B3", "tags": ["tokyo", "track_centerline"]}}, {"type": "Feature", "bbox": [140.99025, 37.60407, 140.99277, 37.60607], "geometry": {"type": "LineString", "coordinates": [[140.99277, 37.60407], [140.99142, 37.60516], [140.99025, 37.60607]]}, "properties": {"id": "TRACK_TOKYO_2361", "line_name": "常磐線", "station_group_ids": [], "mode": "rail", "operator_id": "jr_east", "line_color": "#22A6B3", "tags": ["tokyo", "track_centerline"]}}, {"type": "Feature", "bbox": [140.99209, 37.33545, 141.02241, 37.36484], "geometry": {"type": "LineString", "coordinates": [[141.02241, 37.33545], [141.02217, 37.33619], [141.02208, 37.3364], [141.02167, 37.33736], [141.02156, 37.33762], [141.02132, 37.33818], [141.02122, 37.33848], [141.02113, 37.33884], [141.02099, 37.33931], [141.0208, 37.3399], [141.02062, 37.34034], [141.02056, 37.34045], [141.0205, 37.34057], [141.02033, 37.34092], [141.02014, 37.34125], [141.01991, 37.34159], [141.01976, 37.3418], [141.01967, 37.34191], [141.01931, 37.34235], [141.01882, 37.34281], [141.01828, 37.34326], [141.01763, 37.34366], [141.01716, 37.34391], [141.01647, 37.3442], [141.016, 37.34437], [141.01575, 37.34445], [141.01525, 37.34454], [141.01478, 37.3446], [141.01422, 37.34467], [141.01395, 37.34468], [141.01365, 37.34469], [141.01348, 37.34469], [141.01298, 37.34465], [141.01249, 37.34461], [141.01211, 37.34457], [141.01129, 37.34451], [141.01031, 37.34442], [141.00878, 37.3443], [141.00857, 37.34428], [141.00819, 37.34425], [141.00803, 37.34424], [141.00755, 37.34419], [141.00698, 37.34415], [141.00656, 37.34414], [141.00602, 37.34416], [141.00579, 37.34419], [141.00531, 37.34427], [141.00485, 37.34439], [141.00439, 37.34454], [141.00398, 37.34472], [141.0031, 37.3451], [141.00286, 37.34521], [141.00157, 37.3458], [141.00114, 37.346], [141.00061, 37.34624], [141.00017, 37.34644], [140.99927, 37.34685], [140.99862, 37.34715], [140.99819, 37.34738], [140.99762, 37.34777], [140.99724, 37.34807], [140.99695, 37.34828], [140.99677, 37.34841], [140.99659, 37.34853], [140.99641, 37.34866], [140.9962, 37.34882], [140.99571, 37.34927], [140.99542, 37.34956], [140.99525, 37.34973], [140.99479, 37.35028], [140.99434, 37.35097], [140.99389, 37.35169], [140.99371, 37.352], [140.99342, 37.35264], [140.99328, 37.35296], [140.99316, 37.35335], [140.99295, 37.3542], [140.9928, 37.35496], [140.99274, 37.35584], [140.9925, 37.35924], [140.99234, 37.36145], [140.99222, 37.36323], [140.99209, 37.36484]]}, "properties": {"id": "TRACK_TOKYO_2362", "line_name": "常磐線", "station_group_ids": [], "mode": "rail", "operator_id": "jr_east", "line_color": "#22A6B3", "tags": ["tokyo", "track_centerline"]}}, {"type": "Feature", "bbox": [140.96582, 37.63921, 140.97383, 37.70218], "geometry": {"type": "LineString", "coordinates": [[140.97063, 37.70218], [140.97139, 37.70127], [140.97186, 37.70068], [140.97205, 37.70037], [140.97239, 37.69981], [140.97257, 37.69946], [140.97268, 37.69919], [140.97273, 37.69906], [140.97278, 37.6989], [140.97281, 37.69878], [140.97284, 37.69855], [140.97288, 37.69833], [140.97316, 37.69638], [140.97331, 37.69541], [140.9734, 37.69473], [140.97351, 37.6941], [140.97366, 37.69296], [140.97373, 37.69244], [140.97376, 37.69224], [140.97378, 37.692], [140.97382, 37.69168], [140.97383, 37.69057], [140.97383, 37.69039], [140.97383, 37.69011], [140.97381, 37.68991], [140.97379, 37.68981], [140.97377, 37.68964], [140.97373, 37.68928], [140.97353, 37.68811], [140.97345, 37.68767], [140.97313, 37.68565], [140.97297, 37.68463], [140.97293, 37.68434], [140.97275, 37.68318], [140.97263, 37.68263], [140.97251, 37.68185], [140.97245, 37.68151], [140.97231, 37.68068], [140.97215, 37.67989], [140.97199, 37.6787], [140.97192, 37.67823], [140.97184, 37.67761], [140.9718, 37.67717], [140.97179, 37.67657], [140.97179, 37.67631], [140.97179, 37.67603], [140.97181, 37.6758], [140.97196, 37.67338], [140.97212, 37.67106], [140.97218, 37.6697], [140.97215, 37.66939], [140.97207, 37.66891], [140.97199, 37.66863], [140.9716, 37.66789], [140.97158, 37.66786], [140.9713, 37.66728], [140.97081, 37.66636], [140.97016, 37.66519], [140.96984, 37.66456], [140.96944, 37.66375], [140.96906, 37.66298], [140.96868, 37.66218], [140.96827, 37.66131], [140.96809, 37.66087], [140.96793, 37.6605], [140.96787, 37.66037], [140.96778, 37.66015], [140.96767, 37.65989], [140.96757, 37.65962], [140.96746, 37.65927], [140.96739, 37.65904], [140.96734, 37.65879], [140.96724, 37.65837], [140.96704, 37.65753], [140.96683, 37.65658], [140.96673, 37.65616], [140.96667, 37.65584], [140.96661, 37.6555], [140.96655, 37.65523], [140.9664, 37.65459], [140.96625, 37.65386], [140.96604, 37.65297], [140.96592, 37.65237], [140.96587, 37.6519], [140.96585, 37.65162], [140.96584, 37.65142], [140.96582, 37.651], [140.96582, 37.6505], [140.96585, 37.64995], [140.96595, 37.64925], [140.96602, 37.64878], [140.96627, 37.64698], [140.96631, 37.64664], [140.96639, 37.64612], [140.96657, 37.6447], [140.96661, 37.6444], [140.96699, 37.64313], [140.96712, 37.64277], [140.96722, 37.64251], [140.96742, 37.64212], [140.9678, 37.64145], [140.96828, 37.64076], [140.96853, 37.64042], [140.96876, 37.64015], [140.96902, 37.63985], [140.96937, 37.63951], [140.96969, 37.63921]]}, "properties": {"id": "TRACK_TOKYO_2363", "line_name": "常磐線", "station_group_ids": [], "mode": "rail", "operator_id": "jr_east", "line_color": "#22A6B3", "tags": ["tokyo", "track_centerline"]}}, {"type": "Feature", "bbox": [140.98393, 37.36673, 140.99194, 37.40863], "geometry": {"type": "LineString", "coordinates": [[140.99194, 37.36673], [140.99186, 37.36836], [140.99176, 37.36958], [140.9917, 37.37045], [140.99161, 37.37134], [140.99136, 37.37252], [140.99128, 37.37277], [140.99119, 37.37307], [140.99101, 37.3737], [140.99077, 37.37472], [140.99077, 37.37473], [140.99076, 37.37496], [140.99079, 37.37531], [140.99084, 37.37564], [140.99098, 37.37605], [140.99148, 37.37752], [140.99153, 37.37773], [140.99167, 37.37826], [140.99167, 37.3784], [140.99098, 37.38113], [140.98955, 37.38655], [140.98933, 37.38735], [140.98903, 37.3885], [140.98895, 37.38879], [140.98836, 37.39099], [140.98733, 37.39481], [140.98651, 37.39779], [140.98598, 37.3998], [140.98574, 37.40071], [140.98515, 37.40289], [140.98431, 37.40596], [140.98411, 37.40661], [140.98402, 37.40696], [140.98395, 37.40741], [140.98393, 37.40788], [140.98398, 37.40863]]}, "properties": {"id": "TRACK_TOKYO_2364", "line_name": "常磐線", "station_group_ids": [], "mode": "rail", "operator_id": "jr_east", "line_color": "#22A6B3", "tags": ["tokyo", "track_centerline"]}}, {"type": "Feature", "bbox": [141.00292, 37.25137, 141.00801, 37.25758], "geometry": {"type": "LineString", "coordinates": [[141.00292, 37.25758], [141.0044859348957, 37.255849458333316], [141.00589701822904, 37.25431281249998], [141.00694935156235, 37.25319470833331], [141.00725428906236, 37.25281802083331], [141.00757118489568, 37.25234566666664], [141.00787313281234, 37.25181053124998], [141.00801, 37.25137]]}, "properties": {"id": "TRACK_TOKYO_2365", "line_name": "常磐線", "station_group_ids": [], "mode": "rail", "operator_id": "jr_east", "line_color": "#22A6B3", "tags": ["tokyo", "track_centerline"]}}, {"type": "Feature", "bbox": [140.99194, 37.36484, 140.99209, 37.36673], "geometry": {"type": "LineString", "coordinates": [[140.99209, 37.36484], [140.99194, 37.36673]]}, "properties": {"id": "TRACK_TOKYO_2367", "line_name": "常磐線", "station_group_ids": [], "mode": "rail", "operator_id": "jr_east", "line_color": "#22A6B3", "tags": ["tokyo", "track_centerline"]}}, {"type": "Feature", "bbox": [140.99526, 37.2584, 141.00275, 37.2813], "geometry": {"type": "LineString", "coordinates": [[141.00214, 37.2584], [141.00064, 37.25999], [140.99981, 37.26087], [140.99925, 37.26143], [140.99793, 37.26276], [140.99717, 37.26353], [140.99704, 37.26367], [140.99659, 37.26459], [140.99601, 37.26581], [140.99576, 37.26642], [140.99535, 37.26755], [140.99529, 37.26783], [140.99527, 37.26799], [140.99526, 37.26833], [140.99526, 37.26869], [140.9953, 37.26897], [140.99535, 37.26925], [140.99544, 37.26956], [140.99556, 37.26989], [140.99567, 37.27016], [140.9958, 37.27044], [140.99587, 37.27056], [140.99599, 37.27079], [140.99613, 37.27103], [140.99617, 37.2711], [140.99631, 37.27131], [140.99633, 37.27135], [140.99637, 37.2714], [140.99659, 37.27177], [140.99692, 37.27225], [140.99704, 37.27243], [140.99774, 37.27342], [140.99779, 37.27349], [140.99817, 37.27402], [140.99833, 37.27424], [140.99866, 37.27471], [140.9988, 37.27491], [140.99927, 37.27558], [140.99994, 37.27649], [141.00084, 37.27775], [141.0016, 37.27881], [141.002, 37.2794], [141.00241, 37.28023], [141.00264, 37.28087], [141.00272, 37.28112], [141.00275, 37.2813]]}, "properties": {"id": "TRACK_TOKYO_2370", "line_name": "常磐線", "station_group_ids": [], "mode": "rail", "operator_id": "jr_east", "line_color": "#22A6B3", "tags": ["tokyo", "track_centerline"]}}, {"type": "Feature", "bbox": [140.99277, 37.56353, 141.00197, 37.60407], "geometry": {"type": "LineString", "coordinates": [[140.99643, 37.56353], [140.99659, 37.56452], [140.99664, 37.56479], [140.99667, 37.56511], [140.99672, 37.56543], [140.99676, 37.56577], [140.99685, 37.56636], [140.99688, 37.56662], [140.99694, 37.5671], [140.99698, 37.56742], [140.99703, 37.56774], [140.99705, 37.56798], [140.99708, 37.56829], [140.9971, 37.56841], [140.99711, 37.56851], [140.99713, 37.56884], [140.9972, 37.56946], [140.99728, 37.57019], [140.99738, 37.57119], [140.99748, 37.5719], [140.99766, 37.57297], [140.99775, 37.57344], [140.99794, 37.57422], [140.99806, 37.57458], [140.99811, 37.57474], [140.9982, 37.57499], [140.99829, 37.57525], [140.99845, 37.57556], [140.99888, 37.57626], [140.99908, 37.57656], [140.9996, 37.57735], [140.99983, 37.5778], [140.99996, 37.57816], [141.00002, 37.57846], [141.00006, 37.57891], [141.00007, 37.57918], [141.00005, 37.57952], [141.00002, 37.57968], [140.99994, 37.58002], [140.99988, 37.58045], [140.99984, 37.58083], [140.99983, 37.58115], [140.99984, 37.58142], [140.99986, 37.58166], [140.99989, 37.582], [140.99999, 37.58244], [141.00009, 37.58272], [141.00018, 37.58296], [141.00031, 37.58324], [141.00042, 37.58342], [141.00065, 37.58371], [141.00083, 37.58393], [141.00117, 37.58434], [141.00132, 37.58457], [141.00144, 37.58479], [141.00156, 37.58506], [141.00165, 37.58528], [141.00184, 37.58575], [141.00188, 37.58593], [141.00194, 37.58624], [141.00197, 37.58638], [141.00197, 37.58675], [141.00194, 37.58707], [141.0019, 37.58732], [141.00178, 37.58773], [141.0017, 37.58796], [141.00136, 37.5887], [141.00124, 37.58894], [141.00039, 37.59062], [141.00027, 37.59085], [141.00013, 37.59113], [140.99941, 37.59254], [140.99917, 37.59301], [140.9987, 37.59396], [140.99858, 37.5942], [140.99843, 37.5945], [140.99787, 37.59566], [140.9975, 37.5964], [140.99659, 37.59828], [140.99649, 37.59846], [140.99574, 37.59991], [140.99524, 37.60094], [140.99499, 37.60142], [140.99469, 37.602], [140.99438, 37.60254], [140.99411, 37.60289], [140.99394, 37.60306], [140.99366, 37.60335], [140.99292, 37.60395], [140.99277, 37.60407]]}, "properties": {"id": "TRACK_TOKYO_2372", "line_name": "常磐線", "station_group_ids": [], "mode": "rail", "operator_id": "jr_east", "line_color": "#22A6B3", "tags": ["tokyo", "track_centerline"]}}, {"type": "Feature", "bbox": [140.98459, 37.529, 140.9963, 37.56242], "geometry": {"type": "LineString", "coordinates": [[140.98459, 37.529], [140.98468, 37.52917], [140.98492, 37.52966], [140.98515, 37.53021], [140.98532, 37.53066], [140.98545, 37.53115], [140.9855, 37.53135], [140.9858, 37.53242], [140.98592, 37.53292], [140.98601, 37.53326], [140.98624, 37.53409], [140.98639, 37.53463], [140.98647, 37.53491], [140.98658, 37.53537], [140.98662, 37.53553], [140.98672, 37.53587], [140.98673, 37.53593], [140.98684, 37.53633], [140.9869, 37.53659], [140.987, 37.53694], [140.98717, 37.53741], [140.98732, 37.53777], [140.98742, 37.53803], [140.98767, 37.53854], [140.98814, 37.53935], [140.98818, 37.53943], [140.98858, 37.54002], [140.989, 37.54066], [140.98957, 37.54149], [140.99067, 37.5431], [140.99113, 37.54377], [140.99119, 37.54385], [140.99185, 37.54483], [140.99244, 37.54566], [140.99285, 37.5464], [140.99311, 37.54698], [140.99323, 37.54725], [140.99332, 37.54745], [140.99355, 37.54805], [140.99376, 37.54876], [140.99402, 37.54984], [140.99471, 37.55274], [140.99489, 37.55349], [140.99527, 37.55509], [140.99549, 37.55617], [140.9957, 37.55736], [140.99587, 37.55842], [140.99598, 37.55948], [140.9963, 37.56242]]}, "properties": {"id": "TRACK_TOKYO_2373", "line_name": "常磐線", "station_group_ids": [], "mode": "rail", "operator_id": "jr_east", "line_color": "#22A6B3", "tags": ["tokyo", "track_centerline"]}}, {"type": "Feature", "bbox": [140.99105, 37.45454, 141.00942, 37.49155], "geometry": {"type": "LineString", "coordinates": [[141.00641, 37.45454], [141.00689, 37.45526], [141.00723, 37.45577], [141.00737, 37.45599], [141.00743, 37.45609], [141.00767, 37.45646], [141.00823, 37.45732], [141.00879, 37.45816], [141.00881, 37.45819], [141.00915, 37.45872], [141.00927, 37.45897], [141.00936, 37.45924], [141.00941, 37.45952], [141.00942, 37.46012], [141.00939, 37.46043], [141.00935, 37.46072], [141.00908, 37.4624], [141.0089, 37.46356], [141.00871, 37.46472], [141.00866, 37.465], [141.00849, 37.46596], [141.00831, 37.46705], [141.00823, 37.4675], [141.00809, 37.46826], [141.00792, 37.46929], [141.00776, 37.47021], [141.00754, 37.47153], [141.00746, 37.47195], [141.00741, 37.47239], [141.00741, 37.47259], [141.00728, 37.47427], [141.00726, 37.47456], [141.00723, 37.47479], [141.00717, 37.47511], [141.00709, 37.47539], [141.00698, 37.47571], [141.00696, 37.47576], [141.00673, 37.47638], [141.00668, 37.47648], [141.00652, 37.4768], [141.00633, 37.47709], [141.00621, 37.47727], [141.00556, 37.47806], [141.00515, 37.47857], [141.00458, 37.47927], [141.00414, 37.47979], [141.00338, 37.48071], [141.00215, 37.48219], [141.00143, 37.48308], [141.00057, 37.48415], [140.99982, 37.48507], [140.99899, 37.48607], [140.99875, 37.48637], [140.99803, 37.48721], [140.99775, 37.48753], [140.99751, 37.48776], [140.99715, 37.48808], [140.99685, 37.48837], [140.99659, 37.48857], [140.99603, 37.48886], [140.99408, 37.48992], [140.99105, 37.49155]]}, "properties": {"id": "TRACK_TOKYO_2374", "line_name": "常磐線", "station_group_ids": [], "mode": "rail", "operator_id": "jr_east", "line_color": "#22A6B3", "tags": ["tokyo", "track_centerline"]}}, {"type": "Feature", "bbox": [140.98415, 37.52833, 140.98459, 37.529], "geometry": {"type": "LineString", "coordinates": [[140.98415, 37.52833], [140.98459, 37.529]]}, "properties": {"id": "TRACK_TOKYO_2375", "line_name": "常磐線", "station_group_ids": [], "mode": "rail", "operator_id": "jr_east", "line_color": "#22A6B3", "tags": ["tokyo", "track_centerline"]}}, {"type": "Feature", "bbox": [140.99523, 37.2836, 141.0231, 37.33265], "geometry": {"type": "LineString", "coordinates": [[141.00263, 37.2836], [141.00253, 37.28401], [141.00234, 37.28447], [141.00218, 37.28483], [141.00166, 37.28568], [141.00121, 37.28641], [141.00091, 37.28685], [141.00079, 37.28704], [141.00029, 37.28768], [140.99985, 37.28824], [140.99888, 37.28951], [140.99728, 37.29163], [140.99659, 37.29252], [140.99633, 37.29284], [140.99614, 37.2931], [140.99576, 37.29361], [140.99557, 37.29387], [140.99548, 37.29406], [140.99547, 37.29408], [140.99545, 37.29412], [140.99539, 37.29428], [140.99531, 37.29463], [140.99523, 37.29529], [140.99523, 37.29571], [140.99527, 37.29687], [140.99527, 37.29704], [140.99528, 37.29726], [140.99531, 37.29751], [140.99538, 37.29786], [140.99549, 37.29838], [140.99558, 37.29873], [140.9957, 37.29915], [140.99596, 37.29994], [140.99614, 37.30041], [140.99624, 37.30066], [140.99635, 37.30094], [140.99659, 37.30151], [140.99667, 37.3017], [140.99692, 37.30231], [140.99709, 37.30273], [140.99732, 37.3032], [140.99761, 37.3038], [140.99791, 37.30436], [140.99804, 37.30457], [140.99824, 37.30489], [140.99856, 37.3054], [140.99897, 37.30601], [140.99899, 37.30605], [140.99923, 37.30643], [140.99962, 37.30705], [140.99984, 37.30744], [141.00007, 37.30783], [141.00031, 37.30819], [141.00066, 37.30881], [141.00087, 37.30926], [141.00102, 37.30958], [141.00135, 37.31049], [141.00148, 37.31091], [141.00159, 37.31133], [141.00174, 37.3121], [141.0018, 37.31252], [141.0019, 37.31319], [141.00196, 37.31356], [141.00202, 37.31379], [141.00221, 37.31436], [141.00241, 37.31472], [141.00255, 37.31492], [141.00276, 37.31512], [141.00303, 37.31538], [141.00364, 37.31588], [141.00424, 37.31633], [141.00461, 37.31658], [141.00529, 37.31701], [141.00814, 37.31874], [141.01075, 37.32028], [141.01144, 37.3207], [141.01182, 37.32093], [141.01348, 37.32192], [141.01375, 37.32209], [141.01412, 37.32231], [141.01621, 37.32359], [141.01863, 37.32505], [141.01893, 37.32523], [141.02072, 37.32628], [141.02146, 37.32695], [141.022, 37.32753], [141.02229, 37.32796], [141.0226, 37.3285], [141.02276, 37.32884], [141.02293, 37.32939], [141.02305, 37.32992], [141.02309, 37.33024], [141.0231, 37.33178], [141.02307, 37.33265]]}, "properties": {"id": "TRACK_TOKYO_2377", "line_name": "常磐線", "station_group_ids": [], "mode": "rail", "operator_id": "jr_east", "line_color": "#22A6B3", "tags": ["tokyo", "track_centerline"]}}, {"type": "Feature", "bbox": [141.02241, 37.33265, 141.02307, 37.33545], "geometry": {"type": "LineString", "coordinates": [[141.02307, 37.33265], [141.02287, 37.33359], [141.02256, 37.33492], [141.02241, 37.33545]]}, "properties": {"id": "TRACK_TOKYO_2379", "line_name": "常磐線", "station_group_ids": [], "mode": "rail", "operator_id": "jr_east", "line_color": "#22A6B3", "tags": ["tokyo", "track_centerline"]}}, {"type": "Feature", "bbox": [141.00263, 37.2813, 141.00284, 37.2836], "geometry": {"type": "LineString", "coordinates": [[141.00263, 37.2836], [141.00278, 37.28293], [141.00283, 37.28245], [141.00284, 37.28199], [141.0028, 37.28158], [141.00275, 37.2813]]}, "properties": {"id": "TRACK_TOKYO_2380", "line_name": "常磐線", "station_group_ids": [], "mode": "rail", "operator_id": "jr_east", "line_color": "#22A6B3", "tags": ["tokyo", "track_centerline"]}}, {"type": "Feature", "bbox": [140.9963, 37.56242, 140.99643, 37.56353], "geometry": {"type": "LineString", "coordinates": [[140.9963, 37.56242], [140.99642, 37.56342], [140.99643, 37.56353]]}, "properties": {"id": "TRACK_TOKYO_2382", "line_name": "常磐線", "station_group_ids": [], "mode": "rail", "operator_id": "jr_east", "line_color": "#22A6B3", "tags": ["tokyo", "track_centerline"]}}, {"type": "Feature", "bbox": [140.97241, 37.60607, 140.99025, 37.63683], "geometry": {"type": "LineString", "coordinates": [[140.99025, 37.60607], [140.98998, 37.60631], [140.98922, 37.60691], [140.98852, 37.60746], [140.9882, 37.60772], [140.98753, 37.60826], [140.98719, 37.60858], [140.98695, 37.60884], [140.98662, 37.60922], [140.98641, 37.60951], [140.98619, 37.60986], [140.98606, 37.61011], [140.98593, 37.61041], [140.98582, 37.61072], [140.98578, 37.61085], [140.98574, 37.61102], [140.9857, 37.61118], [140.98565, 37.61165], [140.98565, 37.61207], [140.98567, 37.61248], [140.98571, 37.61281], [140.98577, 37.61309], [140.98582, 37.61327], [140.98615, 37.61419], [140.98618, 37.61427], [140.98645, 37.61492], [140.98702, 37.61652], [140.9874, 37.61747], [140.98784, 37.6188], [140.98792, 37.61927], [140.9881, 37.62047], [140.98802, 37.62142], [140.98796, 37.62174], [140.98787, 37.62211], [140.98782, 37.6223], [140.98766, 37.62273], [140.98755, 37.62294], [140.98746, 37.62313], [140.98733, 37.62334], [140.98724, 37.62351], [140.98708, 37.62375], [140.98679, 37.62415], [140.98659, 37.62439], [140.98605, 37.62498], [140.98532, 37.62559], [140.98462, 37.6262], [140.98383, 37.62691], [140.98306, 37.62757], [140.98172, 37.62875], [140.98117, 37.62922], [140.98048, 37.62981], [140.97994, 37.63028], [140.97893, 37.63117], [140.97825, 37.63177], [140.97628, 37.63351], [140.97566, 37.63402], [140.97378, 37.63564], [140.97291, 37.6364], [140.97264, 37.63662], [140.97241, 37.63683]]}, "properties": {"id": "TRACK_TOKYO_2384", "line_name": "常磐線", "station_group_ids": [], "mode": "rail", "operator_id": "jr_east", "line_color": "#22A6B3", "tags": ["tokyo", "track_centerline"]}}, {"type": "Feature", "bbox": [140.96969, 37.63683, 140.97241, 37.63921], "geometry": {"type": "LineString", "coordinates": [[140.97241, 37.63683], [140.97123, 37.63784], [140.96969, 37.63921]]}, "properties": {"id": "TRACK_TOKYO_2385", "line_name": "常磐線", "station_group_ids": [], "mode": "rail", "operator_id": "jr_east", "line_color": "#22A6B3", "tags": ["tokyo", "track_centerline"]}}, {"type": "Feature", "bbox": [140.98398, 37.40863, 140.98441, 37.41001], "geometry": {"type": "LineString", "coordinates": [[140.98398, 37.40863], [140.98399, 37.40869], [140.98411, 37.40917], [140.98416, 37.40937], [140.98441, 37.41001]]}, "properties": {"id": "TRACK_TOKYO_2386", "line_name": "常磐線", "station_group_ids": [], "mode": "rail", "operator_id": "jr_east", "line_color": "#22A6B3", "tags": ["tokyo", "track_centerline"]}}, {"type": "Feature", "bbox": [141.0053, 37.45293, 141.00641, 37.45454], "geometry": {"type": "LineString", "coordinates": [[141.0053, 37.45293], [141.00641, 37.45454]]}, "properties": {"id": "TRACK_TOKYO_2388", "line_name": "常磐線", "station_group_ids": [], "mode": "rail", "operator_id": "jr_east", "line_color": "#22A6B3", "tags": ["tokyo", "track_centerline"]}}, {"type": "Feature", "bbox": [140.99921, 37.2121, 141.0073805989582, 37.24077448437496], "geometry": {"type": "LineString", "coordinates": [[140.99921, 37.2121], [141.00041, 37.21375], [141.0023, 37.21631], [141.00364, 37.2181], [141.00462, 37.2195], [141.00496, 37.21995], [141.00609, 37.22152], [141.00671, 37.22255], [141.00686, 37.2229], [141.00706000000014, 37.22356], [141.0071, 37.22382], [141.00712, 37.22398], [141.00713, 37.22428], [141.00706000000014, 37.22512], [141.00689, 37.22564], [141.00676, 37.22592], [141.00635, 37.22667], [141.00616, 37.22702], [141.00552, 37.22805], [141.00518, 37.22859], [141.00503, 37.22885], [141.00482, 37.22932], [141.00465, 37.2298], [141.00448, 37.23053], [141.00442, 37.23103], [141.0044, 37.23155], [141.00444, 37.23208], [141.00451, 37.2324], [141.00455, 37.2326], [141.00472, 37.23333], [141.0051802656248, 37.23428708854165], [141.00702184895815, 37.23908835937495], [141.0072251406249, 37.23981781770828], [141.0073805989582, 37.24077448437496]]}, "properties": {"id": "TRACK_TOKYO_2390", "line_name": "常磐線", "station_group_ids": [], "mode": "rail", "operator_id": "jr_east", "line_color": "#22A6B3", "tags": ["tokyo", "track_centerline"]}}, {"type": "Feature", "bbox": [141.00775531337518, 37.24270250214475, 141.0087139531247, 37.25137], "geometry": {"type": "LineString", "coordinates": [[141.00775531337518, 37.24270250214475], [141.00808016145808, 37.244373942708236], [141.0083462343747, 37.24606006770824], [141.00851365104143, 37.24707054687501], [141.00865117187482, 37.24787773437494], [141.0087139531247, 37.24841286979165], [141.00870199479132, 37.24893903645834], [141.00864818229138, 37.24971632812493], [141.0084927239581, 37.2504039322917], [141.00835520312472, 37.25082247395841], [141.008223661458, 37.251073598958335], [141.00801, 37.25137]]}, "properties": {"id": "TRACK_TOKYO_4109", "line_name": "常磐線", "station_group_ids": [], "mode": "rail", "operator_id": "jr_east", "line_color": "#22A6B3", "tags": ["tokyo", "track_centerline"]}}, {"type": "Feature", "bbox": [141.00747675060143, 37.24274025130565, 141.00833128645806, 37.25137], "geometry": {"type": "LineString", "coordinates": [[141.00747675060143, 37.24274025130565], [141.00754203645803, 37.244074984375004], [141.00757193229137, 37.24517814062497], [141.00775130729133, 37.24638294270829], [141.00785893229133, 37.2468762239583], [141.00813995312475, 37.247958453124944], [141.0082655156247, 37.24841286979165], [141.00830736979137, 37.24875368229169], [141.00833128645806, 37.24909449479159], [141.0083193281247, 37.2495070572916], [141.00830736979148, 37.249961473958265], [141.0082296406248, 37.25045774479161], [141.00801, 37.25137]]}, "properties": {"id": "TRACK_TOKYO_4110", "line_name": "常磐線", "station_group_ids": [], "mode": "rail", "operator_id": "jr_east", "line_color": "#22A6B3", "tags": ["tokyo", "track_centerline"]}}]}