{"type": "FeatureCollection", "features": [{"type": "Feature", "bbox": [133.68009, 34.56619, 133.91692, 34.66427], "geometry": {"type": "LineString", "coordinates": [[133.91692, 34.66427], [133.91629, 34.66368], [133.91549, 34.66304], [133.91516, 34.66282], [133.91488, 34.66265], [133.91461, 34.66249], [133.91413, 34.66223], [133.91346, 34.66189], [133.91269, 34.66153], [133.91232, 34.66135], [133.91161, 34.66102], [133.9105, 34.66049], [133.91013, 34.66035], [133.9097, 34.66019], [133.90913, 34.66002], [133.90854, 34.65989], [133.90762, 34.65971], [133.90681, 34.65959], [133.90649, 34.65955], [133.90616, 34.65952], [133.90578, 34.6595], [133.90455, 34.65948], [133.90366, 34.65945], [133.90301, 34.65944], [133.90171, 34.65942], [133.90152, 34.65942], [133.9006, 34.65939], [133.9003, 34.65939], [133.89999, 34.65939], [133.89911, 34.65936], [133.89802, 34.65933], [133.8971, 34.6593], [133.89624, 34.65923], [133.89517, 34.65915], [133.89443, 34.65908], [133.89425, 34.65906], [133.8939, 34.65902], [133.89248, 34.65885], [133.89129, 34.65869], [133.88975, 34.65848], [133.8884, 34.65829], [133.88696, 34.6581], [133.88559, 34.65791], [133.88416, 34.65772], [133.88331, 34.6576], [133.88278, 34.65753], [133.8814, 34.65733], [133.88005, 34.65716], [133.87862, 34.65696], [133.8772, 34.65677], [133.87587, 34.65661], [133.87551, 34.65657], [133.87452, 34.65647], [133.87319, 34.65636], [133.87235, 34.6563], [133.87107, 34.65618], [133.87048, 34.65613], [133.8667, 34.65581], [133.86232, 34.65545], [133.85946, 34.65521], [133.85795, 34.65509], [133.8536, 34.65473], [133.84922, 34.65434], [133.84843, 34.65428], [133.84485, 34.65398], [133.8436, 34.65387], [133.842, 34.6537], [133.8405, 34.65351], [133.83982, 34.65339], [133.83773, 34.65301], [133.83748, 34.65295], [133.83622, 34.65267], [133.83612, 34.65264], [133.83484, 34.65234], [133.83459, 34.65227], [133.83356, 34.65199], [133.83174, 34.65149], [133.83041, 34.65111], [133.82736, 34.65025], [133.82298, 34.64898], [133.81996, 34.64811], [133.8186, 34.64771], [133.81394, 34.64635], [133.80989, 34.64517], [133.80953, 34.64507], [133.80571, 34.64402], [133.80152, 34.64285], [133.80037, 34.64252], [133.79741, 34.64169], [133.79331, 34.64056], [133.79308, 34.6405], [133.79172, 34.64016], [133.78896, 34.63944], [133.78581, 34.63864], [133.78472, 34.63836], [133.78042, 34.63731], [133.77974, 34.63715], [133.77607, 34.63625], [133.77544, 34.63609], [133.7752, 34.63603], [133.7736, 34.63563], [133.77351, 34.63561], [133.7717, 34.63516], [133.77066, 34.63491], [133.7696, 34.63463], [133.76733, 34.63399], [133.76649, 34.63376], [133.76391, 34.63294], [133.76304, 34.63265], [133.76237, 34.63243], [133.7613, 34.63204], [133.76028, 34.63163], [133.75865, 34.63094], [133.75783, 34.6306], [133.7564, 34.62995], [133.75426, 34.62899], [133.75323, 34.62848], [133.75306, 34.62839], [133.75212, 34.62791], [133.75119, 34.62742], [133.75066, 34.62712], [133.74979, 34.62662], [133.74889, 34.62608], [133.74808, 34.6256], [133.74736, 34.62514], [133.74598, 34.62408], [133.74553, 34.62376], [133.7444, 34.62293], [133.74395, 34.6226], [133.7419, 34.62112], [133.74158, 34.62086], [133.73984, 34.61958], [133.73901, 34.61896], [133.73736, 34.61776], [133.73705, 34.61753], [133.73615, 34.61687], [133.7349, 34.61595], [133.7337, 34.61508], [133.73287, 34.61448], [133.7311, 34.61319], [133.72999, 34.61235], [133.72882, 34.6115], [133.72703, 34.61019], [133.72401, 34.60798], [133.72126, 34.60596], [133.71994, 34.60496], [133.71849, 34.60392], [133.7172, 34.60298], [133.71696, 34.60281], [133.71675, 34.60266], [133.7151, 34.60143], [133.71263, 34.59963], [133.71163, 34.59888], [133.71063, 34.59812], [133.70995, 34.59759], [133.70943, 34.59713], [133.7089, 34.59664], [133.70874, 34.59649], [133.70739, 34.59518], [133.70654, 34.59424], [133.70591, 34.59349], [133.70542, 34.5929], [133.70472, 34.59201], [133.70437, 34.59155], [133.70347, 34.59033], [133.70345, 34.59031], [133.70284, 34.58946], [133.70177, 34.58786], [133.70126, 34.58706], [133.70092, 34.58657], [133.70069, 34.5862], [133.69917, 34.5839], [133.69899, 34.58362], [133.69858, 34.583], [133.69798, 34.58209], [133.69776, 34.58178], [133.69752, 34.58142], [133.69669, 34.58024], [133.69638, 34.57981], [133.69567, 34.57885], [133.69489, 34.57784], [133.69457, 34.57748], [133.69385, 34.57667], [133.69284, 34.57563], [133.69263, 34.57541], [133.69203, 34.57481], [133.69101, 34.57386], [133.69003, 34.573], [133.68909, 34.57223], [133.68871, 34.57194], [133.68819, 34.57154], [133.68697, 34.57063], [133.68615, 34.57006], [133.68521, 34.56946], [133.6812, 34.56689], [133.68015, 34.56623], [133.68009, 34.56619]]}, "properties": {"id": "GEOM_TOKYO_0663", "route_id": "R_A02272B9", "route_name": null, "route_color": "#1263D6", "route_text_color": null, "line_name": "山陽新幹線", "operator_id": "西日本旅客鉄道", "representation": "service_path", "min_zoom": 0, "max_zoom": 24, "offset_rank": 0}}, {"type": "Feature", "bbox": [133.67663, 34.56397, 133.68009, 34.56619], "geometry": {"type": "LineString", "coordinates": [[133.68009, 34.56619], [133.67663, 34.56397]]}, "properties": {"id": "GEOM_TOKYO_0664", "route_id": "R_A02272B9", "route_name": null, "route_color": "#1263D6", "route_text_color": null, "line_name": "山陽新幹線", "operator_id": "西日本旅客鉄道", "representation": "service_path", "min_zoom": 0, "max_zoom": 24, "offset_rank": 0}}, {"type": "Feature", "bbox": [133.38327, 34.49247, 133.67663, 34.56397], "geometry": {"type": "LineString", "coordinates": [[133.67663, 34.56397], [133.67656, 34.56392], [133.67615, 34.56365], [133.67505, 34.56295], [133.67337, 34.56187], [133.67264, 34.5614], [133.66994, 34.55968], [133.66693, 34.55778], [133.66392, 34.55583], [133.6637, 34.55569], [133.66282, 34.55515], [133.66243, 34.55492], [133.66182, 34.55458], [133.66141, 34.55436], [133.66114, 34.5542], [133.66042, 34.55384], [133.65984, 34.55356], [133.65887, 34.55311], [133.65734, 34.55249], [133.65641, 34.55212], [133.6547, 34.5515], [133.65433, 34.55138], [133.65212, 34.55068], [133.65141, 34.55049], [133.64977, 34.55009], [133.64918, 34.54996], [133.64797, 34.54971], [133.64661, 34.54948], [133.64604, 34.54939], [133.64543, 34.5493], [133.64404, 34.54912], [133.64365, 34.54908], [133.64325, 34.54903], [133.64148, 34.54889], [133.64007, 34.54881], [133.63982, 34.54881], [133.63934, 34.54879], [133.63929, 34.54879], [133.63864, 34.54879], [133.63783, 34.54879], [133.63678, 34.5488], [133.63555, 34.54885], [133.63437, 34.54893], [133.63289, 34.54904], [133.63215, 34.54912], [133.63196, 34.54914], [133.6307, 34.54932], [133.62692, 34.54985], [133.62456, 34.5502], [133.62431, 34.55025], [133.62237, 34.55048], [133.62088, 34.55067], [133.61982, 34.55082], [133.6174, 34.55108], [133.61444, 34.55135], [133.61136, 34.55148], [133.61008, 34.55153], [133.60772, 34.5516], [133.60486, 34.55168], [133.60461, 34.55169], [133.60424, 34.55168], [133.60163, 34.55162], [133.5997, 34.55152], [133.59804, 34.55133], [133.59533, 34.5509], [133.59526, 34.55089], [133.59518, 34.55087], [133.59276, 34.55035], [133.59274, 34.55034], [133.59267, 34.55033], [133.59172, 34.55008], [133.59075, 34.54984], [133.59065, 34.54982], [133.59041, 34.54976], [133.58665, 34.54864], [133.58659, 34.54862], [133.57651, 34.54487], [133.56676, 34.54123], [133.56669, 34.54121], [133.5645, 34.54039], [133.56433, 34.54033], [133.56369, 34.54009], [133.56357, 34.54004], [133.56303, 34.53984], [133.55347, 34.53633], [133.55272, 34.53605], [133.55245, 34.53596], [133.55237, 34.53593], [133.55201, 34.53581], [133.55036, 34.53537], [133.54551, 34.53418], [133.54494, 34.53405], [133.54233, 34.53348], [133.53858, 34.53281], [133.53812, 34.53272], [133.53501, 34.53222], [133.53413, 34.53211], [133.53326, 34.532], [133.53035, 34.53163], [133.52863, 34.53144], [133.52392, 34.5311], [133.52381, 34.53109], [133.52264, 34.531], [133.52254, 34.531], [133.52218, 34.53097], [133.5182, 34.53064], [133.51483, 34.5303], [133.51172, 34.53001], [133.51153, 34.52998], [133.51034, 34.52979], [133.50611, 34.52926], [133.50055, 34.52877], [133.49738, 34.52848], [133.49527, 34.52821], [133.49414, 34.52802], [133.49404, 34.528], [133.494, 34.52799], [133.49252, 34.52774], [133.49051, 34.52737], [133.49044, 34.52735], [133.48935, 34.52715], [133.48782, 34.52685], [133.48662, 34.52661], [133.48452, 34.5261], [133.48356, 34.52586], [133.48292, 34.52569], [133.48179, 34.52539], [133.47982, 34.52482], [133.47871, 34.52449], [133.47715, 34.52402], [133.47498, 34.52328], [133.47403, 34.52294], [133.47268, 34.52245], [133.47166, 34.52209], [133.46959, 34.52134], [133.46915, 34.52118], [133.46851, 34.52095], [133.46844, 34.52093], [133.46292, 34.51896], [133.46281, 34.51892], [133.46237, 34.5188], [133.46135, 34.5184], [133.46012, 34.51788], [133.45895, 34.51735], [133.45785, 34.51683], [133.45693, 34.51638], [133.45596, 34.51589], [133.45446, 34.51511], [133.45321, 34.51445], [133.45232, 34.51398], [133.45012, 34.51285], [133.44976, 34.51265], [133.44871, 34.51208], [133.44859, 34.51202], [133.44681, 34.5111], [133.44657, 34.51097], [133.44533, 34.5103], [133.4441, 34.50968], [133.44032, 34.50765], [133.43788, 34.50633], [133.43729, 34.50603], [133.43528, 34.50502], [133.4332, 34.50391], [133.43242, 34.50351], [133.43219, 34.50344], [133.43179, 34.50325], [133.43051, 34.50254], [133.42943, 34.50196], [133.42756, 34.50103], [133.4262, 34.50044], [133.42527, 34.50008], [133.42454, 34.4998], [133.42293, 34.49924], [133.42199, 34.49893], [133.42116, 34.49869], [133.42066, 34.49855], [133.41999, 34.49838], [133.41888, 34.4981], [133.41792, 34.49789], [133.41727, 34.49775], [133.41625, 34.49753], [133.41529, 34.49735], [133.41355, 34.49699], [133.4124, 34.49677], [133.41121, 34.49654], [133.41042, 34.49638], [133.40894, 34.4961], [133.40752, 34.49583], [133.40677, 34.49568], [133.40649, 34.49563], [133.40559, 34.49546], [133.4051, 34.49536], [133.40418, 34.49519], [133.40339, 34.49503], [133.40276, 34.49491], [133.40148, 34.49467], [133.39999, 34.49439], [133.39959, 34.49431], [133.39886, 34.49418], [133.39833, 34.49408], [133.39745, 34.49392], [133.3959, 34.49364], [133.39569, 34.4936], [133.39526, 34.49352], [133.3939, 34.49327], [133.39302, 34.49311], [133.39224, 34.49297], [133.39164, 34.49287], [133.39039, 34.49269], [133.38991, 34.49263], [133.3893, 34.49258], [133.38886, 34.49256], [133.3882, 34.49252], [133.38764, 34.49251], [133.38622, 34.49249], [133.38474, 34.49248], [133.38327, 34.49247]]}, "properties": {"id": "GEOM_TOKYO_0690", "route_id": "R_A02272B9", "route_name": null, "route_color": "#1263D6", "route_text_color": null, "line_name": "山陽新幹線", "operator_id": "西日本旅客鉄道", "representation": "service_path", "min_zoom": 0, "max_zoom": 24, "offset_rank": 0}}]}