{"type": "FeatureCollection", "features": [{"type": "Feature", "bbox": [129.86913811628926, 32.75353738004151, 130.04168651572434, 32.851580889614866], "geometry": {"type": "LineString", "coordinates": [[129.86913811628926, 32.75353738004151], [129.8692342861716, 32.7561042236016], [129.8693151878458, 32.7571607042882], [129.86935325922184, 32.75771273924158], [129.86946747335014, 32.7582457385069], [129.86963879454254, 32.7588358448362], [129.87000047261552, 32.75969245079841], [129.87055250756873, 32.760720377952964], [129.8717707916038, 32.76289044639026], [129.8728558258225, 32.764889193635156], [129.8734268964639, 32.76572676390924], [129.8741121812335, 32.76664047693538], [129.87472132325104, 32.76738286876929], [129.87552082214904, 32.768296581795596], [129.8767962132481, 32.76970522271097], [129.87837617535615, 32.77143747032335], [129.88001324452807, 32.77318875362357], [129.88163127801215, 32.77482582279555], [129.88334448993635, 32.77636771352741], [129.8855335940616, 32.77808092545155], [129.8869612706651, 32.779070781230075], [129.8889600179101, 32.78028906526498], [129.89069226552226, 32.78127892104345], [129.89225319194225, 32.782116491317595], [129.89425193918714, 32.78301116865566], [129.8964981503766, 32.7839058459939], [129.89893471844664, 32.78470534489196], [129.9022659638548, 32.7856190579181], [129.905578173575, 32.78624723562365], [129.90858581228645, 32.78660891369657], [129.91104141604444, 32.786837341953174], [129.91338280567413, 32.78698962745756], [129.91747547860416, 32.787237091402176], [129.9205973314439, 32.78742744828264], [129.92472807574995, 32.78767491222726], [129.93036263941178, 32.78803659030018], [129.93546420380835, 32.78832212562088], [129.94507722627213, 32.78895030332632], [129.94698079507668, 32.78904548176655], [129.94871304268906, 32.789178731582865], [129.95014627136834, 32.789331810240924], [129.95127651534597, 32.78945078329133], [129.95275178116958, 32.789641140171796], [129.95465534997425, 32.78993857279738], [129.957391730131, 32.79045015691378], [129.96002341400344, 32.791009330250006], [129.96253612482565, 32.79165654364368], [129.96392573005312, 32.79213243584485], [129.9672569754614, 32.79321747006344], [129.97001715022816, 32.79426443290606], [129.97235853985774, 32.7952733243726], [129.9749664291203, 32.79651064409558], [129.9788877808578, 32.79852842702849], [129.98269491846713, 32.800565245649636], [129.98751094754311, 32.80305892078371], [129.99299322570062, 32.805933309678835], [129.99975089495706, 32.80947394765542], [130.00542352999503, 32.81244351499072], [130.0097255954936, 32.814670690492164], [130.0121811992518, 32.815984152967474], [130.0153791948435, 32.81802097158845], [130.01796804841786, 32.81986743332891], [130.01985258153456, 32.82142835974889], [130.02175615033923, 32.82310350029695], [130.02369779052015, 32.82506417616571], [130.024916074555, 32.826453781393184], [130.02609628721382, 32.82776724386832], [130.02739071400094, 32.82946142010462], [130.02897067610888, 32.83172666698215], [130.03100749472992, 32.83471527000552], [130.03315852747915, 32.83787519422134], [130.03420549032194, 32.83922672807256], [130.0353095602286, 32.84052115485969], [130.0365088085756, 32.84173943889476], [130.0385456271964, 32.84360493632329], [130.04003041086412, 32.84497550586275], [130.04050630306529, 32.845508505128066], [130.04098219526657, 32.84625089696175], [130.04128676627533, 32.846879074667356], [130.0414771231558, 32.847488216684894], [130.0415913372841, 32.84809735870243], [130.04168651572434, 32.84866842934372], [130.04166748003627, 32.849277571361256], [130.0415913372841, 32.849867677690725], [130.04149615884387, 32.85045778402019], [130.0411154450827, 32.851580889614866]]}, "properties": {"id": "TRACK_TOKYO_4584", "line_name": "西九州新幹線", "station_group_ids": [], "mode": "shinkansen", "operator_id": "九州旅客鉄道", "line_color": "#7C4DFF", "tags": ["tokyo", "track_centerline"]}}, {"type": "Feature", "bbox": [130.04064118526958, 32.851580889614866, 130.0411154450827, 32.85316599117493], "geometry": {"type": "LineString", "coordinates": [[130.0411154450827, 32.851580889614866], [130.04064118526958, 32.85316599117493]]}, "properties": {"id": "TRACK_TOKYO_4585", "line_name": "西九州新幹線", "station_group_ids": [], "mode": "shinkansen", "operator_id": "九州旅客鉄道", "line_color": "#7C4DFF", "tags": ["tokyo", "track_centerline"]}}, {"type": "Feature", "bbox": [129.95756327958088, 32.85316599117493, 130.04064118526958, 32.932261954110515], "geometry": {"type": "LineString", "coordinates": [[130.04064118526958, 32.85316599117493], [130.03996303888323, 32.855676322536226], [130.0389517679556, 32.85923361673974], [130.03785007750992, 32.86282184393673], [130.03712196244214, 32.865063296204085], [130.03667938269484, 32.86619116072086], [130.03592271409525, 32.86771877468669], [130.0353373666876, 32.868803808905284], [130.03445220719345, 32.87027431580691], [130.0337240921258, 32.87144501062181], [130.03328151237872, 32.87200180449713], [130.03268188820516, 32.87282985692718], [130.0318538357751, 32.87391489114589], [130.03131131866564, 32.874585899149565], [130.03059748036412, 32.87537112128149], [130.0297265976359, 32.876284834307626], [130.0289984825681, 32.87698439584341], [130.02805621600976, 32.877940939167786], [130.02681413736468, 32.878954589556315], [130.02560061225176, 32.879982516710754], [130.02450130126692, 32.88079629237484], [130.02358758824084, 32.8814387468463], [130.02233123282986, 32.882266799276294], [130.02146035010162, 32.88282359315167], [130.02026110175473, 32.88345177085728], [130.01946160285672, 32.88392290413651], [130.01800537272118, 32.884651019204284], [130.01612083960458, 32.88553617869843], [130.01386511057092, 32.88644989172457], [130.01102403412995, 32.88750637241117], [130.0092679919078, 32.88812027335064], [130.00464231971227, 32.8898905923391], [130.00085897671306, 32.89128971541055], [129.99791796290992, 32.89237474962914], [129.99440587846527, 32.8937453191686], [129.99272122007312, 32.894516264534445], [129.9916932929185, 32.8949731210476], [129.98983731333396, 32.895915387605896], [129.98805271757954, 32.896900484462265], [129.9864251662517, 32.897899858084656], [129.9844264190067, 32.89921332056002], [129.98212785967496, 32.90086942542001], [129.97970080944913, 32.90286817266485], [129.9778591066306, 32.904595661355074], [129.97616017147232, 32.90618038238506], [129.97470394133677, 32.9076080589885], [129.97304783647678, 32.90926416384866], [129.97119185689235, 32.911091589901105], [129.96890757432675, 32.91329021187056], [129.96686599678367, 32.9152604055833], [129.96545259694608, 32.91667380542077], [129.96332535880686, 32.91877249002789], [129.96236881548248, 32.919814693948354], [129.96171208424494, 32.92072840697466], [129.96108390653933, 32.92179916442734], [129.96068415709055, 32.9227699845178], [129.96028440764155, 32.92419766112124], [129.95982755112834, 32.926653264879235], [129.95949918550957, 32.928266539441154], [129.9591708198908, 32.92922308276553], [129.95852196442013, 32.930527089090845], [129.95756327958088, 32.932261954110515]]}, "properties": {"id": "TRACK_TOKYO_4586", "line_name": "西九州新幹線", "station_group_ids": [], "mode": "shinkansen", "operator_id": "九州旅客鉄道", "line_color": "#7C4DFF", "tags": ["tokyo", "track_centerline"]}}]}