{"type": "FeatureCollection", "features": [{"type": "Feature", "bbox": [139.80746, 36.3155, 139.89761, 36.55688], "geometry": {"type": "LineString", "coordinates": [[139.80746, 36.3155], [139.80838, 36.31707], [139.80849, 36.31725], [139.81094, 36.32143], [139.81117, 36.32184], [139.81197, 36.32324], [139.81341, 36.32564], [139.81416, 36.32693], [139.81504, 36.32851], [139.81671, 36.33139], [139.81966, 36.33649], [139.81968, 36.33653], [139.82142, 36.33954], [139.82309, 36.3424], [139.82441, 36.34468], [139.82453, 36.34488], [139.82554, 36.34662], [139.82917, 36.35282], [139.82974, 36.35379], [139.83197, 36.35757], [139.83395, 36.36095], [139.83405, 36.36112], [139.83561, 36.36381], [139.8375, 36.36703], [139.83872, 36.36909], [139.83924, 36.36997], [139.84071, 36.37247], [139.84157, 36.37393], [139.84264, 36.37571], [139.84276, 36.37593], [139.84351, 36.37722], [139.84456, 36.379], [139.84509, 36.37991], [139.84643, 36.38224], [139.8475, 36.38408], [139.84764, 36.38433], [139.84946, 36.38742], [139.85061, 36.3894], [139.85227, 36.39221], [139.85239, 36.39241], [139.85396, 36.39509], [139.8549, 36.39671], [139.85665, 36.39969], [139.85704, 36.40035], [139.85772, 36.40149], [139.85774, 36.40154], [139.85842, 36.40272], [139.85912, 36.40407], [139.86023, 36.40625], [139.86077, 36.40741], [139.86108, 36.40817], [139.86125, 36.40862], [139.86171, 36.40989], [139.86193, 36.4105], [139.86222, 36.41142], [139.8625, 36.4125], [139.86339, 36.41696], [139.86374, 36.41874], [139.86387, 36.41938], [139.86396, 36.41982], [139.86396, 36.41983], [139.86408, 36.42055], [139.86413, 36.4209], [139.86418, 36.4212], [139.86427, 36.42171], [139.86439, 36.42229], [139.86477, 36.4245], [139.86479, 36.42457], [139.86563, 36.42921], [139.86568, 36.42947], [139.86577, 36.42993], [139.86599, 36.43118], [139.8673, 36.43839], [139.86747, 36.43937], [139.86748, 36.4394], [139.86751, 36.4396], [139.86755, 36.43979], [139.86762, 36.4402], [139.86797, 36.44207], [139.86843, 36.4446], [139.86909, 36.44829], [139.86945, 36.45028], [139.86957, 36.45096], [139.86977, 36.45205], [139.8698, 36.45223], [139.86984, 36.45243], [139.87007, 36.4537], [139.87017, 36.45423], [139.87025, 36.45469], [139.87045, 36.45576], [139.87055, 36.45633], [139.87083, 36.4579], [139.87155, 36.46186], [139.8716, 36.46214], [139.87173, 36.46288], [139.87183, 36.46342], [139.8719, 36.46385], [139.87196, 36.46413], [139.87203, 36.46455], [139.87229, 36.46609], [139.87258, 36.4677], [139.8729, 36.46952], [139.87313, 36.47084], [139.87376, 36.47429], [139.87423, 36.47678], [139.87433, 36.4773], [139.87497, 36.48071], [139.87547, 36.48338], [139.87591, 36.48569], [139.87596, 36.48593], [139.87642, 36.48844], [139.87652, 36.48897], [139.87666, 36.48965], [139.87672, 36.48993], [139.87679, 36.49018], [139.87703, 36.49105], [139.8771, 36.49134], [139.87738, 36.49222], [139.87758, 36.49282], [139.87763, 36.49298], [139.87768, 36.49313], [139.87819, 36.4945], [139.87829, 36.49474], [139.8791, 36.49689], [139.87988, 36.49904], [139.88056, 36.50098], [139.88101, 36.50224], [139.88134, 36.50314], [139.8817, 36.50405], [139.88191, 36.50459], [139.88255, 36.50639], [139.88414, 36.51072], [139.88488, 36.51268], [139.88522, 36.51358], [139.88639, 36.51678], [139.8872, 36.51893], [139.88808, 36.52131], [139.8882, 36.52164], [139.88945, 36.52508], [139.89031, 36.52739], [139.89086, 36.52897], [139.89108, 36.52967], [139.89116, 36.52997], [139.89165, 36.53183], [139.8925, 36.53514], [139.89334, 36.53881], [139.89356, 36.53977], [139.8945, 36.54374], [139.89543, 36.54767], [139.89574, 36.549], [139.89651, 36.55218], [139.89753, 36.55652], [139.89761, 36.55688]]}, "properties": {"id": "GEOM_TOKYO_3079", "route_id": "R_86450D72", "route_name": null, "route_color": "#2D9C5B", "route_text_color": null, "line_name": "東北新幹線", "operator_id": "jr_east", "representation": "service_path", "min_zoom": 0, "max_zoom": 24, "offset_rank": 0}}, {"type": "Feature", "bbox": [139.83586, 36.4864, 139.85004, 36.51384], "geometry": {"type": "LineString", "coordinates": [[139.85004, 36.51384], [139.84857, 36.51149], [139.84835, 36.51114], [139.8462, 36.50775], [139.84323, 36.50314], [139.84314, 36.50298], [139.84246, 36.50185], [139.84219, 36.50142], [139.84218, 36.50141], [139.84215, 36.50136], [139.84212, 36.50132], [139.84211, 36.5013], [139.84173, 36.5007], [139.84159, 36.5005], [139.84158, 36.50048], [139.84108, 36.49971], [139.84107, 36.4997], [139.84105, 36.49966], [139.84064, 36.49903], [139.84053, 36.49885], [139.84046, 36.49874], [139.84027, 36.49848], [139.83968, 36.49758], [139.83955, 36.49735], [139.83931, 36.49696], [139.83912, 36.49658], [139.83894, 36.49615], [139.83873, 36.49544], [139.83851, 36.49474], [139.83846, 36.49461], [139.83845, 36.4946], [139.83845, 36.49456], [139.83837, 36.4943], [139.83821, 36.49381], [139.83816, 36.49365], [139.83809, 36.49344], [139.83776, 36.4924], [139.83729, 36.49093], [139.83711, 36.49042], [139.83706, 36.49019], [139.83702, 36.49011], [139.83701, 36.49006], [139.83699, 36.48997], [139.83691, 36.48973], [139.8369, 36.48971], [139.83676, 36.4893], [139.83644, 36.48827], [139.83621, 36.48754], [139.83619, 36.48748], [139.83615, 36.48739], [139.83614, 36.48735], [139.836, 36.48688], [139.83588, 36.48652], [139.83586, 36.4864]]}, "properties": {"id": "GEOM_TOKYO_3659", "route_id": "R_B2C6F506", "route_name": "宇都宮線", "route_color": "#1F78FF", "route_text_color": "#ffffff", "line_name": "宇都宮線", "operator_id": "tobu", "representation": "service_path", "min_zoom": 0, "max_zoom": 24, "offset_rank": 0}}, {"type": "Feature", "bbox": [139.82337, 36.4507, 139.82433, 36.45221], "geometry": {"type": "LineString", "coordinates": [[139.82337, 36.4507], [139.82433, 36.45221]]}, "properties": {"id": "GEOM_TOKYO_3660", "route_id": "R_B2C6F506", "route_name": "宇都宮線", "route_color": "#1F78FF", "route_text_color": "#ffffff", "line_name": "宇都宮線", "operator_id": "tobu", "representation": "service_path", "min_zoom": 0, "max_zoom": 24, "offset_rank": 0}}, {"type": "Feature", "bbox": [139.80533, 36.4229, 139.82337, 36.4507], "geometry": {"type": "LineString", "coordinates": [[139.80533, 36.4229], [139.80543, 36.42306], [139.80559, 36.42331], [139.80566, 36.42339], [139.8063, 36.42438], [139.80667, 36.42494], [139.80671, 36.42499], [139.80678, 36.42511], [139.80706, 36.42553], [139.80714, 36.42566], [139.80763, 36.42643], [139.80805, 36.42708], [139.80851, 36.42779], [139.8089, 36.42839], [139.80998, 36.43008], [139.81014, 36.43032], [139.81045, 36.43082], [139.81054, 36.43095], [139.81066, 36.43114], [139.8108, 36.43136], [139.81081, 36.43138], [139.81091, 36.43151], [139.81103, 36.43172], [139.81118, 36.43195], [139.81121, 36.43198], [139.8117, 36.43275], [139.81221, 36.43354], [139.81228, 36.43366], [139.8125, 36.43398], [139.81318, 36.43504], [139.8132, 36.43507], [139.81328, 36.43519], [139.81371, 36.43586], [139.81373, 36.43588], [139.81425, 36.4367], [139.81531, 36.43835], [139.81617, 36.43968], [139.81619, 36.4397], [139.8163, 36.43986], [139.81633, 36.43993], [139.81654, 36.44023], [139.81691, 36.44079], [139.81691, 36.44081], [139.81695, 36.44084], [139.8173, 36.44141], [139.81746, 36.44163], [139.81782, 36.44221], [139.81831, 36.44297], [139.81833, 36.443], [139.81895, 36.44398], [139.81901, 36.44407], [139.81902, 36.44407], [139.81902, 36.4441], [139.81933, 36.44458], [139.81943, 36.44473], [139.81945, 36.44475], [139.81987, 36.44538], [139.82012, 36.44577], [139.82086, 36.44692], [139.82097, 36.44708], [139.82131, 36.44761], [139.82135, 36.44766], [139.8214, 36.44772], [139.82172, 36.44821], [139.82186, 36.44843], [139.82191, 36.44848], [139.82217, 36.44888], [139.82243, 36.44928], [139.82248, 36.44935], [139.82253, 36.44943], [139.82322, 36.45047], [139.82337, 36.4507]]}, "properties": {"id": "GEOM_TOKYO_3661", "route_id": "R_B2C6F506", "route_name": "宇都宮線", "route_color": "#1F78FF", "route_text_color": "#ffffff", "line_name": "宇都宮線", "operator_id": "tobu", "representation": "service_path", "min_zoom": 0, "max_zoom": 24, "offset_rank": 0}}, {"type": "Feature", "bbox": [139.82936, 36.46621, 139.82971, 36.46728], "geometry": {"type": "LineString", "coordinates": [[139.82936, 36.46621], [139.82971, 36.46728]]}, "properties": {"id": "GEOM_TOKYO_3666", "route_id": "R_B2C6F506", "route_name": "宇都宮線", "route_color": "#1F78FF", "route_text_color": "#ffffff", "line_name": "宇都宮線", "operator_id": "tobu", "representation": "service_path", "min_zoom": 0, "max_zoom": 24, "offset_rank": 0}}, {"type": "Feature", "bbox": [139.85057, 36.51466, 139.86056, 36.53054], "geometry": {"type": "LineString", "coordinates": [[139.86056, 36.53054], [139.85751, 36.52568], [139.85563, 36.52269], [139.85489, 36.52151], [139.85329, 36.51898], [139.85057, 36.51466]]}, "properties": {"id": "GEOM_TOKYO_3668", "route_id": "R_B2C6F506", "route_name": "宇都宮線", "route_color": "#1F78FF", "route_text_color": "#ffffff", "line_name": "宇都宮線", "operator_id": "tobu", "representation": "service_path", "min_zoom": 0, "max_zoom": 24, "offset_rank": 0}}, {"type": "Feature", "bbox": [139.82971, 36.46728, 139.83538, 36.48489], "geometry": {"type": "LineString", "coordinates": [[139.82971, 36.46728], [139.82976, 36.4674], [139.82985, 36.46767], [139.83002, 36.46821], [139.83008, 36.4684], [139.83032, 36.46912], [139.83092, 36.471], [139.8314, 36.47253], [139.83154, 36.47292], [139.83156, 36.47299], [139.83166, 36.4733], [139.83192, 36.47413], [139.83204, 36.47449], [139.83259, 36.47619], [139.8326, 36.47622], [139.83262, 36.47629], [139.83289, 36.47712], [139.83318, 36.47806], [139.83341, 36.47878], [139.83347, 36.47896], [139.8335, 36.47905], [139.83351, 36.47907], [139.83374, 36.47982], [139.83402, 36.48071], [139.8345, 36.48222], [139.83452, 36.48223], [139.83455, 36.48233], [139.83487, 36.48336], [139.83489, 36.48338], [139.83493, 36.48353], [139.83499, 36.4837], [139.83537, 36.48484], [139.83538, 36.48489]]}, "properties": {"id": "GEOM_TOKYO_3669", "route_id": "R_B2C6F506", "route_name": "宇都宮線", "route_color": "#1F78FF", "route_text_color": "#ffffff", "line_name": "宇都宮線", "operator_id": "tobu", "representation": "service_path", "min_zoom": 0, "max_zoom": 24, "offset_rank": 0}}, {"type": "Feature", "bbox": [139.83538, 36.48489, 139.83586, 36.4864], "geometry": {"type": "LineString", "coordinates": [[139.83586, 36.4864], [139.83538, 36.48489]]}, "properties": {"id": "GEOM_TOKYO_3672", "route_id": "R_B2C6F506", "route_name": "宇都宮線", "route_color": "#1F78FF", "route_text_color": "#ffffff", "line_name": "宇都宮線", "operator_id": "tobu", "representation": "service_path", "min_zoom": 0, "max_zoom": 24, "offset_rank": 0}}, {"type": "Feature", "bbox": [139.82433, 36.45221, 139.82936, 36.46621], "geometry": {"type": "LineString", "coordinates": [[139.82936, 36.46621], [139.82935, 36.46616], [139.82915, 36.46547], [139.82913, 36.46544], [139.82891, 36.46471], [139.82845, 36.46323], [139.82826, 36.46263], [139.82818, 36.46235], [139.82801, 36.46177], [139.82798, 36.46168], [139.82795, 36.46162], [139.82781, 36.46121], [139.82767, 36.46074], [139.8274, 36.4599], [139.82725, 36.45946], [139.82685, 36.45816], [139.82676, 36.45787], [139.82654, 36.45718], [139.8263, 36.45642], [139.82627, 36.45635], [139.82627, 36.45632], [139.82614, 36.45589], [139.82613, 36.45588], [139.8259, 36.45511], [139.82568, 36.45451], [139.82556, 36.45425], [139.82543, 36.45402], [139.82538, 36.45393], [139.82533, 36.45384], [139.82518, 36.4536], [139.82496, 36.45323], [139.82489, 36.45313], [139.82486, 36.45308], [139.82473, 36.45285], [139.82462, 36.45269], [139.82433, 36.45221]]}, "properties": {"id": "GEOM_TOKYO_3676", "route_id": "R_B2C6F506", "route_name": "宇都宮線", "route_color": "#1F78FF", "route_text_color": "#ffffff", "line_name": "宇都宮線", "operator_id": "tobu", "representation": "service_path", "min_zoom": 0, "max_zoom": 24, "offset_rank": 0}}, {"type": "Feature", "bbox": [139.85004, 36.51384, 139.85057, 36.51466], "geometry": {"type": "LineString", "coordinates": [[139.85057, 36.51466], [139.85004, 36.51384]]}, "properties": {"id": "GEOM_TOKYO_3679", "route_id": "R_B2C6F506", "route_name": "宇都宮線", "route_color": "#1F78FF", "route_text_color": "#ffffff", "line_name": "宇都宮線", "operator_id": "tobu", "representation": "service_path", "min_zoom": 0, "max_zoom": 24, "offset_rank": 0}}, {"type": "Feature", "bbox": [139.74133, 36.53445, 139.74529, 36.55601], "geometry": {"type": "LineString", "coordinates": [[139.74488, 36.55601], [139.74496, 36.55542], [139.74498, 36.55526], [139.745, 36.55513], [139.74505, 36.55485], [139.74509, 36.55452], [139.74529, 36.5532], [139.74529, 36.55266], [139.74525, 36.55234], [139.74506, 36.55152], [139.74496, 36.55108], [139.7447, 36.55005], [139.74466, 36.54987], [139.74449, 36.54921], [139.74441, 36.54889], [139.7441, 36.54767], [139.74408, 36.54758], [139.74345, 36.54513], [139.74341, 36.545], [139.74338, 36.54486], [139.74293, 36.5431], [139.74288, 36.54297], [139.74268, 36.54214], [139.74263, 36.54194], [139.74259, 36.54182], [139.7423, 36.5407], [139.74198, 36.53942], [139.74177, 36.53855], [139.74175, 36.53847], [139.74152, 36.53755], [139.74135, 36.53687], [139.74133, 36.53657], [139.74143, 36.53568], [139.74156, 36.53445]]}, "properties": {"id": "GEOM_TOKYO_3867", "route_id": "R_FB68CB74", "route_name": "日光線", "route_color": "#1F78FF", "route_text_color": "#ffffff", "line_name": "日光線", "operator_id": "tobu", "representation": "service_path", "min_zoom": 0, "max_zoom": 24, "offset_rank": 0}}, {"type": "Feature", "bbox": [139.74156, 36.53203, 139.74193, 36.53445], "geometry": {"type": "LineString", "coordinates": [[139.74156, 36.53445], [139.74161, 36.53415], [139.74173, 36.53344], [139.74185, 36.53258], [139.74193, 36.53203]]}, "properties": {"id": "GEOM_TOKYO_3870", "route_id": "R_FB68CB74", "route_name": "日光線", "route_color": "#1F78FF", "route_text_color": "#ffffff", "line_name": "日光線", "operator_id": "tobu", "representation": "service_path", "min_zoom": 0, "max_zoom": 24, "offset_rank": 0}}, {"type": "Feature", "bbox": [139.70757, 36.61888, 139.70799, 36.61992], "geometry": {"type": "LineString", "coordinates": [[139.70799, 36.61888], [139.70757, 36.61992]]}, "properties": {"id": "GEOM_TOKYO_3872", "route_id": "R_FB68CB74", "route_name": "日光線", "route_color": "#1F78FF", "route_text_color": "#ffffff", "line_name": "日光線", "operator_id": "tobu", "representation": "service_path", "min_zoom": 0, "max_zoom": 24, "offset_rank": 0}}, {"type": "Feature", "bbox": [139.70799, 36.58125, 139.73723, 36.61888], "geometry": {"type": "LineString", "coordinates": [[139.70799, 36.61888], [139.70853, 36.61763], [139.70854, 36.61756], [139.70864, 36.61735], [139.70893, 36.61669], [139.70903, 36.61648], [139.70908, 36.61635], [139.70943, 36.61552], [139.70949, 36.61537], [139.70993, 36.61439], [139.71034, 36.61344], [139.71053, 36.61299], [139.71055, 36.61294], [139.71076, 36.61247], [139.71084, 36.61228], [139.71103, 36.61186], [139.71105, 36.6118], [139.71125, 36.61134], [139.71155, 36.61077], [139.71193, 36.61026], [139.71206, 36.61006], [139.71212, 36.60999], [139.7124, 36.60958], [139.7126, 36.60931], [139.71295, 36.60879], [139.71312, 36.60856], [139.71322, 36.60841], [139.71379, 36.60759], [139.71408, 36.60726], [139.71429, 36.60705], [139.71486, 36.60654], [139.71656, 36.60512], [139.71706, 36.6047], [139.71735, 36.60447], [139.71835, 36.60363], [139.71881, 36.6032], [139.71903, 36.60293], [139.71981, 36.602], [139.72005, 36.60173], [139.72025, 36.60149], [139.72034, 36.60138], [139.72049, 36.6012], [139.72067, 36.60098], [139.72143, 36.60009], [139.72214, 36.59925], [139.72232, 36.59903], [139.72247, 36.59887], [139.72319, 36.59803], [139.72363, 36.59749], [139.7247, 36.59616], [139.72516, 36.59557], [139.72542, 36.5952], [139.7264, 36.59388], [139.72679, 36.59336], [139.72692, 36.5932], [139.72742, 36.59252], [139.72944, 36.58983], [139.73016, 36.58885], [139.73106, 36.58774], [139.73177, 36.58688], [139.7321, 36.58646], [139.73325, 36.58513], [139.73418, 36.58414], [139.73503, 36.58331], [139.73566, 36.5827], [139.736, 36.58238], [139.73629, 36.58212], [139.73635, 36.58206], [139.73648, 36.58194], [139.73655, 36.58187], [139.73657, 36.58186], [139.73664, 36.58179], [139.73668, 36.58176], [139.737, 36.58147], [139.73703, 36.58143], [139.73723, 36.58125]]}, "properties": {"id": "GEOM_TOKYO_3873", "route_id": "R_FB68CB74", "route_name": "日光線", "route_color": "#1F78FF", "route_text_color": "#ffffff", "line_name": "日光線", "operator_id": "tobu", "representation": "service_path", "min_zoom": 0, "max_zoom": 24, "offset_rank": 0}}, {"type": "Feature", "bbox": [139.69373, 36.6771, 139.71215, 36.7253], "geometry": {"type": "LineString", "coordinates": [[139.71215, 36.6771], [139.7121, 36.67761], [139.71203, 36.67814], [139.71197, 36.67884], [139.71195, 36.67886], [139.7119, 36.67934], [139.71188, 36.67954], [139.71179, 36.68032], [139.71167, 36.68138], [139.71162, 36.6817], [139.71155, 36.68234], [139.71144, 36.6832], [139.71131, 36.68434], [139.71123, 36.68501], [139.7112, 36.6853], [139.71119, 36.68535], [139.71104, 36.68659], [139.71092, 36.6877], [139.71088, 36.68793], [139.71078, 36.68887], [139.71069, 36.68971], [139.71065, 36.68992], [139.71059, 36.69046], [139.71048, 36.69131], [139.71045, 36.69163], [139.71042, 36.69193], [139.7104, 36.69208], [139.7104, 36.69215], [139.71036, 36.69239], [139.7103, 36.69291], [139.71008, 36.69481], [139.71001, 36.69544], [139.70984, 36.69679], [139.70973, 36.69766], [139.70969, 36.69798], [139.70965, 36.6984], [139.70964, 36.69855], [139.70956, 36.69917], [139.70937, 36.70057], [139.70932, 36.70112], [139.70925, 36.70167], [139.70916, 36.70246], [139.70912, 36.7028], [139.70911, 36.70289], [139.70909, 36.70307], [139.70904, 36.70356], [139.70901, 36.70379], [139.70896, 36.70416], [139.70895, 36.70423], [139.70891, 36.70456], [139.70888, 36.70476], [139.70884, 36.70514], [139.70876, 36.70586], [139.70874, 36.70599], [139.70871, 36.70628], [139.70867, 36.70665], [139.70862, 36.70718], [139.70855, 36.70764], [139.70848, 36.70817], [139.70843, 36.70867], [139.70837, 36.70909], [139.70831, 36.70968], [139.70822, 36.71028], [139.70817, 36.71075], [139.70813, 36.71099], [139.70811, 36.71124], [139.70808, 36.71142], [139.70798, 36.71196], [139.70796, 36.71204], [139.70785, 36.71236], [139.70771, 36.71268], [139.70753, 36.71302], [139.70748, 36.7131], [139.70743, 36.71321], [139.70736, 36.71333], [139.70728, 36.71346], [139.70719, 36.71364], [139.70716, 36.7137], [139.707, 36.71396], [139.70649, 36.71459], [139.70608, 36.71507], [139.7058, 36.71542], [139.70564, 36.71562], [139.70525, 36.71609], [139.70515, 36.71622], [139.70508, 36.71629], [139.70504, 36.71634], [139.705, 36.71639], [139.70494, 36.71647], [139.70487, 36.71656], [139.7044, 36.71713], [139.70436, 36.71719], [139.70417, 36.71741], [139.70361, 36.71807], [139.70314, 36.71866], [139.70306, 36.71875], [139.70255, 36.71937], [139.70231, 36.71965], [139.7022, 36.71979], [139.7021, 36.7199], [139.70189, 36.72016], [139.70178, 36.72029], [139.7015, 36.72064], [139.70136, 36.7208], [139.70088, 36.72138], [139.70085, 36.72142], [139.70059, 36.72172], [139.70059, 36.72175], [139.70057, 36.72175], [139.69996, 36.7225], [139.69994, 36.72254], [139.69975, 36.72271], [139.69918, 36.72318], [139.69878, 36.72347], [139.69867, 36.72354], [139.69847, 36.72367], [139.69843, 36.72369], [139.69815, 36.72384], [139.69795, 36.72391], [139.69783, 36.72397], [139.69736, 36.72414], [139.69725, 36.72418], [139.69662, 36.72438], [139.69624, 36.72451], [139.69515, 36.72487], [139.69497, 36.72491], [139.69492, 36.72492], [139.69416, 36.72518], [139.69398, 36.72523], [139.69373, 36.7253]]}, "properties": {"id": "GEOM_TOKYO_3875", "route_id": "R_FB68CB74", "route_name": "日光線", "route_color": "#1F78FF", "route_text_color": "#ffffff", "line_name": "日光線", "operator_id": "tobu", "representation": "service_path", "min_zoom": 0, "max_zoom": 24, "offset_rank": 0}}, {"type": "Feature", "bbox": [139.74193, 36.50811, 139.7451, 36.53203], "geometry": {"type": "LineString", "coordinates": [[139.74193, 36.53203], [139.74241, 36.52854], [139.74242, 36.52845], [139.74244, 36.52838], [139.74256, 36.52747], [139.74275, 36.52603], [139.74277, 36.52582], [139.74277, 36.52575], [139.74283, 36.52536], [139.74285, 36.52516], [139.74302, 36.52391], [139.74302, 36.52388], [139.74303, 36.52386], [139.74311, 36.52323], [139.74313, 36.52315], [139.74334, 36.52158], [139.74334, 36.52155], [139.74334, 36.52152], [139.74334, 36.52151], [139.74374, 36.51841], [139.74381, 36.51788], [139.74392, 36.51707], [139.74398, 36.51668], [139.74414, 36.51536], [139.74415, 36.51533], [139.74415, 36.5153], [139.74424, 36.51454], [139.7443, 36.51421], [139.74463, 36.51165], [139.74463, 36.51163], [139.74463, 36.51161], [139.74464, 36.51158], [139.74505, 36.50854], [139.74505, 36.50848], [139.7451, 36.50811]]}, "properties": {"id": "GEOM_TOKYO_3876", "route_id": "R_FB68CB74", "route_name": "日光線", "route_color": "#1F78FF", "route_text_color": "#ffffff", "line_name": "日光線", "operator_id": "tobu", "representation": "service_path", "min_zoom": 0, "max_zoom": 24, "offset_rank": 0}}, {"type": "Feature", "bbox": [139.74752, 36.43037, 139.75119, 36.4655], "geometry": {"type": "LineString", "coordinates": [[139.74752, 36.43037], [139.74756, 36.43074], [139.74757, 36.43079], [139.74759, 36.43089], [139.7476, 36.43099], [139.74773, 36.43208], [139.74774, 36.43215], [139.74776, 36.43231], [139.74785, 36.43316], [139.74788, 36.43332], [139.74804, 36.43461], [139.74806, 36.4348], [139.74808, 36.43492], [139.74817, 36.43566], [139.7482, 36.43587], [139.7482, 36.43592], [139.74831, 36.43679], [139.74834, 36.43707], [139.74835, 36.43715], [139.74842, 36.43768], [139.74842, 36.43774], [139.74843, 36.43779], [139.74865, 36.43952], [139.7487, 36.44001], [139.74878, 36.44064], [139.74887, 36.44132], [139.74896, 36.44201], [139.74896, 36.44213], [139.74897, 36.44217], [139.749, 36.44232], [139.74904, 36.44274], [139.74914, 36.44355], [139.74915, 36.44368], [139.74916, 36.44371], [139.74917, 36.44376], [139.74917, 36.44381], [139.74921, 36.44411], [139.7493, 36.44486], [139.7494, 36.44564], [139.74949, 36.44643], [139.74953, 36.44684], [139.74958, 36.44723], [139.74973, 36.44842], [139.74974, 36.44853], [139.74975, 36.44858], [139.74987, 36.4496], [139.7499, 36.4498], [139.74998, 36.45056], [139.74999, 36.45067], [139.75001, 36.45074], [139.75007, 36.45127], [139.75012, 36.45169], [139.75013, 36.45173], [139.75018, 36.45213], [139.75031, 36.45309], [139.75038, 36.45375], [139.7504, 36.45389], [139.75043, 36.45405], [139.75044, 36.45414], [139.75045, 36.45423], [139.75046, 36.45429], [139.75046, 36.45433], [139.75069, 36.45628], [139.75069, 36.45633], [139.75072, 36.45649], [139.75099, 36.45879], [139.751, 36.45884], [139.75101, 36.45895], [139.75104, 36.45921], [139.7511, 36.45971], [139.75116, 36.46011], [139.75116, 36.46018], [139.75119, 36.46054], [139.75119, 36.46124], [139.75113, 36.46209], [139.75103, 36.46256], [139.75093, 36.46287], [139.7509, 36.46295], [139.75087, 36.46304], [139.75045, 36.46405], [139.75022, 36.4646], [139.7502, 36.46467], [139.74985, 36.4655]]}, "properties": {"id": "GEOM_TOKYO_3877", "route_id": "R_FB68CB74", "route_name": "日光線", "route_color": "#1F78FF", "route_text_color": "#ffffff", "line_name": "日光線", "operator_id": "tobu", "representation": "service_path", "min_zoom": 0, "max_zoom": 24, "offset_rank": 0}}, {"type": "Feature", "bbox": [139.7451, 36.50601, 139.74538, 36.50811], "geometry": {"type": "LineString", "coordinates": [[139.7451, 36.50811], [139.74519, 36.50754], [139.74531, 36.50659], [139.74537, 36.50615], [139.74538, 36.50601]]}, "properties": {"id": "GEOM_TOKYO_3878", "route_id": "R_FB68CB74", "route_name": "日光線", "route_color": "#1F78FF", "route_text_color": "#ffffff", "line_name": "日光線", "operator_id": "tobu", "representation": "service_path", "min_zoom": 0, "max_zoom": 24, "offset_rank": 0}}, {"type": "Feature", "bbox": [139.7448, 36.4671, 139.74912, 36.50601], "geometry": {"type": "LineString", "coordinates": [[139.74538, 36.50601], [139.74552, 36.50476], [139.74556, 36.50444], [139.74557, 36.50431], [139.74571, 36.50314], [139.74582, 36.50217], [139.74597, 36.50089], [139.74618, 36.49921], [139.7463, 36.49809], [139.74649, 36.49663], [139.74659, 36.49583], [139.74667, 36.4952], [139.74674, 36.4947], [139.74678, 36.49434], [139.74713, 36.49228], [139.74713, 36.49217], [139.74721, 36.49171], [139.74729, 36.49122], [139.74732, 36.49108], [139.74748, 36.49004], [139.74749, 36.48993], [139.7475, 36.48987], [139.7475, 36.48984], [139.74756, 36.48956], [139.74761, 36.48919], [139.74773, 36.48845], [139.74773, 36.48841], [139.74773, 36.48838], [139.74775, 36.48835], [139.74779, 36.4881], [139.74783, 36.48778], [139.74792, 36.48723], [139.74795, 36.48704], [139.74796, 36.48701], [139.74801, 36.48665], [139.748, 36.4865], [139.74798, 36.48636], [139.74792, 36.48602], [139.74782, 36.48569], [139.74763, 36.48522], [139.74761, 36.48517], [139.7473, 36.48447], [139.7468, 36.48331], [139.74674, 36.48314], [139.74649, 36.48255], [139.74635, 36.48217], [139.74605, 36.48131], [139.74532, 36.4792], [139.74513, 36.47862], [139.74492, 36.478], [139.74484, 36.47768], [139.7448, 36.47734], [139.74481, 36.47704], [139.74485, 36.47674], [139.74489, 36.47659], [139.74509, 36.47615], [139.74526, 36.47575], [139.74556, 36.47503], [139.74584, 36.47434], [139.74608, 36.47376], [139.74654, 36.47266], [139.74674, 36.47218], [139.74691, 36.47181], [139.74696, 36.47174], [139.74697, 36.47169], [139.74706, 36.47152], [139.74736, 36.47095], [139.74737, 36.47091], [139.74759, 36.47043], [139.7476, 36.47041], [139.74762, 36.47038], [139.74774, 36.4701], [139.74842, 36.46863], [139.7485, 36.46848], [139.74854, 36.4684], [139.74856, 36.46833], [139.74886, 36.46769], [139.74891, 36.46757], [139.74909, 36.46715], [139.74912, 36.4671]]}, "properties": {"id": "GEOM_TOKYO_3880", "route_id": "R_FB68CB74", "route_name": "日光線", "route_color": "#1F78FF", "route_text_color": "#ffffff", "line_name": "日光線", "operator_id": "tobu", "representation": "service_path", "min_zoom": 0, "max_zoom": 24, "offset_rank": 0}}, {"type": "Feature", "bbox": [139.71378, 36.65056, 139.71403, 36.65219], "geometry": {"type": "LineString", "coordinates": [[139.71403, 36.65056], [139.71401, 36.65074], [139.71397, 36.65097], [139.71378, 36.65219]]}, "properties": {"id": "GEOM_TOKYO_3881", "route_id": "R_FB68CB74", "route_name": "日光線", "route_color": "#1F78FF", "route_text_color": "#ffffff", "line_name": "日光線", "operator_id": "tobu", "representation": "service_path", "min_zoom": 0, "max_zoom": 24, "offset_rank": 0}}, {"type": "Feature", "bbox": [139.70688, 36.61992, 139.71403, 36.65056], "geometry": {"type": "LineString", "coordinates": [[139.71403, 36.65056], [139.71396, 36.65005], [139.71395, 36.64996], [139.71387, 36.64971], [139.71377, 36.64944], [139.71364, 36.64915], [139.71343, 36.64879], [139.71336, 36.64868], [139.7132, 36.64839], [139.71312, 36.64825], [139.71295, 36.64798], [139.71263, 36.64744], [139.71225, 36.64679], [139.71217, 36.64667], [139.71207, 36.64649], [139.71186, 36.64613], [139.71172, 36.64589], [139.71152, 36.64558], [139.71135, 36.6453], [139.71131, 36.64522], [139.7112, 36.64496], [139.71114, 36.64478], [139.71109, 36.64452], [139.71109, 36.64446], [139.71107, 36.6442], [139.711, 36.64323], [139.71097, 36.64275], [139.71092, 36.6422], [139.71089, 36.64203], [139.71086, 36.64188], [139.7106, 36.64125], [139.70994, 36.64036], [139.70952, 36.63981], [139.70896, 36.63906], [139.70882, 36.63885], [139.70869, 36.63857], [139.70855, 36.63814], [139.70851, 36.63794], [139.70847, 36.63762], [139.70846, 36.63738], [139.70844, 36.63713], [139.70842, 36.63593], [139.70842, 36.63574], [139.7084, 36.63504], [139.70839, 36.63484], [139.7084, 36.63406], [139.7084, 36.6339], [139.70838, 36.63244], [139.70835, 36.63228], [139.70833, 36.63197], [139.7083, 36.63177], [139.70828, 36.63161], [139.70823, 36.63132], [139.70815, 36.63081], [139.70813, 36.63063], [139.70803, 36.63003], [139.708, 36.62982], [139.70795, 36.62947], [139.70778, 36.62833], [139.70775, 36.62818], [139.7077, 36.62785], [139.70768, 36.62769], [139.70764, 36.6274], [139.70757, 36.62701], [139.70751, 36.62663], [139.7075, 36.62655], [139.70749, 36.62646], [139.70741, 36.62597], [139.7072, 36.62462], [139.70707, 36.62372], [139.70701, 36.62321], [139.70693, 36.6227], [139.70691, 36.62248], [139.70688, 36.62208], [139.70688, 36.62191], [139.70693, 36.62161], [139.70698, 36.6214], [139.70703, 36.62124], [139.70732, 36.62053], [139.70757, 36.61992]]}, "properties": {"id": "GEOM_TOKYO_3882", "route_id": "R_FB68CB74", "route_name": "日光線", "route_color": "#1F78FF", "route_text_color": "#ffffff", "line_name": "日光線", "operator_id": "tobu", "representation": "service_path", "min_zoom": 0, "max_zoom": 24, "offset_rank": 0}}, {"type": "Feature", "bbox": [139.71226, 36.65219, 139.71411, 36.67601], "geometry": {"type": "LineString", "coordinates": [[139.71378, 36.65219], [139.71374, 36.65256], [139.71362, 36.6535], [139.71356, 36.65396], [139.7135, 36.65437], [139.71347, 36.6547], [139.71348, 36.65504], [139.71351, 36.65526], [139.71355, 36.65574], [139.71359, 36.65628], [139.71361, 36.65643], [139.71373, 36.65781], [139.71375, 36.65806], [139.7139, 36.65984], [139.71408, 36.66177], [139.71411, 36.66217], [139.71411, 36.66245], [139.7141, 36.66284], [139.71407, 36.66322], [139.71395, 36.66394], [139.71369, 36.66554], [139.71366, 36.66569], [139.71363, 36.66591], [139.71359, 36.66617], [139.71352, 36.66661], [139.71329, 36.66826], [139.7132, 36.66898], [139.71306, 36.66978], [139.71292, 36.6707], [139.71291, 36.67089], [139.71288, 36.67106], [139.71286, 36.67121], [139.71286, 36.67127], [139.71285, 36.67133], [139.71284, 36.6714], [139.71269, 36.67253], [139.71256, 36.67357], [139.7125, 36.67413], [139.71245, 36.67451], [139.71235, 36.67537], [139.71232, 36.6756], [139.71226, 36.67593], [139.71226, 36.67601]]}, "properties": {"id": "GEOM_TOKYO_3886", "route_id": "R_FB68CB74", "route_name": "日光線", "route_color": "#1F78FF", "route_text_color": "#ffffff", "line_name": "日光線", "operator_id": "tobu", "representation": "service_path", "min_zoom": 0, "max_zoom": 24, "offset_rank": 0}}, {"type": "Feature", "bbox": [139.73723, 36.58031, 139.7381, 36.58125], "geometry": {"type": "LineString", "coordinates": [[139.73723, 36.58125], [139.73751, 36.58096], [139.73786, 36.58057], [139.73807, 36.58034], [139.7381, 36.58031]]}, "properties": {"id": "GEOM_TOKYO_3887", "route_id": "R_FB68CB74", "route_name": "日光線", "route_color": "#1F78FF", "route_text_color": "#ffffff", "line_name": "日光線", "operator_id": "tobu", "representation": "service_path", "min_zoom": 0, "max_zoom": 24, "offset_rank": 0}}, {"type": "Feature", "bbox": [139.71215, 36.67601, 139.71226, 36.6771], "geometry": {"type": "LineString", "coordinates": [[139.71226, 36.67601], [139.71215, 36.6771]]}, "properties": {"id": "GEOM_TOKYO_3890", "route_id": "R_FB68CB74", "route_name": "日光線", "route_color": "#1F78FF", "route_text_color": "#ffffff", "line_name": "日光線", "operator_id": "tobu", "representation": "service_path", "min_zoom": 0, "max_zoom": 24, "offset_rank": 0}}, {"type": "Feature", "bbox": [139.74912, 36.4655, 139.74985, 36.4671], "geometry": {"type": "LineString", "coordinates": [[139.74985, 36.4655], [139.74912, 36.4671]]}, "properties": {"id": "GEOM_TOKYO_3891", "route_id": "R_FB68CB74", "route_name": "日光線", "route_color": "#1F78FF", "route_text_color": "#ffffff", "line_name": "日光線", "operator_id": "tobu", "representation": "service_path", "min_zoom": 0, "max_zoom": 24, "offset_rank": 0}}, {"type": "Feature", "bbox": [139.73674, 36.55796, 139.74464, 36.58031], "geometry": {"type": "LineString", "coordinates": [[139.7381, 36.58031], [139.73826, 36.58006], [139.7384, 36.57979], [139.73849, 36.57953], [139.7385, 36.57949], [139.73851, 36.57945], [139.73854, 36.57928], [139.73856, 36.57917], [139.73857, 36.57908], [139.73858, 36.57873], [139.73857, 36.57863], [139.73856, 36.57857], [139.73854, 36.57838], [139.73846, 36.57802], [139.7384, 36.57781], [139.73838, 36.57774], [139.73835, 36.57769], [139.73833, 36.57765], [139.73821, 36.57736], [139.738, 36.57695], [139.73798, 36.57692], [139.73789, 36.57671], [139.73784, 36.57661], [139.7378, 36.57653], [139.73758, 36.57611], [139.73753, 36.57602], [139.7375, 36.57597], [139.73732, 36.57561], [139.73715, 36.57519], [139.73714, 36.57518], [139.73713, 36.57516], [139.73713, 36.57514], [139.73699, 36.57477], [139.73689, 36.57434], [139.73685, 36.57402], [139.73683, 36.57263], [139.73684, 36.57261], [139.73684, 36.57256], [139.73681, 36.57166], [139.73679, 36.57159], [139.73676, 36.57105], [139.73674, 36.57079], [139.73674, 36.57076], [139.73674, 36.57074], [139.73674, 36.57008], [139.73674, 36.57], [139.73676, 36.56994], [139.73677, 36.56991], [139.73678, 36.56988], [139.73678, 36.56983], [139.73689, 36.56956], [139.73705, 36.56923], [139.73713, 36.56911], [139.73715, 36.56907], [139.73717, 36.56903], [139.73719, 36.56899], [139.73738, 36.56872], [139.73741, 36.56868], [139.73757, 36.56849], [139.7377, 36.56837], [139.73772, 36.56835], [139.73775, 36.56832], [139.73779, 36.56828], [139.73796, 36.56811], [139.7382, 36.56792], [139.73822, 36.5679], [139.73824, 36.56789], [139.73858, 36.56762], [139.73925, 36.56712], [139.73943, 36.56698], [139.7396, 36.56685], [139.74011, 36.56646], [139.74016, 36.56643], [139.74022, 36.56638], [139.74058, 36.56608], [139.74081, 36.56586], [139.74091, 36.56577], [139.74107, 36.56557], [139.74128, 36.56525], [139.74132, 36.56517], [139.74138, 36.56507], [139.74145, 36.56495], [139.74177, 36.56438], [139.7418, 36.56432], [139.74187, 36.56418], [139.74206, 36.56381], [139.74213, 36.56369], [139.74221, 36.56355], [139.74224, 36.56347], [139.74233, 36.56332], [139.74262, 36.56277], [139.74263, 36.56275], [139.74265, 36.56271], [139.74269, 36.56264], [139.74286, 36.56233], [139.7435, 36.56115], [139.74352, 36.56112], [139.74355, 36.56107], [139.74356, 36.56104], [139.74357, 36.56101], [139.74375, 36.56068], [139.744, 36.56023], [139.74402, 36.5602], [139.74403, 36.56017], [139.74426, 36.55956], [139.74431, 36.55941], [139.74437, 36.55916], [139.7445, 36.55863], [139.74451, 36.55858], [139.74453, 36.55852], [139.74459, 36.55821], [139.74464, 36.55796]]}, "properties": {"id": "GEOM_TOKYO_3892", "route_id": "R_FB68CB74", "route_name": "日光線", "route_color": "#1F78FF", "route_text_color": "#ffffff", "line_name": "日光線", "operator_id": "tobu", "representation": "service_path", "min_zoom": 0, "max_zoom": 24, "offset_rank": 0}}, {"type": "Feature", "bbox": [139.74464, 36.55601, 139.74488, 36.55796], "geometry": {"type": "LineString", "coordinates": [[139.74464, 36.55796], [139.74471, 36.55737], [139.74482, 36.55653], [139.74485, 36.55628], [139.74488, 36.55601]]}, "properties": {"id": "GEOM_TOKYO_3897", "route_id": "R_FB68CB74", "route_name": "日光線", "route_color": "#1F78FF", "route_text_color": "#ffffff", "line_name": "日光線", "operator_id": "tobu", "representation": "service_path", "min_zoom": 0, "max_zoom": 24, "offset_rank": 0}}]}