{"type": "FeatureCollection", "features": [{"type": "Feature", "bbox": [139.56515, 35.98625, 139.57652, 35.99758], "geometry": {"type": "LineString", "coordinates": [[139.56515, 35.99758], [139.56575, 35.99699], [139.56675, 35.99607], [139.56767, 35.99517], [139.56815, 35.99473], [139.56819, 35.99469], [139.56863, 35.99428], [139.56973, 35.99325], [139.5704, 35.9926], [139.5719, 35.99102], [139.57366, 35.98923], [139.57522, 35.9876], [139.57555, 35.98726], [139.57652, 35.98625]]}, "properties": {"id": "GEOM_TOKYO_2170", "route_id": "R_7E54B177", "route_name": null, "route_color": null, "route_text_color": null, "representation": "service_path", "min_zoom": 0, "max_zoom": 24, "offset_rank": 0}}, {"type": "Feature", "bbox": [139.60931, 35.93938, 139.60973, 35.94168], "geometry": {"type": "LineString", "coordinates": [[139.60931, 35.94168], [139.60973, 35.93938]]}, "properties": {"id": "GEOM_TOKYO_2174", "route_id": "R_7E54B177", "route_name": null, "route_color": null, "route_text_color": null, "representation": "service_path", "min_zoom": 0, "max_zoom": 24, "offset_rank": 0}}, {"type": "Feature", "bbox": [139.53448, 35.99929, 139.56328, 36.03059], "geometry": {"type": "LineString", "coordinates": [[139.53448, 36.03059], [139.53461, 36.03035], [139.53485, 36.02997], [139.53495, 36.02981], [139.53549, 36.02901], [139.5356, 36.02886], [139.53572, 36.02869], [139.53588, 36.02846], [139.53643, 36.0278], [139.53791, 36.02605], [139.53864, 36.0252], [139.5395, 36.02419], [139.53968, 36.02396], [139.53985, 36.02377], [139.54007, 36.02349], [139.54067, 36.02277], [139.54094, 36.02244], [139.54142, 36.02186], [139.54227, 36.02081], [139.54309, 36.01979], [139.5441, 36.01853], [139.54422, 36.0184], [139.54512, 36.0173], [139.54551, 36.01683], [139.547, 36.01501], [139.54706, 36.01493], [139.54734, 36.01461], [139.54795, 36.01385], [139.54849, 36.0132], [139.54886, 36.01282], [139.54943, 36.01229], [139.54943, 36.01228], [139.55084, 36.01094], [139.55164, 36.01019], [139.55191, 36.00992], [139.55268, 36.0092], [139.55317, 36.00875], [139.55346, 36.00848], [139.55359, 36.00836], [139.55374, 36.00822], [139.55404, 36.00794], [139.55413, 36.00785], [139.55451, 36.00751], [139.5549, 36.00715], [139.55533, 36.00675], [139.5555, 36.0066], [139.55566, 36.00645], [139.55596, 36.00618], [139.55627, 36.00589], [139.55643, 36.00574], [139.55657, 36.00561], [139.55754, 36.00472], [139.55786, 36.00443], [139.55804, 36.00427], [139.55821, 36.00411], [139.55836, 36.00396], [139.5586, 36.00376], [139.55919, 36.00319], [139.56094, 36.00151], [139.56328, 35.99929]]}, "properties": {"id": "GEOM_TOKYO_2177", "route_id": "R_7E54B177", "route_name": null, "route_color": null, "route_text_color": null, "representation": "service_path", "min_zoom": 0, "max_zoom": 24, "offset_rank": 0}}, {"type": "Feature", "bbox": [139.58781, 35.97185, 139.58981, 35.97419], "geometry": {"type": "LineString", "coordinates": [[139.58781, 35.97419], [139.58981, 35.97185]]}, "properties": {"id": "GEOM_TOKYO_2178", "route_id": "R_7E54B177", "route_name": null, "route_color": null, "route_text_color": null, "representation": "service_path", "min_zoom": 0, "max_zoom": 24, "offset_rank": 0}}, {"type": "Feature", "bbox": [139.57863, 35.97419, 139.58781, 35.98405], "geometry": {"type": "LineString", "coordinates": [[139.57863, 35.98405], [139.57998, 35.98266], [139.5816, 35.98096], [139.58282, 35.97969], [139.58336, 35.97914], [139.58354, 35.97895], [139.58451, 35.97798], [139.58493, 35.97752], [139.58529, 35.97714], [139.58593, 35.97641], [139.58781, 35.97419]]}, "properties": {"id": "GEOM_TOKYO_2180", "route_id": "R_7E54B177", "route_name": null, "route_color": null, "route_text_color": null, "representation": "service_path", "min_zoom": 0, "max_zoom": 24, "offset_rank": 0}}, {"type": "Feature", "bbox": [139.58981, 35.94168, 139.60931, 35.97185], "geometry": {"type": "LineString", "coordinates": [[139.58981, 35.97185], [139.59168, 35.96969], [139.59244, 35.96878], [139.59246, 35.96875], [139.59475, 35.96614], [139.59591, 35.96474], [139.59677, 35.96376], [139.59721, 35.96315], [139.59754, 35.96259], [139.59798, 35.96172], [139.59823, 35.96114], [139.59922, 35.95878], [139.59968, 35.95767], [139.60065, 35.95534], [139.60106, 35.95436], [139.60116, 35.95415], [139.60158, 35.95319], [139.60196, 35.95247], [139.60222, 35.9521], [139.60246, 35.95179], [139.60326, 35.95085], [139.60429, 35.9496], [139.60534, 35.94833], [139.60698, 35.94634], [139.60788, 35.94527], [139.60804, 35.945], [139.60835, 35.94446], [139.60859, 35.94396], [139.60868, 35.94374], [139.60895, 35.94304], [139.60916, 35.94227], [139.60931, 35.94168]]}, "properties": {"id": "GEOM_TOKYO_2184", "route_id": "R_7E54B177", "route_name": null, "route_color": null, "route_text_color": null, "representation": "service_path", "min_zoom": 0, "max_zoom": 24, "offset_rank": 0}}, {"type": "Feature", "bbox": [139.56328, 35.99758, 139.56515, 35.99929], "geometry": {"type": "LineString", "coordinates": [[139.56328, 35.99929], [139.56515, 35.99758]]}, "properties": {"id": "GEOM_TOKYO_2186", "route_id": "R_7E54B177", "route_name": null, "route_color": null, "route_text_color": null, "representation": "service_path", "min_zoom": 0, "max_zoom": 24, "offset_rank": 0}}, {"type": "Feature", "bbox": [139.57652, 35.98405, 139.57863, 35.98625], "geometry": {"type": "LineString", "coordinates": [[139.57652, 35.98625], [139.57863, 35.98405]]}, "properties": {"id": "GEOM_TOKYO_2188", "route_id": "R_7E54B177", "route_name": null, "route_color": null, "route_text_color": null, "representation": "service_path", "min_zoom": 0, "max_zoom": 24, "offset_rank": 0}}, {"type": "Feature", "bbox": [139.60973, 35.93093, 139.61474, 35.93938], "geometry": {"type": "LineString", "coordinates": [[139.60973, 35.93938], [139.60984, 35.93886], [139.60988, 35.9387], [139.61023, 35.93711], [139.61033, 35.93668], [139.61048, 35.93633], [139.61067, 35.93596], [139.61082, 35.93573], [139.61104, 35.93542], [139.6123, 35.93393], [139.61309, 35.93299], [139.6141, 35.93178], [139.61474, 35.93093]]}, "properties": {"id": "GEOM_TOKYO_2189", "route_id": "R_7E54B177", "route_name": null, "route_color": null, "route_text_color": null, "representation": "service_path", "min_zoom": 0, "max_zoom": 24, "offset_rank": 0}}, {"type": "Feature", "bbox": [139.61474, 35.90782, 139.62383, 35.93093], "geometry": {"type": "LineString", "coordinates": [[139.62383, 35.90782], [139.62362, 35.90835], [139.62308, 35.90968], [139.62287, 35.91022], [139.62256, 35.91137], [139.62243, 35.91208], [139.62232, 35.91235], [139.62203, 35.91316], [139.62177, 35.91371], [139.62094, 35.91586], [139.6204, 35.91713], [139.61996, 35.91824], [139.61943, 35.91965], [139.61937, 35.91987], [139.61931, 35.92005], [139.61839, 35.92244], [139.61752, 35.92474], [139.61751, 35.92479], [139.61743, 35.92502], [139.61734, 35.92525], [139.61694, 35.92626], [139.6166, 35.92753], [139.61636, 35.92829], [139.61609, 35.92882], [139.61555, 35.92982], [139.61474, 35.93093]]}, "properties": {"id": "GEOM_TOKYO_2190", "route_id": "R_7E54B177", "route_name": null, "route_color": null, "route_text_color": null, "representation": "service_path", "min_zoom": 0, "max_zoom": 24, "offset_rank": 0}}, {"type": "Feature", "bbox": [139.39115, 35.97526, 139.62471, 36.13894], "geometry": {"type": "LineString", "coordinates": [[139.39115, 36.13894], [139.39267, 36.13838], [139.39291, 36.1383], [139.39461, 36.13766], [139.39508, 36.13748], [139.39547, 36.13734], [139.39666, 36.1369], [139.39859, 36.13619], [139.40133, 36.13518], [139.40275, 36.13463], [139.4028, 36.1346], [139.40408, 36.13413], [139.40472, 36.13391], [139.40587, 36.13348], [139.40747, 36.13289], [139.40875, 36.13243], [139.40903, 36.13233], [139.41044, 36.13182], [139.41177, 36.13133], [139.41339, 36.13075], [139.41481, 36.13024], [139.41715, 36.12939], [139.41747, 36.12927], [139.41857, 36.12887], [139.41952, 36.12854], [139.42043, 36.12821], [139.42147, 36.12783], [139.42211, 36.12761], [139.42392, 36.12693], [139.42441, 36.12676], [139.42445, 36.12673], [139.42521, 36.12647], [139.4272, 36.12574], [139.42724, 36.12572], [139.42744, 36.12565], [139.42753, 36.12562], [139.429, 36.12509], [139.43034, 36.12459], [139.43075, 36.12445], [139.43122, 36.12428], [139.43148, 36.12418], [139.43158, 36.12415], [139.43186, 36.12405], [139.43213, 36.12395], [139.43243, 36.12384], [139.43298, 36.12364], [139.43316, 36.12358], [139.4333, 36.12352], [139.43359, 36.12343], [139.4344, 36.12311], [139.43493, 36.12292], [139.43506, 36.12288], [139.43559, 36.12267], [139.43609, 36.1225], [139.43623, 36.12244], [139.43674, 36.12226], [139.43717, 36.1221], [139.43883, 36.12148], [139.43989, 36.12106], [139.44125, 36.1205], [139.4419, 36.12024], [139.44261, 36.11996], [139.44327, 36.11968], [139.4443, 36.11928], [139.44581, 36.11865], [139.44728, 36.11804], [139.4481, 36.1177], [139.44944, 36.1171], [139.45041, 36.11667], [139.45191, 36.11595], [139.45378, 36.11501], [139.45398, 36.11491], [139.45499, 36.11438], [139.45572, 36.11399], [139.45682, 36.11335], [139.45789, 36.11274], [139.45868, 36.11229], [139.45879, 36.11223], [139.45914, 36.11202], [139.46024, 36.11139], [139.46125, 36.11079], [139.46141, 36.1107], [139.46284, 36.10987], [139.46435, 36.10901], [139.46487, 36.10871], [139.46655, 36.10776], [139.46726, 36.10735], [139.46766, 36.10711], [139.46783, 36.10702], [139.46865, 36.10653], [139.47009, 36.10571], [139.47133, 36.10501], [139.47346, 36.10376], [139.47536, 36.10266], [139.47687, 36.1018], [139.47752, 36.10143], [139.47841, 36.10091], [139.47858, 36.1008], [139.47871, 36.10074], [139.4797, 36.10015], [139.48064, 36.09962], [139.48128, 36.09927], [139.48144, 36.09916], [139.48161, 36.09906], [139.48318, 36.09816], [139.48628, 36.09635], [139.48785, 36.09544], [139.48845, 36.09511], [139.48942, 36.09454], [139.49047, 36.09393], [139.49054, 36.09388], [139.49179, 36.09317], [139.49265, 36.09268], [139.49367, 36.09208], [139.49409, 36.09184], [139.49524, 36.09117], [139.49584, 36.09082], [139.49678, 36.09027], [139.49692, 36.09019], [139.49701, 36.09015], [139.4978, 36.08969], [139.49806, 36.08954], [139.49846, 36.08931], [139.49882, 36.0891], [139.49925, 36.08886], [139.49976, 36.08856], [139.50019, 36.08831], [139.50067, 36.08804], [139.50104, 36.08782], [139.50166, 36.08746], [139.50241, 36.08702], [139.50318, 36.08659], [139.50332, 36.08651], [139.50392, 36.08617], [139.50471, 36.08572], [139.50508, 36.08551], [139.50524, 36.08541], [139.50543, 36.08532], [139.50579, 36.0851], [139.50612, 36.08492], [139.50623, 36.08485], [139.50727, 36.08424], [139.50774, 36.08398], [139.50884, 36.08335], [139.50977, 36.08283], [139.51013, 36.08263], [139.51096, 36.08214], [139.51202, 36.08151], [139.51238, 36.08132], [139.51337, 36.08075], [139.5134, 36.08073], [139.51378, 36.08051], [139.51392, 36.08043], [139.51414, 36.08029], [139.51494, 36.07982], [139.51581, 36.0793], [139.51585, 36.07927], [139.51621, 36.07904], [139.51665, 36.07878], [139.51694, 36.0786], [139.51756, 36.07821], [139.51767, 36.07814], [139.51842, 36.07766], [139.51869, 36.07747], [139.51927, 36.07708], [139.5195, 36.07692], [139.5203, 36.07636], [139.52078, 36.07603], [139.52117, 36.07577], [139.52175, 36.07535], [139.52215, 36.07507], [139.52354, 36.07406], [139.52439, 36.07343], [139.52457, 36.07328], [139.5254, 36.07265], [139.52694, 36.07145], [139.52726, 36.0712], [139.52803, 36.07059], [139.52922, 36.06965], [139.53, 36.06906], [139.53048, 36.06867], [139.53174, 36.06769], [139.53201, 36.06747], [139.53238, 36.06718], [139.5333, 36.06647], [139.53356, 36.06626], [139.5341, 36.06584], [139.53476, 36.06532], [139.53478, 36.06531], [139.53492, 36.0652], [139.53542, 36.0648], [139.53696, 36.06356], [139.53831, 36.06248], [139.53909, 36.06189], [139.53924, 36.06175], [139.54063, 36.0607], [139.54137, 36.06012], [139.54182, 36.05978], [139.54289, 36.05894], [139.54427, 36.05785], [139.5461, 36.05642], [139.54707, 36.05565], [139.54711, 36.05562], [139.54906, 36.0541], [139.54918, 36.05399], [139.55, 36.05335], [139.55087, 36.05268], [139.55134, 36.05231], [139.55236, 36.0515], [139.55312, 36.05092], [139.55348, 36.05064], [139.55379, 36.0504], [139.55392, 36.05029], [139.55493, 36.04951], [139.55523, 36.04926], [139.55534, 36.04919], [139.55587, 36.04876], [139.55597, 36.04869], [139.55747, 36.04752], [139.55779, 36.04726], [139.55797, 36.04712], [139.55824, 36.04691], [139.55841, 36.04677], [139.55859, 36.04664], [139.55885, 36.04643], [139.55942, 36.04598], [139.55982, 36.04566], [139.56053, 36.04511], [139.56057, 36.04509], [139.561, 36.04474], [139.56169, 36.0442], [139.56176, 36.04415], [139.56471, 36.04184], [139.56511, 36.04153], [139.56568, 36.0411], [139.56606, 36.04079], [139.56613, 36.04074], [139.56683, 36.04017], [139.56738, 36.03973], [139.56744, 36.03968], [139.56791, 36.03931], [139.56841, 36.03891], [139.5703, 36.03742], [139.5705, 36.03726], [139.57077, 36.03706], [139.5709, 36.03696], [139.57108, 36.03682], [139.57189, 36.03619], [139.57209, 36.03605], [139.57337, 36.03505], [139.57383, 36.03469], [139.57501, 36.03374], [139.57574, 36.03316], [139.57617, 36.03281], [139.57703, 36.03214], [139.57778, 36.03155], [139.57819, 36.03122], [139.57849, 36.03097], [139.57852, 36.03096], [139.57928, 36.03036], [139.58015, 36.02969], [139.58204, 36.02819], [139.58223, 36.02806], [139.58256, 36.02782], [139.58299, 36.02748], [139.5838, 36.02684], [139.58392, 36.02672], [139.58559, 36.02542], [139.58619, 36.02497], [139.58784, 36.02366], [139.5881, 36.02346], [139.58832, 36.02329], [139.58914, 36.02265], [139.58993, 36.02202], [139.59025, 36.02177], [139.59094, 36.02121], [139.59095, 36.0212], [139.59135, 36.0209], [139.59193, 36.02044], [139.59318, 36.01947], [139.59351, 36.01921], [139.59383, 36.01896], [139.59419, 36.01867], [139.59463, 36.01831], [139.59506, 36.01797], [139.59537, 36.01771], [139.59561, 36.01753], [139.59596, 36.01725], [139.5969, 36.01649], [139.59726, 36.01622], [139.59764, 36.01594], [139.59772, 36.01588], [139.59858, 36.01521], [139.59864, 36.01518], [139.59887, 36.01499], [139.59979, 36.01427], [139.60107, 36.01327], [139.60149, 36.01293], [139.60268, 36.012], [139.60431, 36.01071], [139.60443, 36.01063], [139.60518, 36.01004], [139.60685, 36.00874], [139.60712, 36.00853], [139.60746, 36.00826], [139.60777, 36.00802], [139.60847, 36.00746], [139.6085, 36.00745], [139.60906, 36.00701], [139.60946, 36.00669], [139.61072, 36.0057], [139.61161, 36.00498], [139.61228, 36.00444], [139.61369, 36.00319], [139.61447, 36.00251], [139.61577, 36.00119], [139.61638, 36.00052], [139.61649, 36.0004], [139.61713, 35.9997], [139.6178, 35.99885], [139.61824, 35.99829], [139.61939, 35.99668], [139.61982, 35.99599], [139.62014, 35.9955], [139.62064, 35.99466], [139.62099, 35.99401], [139.62177, 35.9925], [139.62194, 35.99215], [139.62248, 35.99084], [139.6226, 35.9905], [139.6227, 35.99026], [139.62275, 35.99014], [139.62277, 35.9901], [139.62309, 35.98919], [139.62331, 35.98858], [139.62349, 35.98795], [139.62363, 35.98745], [139.62382, 35.98671], [139.62393, 35.98628], [139.62398, 35.986], [139.62404, 35.98575], [139.62408, 35.98549], [139.62418, 35.98497], [139.62424, 35.98465], [139.62426, 35.98452], [139.6243, 35.98424], [139.62438, 35.98381], [139.62443, 35.9835], [139.62448, 35.98314], [139.62453, 35.98292], [139.6246, 35.98222], [139.62464, 35.98177], [139.62469, 35.98107], [139.62471, 35.98048], [139.6247, 35.97929], [139.62468, 35.97899], [139.62466, 35.97858], [139.62464, 35.97813], [139.62459, 35.97689], [139.62458, 35.97668], [139.62455, 35.97595], [139.62452, 35.97526]]}, "properties": {"id": "GEOM_TOKYO_2291", "route_id": "R_D6BC8A01", "route_name": null, "route_color": null, "route_text_color": null, "representation": "service_path", "min_zoom": 0, "max_zoom": 24, "offset_rank": 0}}, {"type": "Feature", "bbox": [139.61657, 35.90806, 139.62452, 35.97526], "geometry": {"type": "LineString", "coordinates": [[139.62235, 35.90806], [139.62208, 35.90871], [139.62177, 35.9095], [139.62144, 35.91025], [139.62085, 35.912], [139.6199, 35.91483], [139.6191, 35.91714], [139.61873, 35.91817], [139.61834, 35.91928], [139.6182, 35.91971], [139.61818, 35.91987], [139.61817, 35.91999], [139.6179, 35.92078], [139.61762, 35.92173], [139.61753, 35.92208], [139.61729, 35.92303], [139.61714, 35.92386], [139.61699, 35.92489], [139.61677, 35.92655], [139.61667, 35.92745], [139.6166, 35.92816], [139.61658, 35.92877], [139.61657, 35.92926], [139.61663, 35.93147], [139.61674, 35.93267], [139.61687, 35.9341], [139.61709, 35.93528], [139.61748, 35.93748], [139.61753, 35.93774], [139.61777, 35.93901], [139.61832, 35.942], [139.61889, 35.94503], [139.6192, 35.94665], [139.61956, 35.94857], [139.62017, 35.95186], [139.62069, 35.95452], [139.62088, 35.95556], [139.62132, 35.9579], [139.62165, 35.95968], [139.62167, 35.95974], [139.62175, 35.9602], [139.62177, 35.9603], [139.62202, 35.9616], [139.62203, 35.96172], [139.62207, 35.96194], [139.62218, 35.96253], [139.62219, 35.96263], [139.62221, 35.96272], [139.62232, 35.96336], [139.62235, 35.96346], [139.62239, 35.96372], [139.62254, 35.9646], [139.62282, 35.96613], [139.62283, 35.96617], [139.62288, 35.96645], [139.62299, 35.96706], [139.623, 35.96709], [139.62308, 35.96759], [139.62322, 35.9683], [139.62329, 35.96875], [139.62334, 35.96889], [139.62336, 35.96912], [139.62362, 35.97044], [139.62363, 35.97052], [139.62368, 35.97079], [139.62379, 35.97137], [139.62389, 35.97196], [139.62392, 35.97208], [139.62396, 35.97232], [139.62399, 35.97247], [139.62407, 35.97293], [139.62419, 35.97354], [139.62429, 35.97409], [139.62438, 35.97453], [139.62448, 35.97508], [139.62452, 35.97526]]}, "properties": {"id": "GEOM_TOKYO_2293", "route_id": "R_D6BC8A01", "route_name": null, "route_color": null, "route_text_color": null, "representation": "service_path", "min_zoom": 0, "max_zoom": 24, "offset_rank": 0}}, {"type": "Feature", "bbox": [139.57935, 35.92212, 139.60532, 35.93128], "geometry": {"type": "LineString", "coordinates": [[139.57935, 35.92212], [139.58194, 35.92304], [139.58392, 35.92376], [139.58581, 35.92442], [139.58814, 35.92523], [139.58861, 35.9254], [139.5913, 35.92635], [139.59392, 35.92726], [139.59703, 35.92838], [139.59879, 35.92898], [139.59918, 35.92911], [139.60051, 35.9296], [139.6028, 35.9304], [139.60328, 35.93058], [139.60532, 35.93128]]}, "properties": {"id": "GEOM_TOKYO_2508", "route_id": "R_94A1418C", "route_name": null, "route_color": null, "route_text_color": null, "representation": "service_path", "min_zoom": 0, "max_zoom": 24, "offset_rank": 0}}, {"type": "Feature", "bbox": [139.60532, 35.93128, 139.6068, 35.93178], "geometry": {"type": "LineString", "coordinates": [[139.60532, 35.93128], [139.6068, 35.93178]]}, "properties": {"id": "GEOM_TOKYO_2510", "route_id": "R_94A1418C", "route_name": null, "route_color": null, "route_text_color": null, "representation": "service_path", "min_zoom": 0, "max_zoom": 24, "offset_rank": 0}}, {"type": "Feature", "bbox": [139.61657, 35.90806, 139.62452, 35.97526], "geometry": {"type": "LineString", "coordinates": [[139.62235, 35.90806], [139.62208, 35.90871], [139.62177, 35.9095], [139.62144, 35.91025], [139.62085, 35.912], [139.6199, 35.91483], [139.6191, 35.91714], [139.61873, 35.91817], [139.61834, 35.91928], [139.6182, 35.91971], [139.61818, 35.91987], [139.61817, 35.91999], [139.6179, 35.92078], [139.61762, 35.92173], [139.61753, 35.92208], [139.61729, 35.92303], [139.61714, 35.92386], [139.61699, 35.92489], [139.61677, 35.92655], [139.61667, 35.92745], [139.6166, 35.92816], [139.61658, 35.92877], [139.61657, 35.92926], [139.61663, 35.93147], [139.61674, 35.93267], [139.61687, 35.9341], [139.61709, 35.93528], [139.61748, 35.93748], [139.61753, 35.93774], [139.61777, 35.93901], [139.61832, 35.942], [139.61889, 35.94503], [139.6192, 35.94665], [139.61956, 35.94857], [139.62017, 35.95186], [139.62069, 35.95452], [139.62088, 35.95556], [139.62132, 35.9579], [139.62165, 35.95968], [139.62167, 35.95974], [139.62175, 35.9602], [139.62177, 35.9603], [139.62202, 35.9616], [139.62203, 35.96172], [139.62207, 35.96194], [139.62218, 35.96253], [139.62219, 35.96263], [139.62221, 35.96272], [139.62232, 35.96336], [139.62235, 35.96346], [139.62239, 35.96372], [139.62254, 35.9646], [139.62282, 35.96613], [139.62283, 35.96617], [139.62288, 35.96645], [139.62299, 35.96706], [139.623, 35.96709], [139.62308, 35.96759], [139.62322, 35.9683], [139.62329, 35.96875], [139.62334, 35.96889], [139.62336, 35.96912], [139.62362, 35.97044], [139.62363, 35.97052], [139.62368, 35.97079], [139.62379, 35.97137], [139.62389, 35.97196], [139.62392, 35.97208], [139.62396, 35.97232], [139.62399, 35.97247], [139.62407, 35.97293], [139.62419, 35.97354], [139.62429, 35.97409], [139.62438, 35.97453], [139.62448, 35.97508], [139.62452, 35.97526]]}, "properties": {"id": "GEOM_TOKYO_3001", "route_id": "R_86450D72", "route_name": null, "route_color": null, "route_text_color": null, "representation": "service_path", "min_zoom": 0, "max_zoom": 24, "offset_rank": 0}}, {"type": "Feature", "bbox": [139.62452, 35.97526, 139.80525, 36.31159], "geometry": {"type": "LineString", "coordinates": [[139.62452, 35.97526], [139.62465, 35.97583], [139.62478, 35.97648], [139.62488, 35.97692], [139.62518, 35.97807], [139.62545, 35.97902], [139.62572, 35.97989], [139.62628, 35.98146], [139.62657, 35.98222], [139.62682, 35.98277], [139.62724, 35.98357], [139.62763, 35.98433], [139.62812, 35.98527], [139.62825, 35.98548], [139.62854, 35.98596], [139.62919, 35.98697], [139.62966, 35.98765], [139.63024, 35.98846], [139.63076, 35.98914], [139.63151, 35.99016], [139.63224, 35.99119], [139.63273, 35.99185], [139.63344, 35.99276], [139.63383, 35.99326], [139.63409, 35.99359], [139.63503, 35.9948], [139.6357, 35.99568], [139.6365, 35.99671], [139.63724, 35.99765], [139.6374, 35.99787], [139.63776, 35.99834], [139.63863, 35.99942], [139.63931, 36.00029], [139.6401, 36.00127], [139.64109, 36.00255], [139.6416, 36.00319], [139.64202, 36.00385], [139.64285, 36.00495], [139.6434, 36.00568], [139.64361, 36.00595], [139.64369, 36.00606], [139.6443, 36.0069], [139.6457, 36.00872], [139.64626, 36.00948], [139.64666, 36.00999], [139.64737, 36.01088], [139.64951, 36.01358], [139.64978, 36.01393], [139.65137, 36.0159], [139.65268, 36.01757], [139.65301, 36.01801], [139.65346, 36.01862], [139.65418, 36.01966], [139.6548, 36.02062], [139.65492, 36.02081], [139.65591, 36.02234], [139.6563, 36.02294], [139.65658, 36.02343], [139.65688, 36.02395], [139.65729, 36.02479], [139.65929, 36.02885], [139.65949, 36.02925], [139.66104, 36.03222], [139.66203, 36.03429], [139.6627, 36.03562], [139.66335, 36.0369], [139.66349, 36.03719], [139.66402, 36.03823], [139.66466, 36.03955], [139.66536, 36.04099], [139.66576, 36.04175], [139.66616, 36.0425], [139.66702, 36.04428], [139.66758, 36.0454], [139.66765, 36.04554], [139.6681, 36.04642], [139.66852, 36.04724], [139.66917, 36.04853], [139.66945, 36.04912], [139.66994, 36.05008], [139.67068, 36.05157], [139.67096, 36.05209], [139.67099, 36.05216], [139.67118, 36.05257], [139.67177, 36.05377], [139.67254, 36.05529], [139.67321, 36.05666], [139.67346, 36.05714], [139.67358, 36.05737], [139.67386, 36.0579], [139.67441, 36.05897], [139.67494, 36.06009], [139.67512, 36.06044], [139.67549, 36.06115], [139.67604, 36.06217], [139.67631, 36.06261], [139.67646, 36.06288], [139.67681, 36.06347], [139.67706, 36.06392], [139.67843, 36.06642], [139.67888, 36.06724], [139.67971, 36.06865], [139.67992, 36.06902], [139.68015, 36.06939], [139.6807, 36.07027], [139.68092, 36.07062], [139.68202, 36.07236], [139.68273, 36.07352], [139.68301, 36.07406], [139.68391, 36.07557], [139.68464, 36.07672], [139.68471, 36.07682], [139.685, 36.07728], [139.68575, 36.07847], [139.68578, 36.07853], [139.68876, 36.08334], [139.69075, 36.08652], [139.69316, 36.09031], [139.69325, 36.09046], [139.69363, 36.09107], [139.69497, 36.09322], [139.69725, 36.0968], [139.69868, 36.09907], [139.69916, 36.09984], [139.70135, 36.10328], [139.7034, 36.10651], [139.70377, 36.10708], [139.70565, 36.11006], [139.70798, 36.11377], [139.70883, 36.11511], [139.71003, 36.117], [139.71198, 36.12012], [139.7139, 36.12312], [139.71396, 36.12323], [139.71457, 36.12423], [139.71493, 36.12487], [139.71549, 36.12587], [139.71654, 36.12787], [139.71704, 36.12903], [139.71761, 36.13035], [139.71805, 36.13135], [139.71869, 36.1328], [139.71961, 36.13489], [139.72122, 36.13855], [139.72279, 36.14212], [139.72412, 36.14517], [139.72539, 36.14811], [139.72654, 36.15071], [139.72725, 36.15235], [139.72788, 36.15381], [139.72943, 36.15737], [139.73107, 36.16112], [139.73308, 36.16573], [139.73484, 36.16984], [139.73495, 36.17012], [139.73511, 36.17049], [139.73528, 36.17089], [139.73613, 36.17283], [139.73687, 36.1745], [139.73724, 36.17531], [139.73789, 36.17678], [139.73856, 36.17832], [139.73948, 36.1804], [139.73973, 36.18101], [139.73975, 36.18102], [139.74036, 36.18261], [139.74047, 36.18288], [139.7407, 36.18348], [139.74093, 36.18405], [139.74108, 36.18444], [139.74135, 36.1851], [139.74157, 36.18566], [139.74191, 36.18653], [139.74199, 36.18674], [139.7425, 36.18804], [139.74286, 36.18895], [139.74301, 36.18934], [139.74348, 36.19054], [139.74393, 36.19169], [139.74419, 36.19234], [139.74447, 36.19306], [139.74458, 36.19334], [139.74491, 36.19419], [139.74522, 36.19496], [139.74604, 36.19704], [139.74642, 36.19802], [139.74644, 36.19803], [139.74666, 36.19861], [139.74675, 36.19882], [139.74703, 36.19951], [139.7473, 36.20021], [139.74753, 36.20084], [139.74782, 36.20156], [139.74805, 36.20212], [139.74841, 36.20302], [139.74903, 36.2046], [139.74927, 36.20514], [139.7496, 36.20604], [139.7501, 36.20721], [139.75056, 36.20843], [139.75119, 36.2101], [139.75196, 36.21205], [139.75262, 36.21373], [139.75286, 36.21435], [139.75357, 36.21615], [139.75425, 36.21795], [139.75511, 36.22013], [139.75566, 36.22152], [139.75596, 36.22232], [139.75615, 36.2228], [139.7567, 36.2242], [139.75774, 36.22692], [139.75831, 36.22836], [139.75904, 36.23028], [139.75929, 36.23092], [139.75971, 36.23198], [139.76055, 36.23418], [139.76106, 36.23553], [139.76154, 36.23681], [139.76229, 36.23872], [139.7626, 36.23953], [139.76325, 36.2412], [139.76375, 36.24242], [139.76402, 36.24311], [139.76433, 36.2439], [139.76472, 36.24486], [139.76505, 36.24568], [139.76571, 36.24742], [139.76619, 36.24864], [139.76661, 36.24973], [139.76697, 36.25064], [139.76751, 36.25189], [139.76785, 36.2527], [139.76793, 36.25292], [139.768, 36.25317], [139.76842, 36.25425], [139.77036, 36.25929], [139.77176, 36.26285], [139.77512, 36.27144], [139.77529, 36.27189], [139.77627, 36.274], [139.7774, 36.27619], [139.77833, 36.27775], [139.77943, 36.27943], [139.77962, 36.27966], [139.78116, 36.28161], [139.78588, 36.2871], [139.79223, 36.29449], [139.79858, 36.30188], [139.79875, 36.30208], [139.80123, 36.30496], [139.80175, 36.30571], [139.80371, 36.309], [139.80377, 36.3091], [139.80525, 36.31159]]}, "properties": {"id": "GEOM_TOKYO_3002", "route_id": "R_86450D72", "route_name": null, "route_color": null, "route_text_color": null, "representation": "service_path", "min_zoom": 0, "max_zoom": 24, "offset_rank": 0}}, {"type": "Feature", "bbox": [139.67875, 36.09068, 139.67961, 36.09798], "geometry": {"type": "LineString", "coordinates": [[139.67961, 36.09068], [139.67941, 36.09324], [139.67926, 36.09503], [139.67916, 36.0962], [139.67915, 36.09629], [139.67912, 36.09666], [139.67905, 36.09691], [139.67894, 36.09728], [139.67875, 36.09798]]}, "properties": {"id": "GEOM_TOKYO_3265", "route_id": "R_20E64CE3", "route_name": null, "route_color": null, "route_text_color": null, "representation": "service_path", "min_zoom": 0, "max_zoom": 24, "offset_rank": 0}}, {"type": "Feature", "bbox": [139.67805, 36.0671, 139.68022, 36.0802], "geometry": {"type": "LineString", "coordinates": [[139.67805, 36.0671], [139.67823, 36.06746], [139.67907, 36.0691], [139.6797, 36.07033], [139.67997, 36.07096], [139.68014, 36.07181], [139.68022, 36.07248], [139.68015, 36.07406], [139.68008, 36.07618], [139.68008, 36.07661], [139.68006, 36.07713], [139.68, 36.07824], [139.67995, 36.07923], [139.67995, 36.0793], [139.67992, 36.07998], [139.67991, 36.0802]]}, "properties": {"id": "GEOM_TOKYO_3266", "route_id": "R_20E64CE3", "route_name": null, "route_color": null, "route_text_color": null, "representation": "service_path", "min_zoom": 0, "max_zoom": 24, "offset_rank": 0}}, {"type": "Feature", "bbox": [139.67843, 36.09798, 139.69376, 36.13422], "geometry": {"type": "LineString", "coordinates": [[139.67875, 36.09798], [139.67854, 36.10057], [139.67844, 36.10194], [139.67843, 36.10253], [139.67849, 36.103], [139.67881, 36.1056], [139.67893, 36.10697], [139.67896, 36.10726], [139.67914, 36.10929], [139.67916, 36.10947], [139.67918, 36.10962], [139.67926, 36.11032], [139.67936, 36.11078], [139.67953, 36.11135], [139.67967, 36.11168], [139.6798, 36.11191], [139.67998, 36.11218], [139.68029, 36.11256], [139.68131, 36.11366], [139.68173, 36.1141], [139.68194, 36.11432], [139.68326, 36.11574], [139.68509, 36.1177], [139.68571, 36.11838], [139.68607, 36.11881], [139.68637, 36.11934], [139.68734, 36.12117], [139.68872, 36.12372], [139.68987, 36.12581], [139.69026, 36.12652], [139.69175, 36.12928], [139.69229, 36.13023], [139.69299, 36.13168], [139.69314, 36.13204], [139.69335, 36.13256], [139.6936, 36.13336], [139.69376, 36.13422]]}, "properties": {"id": "GEOM_TOKYO_3267", "route_id": "R_20E64CE3", "route_name": null, "route_color": null, "route_text_color": null, "representation": "service_path", "min_zoom": 0, "max_zoom": 24, "offset_rank": 0}}, {"type": "Feature", "bbox": [139.6668, 36.01633, 139.66696, 36.01923], "geometry": {"type": "LineString", "coordinates": [[139.6668, 36.01633], [139.66696, 36.01923]]}, "properties": {"id": "GEOM_TOKYO_3268", "route_id": "R_20E64CE3", "route_name": null, "route_color": null, "route_text_color": null, "representation": "service_path", "min_zoom": 0, "max_zoom": 24, "offset_rank": 0}}, {"type": "Feature", "bbox": [139.6767, 36.06452, 139.67805, 36.0671], "geometry": {"type": "LineString", "coordinates": [[139.6767, 36.06452], [139.67805, 36.0671]]}, "properties": {"id": "GEOM_TOKYO_3270", "route_id": "R_20E64CE3", "route_name": null, "route_color": null, "route_text_color": null, "representation": "service_path", "min_zoom": 0, "max_zoom": 24, "offset_rank": 0}}, {"type": "Feature", "bbox": [139.67978, 36.0802, 139.68009, 36.08859], "geometry": {"type": "LineString", "coordinates": [[139.67978, 36.08859], [139.67997, 36.08652], [139.68001, 36.08541], [139.68006, 36.08465], [139.68009, 36.08407], [139.68008, 36.08345], [139.68006, 36.08212], [139.68006, 36.08079], [139.67991, 36.0802]]}, "properties": {"id": "GEOM_TOKYO_3271", "route_id": "R_20E64CE3", "route_name": null, "route_color": null, "route_text_color": null, "representation": "service_path", "min_zoom": 0, "max_zoom": 24, "offset_rank": 0}}, {"type": "Feature", "bbox": [139.67961, 36.08859, 139.67978, 36.09068], "geometry": {"type": "LineString", "coordinates": [[139.67961, 36.09068], [139.67978, 36.08859]]}, "properties": {"id": "GEOM_TOKYO_3273", "route_id": "R_20E64CE3", "route_name": null, "route_color": null, "route_text_color": null, "representation": "service_path", "min_zoom": 0, "max_zoom": 24, "offset_rank": 0}}, {"type": "Feature", "bbox": [139.67875, 36.0802, 139.67991, 36.09798], "geometry": {"type": "LineString", "coordinates": [[139.67875, 36.09798], [139.67894, 36.09551], [139.67897, 36.09522], [139.67914, 36.09295], [139.67933, 36.09066], [139.67954, 36.08793], [139.67966, 36.08652], [139.67975, 36.08394], [139.67991, 36.0802]]}, "properties": {"id": "GEOM_TOKYO_3275", "route_id": "R_20E64CE3", "route_name": null, "route_color": null, "route_text_color": null, "representation": "service_path", "min_zoom": 0, "max_zoom": 24, "offset_rank": 0}}, {"type": "Feature", "bbox": [139.69431, 36.13721, 139.71864, 36.19327], "geometry": {"type": "LineString", "coordinates": [[139.71007, 36.19327], [139.71018, 36.19286], [139.71083, 36.19061], [139.71098, 36.19007], [139.71117, 36.18948], [139.7118, 36.18732], [139.71193, 36.1869], [139.7124, 36.18524], [139.71262, 36.18448], [139.71293, 36.18338], [139.7134, 36.18177], [139.7137, 36.18078], [139.71386, 36.1802], [139.7139, 36.18004], [139.71396, 36.17982], [139.71408, 36.17935], [139.71418, 36.17897], [139.71447, 36.17799], [139.71452, 36.17787], [139.71452, 36.17779], [139.71453, 36.17778], [139.71454, 36.17776], [139.71472, 36.17716], [139.71479, 36.17694], [139.71495, 36.17635], [139.71501, 36.17618], [139.71527, 36.1753], [139.71528, 36.17529], [139.7153, 36.17521], [139.71568, 36.17391], [139.716, 36.17283], [139.71658, 36.17087], [139.71668, 36.17053], [139.71688, 36.16984], [139.71696, 36.1696], [139.71753, 36.16785], [139.71794, 36.16595], [139.71801, 36.16559], [139.71845, 36.16358], [139.71859, 36.16288], [139.71864, 36.16233], [139.71864, 36.16197], [139.71857, 36.16161], [139.71843, 36.16119], [139.71831, 36.16094], [139.71808, 36.16058], [139.71781, 36.16023], [139.71717, 36.15956], [139.71626, 36.1588], [139.71503, 36.15783], [139.71375, 36.15677], [139.71222, 36.15548], [139.71099, 36.15438], [139.70957, 36.15306], [139.70918, 36.15272], [139.70842, 36.15207], [139.7077, 36.15156], [139.70709, 36.15121], [139.70553, 36.15037], [139.70509, 36.15013], [139.70418, 36.14963], [139.70108, 36.14796], [139.70088, 36.14785], [139.69843, 36.14652], [139.69808, 36.14632], [139.69753, 36.14601], [139.69726, 36.14585], [139.6968, 36.14549], [139.69645, 36.14515], [139.69609, 36.14475], [139.69585, 36.14448], [139.69567, 36.14418], [139.69563, 36.1441], [139.69553, 36.14383], [139.69538, 36.14329], [139.69523, 36.14242], [139.69519, 36.14222], [139.69475, 36.13982], [139.69431, 36.13721]]}, "properties": {"id": "GEOM_TOKYO_3276", "route_id": "R_20E64CE3", "route_name": null, "route_color": null, "route_text_color": null, "representation": "service_path", "min_zoom": 0, "max_zoom": 24, "offset_rank": 0}}, {"type": "Feature", "bbox": [139.6721, 36.03967, 139.6767, 36.06452], "geometry": {"type": "LineString", "coordinates": [[139.6721, 36.03967], [139.67244, 36.04157], [139.67248, 36.04182], [139.67276, 36.04372], [139.67283, 36.04414], [139.67333, 36.04726], [139.67384, 36.05052], [139.67389, 36.05078], [139.67392, 36.05102], [139.67398, 36.05136], [139.67466, 36.05572], [139.67467, 36.05579], [139.67511, 36.05886], [139.6753, 36.06015], [139.67551, 36.06156], [139.67565, 36.06211], [139.67577, 36.06258], [139.67599, 36.06311], [139.67626, 36.06367], [139.6767, 36.06452]]}, "properties": {"id": "GEOM_TOKYO_3277", "route_id": "R_20E64CE3", "route_name": null, "route_color": null, "route_text_color": null, "representation": "service_path", "min_zoom": 0, "max_zoom": 24, "offset_rank": 0}}, {"type": "Feature", "bbox": [139.67168, 36.03683, 139.6721, 36.03967], "geometry": {"type": "LineString", "coordinates": [[139.67168, 36.03683], [139.6721, 36.03967]]}, "properties": {"id": "GEOM_TOKYO_3280", "route_id": "R_20E64CE3", "route_name": null, "route_color": null, "route_text_color": null, "representation": "service_path", "min_zoom": 0, "max_zoom": 24, "offset_rank": 0}}, {"type": "Feature", "bbox": [139.66696, 36.01923, 139.67168, 36.03683], "geometry": {"type": "LineString", "coordinates": [[139.66696, 36.01923], [139.66708, 36.02187], [139.66717, 36.02379], [139.6673, 36.02493], [139.66747, 36.02579], [139.66753, 36.02604], [139.66761, 36.02632], [139.66779, 36.02687], [139.66808, 36.0278], [139.66857, 36.02929], [139.66879, 36.02992], [139.66921, 36.03083], [139.66987, 36.03229], [139.67005, 36.03268], [139.67037, 36.03339], [139.6711, 36.0349], [139.67148, 36.03582], [139.67155, 36.03611], [139.67168, 36.03683]]}, "properties": {"id": "GEOM_TOKYO_3281", "route_id": "R_20E64CE3", "route_name": null, "route_color": null, "route_text_color": null, "representation": "service_path", "min_zoom": 0, "max_zoom": 24, "offset_rank": 0}}, {"type": "Feature", "bbox": [139.69376, 36.13422, 139.69431, 36.13721], "geometry": {"type": "LineString", "coordinates": [[139.69431, 36.13721], [139.69376, 36.13422]]}, "properties": {"id": "GEOM_TOKYO_3282", "route_id": "R_20E64CE3", "route_name": null, "route_color": null, "route_text_color": null, "representation": "service_path", "min_zoom": 0, "max_zoom": 24, "offset_rank": 0}}, {"type": "Feature", "bbox": [139.63285, 35.93316, 139.63982, 35.94696], "geometry": {"type": "LineString", "coordinates": [[139.63982, 35.94696], [139.63942, 35.94588], [139.63898, 35.94483], [139.63869, 35.94426], [139.63851, 35.94389], [139.63832, 35.94352], [139.63811, 35.94311], [139.63797, 35.94285], [139.6374, 35.94179], [139.63716, 35.94132], [139.63699, 35.94101], [139.63672, 35.9405], [139.63651, 35.94011], [139.63634, 35.93977], [139.63583, 35.93882], [139.63474, 35.93677], [139.63441, 35.93608], [139.63356, 35.93448], [139.63319, 35.93377], [139.63285, 35.93316]]}, "properties": {"id": "GEOM_TOKYO_3284", "route_id": "R_20E64CE3", "route_name": null, "route_color": null, "route_text_color": null, "representation": "service_path", "min_zoom": 0, "max_zoom": 24, "offset_rank": 0}}, {"type": "Feature", "bbox": [139.62219, 35.90764, 139.63154, 35.93067], "geometry": {"type": "LineString", "coordinates": [[139.63154, 35.93067], [139.63122, 35.93008], [139.63086, 35.9294], [139.63015, 35.92809], [139.62999, 35.92779], [139.62992, 35.92766], [139.62942, 35.92674], [139.6291, 35.92614], [139.62875, 35.9255], [139.62851, 35.92504], [139.62822, 35.92451], [139.62788, 35.92389], [139.62769, 35.92352], [139.62757, 35.9233], [139.62726, 35.92276], [139.62674, 35.92185], [139.62668, 35.92174], [139.62561, 35.91987], [139.6247, 35.91821], [139.62408, 35.91711], [139.62398, 35.91693], [139.62378, 35.91659], [139.62324, 35.91565], [139.62287, 35.91482], [139.62253, 35.91401], [139.62242, 35.91367], [139.62227, 35.91317], [139.62221, 35.91285], [139.62219, 35.91247], [139.62227, 35.9117], [139.62266, 35.91018], [139.62349, 35.90794], [139.6236, 35.90764]]}, "properties": {"id": "GEOM_TOKYO_3285", "route_id": "R_20E64CE3", "route_name": null, "route_color": null, "route_text_color": null, "representation": "service_path", "min_zoom": 0, "max_zoom": 24, "offset_rank": 0}}, {"type": "Feature", "bbox": [139.63154, 35.93067, 139.63285, 35.93316], "geometry": {"type": "LineString", "coordinates": [[139.63285, 35.93316], [139.63154, 35.93067]]}, "properties": {"id": "GEOM_TOKYO_3286", "route_id": "R_20E64CE3", "route_name": null, "route_color": null, "route_text_color": null, "representation": "service_path", "min_zoom": 0, "max_zoom": 24, "offset_rank": 0}}, {"type": "Feature", "bbox": [139.63982, 35.94696, 139.6407, 35.94976], "geometry": {"type": "LineString", "coordinates": [[139.6407, 35.94976], [139.63982, 35.94696]]}, "properties": {"id": "GEOM_TOKYO_3287", "route_id": "R_20E64CE3", "route_name": null, "route_color": null, "route_text_color": null, "representation": "service_path", "min_zoom": 0, "max_zoom": 24, "offset_rank": 0}}, {"type": "Feature", "bbox": [139.6407, 35.94976, 139.65226, 35.97992], "geometry": {"type": "LineString", "coordinates": [[139.65226, 35.97992], [139.65189, 35.97925], [139.65153, 35.97864], [139.65121, 35.9781], [139.65095, 35.97765], [139.65045, 35.97681], [139.64994, 35.97592], [139.64904, 35.97435], [139.64699, 35.97083], [139.64652, 35.97004], [139.6443, 35.9662], [139.64417, 35.96598], [139.64407, 35.96581], [139.64365, 35.96507], [139.64341, 35.96466], [139.64288, 35.96373], [139.64278, 35.96355], [139.64245, 35.96282], [139.64241, 35.96269], [139.64232, 35.96234], [139.64224, 35.96203], [139.64224, 35.96194], [139.64213, 35.96142], [139.64204, 35.96085], [139.64197, 35.96022], [139.64175, 35.95826], [139.64155, 35.9563], [139.64139, 35.95463], [139.64137, 35.9545], [139.64137, 35.95439], [139.64126, 35.95337], [139.64123, 35.95311], [139.64114, 35.95239], [139.64114, 35.95225], [139.641, 35.95105], [139.64096, 35.9509], [139.64087, 35.95044], [139.6407, 35.94976]]}, "properties": {"id": "GEOM_TOKYO_3288", "route_id": "R_20E64CE3", "route_name": null, "route_color": null, "route_text_color": null, "representation": "service_path", "min_zoom": 0, "max_zoom": 24, "offset_rank": 0}}, {"type": "Feature", "bbox": [139.65226, 35.97992, 139.65367, 35.98241], "geometry": {"type": "LineString", "coordinates": [[139.65367, 35.98241], [139.65226, 35.97992]]}, "properties": {"id": "GEOM_TOKYO_3289", "route_id": "R_20E64CE3", "route_name": null, "route_color": null, "route_text_color": null, "representation": "service_path", "min_zoom": 0, "max_zoom": 24, "offset_rank": 0}}, {"type": "Feature", "bbox": [139.65367, 35.98241, 139.6668, 36.01633], "geometry": {"type": "LineString", "coordinates": [[139.65367, 35.98241], [139.65404, 35.98304], [139.65448, 35.98382], [139.65491, 35.98458], [139.65517, 35.98499], [139.65549, 35.98541], [139.65584, 35.98579], [139.65606, 35.98598], [139.65624, 35.98612], [139.65646, 35.98631], [139.65663, 35.98645], [139.65676, 35.98655], [139.65707, 35.98679], [139.65785, 35.98741], [139.65847, 35.98792], [139.65871, 35.98815], [139.65917, 35.98868], [139.65957, 35.98929], [139.65982, 35.98979], [139.66001, 35.99027], [139.66008, 35.99045], [139.66031, 35.99108], [139.66045, 35.99147], [139.66057, 35.99175], [139.66117, 35.99338], [139.66131, 35.99374], [139.66145, 35.99415], [139.66169, 35.99481], [139.66199, 35.99565], [139.66224, 35.99635], [139.66254, 35.99714], [139.6629, 35.99816], [139.66318, 35.99895], [139.66347, 35.99966], [139.66359, 35.99999], [139.66363, 36.0001], [139.66379, 36.00045], [139.66394, 36.00084], [139.66404, 36.00128], [139.66415, 36.00187], [139.66423, 36.00232], [139.66431, 36.00285], [139.66438, 36.00319], [139.66478, 36.00639], [139.66486, 36.00686], [139.66491, 36.00713], [139.66497, 36.00744], [139.66536, 36.00934], [139.6657, 36.01084], [139.66613, 36.01265], [139.66643, 36.01396], [139.66663, 36.01485], [139.66672, 36.0153], [139.6668, 36.01633]]}, "properties": {"id": "GEOM_TOKYO_3290", "route_id": "R_20E64CE3", "route_name": null, "route_color": null, "route_text_color": null, "representation": "service_path", "min_zoom": 0, "max_zoom": 24, "offset_rank": 0}}, {"type": "Feature", "bbox": [139.75475, 35.97813, 139.75758, 35.97926], "geometry": {"type": "LineString", "coordinates": [[139.75758, 35.97813], [139.75559, 35.97893], [139.75475, 35.97926]]}, "properties": {"id": "GEOM_TOKYO_3462", "route_id": "R_7581302C", "route_name": "伊勢崎線", "route_color": "#1565c0", "route_text_color": "#ffffff", "representation": "service_path", "min_zoom": 0, "max_zoom": 24, "offset_rank": 0}}, {"type": "Feature", "bbox": [139.74977, 35.9811, 139.75038, 35.9814], "geometry": {"type": "LineString", "coordinates": [[139.75038, 35.9811], [139.74977, 35.9814]]}, "properties": {"id": "GEOM_TOKYO_3463", "route_id": "R_7581302C", "route_name": "伊勢崎線", "route_color": "#1565c0", "route_text_color": "#ffffff", "representation": "service_path", "min_zoom": 0, "max_zoom": 24, "offset_rank": 0}}, {"type": "Feature", "bbox": [139.76582, 35.96413, 139.76626, 35.96562], "geometry": {"type": "LineString", "coordinates": [[139.76626, 35.96413], [139.76582, 35.96562]]}, "properties": {"id": "GEOM_TOKYO_3465", "route_id": "R_7581302C", "route_name": "伊勢崎線", "route_color": "#1565c0", "route_text_color": "#ffffff", "representation": "service_path", "min_zoom": 0, "max_zoom": 24, "offset_rank": 0}}, {"type": "Feature", "bbox": [139.77482, 35.92538, 139.77772, 35.93519], "geometry": {"type": "LineString", "coordinates": [[139.77772, 35.92538], [139.77741, 35.92643], [139.77543, 35.93313], [139.77482, 35.93519]]}, "properties": {"id": "GEOM_TOKYO_3466", "route_id": "R_7581302C", "route_name": "伊勢崎線", "route_color": "#1565c0", "route_text_color": "#ffffff", "representation": "service_path", "min_zoom": 0, "max_zoom": 24, "offset_rank": 0}}, {"type": "Feature", "bbox": [139.72777, 36.00493, 139.73846, 36.02424], "geometry": {"type": "LineString", "coordinates": [[139.73846, 36.00493], [139.73842, 36.00502], [139.73832, 36.00524], [139.73773, 36.0069], [139.7365, 36.0102], [139.73637, 36.01057], [139.73606, 36.0114], [139.7359, 36.01183], [139.73532, 36.01344], [139.73459, 36.01534], [139.73441, 36.01582], [139.73389, 36.01724], [139.73353, 36.0182], [139.73307, 36.01939], [139.7327, 36.02027], [139.73222, 36.02107], [139.7317, 36.02166], [139.73146, 36.02192], [139.73075, 36.02251], [139.73004, 36.02301], [139.72961, 36.02327], [139.72921, 36.02347], [139.72777, 36.02424]]}, "properties": {"id": "GEOM_TOKYO_3467", "route_id": "R_7581302C", "route_name": "伊勢崎線", "route_color": "#1565c0", "route_text_color": "#ffffff", "representation": "service_path", "min_zoom": 0, "max_zoom": 24, "offset_rank": 0}}, {"type": "Feature", "bbox": [139.70058, 36.03927, 139.70162, 36.04002], "geometry": {"type": "LineString", "coordinates": [[139.70162, 36.03927], [139.70058, 36.04002]]}, "properties": {"id": "GEOM_TOKYO_3468", "route_id": "R_7581302C", "route_name": "伊勢崎線", "route_color": "#1565c0", "route_text_color": "#ffffff", "representation": "service_path", "min_zoom": 0, "max_zoom": 24, "offset_rank": 0}}, {"type": "Feature", "bbox": [139.73846, 36.00391, 139.73891, 36.00493], "geometry": {"type": "LineString", "coordinates": [[139.73891, 36.00391], [139.73846, 36.00493]]}, "properties": {"id": "GEOM_TOKYO_3469", "route_id": "R_7581302C", "route_name": "伊勢崎線", "route_color": "#1565c0", "route_text_color": "#ffffff", "representation": "service_path", "min_zoom": 0, "max_zoom": 24, "offset_rank": 0}}, {"type": "Feature", "bbox": [139.77437, 35.93519, 139.77482, 35.93672], "geometry": {"type": "LineString", "coordinates": [[139.77482, 35.93519], [139.77437, 35.93672]]}, "properties": {"id": "GEOM_TOKYO_3470", "route_id": "R_7581302C", "route_name": "伊勢崎線", "route_color": "#1565c0", "route_text_color": "#ffffff", "representation": "service_path", "min_zoom": 0, "max_zoom": 24, "offset_rank": 0}}, {"type": "Feature", "bbox": [139.77095, 35.93672, 139.77437, 35.94825], "geometry": {"type": "LineString", "coordinates": [[139.77437, 35.93672], [139.77406, 35.93775], [139.77405, 35.93779], [139.77397, 35.9381], [139.77355, 35.93949], [139.77222, 35.94394], [139.77095, 35.94825]]}, "properties": {"id": "GEOM_TOKYO_3471", "route_id": "R_7581302C", "route_name": "伊勢崎線", "route_color": "#1565c0", "route_text_color": "#ffffff", "representation": "service_path", "min_zoom": 0, "max_zoom": 24, "offset_rank": 0}}, {"type": "Feature", "bbox": [139.74459, 35.9814, 139.74977, 35.98919], "geometry": {"type": "LineString", "coordinates": [[139.74459, 35.98919], [139.74493, 35.98817], [139.74506, 35.98777], [139.74535, 35.98697], [139.74566, 35.98612], [139.74578, 35.98582], [139.74601, 35.98518], [139.74626, 35.98452], [139.7465, 35.98403], [139.74676, 35.98364], [139.74733, 35.98308], [139.74758, 35.98283], [139.7479, 35.98253], [139.74819, 35.9823], [139.74842, 35.98213], [139.74864, 35.98199], [139.74933, 35.98162], [139.74977, 35.9814]]}, "properties": {"id": "GEOM_TOKYO_3472", "route_id": "R_7581302C", "route_name": "伊勢崎線", "route_color": "#1565c0", "route_text_color": "#ffffff", "representation": "service_path", "min_zoom": 0, "max_zoom": 24, "offset_rank": 0}}, {"type": "Feature", "bbox": [139.76626, 35.94991, 139.77047, 35.96413], "geometry": {"type": "LineString", "coordinates": [[139.77047, 35.94991], [139.76928, 35.95396], [139.76886, 35.95537], [139.76811, 35.95788], [139.76745, 35.96012], [139.76688, 35.96201], [139.76674, 35.96254], [139.76658, 35.96309], [139.76626, 35.96413]]}, "properties": {"id": "GEOM_TOKYO_3473", "route_id": "R_7581302C", "route_name": "伊勢崎線", "route_color": "#1565c0", "route_text_color": "#ffffff", "representation": "service_path", "min_zoom": 0, "max_zoom": 24, "offset_rank": 0}}, {"type": "Feature", "bbox": [139.75159, 35.97971, 139.75367, 35.98059], "geometry": {"type": "LineString", "coordinates": [[139.75367, 35.97971], [139.75331, 35.97984], [139.75259, 35.98014], [139.75159, 35.98059]]}, "properties": {"id": "GEOM_TOKYO_3474", "route_id": "R_7581302C", "route_name": "伊勢崎線", "route_color": "#1565c0", "route_text_color": "#ffffff", "representation": "service_path", "min_zoom": 0, "max_zoom": 24, "offset_rank": 0}}, {"type": "Feature", "bbox": [139.74405, 35.98919, 139.74459, 35.99069], "geometry": {"type": "LineString", "coordinates": [[139.74405, 35.99069], [139.74459, 35.98919]]}, "properties": {"id": "GEOM_TOKYO_3475", "route_id": "R_7581302C", "route_name": "伊勢崎線", "route_color": "#1565c0", "route_text_color": "#ffffff", "representation": "service_path", "min_zoom": 0, "max_zoom": 24, "offset_rank": 0}}, {"type": "Feature", "bbox": [139.75367, 35.97926, 139.75475, 35.97971], "geometry": {"type": "LineString", "coordinates": [[139.75475, 35.97926], [139.75433, 35.97944], [139.75367, 35.97971]]}, "properties": {"id": "GEOM_TOKYO_3476", "route_id": "R_7581302C", "route_name": "伊勢崎線", "route_color": "#1565c0", "route_text_color": "#ffffff", "representation": "service_path", "min_zoom": 0, "max_zoom": 24, "offset_rank": 0}}, {"type": "Feature", "bbox": [139.75038, 35.98059, 139.75159, 35.9811], "geometry": {"type": "LineString", "coordinates": [[139.75159, 35.98059], [139.75134, 35.9807], [139.7508, 35.98093], [139.75038, 35.9811]]}, "properties": {"id": "GEOM_TOKYO_3477", "route_id": "R_7581302C", "route_name": "伊勢崎線", "route_color": "#1565c0", "route_text_color": "#ffffff", "representation": "service_path", "min_zoom": 0, "max_zoom": 24, "offset_rank": 0}}, {"type": "Feature", "bbox": [139.72601, 36.02424, 139.72777, 36.02516], "geometry": {"type": "LineString", "coordinates": [[139.72777, 36.02424], [139.72601, 36.02516]]}, "properties": {"id": "GEOM_TOKYO_3478", "route_id": "R_7581302C", "route_name": "伊勢崎線", "route_color": "#1565c0", "route_text_color": "#ffffff", "representation": "service_path", "min_zoom": 0, "max_zoom": 24, "offset_rank": 0}}, {"type": "Feature", "bbox": [139.67735, 36.06503, 139.67787, 36.06607], "geometry": {"type": "LineString", "coordinates": [[139.67735, 36.06503], [139.67787, 36.06607]]}, "properties": {"id": "GEOM_TOKYO_3479", "route_id": "R_7581302C", "route_name": "伊勢崎線", "route_color": "#1565c0", "route_text_color": "#ffffff", "representation": "service_path", "min_zoom": 0, "max_zoom": 24, "offset_rank": 0}}, {"type": "Feature", "bbox": [139.67561, 36.04002, 139.70058, 36.06503], "geometry": {"type": "LineString", "coordinates": [[139.70058, 36.04002], [139.69948, 36.04086], [139.69907, 36.04117], [139.6973, 36.04252], [139.69536, 36.04398], [139.69469, 36.04448], [139.69427, 36.0448], [139.69112, 36.04721], [139.68746, 36.04997], [139.68618, 36.05091], [139.68475, 36.05196], [139.68258, 36.05361], [139.68076, 36.05497], [139.6798, 36.0557], [139.67866, 36.05654], [139.6781, 36.05698], [139.67776, 36.05724], [139.67706, 36.05781], [139.67657, 36.05825], [139.67626, 36.05863], [139.67597, 36.05904], [139.67571, 36.05958], [139.67562, 36.06006], [139.67561, 36.06058], [139.67571, 36.06173], [139.67593, 36.06238], [139.67606, 36.06273], [139.67626, 36.06316], [139.67685, 36.06413], [139.67735, 36.06503]]}, "properties": {"id": "GEOM_TOKYO_3480", "route_id": "R_7581302C", "route_name": "伊勢崎線", "route_color": "#1565c0", "route_text_color": "#ffffff", "representation": "service_path", "min_zoom": 0, "max_zoom": 24, "offset_rank": 0}}, {"type": "Feature", "bbox": [139.72226, 36.02516, 139.72601, 36.0272], "geometry": {"type": "LineString", "coordinates": [[139.72601, 36.02516], [139.72374, 36.0264], [139.72226, 36.0272]]}, "properties": {"id": "GEOM_TOKYO_3481", "route_id": "R_7581302C", "route_name": "伊勢崎線", "route_color": "#1565c0", "route_text_color": "#ffffff", "representation": "service_path", "min_zoom": 0, "max_zoom": 24, "offset_rank": 0}}, {"type": "Feature", "bbox": [139.70162, 36.0272, 139.72226, 36.03927], "geometry": {"type": "LineString", "coordinates": [[139.72226, 36.0272], [139.72181, 36.02743], [139.71949, 36.02868], [139.71866, 36.02912], [139.71699, 36.03002], [139.71203, 36.03265], [139.71036, 36.03354], [139.71022, 36.03362], [139.7065, 36.03562], [139.70599, 36.03595], [139.70496, 36.03673], [139.70162, 36.03927]]}, "properties": {"id": "GEOM_TOKYO_3482", "route_id": "R_7581302C", "route_name": "伊勢崎線", "route_color": "#1565c0", "route_text_color": "#ffffff", "representation": "service_path", "min_zoom": 0, "max_zoom": 24, "offset_rank": 0}}, {"type": "Feature", "bbox": [139.65739, 36.06607, 139.68137, 36.09585], "geometry": {"type": "LineString", "coordinates": [[139.67787, 36.06607], [139.6782, 36.06666], [139.67843, 36.06719], [139.67876, 36.068], [139.67926, 36.06903], [139.67953, 36.06946], [139.68056, 36.07099], [139.68074, 36.0714], [139.68086, 36.07195], [139.68103, 36.07296], [139.68126, 36.07418], [139.68137, 36.07516], [139.68133, 36.07576], [139.68132, 36.07596], [139.68126, 36.07624], [139.68115, 36.07672], [139.68085, 36.0775], [139.68052, 36.07805], [139.68022, 36.07847], [139.68008, 36.07863], [139.67981, 36.0789], [139.67963, 36.07906], [139.67909, 36.07949], [139.67784, 36.08043], [139.67775, 36.08049], [139.67557, 36.08205], [139.67341, 36.08367], [139.67068, 36.08564], [139.66951, 36.08652], [139.66836, 36.08735], [139.66807, 36.08756], [139.66683, 36.08847], [139.66533, 36.08958], [139.66328, 36.09109], [139.66037, 36.09326], [139.65913, 36.0942], [139.65862, 36.09461], [139.65803, 36.09518], [139.65739, 36.09585]]}, "properties": {"id": "GEOM_TOKYO_3483", "route_id": "R_7581302C", "route_name": "伊勢崎線", "route_color": "#1565c0", "route_text_color": "#ffffff", "representation": "service_path", "min_zoom": 0, "max_zoom": 24, "offset_rank": 0}}, {"type": "Feature", "bbox": [139.73891, 35.99069, 139.74405, 36.00391], "geometry": {"type": "LineString", "coordinates": [[139.73891, 36.00391], [139.73925, 36.0032], [139.73963, 36.00222], [139.73995, 36.00139], [139.74042, 36.00017], [139.74103, 35.9986], [139.74109, 35.99843], [139.74136, 35.99769], [139.74155, 35.99725], [139.7419, 35.99631], [139.74232, 35.99524], [139.7428, 35.99395], [139.74325, 35.99277], [139.74366, 35.9917], [139.74405, 35.99069]]}, "properties": {"id": "GEOM_TOKYO_3484", "route_id": "R_7581302C", "route_name": "伊勢崎線", "route_color": "#1565c0", "route_text_color": "#ffffff", "representation": "service_path", "min_zoom": 0, "max_zoom": 24, "offset_rank": 0}}, {"type": "Feature", "bbox": [139.65653, 36.09585, 139.65739, 36.0968], "geometry": {"type": "LineString", "coordinates": [[139.65739, 36.09585], [139.65653, 36.0968]]}, "properties": {"id": "GEOM_TOKYO_3485", "route_id": "R_7581302C", "route_name": "伊勢崎線", "route_color": "#1565c0", "route_text_color": "#ffffff", "representation": "service_path", "min_zoom": 0, "max_zoom": 24, "offset_rank": 0}}, {"type": "Feature", "bbox": [139.75758, 35.96562, 139.76582, 35.97813], "geometry": {"type": "LineString", "coordinates": [[139.76582, 35.96562], [139.76551, 35.96674], [139.76441, 35.97051], [139.76421, 35.97114], [139.76409, 35.97153], [139.76386, 35.97228], [139.76348, 35.9735], [139.76337, 35.97388], [139.76328, 35.97418], [139.76315, 35.97444], [139.763, 35.97469], [139.76274, 35.97502], [139.76259, 35.97522], [139.76229, 35.9756], [139.76198, 35.97592], [139.76165, 35.9762], [139.7614, 35.97638], [139.76113, 35.97655], [139.76078, 35.97678], [139.76031, 35.97702], [139.75996, 35.97716], [139.75924, 35.97746], [139.75827, 35.97785], [139.75758, 35.97813]]}, "properties": {"id": "GEOM_TOKYO_3486", "route_id": "R_7581302C", "route_name": "伊勢崎線", "route_color": "#1565c0", "route_text_color": "#ffffff", "representation": "service_path", "min_zoom": 0, "max_zoom": 24, "offset_rank": 0}}, {"type": "Feature", "bbox": [139.77047, 35.94825, 139.77095, 35.94991], "geometry": {"type": "LineString", "coordinates": [[139.77095, 35.94825], [139.77047, 35.94991]]}, "properties": {"id": "GEOM_TOKYO_3487", "route_id": "R_7581302C", "route_name": "伊勢崎線", "route_color": "#1565c0", "route_text_color": "#ffffff", "representation": "service_path", "min_zoom": 0, "max_zoom": 24, "offset_rank": 0}}, {"type": "Feature", "bbox": [139.59493, 36.12266, 139.59621, 36.12325], "geometry": {"type": "LineString", "coordinates": [[139.59621, 36.12266], [139.59571, 36.12287], [139.59542, 36.12301], [139.59493, 36.12325]]}, "properties": {"id": "GEOM_TOKYO_3496", "route_id": "R_7581302C", "route_name": "伊勢崎線", "route_color": "#1565c0", "route_text_color": "#ffffff", "representation": "service_path", "min_zoom": 0, "max_zoom": 24, "offset_rank": 0}}, {"type": "Feature", "bbox": [139.59621, 36.11025, 139.6327, 36.12266], "geometry": {"type": "LineString", "coordinates": [[139.6327, 36.11025], [139.63199, 36.11048], [139.63163, 36.1106], [139.62889, 36.11154], [139.62545, 36.11267], [139.62176, 36.11395], [139.62079, 36.11426], [139.61952, 36.11469], [139.61917, 36.11481], [139.61797, 36.11521], [139.61586, 36.11592], [139.61296, 36.11688], [139.6115, 36.11736], [139.60957, 36.118], [139.60887, 36.11823], [139.60743, 36.11871], [139.6069, 36.11888], [139.60529, 36.11942], [139.60508, 36.11949], [139.60437, 36.11976], [139.60417, 36.11984], [139.60338, 36.12014], [139.60213, 36.12058], [139.6013, 36.12088], [139.60021, 36.12126], [139.59982, 36.1214], [139.59955, 36.12149], [139.59732, 36.12228], [139.59667, 36.12251], [139.59621, 36.12266]]}, "properties": {"id": "GEOM_TOKYO_3505", "route_id": "R_7581302C", "route_name": "伊勢崎線", "route_color": "#1565c0", "route_text_color": "#ffffff", "representation": "service_path", "min_zoom": 0, "max_zoom": 24, "offset_rank": 0}}, {"type": "Feature", "bbox": [139.55748, 36.12325, 139.59493, 36.14926], "geometry": {"type": "LineString", "coordinates": [[139.55748, 36.14926], [139.56075, 36.14698], [139.56112, 36.14673], [139.56293, 36.14548], [139.56522, 36.14388], [139.5662, 36.1432], [139.56873, 36.14144], [139.56954, 36.14087], [139.57155, 36.13945], [139.57247, 36.13882], [139.5725, 36.1388], [139.57391, 36.13779], [139.57562, 36.13657], [139.57696, 36.13563], [139.57736, 36.13534], [139.57786, 36.135], [139.57908, 36.13416], [139.58084, 36.13292], [139.5825, 36.13178], [139.58375, 36.13091], [139.58481, 36.13018], [139.58539, 36.12977], [139.58577, 36.12949], [139.58642, 36.12903], [139.58739, 36.12835], [139.58896, 36.12729], [139.5903, 36.12637], [139.59132, 36.12565], [139.59277, 36.12465], [139.59354, 36.1241], [139.59428, 36.12364], [139.59493, 36.12325]]}, "properties": {"id": "GEOM_TOKYO_3506", "route_id": "R_7581302C", "route_name": "伊勢崎線", "route_color": "#1565c0", "route_text_color": "#ffffff", "representation": "service_path", "min_zoom": 0, "max_zoom": 24, "offset_rank": 0}}, {"type": "Feature", "bbox": [139.63449, 36.0968, 139.65653, 36.10964], "geometry": {"type": "LineString", "coordinates": [[139.65653, 36.0968], [139.65435, 36.09919], [139.65414, 36.09942], [139.6535, 36.10011], [139.65253, 36.10117], [139.65049, 36.10329], [139.65, 36.10375], [139.64963, 36.10409], [139.64918, 36.10442], [139.64886, 36.10462], [139.64843, 36.10485], [139.64743, 36.10525], [139.64637, 36.10567], [139.64493, 36.10617], [139.64016, 36.10776], [139.63879, 36.10821], [139.63591, 36.10917], [139.63567, 36.10925], [139.63449, 36.10964]]}, "properties": {"id": "GEOM_TOKYO_3515", "route_id": "R_7581302C", "route_name": "伊勢崎線", "route_color": "#1565c0", "route_text_color": "#ffffff", "representation": "service_path", "min_zoom": 0, "max_zoom": 24, "offset_rank": 0}}, {"type": "Feature", "bbox": [139.6327, 36.10964, 139.63449, 36.11025], "geometry": {"type": "LineString", "coordinates": [[139.63449, 36.10964], [139.6327, 36.11025]]}, "properties": {"id": "GEOM_TOKYO_3519", "route_id": "R_7581302C", "route_name": "伊勢崎線", "route_color": "#1565c0", "route_text_color": "#ffffff", "representation": "service_path", "min_zoom": 0, "max_zoom": 24, "offset_rank": 0}}, {"type": "Feature", "bbox": [139.72226, 36.02516, 139.72601, 36.0272], "geometry": {"type": "LineString", "coordinates": [[139.72601, 36.02516], [139.72374, 36.0264], [139.72226, 36.0272]]}, "properties": {"id": "GEOM_TOKYO_3819", "route_id": "R_FB68CB74", "route_name": "日光線", "route_color": "#1565c0", "route_text_color": "#ffffff", "representation": "service_path", "min_zoom": 0, "max_zoom": 24, "offset_rank": 0}}, {"type": "Feature", "bbox": [139.72601, 36.02424, 139.72777, 36.02516], "geometry": {"type": "LineString", "coordinates": [[139.72777, 36.02424], [139.72601, 36.02516]]}, "properties": {"id": "GEOM_TOKYO_3820", "route_id": "R_FB68CB74", "route_name": "日光線", "route_color": "#1565c0", "route_text_color": "#ffffff", "representation": "service_path", "min_zoom": 0, "max_zoom": 24, "offset_rank": 0}}, {"type": "Feature", "bbox": [139.71357, 36.07492, 139.72084, 36.11249], "geometry": {"type": "LineString", "coordinates": [[139.715, 36.07492], [139.7151, 36.0762], [139.71524, 36.07759], [139.71548, 36.08003], [139.71565, 36.08185], [139.71583, 36.08343], [139.71595, 36.08429], [139.71608, 36.08483], [139.71632, 36.08562], [139.71659, 36.08652], [139.71715, 36.08874], [139.71792, 36.09153], [139.71849, 36.09369], [139.71893, 36.09533], [139.71916, 36.09618], [139.71941, 36.0971], [139.71961, 36.09781], [139.71967, 36.09803], [139.72033, 36.10043], [139.72069, 36.10185], [139.72082, 36.10256], [139.72083, 36.10311], [139.72084, 36.10352], [139.72073, 36.10421], [139.72059, 36.10486], [139.72045, 36.10527], [139.7204, 36.1054], [139.7203, 36.10564], [139.72004, 36.10615], [139.71972, 36.10667], [139.71947, 36.10699], [139.71862, 36.10792], [139.7171, 36.10935], [139.71634, 36.11008], [139.71519, 36.11111], [139.71362, 36.11245], [139.71357, 36.11249]]}, "properties": {"id": "GEOM_TOKYO_3823", "route_id": "R_FB68CB74", "route_name": "日光線", "route_color": "#1565c0", "route_text_color": "#ffffff", "representation": "service_path", "min_zoom": 0, "max_zoom": 24, "offset_rank": 0}}, {"type": "Feature", "bbox": [139.71481, 36.0272, 139.72226, 36.05041], "geometry": {"type": "LineString", "coordinates": [[139.72226, 36.0272], [139.72168, 36.02774], [139.72134, 36.02809], [139.72117, 36.02835], [139.72091, 36.02888], [139.72074, 36.02937], [139.72038, 36.03064], [139.7203, 36.03093], [139.7202, 36.0313], [139.71998, 36.03208], [139.71977, 36.03283], [139.71846, 36.03743], [139.71727, 36.04162], [139.71675, 36.04344], [139.71588, 36.04656], [139.71481, 36.05041]]}, "properties": {"id": "GEOM_TOKYO_3824", "route_id": "R_FB68CB74", "route_name": "日光線", "route_color": "#1565c0", "route_text_color": "#ffffff", "representation": "service_path", "min_zoom": 0, "max_zoom": 24, "offset_rank": 0}}, {"type": "Feature", "bbox": [139.71482, 36.07322, 139.715, 36.07492], "geometry": {"type": "LineString", "coordinates": [[139.71482, 36.07322], [139.715, 36.07492]]}, "properties": {"id": "GEOM_TOKYO_3827", "route_id": "R_FB68CB74", "route_name": "日光線", "route_color": "#1565c0", "route_text_color": "#ffffff", "representation": "service_path", "min_zoom": 0, "max_zoom": 24, "offset_rank": 0}}, {"type": "Feature", "bbox": [139.69247, 36.11379, 139.71209, 36.13729], "geometry": {"type": "LineString", "coordinates": [[139.69392, 36.13729], [139.69371, 36.13622], [139.69351, 36.13538], [139.69339, 36.13502], [139.6931, 36.13438], [139.69271, 36.13356], [139.6926, 36.13327], [139.69255, 36.13304], [139.69251, 36.1328], [139.69249, 36.13268], [139.69247, 36.13243], [139.69247, 36.13199], [139.69247, 36.13168], [139.69251, 36.13143], [139.69255, 36.13127], [139.6926, 36.13117], [139.69278, 36.13086], [139.69289, 36.13068], [139.69315, 36.13028], [139.69358, 36.12974], [139.69387, 36.12943], [139.69455, 36.1288], [139.69581, 36.12772], [139.69667, 36.12697], [139.698, 36.12584], [139.69851, 36.12541], [139.70047, 36.12375], [139.70348, 36.12117], [139.70564, 36.11931], [139.70832, 36.11703], [139.71054, 36.11512], [139.71209, 36.11379]]}, "properties": {"id": "GEOM_TOKYO_3828", "route_id": "R_FB68CB74", "route_name": "日光線", "route_color": "#1565c0", "route_text_color": "#ffffff", "representation": "service_path", "min_zoom": 0, "max_zoom": 24, "offset_rank": 0}}, {"type": "Feature", "bbox": [139.67912, 36.13842, 139.69436, 36.19227], "geometry": {"type": "LineString", "coordinates": [[139.68746, 36.19227], [139.68764, 36.19205], [139.68793, 36.19171], [139.68806, 36.19151], [139.68808, 36.19147], [139.68817, 36.19132], [139.68819, 36.19125], [139.68821, 36.19122], [139.68833, 36.19098], [139.68841, 36.19078], [139.68849, 36.19052], [139.68853, 36.19019], [139.68853, 36.18989], [139.6885, 36.18958], [139.68849, 36.18954], [139.68847, 36.1894], [139.68824, 36.18776], [139.68825, 36.18774], [139.68823, 36.18768], [139.68814, 36.18707], [139.68813, 36.18694], [139.68812, 36.18692], [139.68799, 36.18593], [139.68797, 36.18589], [139.68794, 36.18563], [139.68792, 36.18553], [139.68789, 36.18529], [139.68783, 36.18491], [139.68764, 36.18351], [139.68638, 36.17455], [139.68628, 36.17383], [139.68602, 36.17186], [139.68598, 36.17153], [139.68581, 36.17018], [139.68577, 36.16993], [139.68576, 36.16984], [139.68569, 36.16928], [139.68559, 36.16873], [139.68554, 36.16852], [139.68547, 36.16825], [139.68537, 36.16791], [139.68523, 36.16758], [139.68506, 36.1672], [139.68495, 36.16701], [139.68468, 36.16655], [139.68433, 36.166], [139.68412, 36.16567], [139.6835, 36.16471], [139.68185, 36.16214], [139.68143, 36.16149], [139.68032, 36.15983], [139.68008, 36.15948], [139.67949, 36.15854], [139.67936, 36.15829], [139.67927, 36.15802], [139.67921, 36.15783], [139.67919, 36.15764], [139.67913, 36.15739], [139.67913, 36.15715], [139.67912, 36.15691], [139.67913, 36.15676], [139.67915, 36.15661], [139.67928, 36.15622], [139.67943, 36.15586], [139.67958, 36.15557], [139.6798, 36.15528], [139.68008, 36.15492], [139.68043, 36.15457], [139.68072, 36.15432], [139.6826, 36.15267], [139.68428, 36.15125], [139.68644, 36.1494], [139.6873, 36.14867], [139.68912, 36.14713], [139.69068, 36.14583], [139.691, 36.14552], [139.69135, 36.14514], [139.69207, 36.14425], [139.69299, 36.14317], [139.69356, 36.14241], [139.6939, 36.14183], [139.69402, 36.14158], [139.6942, 36.14118], [139.69429, 36.14086], [139.69434, 36.1406], [139.69436, 36.14024], [139.69433, 36.13981], [139.69425, 36.13915], [139.69413, 36.13842]]}, "properties": {"id": "GEOM_TOKYO_3830", "route_id": "R_FB68CB74", "route_name": "日光線", "route_color": "#1565c0", "route_text_color": "#ffffff", "representation": "service_path", "min_zoom": 0, "max_zoom": 24, "offset_rank": 0}}, {"type": "Feature", "bbox": [139.71326, 36.05229, 139.71482, 36.07322], "geometry": {"type": "LineString", "coordinates": [[139.71428, 36.05229], [139.71363, 36.05465], [139.71363, 36.05466], [139.71361, 36.05473], [139.71341, 36.05544], [139.71328, 36.05608], [139.71326, 36.05667], [139.71332, 36.05768], [139.71352, 36.05988], [139.7138, 36.06259], [139.7139, 36.0637], [139.71401, 36.06484], [139.71443, 36.06924], [139.71477, 36.07269], [139.7148, 36.073], [139.71482, 36.07322]]}, "properties": {"id": "GEOM_TOKYO_3831", "route_id": "R_FB68CB74", "route_name": "日光線", "route_color": "#1565c0", "route_text_color": "#ffffff", "representation": "service_path", "min_zoom": 0, "max_zoom": 24, "offset_rank": 0}}, {"type": "Feature", "bbox": [139.69392, 36.13729, 139.69413, 36.13842], "geometry": {"type": "LineString", "coordinates": [[139.69392, 36.13729], [139.69413, 36.13842]]}, "properties": {"id": "GEOM_TOKYO_3832", "route_id": "R_FB68CB74", "route_name": "日光線", "route_color": "#1565c0", "route_text_color": "#ffffff", "representation": "service_path", "min_zoom": 0, "max_zoom": 24, "offset_rank": 0}}, {"type": "Feature", "bbox": [139.71428, 36.05041, 139.71481, 36.05229], "geometry": {"type": "LineString", "coordinates": [[139.71481, 36.05041], [139.71428, 36.05229]]}, "properties": {"id": "GEOM_TOKYO_3834", "route_id": "R_FB68CB74", "route_name": "日光線", "route_color": "#1565c0", "route_text_color": "#ffffff", "representation": "service_path", "min_zoom": 0, "max_zoom": 24, "offset_rank": 0}}, {"type": "Feature", "bbox": [139.71209, 36.11249, 139.71357, 36.11379], "geometry": {"type": "LineString", "coordinates": [[139.71357, 36.11249], [139.71209, 36.11379]]}, "properties": {"id": "GEOM_TOKYO_3836", "route_id": "R_FB68CB74", "route_name": "日光線", "route_color": "#1565c0", "route_text_color": "#ffffff", "representation": "service_path", "min_zoom": 0, "max_zoom": 24, "offset_rank": 0}}, {"type": "Feature", "bbox": [139.74273, 35.97887, 139.74977, 35.98166], "geometry": {"type": "LineString", "coordinates": [[139.74977, 35.9814], [139.74937, 35.9815], [139.74883, 35.98159], [139.74808, 35.98165], [139.74757, 35.98166], [139.74708, 35.98161], [139.74676, 35.98151], [139.74663, 35.98145], [139.74652, 35.98141], [139.74642, 35.98135], [139.7463, 35.9813], [139.74583, 35.981], [139.74517, 35.98057], [139.74463, 35.98019], [139.74374, 35.97958], [139.74314, 35.97916], [139.74273, 35.97887]]}, "properties": {"id": "GEOM_TOKYO_3844", "route_id": "R_74A4AEDE", "route_name": "野田線", "route_color": "#1565c0", "route_text_color": "#ffffff", "representation": "service_path", "min_zoom": 0, "max_zoom": 24, "offset_rank": 0}}, {"type": "Feature", "bbox": [139.74977, 35.9811, 139.75038, 35.9814], "geometry": {"type": "LineString", "coordinates": [[139.75038, 35.9811], [139.74977, 35.9814]]}, "properties": {"id": "GEOM_TOKYO_3845", "route_id": "R_74A4AEDE", "route_name": "野田線", "route_color": "#1565c0", "route_text_color": "#ffffff", "representation": "service_path", "min_zoom": 0, "max_zoom": 24, "offset_rank": 0}}, {"type": "Feature", "bbox": [139.75038, 35.98022, 139.75184, 35.9811], "geometry": {"type": "LineString", "coordinates": [[139.75184, 35.98022], [139.75127, 35.98055], [139.75038, 35.9811]]}, "properties": {"id": "GEOM_TOKYO_3846", "route_id": "R_74A4AEDE", "route_name": "野田線", "route_color": "#1565c0", "route_text_color": "#ffffff", "representation": "service_path", "min_zoom": 0, "max_zoom": 24, "offset_rank": 0}}, {"type": "Feature", "bbox": [139.66657, 35.93688, 139.6926, 35.94984], "geometry": {"type": "LineString", "coordinates": [[139.6926, 35.94984], [139.69231, 35.94962], [139.69136, 35.94889], [139.69091, 35.94854], [139.69087, 35.9485], [139.69081, 35.94846], [139.69073, 35.9484], [139.69065, 35.94833], [139.69054, 35.94826], [139.69027, 35.94803], [139.69, 35.94782], [139.68996, 35.9478], [139.6898, 35.94766], [139.68959, 35.94751], [139.68936, 35.94733], [139.6891, 35.94712], [139.68873, 35.94682], [139.68816, 35.94639], [139.6877, 35.94603], [139.68728, 35.94572], [139.68687, 35.94545], [139.68638, 35.94518], [139.68592, 35.94496], [139.68507, 35.94461], [139.68367, 35.94408], [139.68259, 35.94367], [139.68188, 35.9434], [139.68166, 35.94332], [139.68145, 35.94325], [139.68089, 35.94303], [139.68033, 35.94283], [139.6797, 35.94259], [139.67921, 35.94241], [139.67876, 35.94224], [139.67853, 35.94215], [139.67835, 35.94209], [139.67723, 35.94167], [139.6768, 35.94151], [139.67656, 35.94143], [139.67572, 35.94111], [139.6747, 35.94072], [139.67427, 35.94058], [139.67404, 35.94047], [139.67375, 35.94037], [139.6722, 35.93979], [139.67171, 35.93961], [139.67072, 35.93925], [139.67003, 35.93898], [139.66919, 35.93857], [139.66862, 35.93825], [139.66832, 35.93808], [139.66808, 35.93792], [139.668, 35.93787], [139.66761, 35.9376], [139.66736, 35.93743], [139.66706, 35.93723], [139.66657, 35.93688]]}, "properties": {"id": "GEOM_TOKYO_3848", "route_id": "R_74A4AEDE", "route_name": "野田線", "route_color": "#1565c0", "route_text_color": "#ffffff", "representation": "service_path", "min_zoom": 0, "max_zoom": 24, "offset_rank": 0}}, {"type": "Feature", "bbox": [139.66545, 35.9361, 139.66657, 35.93688], "geometry": {"type": "LineString", "coordinates": [[139.66657, 35.93688], [139.66545, 35.9361]]}, "properties": {"id": "GEOM_TOKYO_3850", "route_id": "R_74A4AEDE", "route_name": "野田線", "route_color": "#1565c0", "route_text_color": "#ffffff", "representation": "service_path", "min_zoom": 0, "max_zoom": 24, "offset_rank": 0}}, {"type": "Feature", "bbox": [139.75292, 35.97926, 139.75475, 35.97977], "geometry": {"type": "LineString", "coordinates": [[139.75475, 35.97926], [139.75405, 35.97941], [139.75292, 35.97977]]}, "properties": {"id": "GEOM_TOKYO_3851", "route_id": "R_74A4AEDE", "route_name": "野田線", "route_color": "#1565c0", "route_text_color": "#ffffff", "representation": "service_path", "min_zoom": 0, "max_zoom": 24, "offset_rank": 0}}, {"type": "Feature", "bbox": [139.75475, 35.97813, 139.75758, 35.97926], "geometry": {"type": "LineString", "coordinates": [[139.75758, 35.97813], [139.75559, 35.97893], [139.75475, 35.97926]]}, "properties": {"id": "GEOM_TOKYO_3852", "route_id": "R_74A4AEDE", "route_name": "野田線", "route_color": "#1565c0", "route_text_color": "#ffffff", "representation": "service_path", "min_zoom": 0, "max_zoom": 24, "offset_rank": 0}}, {"type": "Feature", "bbox": [139.75758, 35.97485, 139.77758, 35.9803], "geometry": {"type": "LineString", "coordinates": [[139.77758, 35.9803], [139.77737, 35.98029], [139.77702, 35.98027], [139.77665, 35.98022], [139.77617, 35.98015], [139.77576, 35.98007], [139.77538, 35.97999], [139.7751, 35.97991], [139.77442, 35.97971], [139.77371, 35.97948], [139.77271, 35.97918], [139.77242, 35.97908], [139.77185, 35.97888], [139.77143, 35.97871], [139.77103, 35.97855], [139.77074, 35.9784], [139.77037, 35.97823], [139.76984, 35.97792], [139.76931, 35.97762], [139.76888, 35.97735], [139.76834, 35.97701], [139.76789, 35.97671], [139.76745, 35.97642], [139.76709, 35.97615], [139.76676, 35.97594], [139.76626, 35.97565], [139.76608, 35.97556], [139.76588, 35.97545], [139.76575, 35.97539], [139.76551, 35.97528], [139.76512, 35.97514], [139.76487, 35.97507], [139.76434, 35.97497], [139.76386, 35.97491], [139.76345, 35.97488], [139.76301, 35.97485], [139.76276, 35.97486], [139.76265, 35.97486], [139.76193, 35.97491], [139.76148, 35.97498], [139.76114, 35.97509], [139.76081, 35.97522], [139.76044, 35.97542], [139.76021, 35.97559], [139.75998, 35.97578], [139.75975, 35.97604], [139.75919, 35.97661], [139.75895, 35.97693], [139.75879, 35.97713], [139.75859, 35.97731], [139.75804, 35.97778], [139.75758, 35.97813]]}, "properties": {"id": "GEOM_TOKYO_3853", "route_id": "R_74A4AEDE", "route_name": "野田線", "route_color": "#1565c0", "route_text_color": "#ffffff", "representation": "service_path", "min_zoom": 0, "max_zoom": 24, "offset_rank": 0}}, {"type": "Feature", "bbox": [139.83361, 35.97917, 139.83548, 35.97921], "geometry": {"type": "LineString", "coordinates": [[139.83548, 35.97921], [139.83361, 35.97917]]}, "properties": {"id": "GEOM_TOKYO_3854", "route_id": "R_74A4AEDE", "route_name": "野田線", "route_color": "#1565c0", "route_text_color": "#ffffff", "representation": "service_path", "min_zoom": 0, "max_zoom": 24, "offset_rank": 0}}, {"type": "Feature", "bbox": [139.80758, 35.98052, 139.80921, 35.98068], "geometry": {"type": "LineString", "coordinates": [[139.80921, 35.98068], [139.80758, 35.98052]]}, "properties": {"id": "GEOM_TOKYO_3856", "route_id": "R_74A4AEDE", "route_name": "野田線", "route_color": "#1565c0", "route_text_color": "#ffffff", "representation": "service_path", "min_zoom": 0, "max_zoom": 24, "offset_rank": 0}}, {"type": "Feature", "bbox": [139.77758, 35.9803, 139.77856, 35.98037], "geometry": {"type": "LineString", "coordinates": [[139.77856, 35.98037], [139.77758, 35.9803]]}, "properties": {"id": "GEOM_TOKYO_3857", "route_id": "R_74A4AEDE", "route_name": "野田線", "route_color": "#1565c0", "route_text_color": "#ffffff", "representation": "service_path", "min_zoom": 0, "max_zoom": 24, "offset_rank": 0}}, {"type": "Feature", "bbox": [139.71291, 35.96351, 139.72566, 35.9678], "geometry": {"type": "LineString", "coordinates": [[139.72566, 35.9678], [139.72532, 35.96763], [139.72502, 35.96748], [139.72486, 35.9674], [139.72393, 35.96696], [139.72321, 35.96662], [139.72299, 35.96651], [139.72291, 35.96647], [139.72278, 35.96642], [139.72261, 35.96635], [139.72221, 35.96615], [139.72202, 35.96607], [139.72178, 35.96594], [139.72135, 35.96575], [139.72101, 35.96558], [139.72067, 35.96542], [139.72039, 35.96529], [139.72017, 35.96519], [139.71999, 35.96512], [139.71958, 35.96495], [139.7192, 35.96481], [139.71884, 35.96467], [139.71849, 35.96455], [139.71824, 35.96448], [139.7181, 35.96445], [139.71799, 35.96441], [139.71781, 35.96438], [139.71688, 35.96423], [139.71644, 35.96416], [139.71597, 35.96409], [139.71571, 35.96404], [139.7153, 35.96397], [139.71524, 35.96396], [139.7147, 35.96388], [139.71396, 35.96375], [139.71342, 35.96363], [139.71291, 35.96351]]}, "properties": {"id": "GEOM_TOKYO_3858", "route_id": "R_74A4AEDE", "route_name": "野田線", "route_color": "#1565c0", "route_text_color": "#ffffff", "representation": "service_path", "min_zoom": 0, "max_zoom": 24, "offset_rank": 0}}, {"type": "Feature", "bbox": [139.6926, 35.94984, 139.69366, 35.95066], "geometry": {"type": "LineString", "coordinates": [[139.69366, 35.95066], [139.6926, 35.94984]]}, "properties": {"id": "GEOM_TOKYO_3860", "route_id": "R_74A4AEDE", "route_name": "野田線", "route_color": "#1565c0", "route_text_color": "#ffffff", "representation": "service_path", "min_zoom": 0, "max_zoom": 24, "offset_rank": 0}}, {"type": "Feature", "bbox": [139.72671, 35.96827, 139.74187, 35.97828], "geometry": {"type": "LineString", "coordinates": [[139.74187, 35.97828], [139.74111, 35.97776], [139.74081, 35.97756], [139.7404, 35.97728], [139.74003, 35.97703], [139.73985, 35.9769], [139.73971, 35.97679], [139.73937, 35.97656], [139.73891, 35.97626], [139.73779, 35.97549], [139.73759, 35.97535], [139.73601, 35.97427], [139.73561, 35.97401], [139.73513, 35.97367], [139.7345, 35.97323], [139.73431, 35.9731], [139.73415, 35.97299], [139.73392, 35.97282], [139.73383, 35.97277], [139.73365, 35.97264], [139.73353, 35.97255], [139.7334, 35.97247], [139.73317, 35.97231], [139.73288, 35.97212], [139.73224, 35.97167], [139.73146, 35.97112], [139.73102, 35.97082], [139.73086, 35.97071], [139.73064, 35.97056], [139.73027, 35.97031], [139.73002, 35.97014], [139.7298, 35.96999], [139.72932, 35.96968], [139.72912, 35.96954], [139.72899, 35.96946], [139.72888, 35.96939], [139.72877, 35.96931], [139.72852, 35.96916], [139.72815, 35.96896], [139.72765, 35.96871], [139.72718, 35.96848], [139.72671, 35.96827]]}, "properties": {"id": "GEOM_TOKYO_3861", "route_id": "R_74A4AEDE", "route_name": "野田線", "route_color": "#1565c0", "route_text_color": "#ffffff", "representation": "service_path", "min_zoom": 0, "max_zoom": 24, "offset_rank": 0}}, {"type": "Feature", "bbox": [139.75184, 35.97977, 139.75292, 35.98022], "geometry": {"type": "LineString", "coordinates": [[139.75292, 35.97977], [139.75184, 35.98022]]}, "properties": {"id": "GEOM_TOKYO_3862", "route_id": "R_74A4AEDE", "route_name": "野田線", "route_color": "#1565c0", "route_text_color": "#ffffff", "representation": "service_path", "min_zoom": 0, "max_zoom": 24, "offset_rank": 0}}, {"type": "Feature", "bbox": [139.83548, 35.97136, 139.85264, 35.97944], "geometry": {"type": "LineString", "coordinates": [[139.85264, 35.97136], [139.85198, 35.97246], [139.8505, 35.97496], [139.85018, 35.97547], [139.84971, 35.97614], [139.84931, 35.97662], [139.84893, 35.97703], [139.84859, 35.97735], [139.84819, 35.97769], [139.8477, 35.97805], [139.84724, 35.97834], [139.84675, 35.97861], [139.84641, 35.97877], [139.84628, 35.97883], [139.8458, 35.97902], [139.8454, 35.97916], [139.84499, 35.97927], [139.84456, 35.97934], [139.84411, 35.9794], [139.84362, 35.97944], [139.84333, 35.97944], [139.84299, 35.97944], [139.84266, 35.97943], [139.84039, 35.97934], [139.83763, 35.97926], [139.83548, 35.97921]]}, "properties": {"id": "GEOM_TOKYO_3863", "route_id": "R_74A4AEDE", "route_name": "野田線", "route_color": "#1565c0", "route_text_color": "#ffffff", "representation": "service_path", "min_zoom": 0, "max_zoom": 24, "offset_rank": 0}}, {"type": "Feature", "bbox": [139.71163, 35.96307, 139.71291, 35.96351], "geometry": {"type": "LineString", "coordinates": [[139.71291, 35.96351], [139.71163, 35.96307]]}, "properties": {"id": "GEOM_TOKYO_3864", "route_id": "R_74A4AEDE", "route_name": "野田線", "route_color": "#1565c0", "route_text_color": "#ffffff", "representation": "service_path", "min_zoom": 0, "max_zoom": 24, "offset_rank": 0}}, {"type": "Feature", "bbox": [139.80921, 35.97917, 139.83361, 35.98114], "geometry": {"type": "LineString", "coordinates": [[139.83361, 35.97917], [139.83248, 35.97917], [139.83022, 35.97924], [139.82966, 35.97926], [139.82942, 35.97928], [139.82852, 35.97934], [139.82749, 35.97944], [139.82665, 35.97953], [139.82651, 35.97955], [139.82585, 35.97963], [139.82489, 35.97976], [139.82393, 35.97991], [139.82294, 35.98009], [139.82068, 35.98045], [139.8202, 35.98053], [139.81871, 35.98078], [139.81808, 35.98088], [139.81738, 35.98099], [139.81636, 35.9811], [139.81571, 35.98114], [139.81529, 35.98114], [139.81464, 35.98112], [139.8139, 35.98108], [139.81292, 35.981], [139.81188, 35.98091], [139.81108, 35.98084], [139.8102, 35.98076], [139.80921, 35.98068]]}, "properties": {"id": "GEOM_TOKYO_3866", "route_id": "R_74A4AEDE", "route_name": "野田線", "route_color": "#1565c0", "route_text_color": "#ffffff", "representation": "service_path", "min_zoom": 0, "max_zoom": 24, "offset_rank": 0}}, {"type": "Feature", "bbox": [139.69366, 35.95066, 139.71163, 35.96307], "geometry": {"type": "LineString", "coordinates": [[139.71163, 35.96307], [139.71137, 35.96297], [139.71094, 35.96277], [139.71056, 35.96257], [139.71044, 35.9625], [139.71032, 35.96243], [139.70998, 35.96219], [139.70949, 35.96179], [139.70917, 35.9615], [139.70893, 35.96125], [139.70851, 35.96077], [139.70824, 35.96046], [139.70774, 35.9599], [139.70764, 35.95978], [139.70714, 35.95921], [139.70671, 35.95873], [139.70627, 35.95824], [139.70583, 35.95784], [139.70564, 35.9577], [139.70545, 35.95759], [139.70503, 35.95736], [139.70482, 35.95728], [139.7047, 35.95725], [139.70437, 35.95714], [139.70375, 35.95697], [139.70337, 35.95688], [139.70296, 35.95679], [139.70242, 35.95665], [139.70158, 35.95645], [139.70133, 35.95638], [139.701, 35.95623], [139.70059, 35.956], [139.70021, 35.95574], [139.6998, 35.95543], [139.69963, 35.9553], [139.69861, 35.95453], [139.6982, 35.95422], [139.69817, 35.9542], [139.6981, 35.95414], [139.69807, 35.95413], [139.69741, 35.9536], [139.69731, 35.95353], [139.69731, 35.95352], [139.69728, 35.95351], [139.69653, 35.95292], [139.69651, 35.9529], [139.69587, 35.9524], [139.69586, 35.95237], [139.69583, 35.95236], [139.69554, 35.95214], [139.69415, 35.95106], [139.69366, 35.95066]]}, "properties": {"id": "GEOM_TOKYO_3867", "route_id": "R_74A4AEDE", "route_name": "野田線", "route_color": "#1565c0", "route_text_color": "#ffffff", "representation": "service_path", "min_zoom": 0, "max_zoom": 24, "offset_rank": 0}}, {"type": "Feature", "bbox": [139.74187, 35.97828, 139.74273, 35.97887], "geometry": {"type": "LineString", "coordinates": [[139.74273, 35.97887], [139.74187, 35.97828]]}, "properties": {"id": "GEOM_TOKYO_3870", "route_id": "R_74A4AEDE", "route_name": "野田線", "route_color": "#1565c0", "route_text_color": "#ffffff", "representation": "service_path", "min_zoom": 0, "max_zoom": 24, "offset_rank": 0}}, {"type": "Feature", "bbox": [139.77856, 35.97956, 139.80758, 35.98071], "geometry": {"type": "LineString", "coordinates": [[139.80758, 35.98052], [139.80694, 35.98043], [139.80617, 35.98031], [139.80481, 35.98012], [139.80389, 35.97999], [139.80306, 35.97988], [139.80225, 35.97978], [139.80131, 35.97965], [139.80071, 35.97959], [139.80017, 35.97956], [139.79975, 35.97958], [139.79913, 35.97961], [139.79862, 35.97966], [139.79821, 35.97969], [139.79681, 35.97981], [139.79604, 35.97989], [139.79352, 35.98012], [139.79298, 35.98017], [139.79013, 35.98045], [139.78853, 35.9806], [139.78756, 35.98069], [139.78699, 35.98071], [139.78657, 35.98071], [139.78554, 35.98068], [139.78443, 35.98065], [139.78194, 35.98054], [139.78165, 35.98052], [139.78137, 35.98051], [139.78058, 35.98048], [139.77991, 35.98045], [139.77927, 35.98042], [139.77856, 35.98037]]}, "properties": {"id": "GEOM_TOKYO_3871", "route_id": "R_74A4AEDE", "route_name": "野田線", "route_color": "#1565c0", "route_text_color": "#ffffff", "representation": "service_path", "min_zoom": 0, "max_zoom": 24, "offset_rank": 0}}, {"type": "Feature", "bbox": [139.72566, 35.9678, 139.72671, 35.96827], "geometry": {"type": "LineString", "coordinates": [[139.72671, 35.96827], [139.72566, 35.9678]]}, "properties": {"id": "GEOM_TOKYO_3874", "route_id": "R_74A4AEDE", "route_name": "野田線", "route_color": "#1565c0", "route_text_color": "#ffffff", "representation": "service_path", "min_zoom": 0, "max_zoom": 24, "offset_rank": 0}}, {"type": "Feature", "bbox": [139.65165, 35.92947, 139.66545, 35.9361], "geometry": {"type": "LineString", "coordinates": [[139.66545, 35.9361], [139.66446, 35.93543], [139.6634, 35.93468], [139.663, 35.93441], [139.66291, 35.93434], [139.66259, 35.93411], [139.66222, 35.93387], [139.66218, 35.93384], [139.66176, 35.93354], [139.66142, 35.93331], [139.66136, 35.93326], [139.65951, 35.93198], [139.65885, 35.93152], [139.65877, 35.93146], [139.65871, 35.93144], [139.65868, 35.9314], [139.6584, 35.93124], [139.65816, 35.93111], [139.65804, 35.93104], [139.65789, 35.93096], [139.65772, 35.93089], [139.65735, 35.93075], [139.65669, 35.93054], [139.65619, 35.93041], [139.65543, 35.93024], [139.65347, 35.92984], [139.65325, 35.9298], [139.65307, 35.92976], [139.65269, 35.92969], [139.65255, 35.92966], [139.65234, 35.92961], [139.65214, 35.92957], [139.65165, 35.92947]]}, "properties": {"id": "GEOM_TOKYO_3881", "route_id": "R_74A4AEDE", "route_name": "野田線", "route_color": "#1565c0", "route_text_color": "#ffffff", "representation": "service_path", "min_zoom": 0, "max_zoom": 24, "offset_rank": 0}}, {"type": "Feature", "bbox": [139.6068, 35.90806, 139.62235, 35.93243], "geometry": {"type": "LineString", "coordinates": [[139.62235, 35.90806], [139.62234989, 35.90861179], [139.62202385, 35.90966894], [139.62158168, 35.91104591], [139.62108958, 35.9125093], [139.62065458, 35.91393088], [139.62033972, 35.91489401], [139.62015442, 35.9154201], [139.61991263, 35.91625397], [139.6196016, 35.91748958], [139.61928012, 35.91881854], [139.61896758, 35.92000225], [139.61874714, 35.92071913], [139.61762189, 35.92381465], [139.61717718, 35.92493748], [139.61669812, 35.92611631], [139.61594303, 35.9284976], [139.61516145, 35.92984498], [139.61474846, 35.93045014], [139.61431458, 35.93095063], [139.61383, 35.9314], [139.61339, 35.93161], [139.61301, 35.93179], [139.61264, 35.93196], [139.61246, 35.93204], [139.61212, 35.93215], [139.6116, 35.93228], [139.61129, 35.93234], [139.61093, 35.93238], [139.6104, 35.93243], [139.60997, 35.93243], [139.6097, 35.93243], [139.60936, 35.93242], [139.60887, 35.93236], [139.60862, 35.93232], [139.60814, 35.93221], [139.60781, 35.9321], [139.6068, 35.93178]]}, "properties": {"id": "GEOM_TOKYO_4063", "route_id": "R_94A1418C", "route_name": null, "route_color": null, "route_text_color": null, "representation": "service_path", "min_zoom": 0, "max_zoom": 24, "offset_rank": 0}}]}