{"type": "FeatureCollection", "features": [{"type": "Feature", "bbox": [141.1539085, 40.719931, 141.1539085, 40.719931], "geometry": {"type": "Point", "coordinates": [141.1539085, 40.719931]}, "properties": {"id": "PS_5C069F435A96", "station_group_id": "SG_FC21B2CEE27A", "operator_id": "jr_east", "operator_ids": "jr_east", "name_en": "七戸十和田", "name_ja": "七戸十和田", "label_rank": 72, "tags": ["tokyo", "v3"]}}, {"type": "Feature", "bbox": [141.430935, 40.509325000000004, 141.430935, 40.509325000000004], "geometry": {"type": "Point", "coordinates": [141.430935, 40.509325000000004]}, "properties": {"id": "PS_6BE3E614038D", "station_group_id": "SG_F08E32D4D460", "operator_id": "jr_east", "operator_ids": "jr_east", "name_en": "八戸", "name_ja": "八戸", "label_rank": 72, "tags": ["tokyo", "v3"]}}]}