{"type": "FeatureCollection", "features": [{"type": "Feature", "bbox": [141.00761603198828, 37.24272137672518, 141.00761603198828, 37.24272137672518], "geometry": {"type": "Point", "coordinates": [141.00761603198828, 37.24272137672518]}, "properties": {"id": "PS_J_37_2427214_141_0076160_0", "station_group_id": "SG_J", "operator_id": "jr_east", "operator_ids": "jr_east", "name_en": "Jヴィレッジ", "name_ja": "Jヴィレッジ", "label_rank": 72, "tags": ["tokyo", "v3"]}}, {"type": "Feature", "bbox": [140.86129, 38.03988, 140.86129, 38.03988], "geometry": {"type": "Point", "coordinates": [140.86129, 38.03988]}, "properties": {"id": "PS_AE0B7545D91D", "station_group_id": "SG_AF4383C443BD", "operator_id": "jr_east", "operator_ids": "jr_east", "name_en": "亘理", "name_ja": "亘理", "label_rank": 72, "tags": ["tokyo", "v3"]}}, {"type": "Feature", "bbox": [140.883295, 38.19722, 140.883295, 38.19722], "geometry": {"type": "Point", "coordinates": [140.883295, 38.19722]}, "properties": {"id": "PS_DF4C620D13FF", "station_group_id": "SG_8359AFCE3158", "operator_id": "jr_east", "operator_ids": "jr_east", "name_en": "南仙台", "name_ja": "南仙台", "label_rank": 72, "tags": ["tokyo", "v3"]}}, {"type": "Feature", "bbox": [140.97105, 37.63802, 140.97105, 37.63802], "geometry": {"type": "Point", "coordinates": [140.97105, 37.63802]}, "properties": {"id": "PS_57AA81783233", "station_group_id": "SG_77A3629D44DA", "operator_id": "jr_east", "operator_ids": "jr_east", "name_en": "原ノ町", "name_ja": "原ノ町", "label_rank": 72, "tags": ["tokyo", "v3"]}}, {"type": "Feature", "bbox": [141.005855, 37.453735, 141.005855, 37.453735], "geometry": {"type": "Point", "coordinates": [141.005855, 37.453735]}, "properties": {"id": "PS_795E6F4EA2FF", "station_group_id": "SG_A19002F6A7A8", "operator_id": "jr_east", "operator_ids": "jr_east", "name_en": "双葉", "name_ja": "双葉", "label_rank": 72, "tags": ["tokyo", "v3"]}}, {"type": "Feature", "bbox": [140.88275, 38.173100000000005, 140.88275, 38.173100000000005], "geometry": {"type": "Point", "coordinates": [140.88275, 38.173100000000005]}, "properties": {"id": "PS_AE42D0F8E358", "station_group_id": "SG_607237ED1EDA", "operator_id": "jr_east", "operator_ids": "jr_east", "name_en": "名取", "name_ja": "名取", "label_rank": 72, "tags": ["tokyo", "v3"]}}, {"type": "Feature", "bbox": [140.90105461500002, 37.924079135, 140.90105461500002, 37.924079135], "geometry": {"type": "Point", "coordinates": [140.90105461500002, 37.924079135]}, "properties": {"id": "PS_97246D4B3284", "station_group_id": "SG_632FBD97D9AE", "operator_id": "jr_east", "operator_ids": "jr_east", "name_en": "坂元", "name_ja": "坂元", "label_rank": 72, "tags": ["tokyo", "v3"]}}, {"type": "Feature", "bbox": [140.99201499999998, 37.365785, 140.99201499999998, 37.365785], "geometry": {"type": "Point", "coordinates": [140.99201499999998, 37.365785]}, "properties": {"id": "PS_F638DE4D02A4", "station_group_id": "SG_49F85B630696", "operator_id": "jr_east", "operator_ids": "jr_east", "name_en": "夜ノ森", "name_ja": "夜ノ森", "label_rank": 72, "tags": ["tokyo", "v3"]}}, {"type": "Feature", "bbox": [140.7406, 38.047695000000004, 140.7406, 38.047695000000004], "geometry": {"type": "Point", "coordinates": [140.7406, 38.047695000000004]}, "properties": {"id": "PS_A175646FD796", "station_group_id": "SG_1BE575EAD1FB", "operator_id": "jr_east", "operator_ids": "jr_east", "name_en": "大河原", "name_ja": "大河原", "label_rank": 72, "tags": ["tokyo", "v3"]}}, {"type": "Feature", "bbox": [140.984195, 37.40932, 140.984195, 37.40932], "geometry": {"type": "Point", "coordinates": [140.984195, 37.40932]}, "properties": {"id": "PS_4E12818E1954", "station_group_id": "SG_4AC06A15B878", "operator_id": "jr_east", "operator_ids": "jr_east", "name_en": "大野", "name_ja": "大野", "label_rank": 72, "tags": ["tokyo", "v3"]}}, {"type": "Feature", "bbox": [140.88373, 38.217745, 140.88373, 38.217745], "geometry": {"type": "Point", "coordinates": [140.88373, 38.217745]}, "properties": {"id": "PS_EA4920C84F88", "station_group_id": "SG_A70BB38AF1E4", "operator_id": "jr_east", "operator_ids": "jr_east", "name_en": "太子堂", "name_ja": "太子堂", "label_rank": 72, "tags": ["tokyo", "v3"]}}, {"type": "Feature", "bbox": [141.02274, 37.334050000000005, 141.02274, 37.334050000000005], "geometry": {"type": "Point", "coordinates": [141.02274, 37.334050000000005]}, "properties": {"id": "PS_5BC779E45851", "station_group_id": "SG_9502AC69B976", "operator_id": "jr_east", "operator_ids": "jr_east", "name_en": "富岡", "name_ja": "富岡", "label_rank": 72, "tags": ["tokyo", "v3"]}}, {"type": "Feature", "bbox": [140.996365, 37.562975, 140.996365, 37.562975], "geometry": {"type": "Point", "coordinates": [140.996365, 37.562975]}, "properties": {"id": "PS_307A8A31E05B", "station_group_id": "SG_CB966F7DC08D", "operator_id": "jr_east", "operator_ids": "jr_east", "name_en": "小高", "name_ja": "小高", "label_rank": 72, "tags": ["tokyo", "v3"]}}, {"type": "Feature", "bbox": [140.88898331500002, 37.96631868, 140.88898331500002, 37.96631868], "geometry": {"type": "Point", "coordinates": [140.88898331500002, 37.96631868]}, "properties": {"id": "PS_A145875CEF9B", "station_group_id": "SG_3327793EEEE5", "operator_id": "jr_east", "operator_ids": "jr_east", "name_en": "山下", "name_ja": "山下", "label_rank": 72, "tags": ["tokyo", "v3"]}}, {"type": "Feature", "bbox": [140.863655, 38.111864999999995, 140.863655, 38.111864999999995], "geometry": {"type": "Point", "coordinates": [140.863655, 38.111864999999995]}, "properties": {"id": "PS_6C7B6B6EC075", "station_group_id": "SG_E79A1ED08E80", "operator_id": "jr_east", "operator_ids": "jr_east", "name_en": "岩沼", "name_ja": "岩沼", "label_rank": 72, "tags": ["tokyo", "v3"]}}, {"type": "Feature", "bbox": [140.863655, 38.111864999999995, 140.863655, 38.111864999999995], "geometry": {"type": "Point", "coordinates": [140.863655, 38.111864999999995]}, "properties": {"id": "PS_3CAC314E6C18", "station_group_id": "SG_E79A1ED08E80", "operator_id": "jr_east", "operator_ids": "jr_east", "name_en": "岩沼", "name_ja": "岩沼", "label_rank": 72, "tags": ["tokyo", "v3"]}}, {"type": "Feature", "bbox": [140.9256402, 37.879215474999995, 140.9256402, 37.879215474999995], "geometry": {"type": "Point", "coordinates": [140.9256402, 37.879215474999995]}, "properties": {"id": "PS_1D5855300D72", "station_group_id": "SG_97157B32CFA9", "operator_id": "jr_east", "operator_ids": "jr_east", "name_en": "新地", "name_ja": "新地", "label_rank": 72, "tags": ["tokyo", "v3"]}}, {"type": "Feature", "bbox": [140.93466, 37.75613, 140.93466, 37.75613], "geometry": {"type": "Point", "coordinates": [140.93466, 37.75613]}, "properties": {"id": "PS_CD98B7F979C8", "station_group_id": "SG_E165EB32A07F", "operator_id": "jr_east", "operator_ids": "jr_east", "name_en": "日立木", "name_ja": "日立木", "label_rank": 72, "tags": ["tokyo", "v3"]}}, {"type": "Feature", "bbox": [141.00252999999998, 37.25799, 141.00252999999998, 37.25799], "geometry": {"type": "Point", "coordinates": [141.00252999999998, 37.25799]}, "properties": {"id": "PS_632C5C11511B", "station_group_id": "SG_E433CAB2EC87", "operator_id": "jr_east", "operator_ids": "jr_east", "name_en": "木戸", "name_ja": "木戸", "label_rank": 72, "tags": ["tokyo", "v3"]}}, {"type": "Feature", "bbox": [140.98437, 37.528665000000004, 140.98437, 37.528665000000004], "geometry": {"type": "Point", "coordinates": [140.98437, 37.528665000000004]}, "properties": {"id": "PS_6CC6AE31C6B4", "station_group_id": "SG_452CCF98A24B", "operator_id": "jr_east", "operator_ids": "jr_east", "name_en": "桃内", "name_ja": "桃内", "label_rank": 72, "tags": ["tokyo", "v3"]}}, {"type": "Feature", "bbox": [140.80997000000002, 38.078869999999995, 140.80997000000002, 38.078869999999995], "geometry": {"type": "Point", "coordinates": [140.80997000000002, 38.078869999999995]}, "properties": {"id": "PS_C62294D2FFDE", "station_group_id": "SG_6387AE3C3D77", "operator_id": "jr_east", "operator_ids": "jr_east", "name_en": "槻木", "name_ja": "槻木", "label_rank": 72, "tags": ["tokyo", "v3"]}}, {"type": "Feature", "bbox": [140.890085, 38.002224999999996, 140.890085, 38.002224999999996], "geometry": {"type": "Point", "coordinates": [140.890085, 38.002224999999996]}, "properties": {"id": "PS_8FD8D465812E", "station_group_id": "SG_A4CCE8882F21", "operator_id": "jr_east", "operator_ids": "jr_east", "name_en": "浜吉田", "name_ja": "浜吉田", "label_rank": 72, "tags": ["tokyo", "v3"]}}, {"type": "Feature", "bbox": [140.989775, 37.49222, 140.989775, 37.49222], "geometry": {"type": "Point", "coordinates": [140.989775, 37.49222]}, "properties": {"id": "PS_5EA3D538CE34", "station_group_id": "SG_2AF8459DCCE2", "operator_id": "jr_east", "operator_ids": "jr_east", "name_en": "浪江", "name_ja": "浪江", "label_rank": 72, "tags": ["tokyo", "v3"]}}, {"type": "Feature", "bbox": [140.92570999999998, 37.802499999999995, 140.92570999999998, 37.802499999999995], "geometry": {"type": "Point", "coordinates": [140.92570999999998, 37.802499999999995]}, "properties": {"id": "PS_76CB659C301C", "station_group_id": "SG_3204C73DBDBE", "operator_id": "jr_east", "operator_ids": "jr_east", "name_en": "相馬", "name_ja": "相馬", "label_rank": 72, "tags": ["tokyo", "v3"]}}, {"type": "Feature", "bbox": [140.99151, 37.60507, 140.99151, 37.60507], "geometry": {"type": "Point", "coordinates": [140.99151, 37.60507]}, "properties": {"id": "PS_11BEBD361CD0", "station_group_id": "SG_C12CEA8308EF", "operator_id": "jr_east", "operator_ids": "jr_east", "name_en": "磐城太田", "name_ja": "磐城太田", "label_rank": 72, "tags": ["tokyo", "v3"]}}, {"type": "Feature", "bbox": [141.00269, 37.28245, 141.00269, 37.28245], "geometry": {"type": "Point", "coordinates": [141.00269, 37.28245]}, "properties": {"id": "PS_AFA1FA067EC4", "station_group_id": "SG_B29CF85F37BB", "operator_id": "jr_east", "operator_ids": "jr_east", "name_en": "竜田", "name_ja": "竜田", "label_rank": 72, "tags": ["tokyo", "v3"]}}, {"type": "Feature", "bbox": [140.7674, 38.05933, 140.7674, 38.05933], "geometry": {"type": "Point", "coordinates": [140.7674, 38.05933]}, "properties": {"id": "PS_FB4DACEA9144", "station_group_id": "SG_E7C7F052671F", "operator_id": "jr_east", "operator_ids": "jr_east", "name_en": "船岡", "name_ja": "船岡", "label_rank": 72, "tags": ["tokyo", "v3"]}}, {"type": "Feature", "bbox": [140.85475000000002, 38.067625, 140.85475000000002, 38.067625], "geometry": {"type": "Point", "coordinates": [140.85475000000002, 38.067625]}, "properties": {"id": "PS_7D89FAF4E72C", "station_group_id": "SG_E8A7C76A1928", "operator_id": "jr_east", "operator_ids": "jr_east", "name_en": "逢隈", "name_ja": "逢隈", "label_rank": 72, "tags": ["tokyo", "v3"]}}, {"type": "Feature", "bbox": [140.886155, 38.226955000000004, 140.886155, 38.226955000000004], "geometry": {"type": "Point", "coordinates": [140.886155, 38.226955000000004]}, "properties": {"id": "PS_056D5BB7A10E", "station_group_id": "SG_2E169508BC37", "operator_id": "jr_east", "operator_ids": "jr_east", "name_en": "長町", "name_ja": "長町", "label_rank": 72, "tags": ["tokyo", "v3"]}}, {"type": "Feature", "bbox": [140.880155, 38.143085, 140.880155, 38.143085], "geometry": {"type": "Point", "coordinates": [140.880155, 38.143085]}, "properties": {"id": "PS_4C15DA7265C0", "station_group_id": "SG_15AB162AE9F6", "operator_id": "jr_east", "operator_ids": "jr_east", "name_en": "館腰", "name_ja": "館腰", "label_rank": 72, "tags": ["tokyo", "v3"]}}, {"type": "Feature", "bbox": [140.925095, 37.842135, 140.925095, 37.842135], "geometry": {"type": "Point", "coordinates": [140.925095, 37.842135]}, "properties": {"id": "PS_D69E44B51031", "station_group_id": "SG_7F03E18BDF80", "operator_id": "jr_east", "operator_ids": "jr_east", "name_en": "駒ヶ嶺", "name_ja": "駒ヶ嶺", "label_rank": 72, "tags": ["tokyo", "v3"]}}, {"type": "Feature", "bbox": [140.97008, 37.702835, 140.97008, 37.702835], "geometry": {"type": "Point", "coordinates": [140.97008, 37.702835]}, "properties": {"id": "PS_427234224F7A", "station_group_id": "SG_08814670004C", "operator_id": "jr_east", "operator_ids": "jr_east", "name_en": "鹿島", "name_ja": "鹿島", "label_rank": 72, "tags": ["tokyo", "v3"]}}]}