{"type": "FeatureCollection", "features": [{"type": "Feature", "bbox": [139.01219, 36.32059, 139.01249, 36.32395], "geometry": {"type": "LineString", "coordinates": [[139.01249, 36.32059], [139.01243, 36.32143], [139.01224, 36.32339], [139.01219, 36.32395]]}, "properties": {"id": "TRACK_TOKYO_2207", "line_name": "高崎線", "station_group_ids": [], "mode": "rail", "operator_id": "jr_east", "line_color": "#F28E1C", "tags": ["tokyo", "track_centerline"]}}, {"type": "Feature", "bbox": [139.04299, 36.301, 139.04751, 36.30264], "geometry": {"type": "LineString", "coordinates": [[139.04751, 36.301], [139.0472, 36.30111], [139.04682, 36.30126], [139.04635, 36.30142], [139.04593, 36.30157], [139.04527, 36.30182], [139.04463, 36.30206], [139.04425, 36.30219], [139.04405, 36.30228], [139.04342, 36.30249], [139.04316, 36.30258], [139.04299, 36.30264]]}, "properties": {"id": "TRACK_TOKYO_2208", "line_name": "高崎線", "station_group_ids": [], "mode": "rail", "operator_id": "jr_east", "line_color": "#F28E1C", "tags": ["tokyo", "track_centerline"]}}, {"type": "Feature", "bbox": [139.02989, 36.30264, 139.04299, 36.3075], "geometry": {"type": "LineString", "coordinates": [[139.02989, 36.3075], [139.03029, 36.30742], [139.03073, 36.30728], [139.03152, 36.30703], [139.03196, 36.30691], [139.03241, 36.30675], [139.03305, 36.30652], [139.03374, 36.30628], [139.03422, 36.30611], [139.03476, 36.30591], [139.03527, 36.30572], [139.03605, 36.30544], [139.03653, 36.30526], [139.03713, 36.30504], [139.03749, 36.3049], [139.03784, 36.30474], [139.03836, 36.30448], [139.03874, 36.30428], [139.03908, 36.30413], [139.0394, 36.30399], [139.03995, 36.30376], [139.04037, 36.30361], [139.04088, 36.30342], [139.04175, 36.3031], [139.04217, 36.30296], [139.04281, 36.30274], [139.04299, 36.30264]]}, "properties": {"id": "TRACK_TOKYO_2209", "line_name": "高崎線", "station_group_ids": [], "mode": "rail", "operator_id": "jr_east", "line_color": "#F28E1C", "tags": ["tokyo", "track_centerline"]}}, {"type": "Feature", "bbox": [139.01249, 36.3075, 139.02989, 36.32059], "geometry": {"type": "LineString", "coordinates": [[139.01249, 36.32059], [139.01255, 36.31992], [139.01262, 36.3191], [139.01265, 36.31878], [139.01268, 36.31856], [139.01269, 36.31823], [139.01274, 36.31785], [139.01278, 36.31762], [139.01283, 36.31748], [139.0129, 36.31725], [139.01302, 36.31698], [139.01305, 36.31691], [139.01314, 36.31672], [139.01341, 36.31629], [139.01358, 36.31607], [139.01363, 36.316], [139.01378, 36.31584], [139.01399, 36.31561], [139.01406, 36.31555], [139.01411, 36.31551], [139.01424, 36.31541], [139.01479, 36.31508], [139.01495, 36.31499], [139.01503, 36.31494], [139.01543, 36.31473], [139.016, 36.31442], [139.01659, 36.31408], [139.01697, 36.3139], [139.01928, 36.31271], [139.0201, 36.31227], [139.02078, 36.3119], [139.02133, 36.31161], [139.02199, 36.31126], [139.02264, 36.31091], [139.02328, 36.31056], [139.02354, 36.31042], [139.02412, 36.31015], [139.02425, 36.31008], [139.02455, 36.30991], [139.02541, 36.30947], [139.02609, 36.30913], [139.02681, 36.30876], [139.02739, 36.30845], [139.02768, 36.30831], [139.02801, 36.30815], [139.0284, 36.30801], [139.02882, 36.30787], [139.02912, 36.30777], [139.0293, 36.30771], [139.0296, 36.30759], [139.02989, 36.3075]]}, "properties": {"id": "TRACK_TOKYO_2210", "line_name": "高崎線", "station_group_ids": [], "mode": "rail", "operator_id": "jr_east", "line_color": "#F28E1C", "tags": ["tokyo", "track_centerline"]}}, {"type": "Feature", "bbox": [139.04751, 36.29961, 139.05137, 36.301], "geometry": {"type": "LineString", "coordinates": [[139.05137, 36.29961], [139.05082, 36.2998], [139.05011, 36.30005], [139.04933, 36.30033], [139.04859, 36.30061], [139.04751, 36.301]]}, "properties": {"id": "TRACK_TOKYO_2211", "line_name": "高崎線", "station_group_ids": [], "mode": "rail", "operator_id": "jr_east", "line_color": "#F28E1C", "tags": ["tokyo", "track_centerline"]}}, {"type": "Feature", "bbox": [139.02989, 36.30264, 139.04299, 36.3075], "geometry": {"type": "LineString", "coordinates": [[139.02989, 36.3075], [139.0315, 36.30688], [139.03195, 36.3067], [139.03275, 36.3064], [139.03323, 36.30621], [139.0339, 36.30595], [139.03452, 36.30571], [139.03507, 36.30551], [139.03548, 36.30534], [139.03597, 36.30516], [139.03625, 36.30504], [139.03675, 36.30484], [139.03711, 36.30469], [139.03757, 36.3045], [139.03781, 36.3044], [139.0382, 36.30423], [139.03864, 36.30403], [139.03896, 36.3039], [139.03923, 36.30379], [139.03967, 36.30363], [139.03986, 36.30356], [139.03992, 36.30355], [139.04031, 36.30342], [139.04055, 36.30334], [139.04093, 36.30324], [139.04134, 36.30313], [139.04166, 36.30304], [139.04204, 36.30293], [139.04234, 36.30284], [139.04264, 36.30276], [139.04277, 36.30272], [139.04299, 36.30264]]}, "properties": {"id": "TRACK_TOKYO_2212", "line_name": "高崎線", "station_group_ids": [], "mode": "rail", "operator_id": "jr_east", "line_color": "#F28E1C", "tags": ["tokyo", "track_centerline"]}}, {"type": "Feature", "bbox": [139.10367, 36.27238, 139.10696, 36.27383], "geometry": {"type": "LineString", "coordinates": [[139.10696, 36.27238], [139.10648, 36.27258], [139.1057, 36.27293], [139.10487, 36.27329], [139.10367, 36.27383]]}, "properties": {"id": "TRACK_TOKYO_2214", "line_name": "高崎線", "station_group_ids": [], "mode": "rail", "operator_id": "jr_east", "line_color": "#F28E1C", "tags": ["tokyo", "track_centerline"]}}, {"type": "Feature", "bbox": [139.18652, 36.23558, 139.18975, 36.23702], "geometry": {"type": "LineString", "coordinates": [[139.18975, 36.23558], [139.18796, 36.23638], [139.18652, 36.23702]]}, "properties": {"id": "TRACK_TOKYO_2217", "line_name": "高崎線", "station_group_ids": [], "mode": "rail", "operator_id": "jr_east", "line_color": "#F28E1C", "tags": ["tokyo", "track_centerline"]}}, {"type": "Feature", "bbox": [139.23572, 36.20496, 139.23926, 36.20652], "geometry": {"type": "LineString", "coordinates": [[139.23926, 36.20496], [139.23773, 36.20562], [139.2368, 36.20603], [139.23572, 36.20652]]}, "properties": {"id": "TRACK_TOKYO_2218", "line_name": "高崎線", "station_group_ids": [], "mode": "rail", "operator_id": "jr_east", "line_color": "#F28E1C", "tags": ["tokyo", "track_centerline"]}}, {"type": "Feature", "bbox": [139.15042, 36.23702, 139.18652, 36.25304], "geometry": {"type": "LineString", "coordinates": [[139.18652, 36.23702], [139.18582, 36.23733], [139.1853, 36.23756], [139.18488, 36.23774], [139.18379, 36.23823], [139.18234, 36.23887], [139.18137, 36.23931], [139.18022, 36.23981], [139.17882, 36.24044], [139.17745, 36.24104], [139.17669, 36.24138], [139.17557, 36.24189], [139.175, 36.24215], [139.1747, 36.24228], [139.17161, 36.24364], [139.1701, 36.24431], [139.16889, 36.24484], [139.16674, 36.2458], [139.16584, 36.2462], [139.16499, 36.24657], [139.16399, 36.24702], [139.16236, 36.24774], [139.16029, 36.24865], [139.15909, 36.24917], [139.15817, 36.2496], [139.15688, 36.25017], [139.15611, 36.25051], [139.15568, 36.25071], [139.15445, 36.25126], [139.15318, 36.25183], [139.15158, 36.25254], [139.15042, 36.25304]]}, "properties": {"id": "TRACK_TOKYO_2219", "line_name": "高崎線", "station_group_ids": [], "mode": "rail", "operator_id": "jr_east", "line_color": "#F28E1C", "tags": ["tokyo", "track_centerline"]}}, {"type": "Feature", "bbox": [139.14761, 36.25304, 139.15042, 36.25421], "geometry": {"type": "LineString", "coordinates": [[139.14761, 36.25421], [139.14793, 36.25407], [139.14895, 36.25365], [139.15016, 36.25315], [139.15042, 36.25304]]}, "properties": {"id": "TRACK_TOKYO_2222", "line_name": "高崎線", "station_group_ids": [], "mode": "rail", "operator_id": "jr_east", "line_color": "#F28E1C", "tags": ["tokyo", "track_centerline"]}}, {"type": "Feature", "bbox": [139.07997, 36.27383, 139.10367, 36.28287], "geometry": {"type": "LineString", "coordinates": [[139.10367, 36.27383], [139.10321, 36.27402], [139.10263, 36.27426], [139.10248, 36.27433], [139.10227, 36.27442], [139.1017, 36.27468], [139.10143, 36.2748], [139.10121, 36.27489], [139.1007, 36.27511], [139.10005, 36.27539], [139.09965, 36.27557], [139.0991, 36.27581], [139.09863, 36.276], [139.09794, 36.27631], [139.09764, 36.27644], [139.09727, 36.27661], [139.09672, 36.27686], [139.09671, 36.27686], [139.09629, 36.27705], [139.0959, 36.27723], [139.09545, 36.27742], [139.09502, 36.2776], [139.09468, 36.27775], [139.09393, 36.27806], [139.09358, 36.27822], [139.09302, 36.27847], [139.09248, 36.2787], [139.09215, 36.27885], [139.09174, 36.27903], [139.09135, 36.27919], [139.09088, 36.2794], [139.09042, 36.27961], [139.09028, 36.27968], [139.09017, 36.27974], [139.08966, 36.27996], [139.08892, 36.28031], [139.08841, 36.28053], [139.08835, 36.28056], [139.08765, 36.28084], [139.08721, 36.281], [139.08682, 36.28116], [139.0864, 36.28132], [139.08603, 36.28143], [139.08558, 36.28157], [139.08517, 36.28169], [139.08437, 36.28186], [139.08373, 36.28202], [139.08325, 36.28212], [139.08272, 36.28225], [139.08221, 36.28236], [139.08083, 36.28268], [139.07997, 36.28287]]}, "properties": {"id": "TRACK_TOKYO_2224", "line_name": "高崎線", "station_group_ids": [], "mode": "rail", "operator_id": "jr_east", "line_color": "#F28E1C", "tags": ["tokyo", "track_centerline"]}}, {"type": "Feature", "bbox": [139.10696, 36.25421, 139.14761, 36.27238], "geometry": {"type": "LineString", "coordinates": [[139.10696, 36.27238], [139.10774, 36.27204], [139.10933, 36.27135], [139.10973, 36.27118], [139.11034, 36.27091], [139.113, 36.26972], [139.11386, 36.26934], [139.11553, 36.26861], [139.11637, 36.26825], [139.11654, 36.26818], [139.11684, 36.26805], [139.11757, 36.26773], [139.11829, 36.26741], [139.11885, 36.26717], [139.11957, 36.26684], [139.12, 36.26664], [139.12074, 36.26629], [139.12113, 36.26613], [139.12149, 36.26595], [139.12176, 36.26583], [139.12181, 36.26581], [139.12213, 36.26567], [139.12253, 36.2655], [139.12271, 36.26542], [139.12313, 36.26524], [139.12326, 36.26518], [139.12363, 36.26502], [139.12387, 36.26491], [139.12422, 36.26475], [139.12489, 36.26445], [139.12655, 36.26371], [139.12731, 36.26336], [139.12734, 36.26335], [139.12738, 36.26333], [139.12747, 36.2633], [139.12823, 36.26295], [139.12889, 36.26265], [139.12913, 36.26254], [139.12957, 36.26234], [139.12994, 36.26217], [139.13007, 36.26212], [139.1303, 36.26202], [139.13064, 36.26187], [139.13088, 36.26175], [139.13172, 36.26138], [139.13218, 36.26117], [139.13421, 36.26025], [139.13483, 36.25997], [139.13523, 36.25979], [139.13535, 36.25973], [139.13595, 36.25946], [139.13692, 36.25903], [139.13696, 36.259], [139.13735, 36.25883], [139.13792, 36.25858], [139.13884, 36.25816], [139.13901, 36.25809], [139.13955, 36.25784], [139.13964, 36.25782], [139.13979, 36.25774], [139.14045, 36.25745], [139.14195, 36.25677], [139.14206, 36.25672], [139.14216, 36.25667], [139.14343, 36.25609], [139.14356, 36.25603], [139.14397, 36.25585], [139.14428, 36.25571], [139.14451, 36.25561], [139.14521, 36.25529], [139.1458, 36.25502], [139.14652, 36.2547], [139.14715, 36.25442], [139.14745, 36.25429], [139.14761, 36.25421]]}, "properties": {"id": "TRACK_TOKYO_2225", "line_name": "高崎線", "station_group_ids": [], "mode": "rail", "operator_id": "jr_east", "line_color": "#F28E1C", "tags": ["tokyo", "track_centerline"]}}, {"type": "Feature", "bbox": [139.18975, 36.20652, 139.23572, 36.23558], "geometry": {"type": "LineString", "coordinates": [[139.23572, 36.20652], [139.23487, 36.20691], [139.2343, 36.20717], [139.23394, 36.20734], [139.23274, 36.20792], [139.2321, 36.20822], [139.23167, 36.20843], [139.23143, 36.20856], [139.23106, 36.20875], [139.23062, 36.20901], [139.23019, 36.20927], [139.22949, 36.20973], [139.22859, 36.21035], [139.22803, 36.21073], [139.22713, 36.21139], [139.22634, 36.21191], [139.22551, 36.21245], [139.22541, 36.21251], [139.22488, 36.21285], [139.22386, 36.21349], [139.22323, 36.21389], [139.22277, 36.21416], [139.22242, 36.21433], [139.22213, 36.21447], [139.22189, 36.21458], [139.22169, 36.21466], [139.22115, 36.21487], [139.22032, 36.21516], [139.21963, 36.2154], [139.2191, 36.21558], [139.21806, 36.21596], [139.21704, 36.21631], [139.21573, 36.21678], [139.21547, 36.21688], [139.21482, 36.21711], [139.21349, 36.2176], [139.21308, 36.21775], [139.21264, 36.21793], [139.21245, 36.21801], [139.21229, 36.2181], [139.21207, 36.21821], [139.21188, 36.21831], [139.21162, 36.21845], [139.2115, 36.21852], [139.21125, 36.2187], [139.21101, 36.21887], [139.21069, 36.21913], [139.21053, 36.21926], [139.21025, 36.2195], [139.20984, 36.21987], [139.20932, 36.22034], [139.20906, 36.2206], [139.20828, 36.2213], [139.20797, 36.22158], [139.20734, 36.22214], [139.20638, 36.22299], [139.2056, 36.2237], [139.20476, 36.22446], [139.20418, 36.22499], [139.20353, 36.22557], [139.20285, 36.22619], [139.20197, 36.22696], [139.20036, 36.22842], [139.20016, 36.2286], [139.19914, 36.2295], [139.19842, 36.23015], [139.19819, 36.23035], [139.19725, 36.2312], [139.19654, 36.23185], [139.19586, 36.23246], [139.19515, 36.23303], [139.1946, 36.23342], [139.19368, 36.23384], [139.19237, 36.23443], [139.19189, 36.23464], [139.19044, 36.23527], [139.18975, 36.23558]]}, "properties": {"id": "TRACK_TOKYO_2226", "line_name": "高崎線", "station_group_ids": [], "mode": "rail", "operator_id": "jr_east", "line_color": "#F28E1C", "tags": ["tokyo", "track_centerline"]}}, {"type": "Feature", "bbox": [139.23926, 36.19172, 139.27982, 36.20496], "geometry": {"type": "LineString", "coordinates": [[139.27982, 36.19172], [139.27952, 36.19181], [139.27816, 36.19215], [139.27755, 36.19231], [139.27671, 36.19253], [139.27668, 36.19254], [139.27528, 36.19289], [139.27474, 36.19304], [139.27386, 36.19328], [139.27271, 36.19361], [139.27239, 36.1937], [139.27209, 36.19379], [139.27174, 36.19388], [139.27114, 36.19402], [139.2708, 36.1941], [139.27017, 36.1942], [139.26937, 36.19429], [139.2686, 36.19438], [139.26778, 36.19444], [139.26708, 36.1945], [139.26627, 36.19455], [139.26598, 36.19457], [139.26567, 36.1946], [139.2649, 36.19469], [139.26424, 36.19476], [139.2635, 36.19485], [139.26267, 36.19499], [139.2621, 36.19511], [139.26151, 36.19527], [139.26111, 36.19538], [139.26076, 36.1955], [139.2603, 36.19564], [139.26014, 36.19571], [139.25996, 36.19578], [139.25969, 36.1959], [139.25918, 36.19612], [139.25712, 36.19704], [139.2557, 36.19767], [139.2552, 36.19789], [139.25322, 36.19877], [139.25234, 36.19917], [139.25064, 36.19991], [139.24958, 36.20039], [139.24828, 36.20099], [139.24782, 36.20121], [139.24679, 36.20172], [139.24614, 36.20202], [139.24509, 36.20247], [139.24421, 36.20284], [139.2431, 36.20331], [139.24203, 36.20377], [139.24121, 36.20413], [139.24043, 36.20446], [139.23964, 36.20479], [139.23926, 36.20496]]}, "properties": {"id": "TRACK_TOKYO_2227", "line_name": "高崎線", "station_group_ids": [], "mode": "rail", "operator_id": "jr_east", "line_color": "#F28E1C", "tags": ["tokyo", "track_centerline"]}}, {"type": "Feature", "bbox": [139.05137, 36.29533, 139.06314, 36.29961], "geometry": {"type": "LineString", "coordinates": [[139.05137, 36.29961], [139.0519, 36.29944], [139.0525, 36.29922], [139.05256, 36.2992], [139.05276, 36.29911], [139.05308, 36.299], [139.05362, 36.29881], [139.05412, 36.29863], [139.05465, 36.29844], [139.05529, 36.29821], [139.05564, 36.29808], [139.05613, 36.2979], [139.05657, 36.29773], [139.05707, 36.29755], [139.05756, 36.29738], [139.05789, 36.29725], [139.05822, 36.29713], [139.05868, 36.29696], [139.05904, 36.29682], [139.05947, 36.29667], [139.06002, 36.29647], [139.06045, 36.29632], [139.0606, 36.29625], [139.06101, 36.29611], [139.06156, 36.2959], [139.06217, 36.29568], [139.06257, 36.29553], [139.06261, 36.29552], [139.06294, 36.29541], [139.06314, 36.29533]]}, "properties": {"id": "TRACK_TOKYO_2228", "line_name": "高崎線", "station_group_ids": [], "mode": "rail", "operator_id": "jr_east", "line_color": "#F28E1C", "tags": ["tokyo", "track_centerline"]}}, {"type": "Feature", "bbox": [139.06314, 36.28455, 139.07288, 36.29533], "geometry": {"type": "LineString", "coordinates": [[139.06314, 36.29533], [139.0638, 36.29489], [139.06405, 36.29475], [139.06455, 36.29439], [139.06488, 36.29411], [139.0652, 36.29381], [139.06556, 36.29344], [139.06579, 36.29319], [139.06601, 36.29292], [139.06607, 36.29283], [139.06626, 36.29256], [139.0664, 36.29234], [139.06657, 36.29203], [139.06677, 36.29164], [139.06686, 36.2914], [139.067, 36.29108], [139.06714, 36.29066], [139.0674, 36.28998], [139.06755, 36.2896], [139.06762, 36.28942], [139.06777, 36.28906], [139.06785, 36.28889], [139.0681, 36.28837], [139.06836, 36.28785], [139.06852, 36.2876], [139.0687, 36.28735], [139.06871, 36.28733], [139.06882, 36.28721], [139.06903, 36.28695], [139.0692, 36.28677], [139.0695, 36.28648], [139.06975, 36.28626], [139.07007, 36.28601], [139.0703, 36.28584], [139.07056, 36.28566], [139.07078, 36.28552], [139.07103, 36.28537], [139.07125, 36.28525], [139.07158, 36.2851], [139.07176, 36.28501], [139.072, 36.2849], [139.07229, 36.28476], [139.07288, 36.28455]]}, "properties": {"id": "TRACK_TOKYO_2229", "line_name": "高崎線", "station_group_ids": [], "mode": "rail", "operator_id": "jr_east", "line_color": "#F28E1C", "tags": ["tokyo", "track_centerline"]}}, {"type": "Feature", "bbox": [139.06314, 36.28455, 139.07288, 36.29533], "geometry": {"type": "LineString", "coordinates": [[139.06314, 36.29533], [139.06436, 36.29489], [139.065, 36.29466], [139.06556, 36.29447], [139.06588, 36.29434], [139.06634, 36.29412], [139.06666, 36.29396], [139.06711, 36.29363], [139.06751, 36.29323], [139.06786, 36.29281], [139.06813, 36.29245], [139.06839, 36.292], [139.06853, 36.29172], [139.06875, 36.29117], [139.0688, 36.29102], [139.06905, 36.29036], [139.06929, 36.28973], [139.0696, 36.2889], [139.06992, 36.28808], [139.07008, 36.28764], [139.07012, 36.28753], [139.07034, 36.28697], [139.07061, 36.28645], [139.07077, 36.28623], [139.07091, 36.28604], [139.07102, 36.28592], [139.07112, 36.2858], [139.07126, 36.28566], [139.07169, 36.2853], [139.07172, 36.28527], [139.07181, 36.2852], [139.07186, 36.28517], [139.07194, 36.2851], [139.07228, 36.28488], [139.07288, 36.28455]]}, "properties": {"id": "TRACK_TOKYO_2230", "line_name": "高崎線", "station_group_ids": [], "mode": "rail", "operator_id": "jr_east", "line_color": "#F28E1C", "tags": ["tokyo", "track_centerline"]}}, {"type": "Feature", "bbox": [139.07288, 36.28287, 139.07997, 36.28455], "geometry": {"type": "LineString", "coordinates": [[139.07288, 36.28455], [139.07296, 36.28451], [139.07318, 36.28443], [139.07358, 36.28431], [139.07403, 36.2842], [139.0745, 36.2841], [139.07505, 36.28397], [139.0758, 36.2838], [139.07632, 36.28368], [139.07696, 36.28354], [139.07747, 36.28343], [139.07765, 36.28337], [139.07813, 36.28327], [139.07868, 36.28316], [139.07915, 36.28305], [139.07978, 36.2829], [139.07997, 36.28287]]}, "properties": {"id": "TRACK_TOKYO_2231", "line_name": "高崎線", "station_group_ids": [], "mode": "rail", "operator_id": "jr_east", "line_color": "#F28E1C", "tags": ["tokyo", "track_centerline"]}}, {"type": "Feature", "bbox": [139.01277, 36.32111, 139.0132, 36.3248], "geometry": {"type": "LineString", "coordinates": [[139.0132, 36.32111], [139.01317, 36.32134], [139.01315, 36.32162], [139.01283, 36.32435], [139.01277, 36.3248]]}, "properties": {"id": "TRACK_TOKYO_2321", "line_name": "上越新幹線", "station_group_ids": [], "mode": "shinkansen", "operator_id": "jr_east", "line_color": "#E65045", "tags": ["tokyo", "track_centerline"]}}, {"type": "Feature", "bbox": [138.99996, 36.3248, 139.01277, 36.3548], "geometry": {"type": "LineString", "coordinates": [[139.01277, 36.3248], [139.01273, 36.32525], [139.01271, 36.32542], [139.01249, 36.32713], [139.01226, 36.32899], [139.01213, 36.33015], [139.01191, 36.33197], [139.01178, 36.33304], [139.01162, 36.33422], [139.01159, 36.33439], [139.01151, 36.33484], [139.01148, 36.33517], [139.01141, 36.33568], [139.01133, 36.33609], [139.0113, 36.33627], [139.01126, 36.33648], [139.01111, 36.3371], [139.01095, 36.33766], [139.01065, 36.33869], [139.01042, 36.33936], [139.01028, 36.33979], [139.0099, 36.3408], [139.00971, 36.34125], [139.00926, 36.34216], [139.0089, 36.34283], [139.00849, 36.34354], [139.00787, 36.34449], [139.00757, 36.34493], [139.00741, 36.34516], [139.00636, 36.34652], [139.00603, 36.34695], [139.00552, 36.34763], [139.00545, 36.34771], [139.00431, 36.34921], [139.00374, 36.34994], [139.00343, 36.35035], [139.00202, 36.35219], [139.00092, 36.35361], [139.00046, 36.35418], [138.99996, 36.3548]]}, "properties": {"id": "TRACK_TOKYO_2322", "line_name": "上越新幹線", "station_group_ids": [], "mode": "shinkansen", "operator_id": "jr_east", "line_color": "#E65045", "tags": ["tokyo", "track_centerline"]}}, {"type": "Feature", "bbox": [138.96582, 36.3548, 138.99996, 36.6856], "geometry": {"type": "LineString", "coordinates": [[138.99996, 36.3548], [138.99878, 36.3564], [138.99827, 36.35718], [138.99794, 36.35774], [138.99785, 36.35787], [138.99757, 36.35832], [138.99728, 36.3588], [138.99681, 36.35957], [138.99667, 36.35976], [138.9966, 36.35989], [138.99648, 36.36008], [138.99637, 36.36031], [138.99626, 36.3605], [138.99617, 36.36069], [138.99604, 36.36093], [138.99587, 36.36129], [138.99573, 36.36159], [138.99564, 36.36178], [138.99558, 36.36192], [138.99541, 36.36229], [138.99533, 36.36247], [138.99527, 36.36265], [138.99518, 36.36286], [138.99513, 36.36298], [138.99499, 36.36332], [138.99483, 36.36375], [138.99475, 36.36397], [138.9946, 36.36439], [138.99451, 36.36465], [138.99435, 36.36509], [138.99423, 36.36547], [138.99408, 36.36597], [138.99398, 36.36631], [138.99388, 36.36667], [138.99373, 36.36727], [138.99364, 36.36769], [138.99355, 36.36812], [138.99347, 36.36853], [138.99339, 36.36895], [138.99325, 36.36974], [138.99312, 36.37047], [138.99304, 36.37097], [138.99295, 36.3716], [138.99294, 36.37167], [138.99289, 36.37197], [138.9928, 36.37255], [138.99276, 36.37282], [138.99269, 36.37333], [138.99262, 36.37369], [138.99256, 36.3741], [138.99249, 36.37456], [138.99242, 36.37507], [138.99233, 36.37558], [138.99227, 36.37598], [138.99217, 36.37668], [138.99206, 36.37745], [138.992, 36.37789], [138.9919, 36.37847], [138.99181, 36.37907], [138.99172, 36.37967], [138.99167, 36.38003], [138.99161, 36.38045], [138.99158, 36.38062], [138.99154, 36.38086], [138.99145, 36.38147], [138.99134, 36.38215], [138.99128, 36.38266], [138.99122, 36.3831], [138.99114, 36.38355], [138.99112, 36.38372], [138.99104, 36.38424], [138.991, 36.38452], [138.99094, 36.3849], [138.99089, 36.38519], [138.99083, 36.38558], [138.99079, 36.38585], [138.99074, 36.38622], [138.99067, 36.3866], [138.99064, 36.38679], [138.9906, 36.38711], [138.99049, 36.38778], [138.99043, 36.38816], [138.99033, 36.38894], [138.99019, 36.38977], [138.99013, 36.39015], [138.99003, 36.39088], [138.98997, 36.3913], [138.98979, 36.39247], [138.98975, 36.39274], [138.98972, 36.39294], [138.98968, 36.39322], [138.98948, 36.39457], [138.98942, 36.39494], [138.98937, 36.39522], [138.98931, 36.39556], [138.98924, 36.39606], [138.98917, 36.39658], [138.98905, 36.39734], [138.98895, 36.3978], [138.98889, 36.39834], [138.98884, 36.39872], [138.98871, 36.39963], [138.98864, 36.40005], [138.98857, 36.40051], [138.98825, 36.40261], [138.98797, 36.4044], [138.98774, 36.4059], [138.98762, 36.40676], [138.98756, 36.40712], [138.9875, 36.40757], [138.98749, 36.40767], [138.98745, 36.4079], [138.98733, 36.40859], [138.98709, 36.41025], [138.98701, 36.41077], [138.98694, 36.41122], [138.9869, 36.41152], [138.9868, 36.41211], [138.98673, 36.41252], [138.98652, 36.41392], [138.98645, 36.41438], [138.9864, 36.41474], [138.98632, 36.41522], [138.98611, 36.41656], [138.98611, 36.41661], [138.98608, 36.41679], [138.98602, 36.41726], [138.98593, 36.4178], [138.98585, 36.41827], [138.9858, 36.41858], [138.98568, 36.41932], [138.98564, 36.4198], [138.98547, 36.42092], [138.98535, 36.42181], [138.98508, 36.42359], [138.98493, 36.42435], [138.9848, 36.42528], [138.98476, 36.42556], [138.98468, 36.42609], [138.98467, 36.42613], [138.98462, 36.4265], [138.98443, 36.4279], [138.98431, 36.42864], [138.98417, 36.42963], [138.9841, 36.4301], [138.98381, 36.43184], [138.98354, 36.43369], [138.98343, 36.4344], [138.98314, 36.43636], [138.98295, 36.43758], [138.98279, 36.43858], [138.98275, 36.43887], [138.9826, 36.4398], [138.98235, 36.44147], [138.9822, 36.44243], [138.98195, 36.44429], [138.98189, 36.44464], [138.98151, 36.4473], [138.98148, 36.44753], [138.98133, 36.44847], [138.98107, 36.45004], [138.98098, 36.45066], [138.98066, 36.45269], [138.98054, 36.45349], [138.98027, 36.45534], [138.98015, 36.45628], [138.98011, 36.45647], [138.9799, 36.45775], [138.97984, 36.45828], [138.97952, 36.46028], [138.97942, 36.46106], [138.97912, 36.46292], [138.97899, 36.46382], [138.97879, 36.46518], [138.97867, 36.46597], [138.97856, 36.4667], [138.97847, 36.46733], [138.97815, 36.46946], [138.97812, 36.4697], [138.97772, 36.4722], [138.97765, 36.47265], [138.97732, 36.47485], [138.97729, 36.47506], [138.9771, 36.47628], [138.97704, 36.47667], [138.97697, 36.47718], [138.97681, 36.47821], [138.97674, 36.47869], [138.97646, 36.48038], [138.97635, 36.48116], [138.97619, 36.48228], [138.97605, 36.4832], [138.97593, 36.48386], [138.97575, 36.48521], [138.97574, 36.48523], [138.97568, 36.48556], [138.97563, 36.48587], [138.97545, 36.48713], [138.97526, 36.48834], [138.97508, 36.48959], [138.97502, 36.49003], [138.97485, 36.49104], [138.97465, 36.49247], [138.97439, 36.49414], [138.97439, 36.49418], [138.9742, 36.49538], [138.97402, 36.49657], [138.97379, 36.49817], [138.97359, 36.4995], [138.97334, 36.50093], [138.97314, 36.50224], [138.97302, 36.50312], [138.97292, 36.50362], [138.97279, 36.50453], [138.97271, 36.50507], [138.97258, 36.50588], [138.97248, 36.50655], [138.97239, 36.507], [138.97224, 36.50815], [138.97212, 36.50883], [138.97208, 36.50904], [138.97201, 36.50947], [138.97194, 36.51005], [138.97188, 36.51046], [138.97178, 36.51097], [138.97174, 36.51129], [138.9717, 36.5116], [138.97161, 36.51208], [138.97156, 36.51249], [138.9715, 36.51285], [138.97145, 36.5132], [138.97137, 36.51359], [138.9713, 36.51401], [138.97127, 36.51437], [138.97119, 36.51517], [138.97115, 36.51575], [138.9711, 36.51642], [138.97108, 36.51678], [138.97103, 36.51749], [138.97101, 36.51793], [138.97101, 36.51801], [138.97098, 36.51857], [138.97093, 36.51907], [138.97089, 36.51955], [138.97089, 36.52012], [138.97086, 36.52053], [138.9708, 36.52107], [138.97077, 36.52167], [138.97075, 36.52207], [138.97071, 36.5227], [138.97068, 36.52333], [138.97065, 36.52379], [138.97062, 36.52423], [138.9706, 36.52464], [138.97056, 36.52518], [138.97053, 36.52564], [138.97049, 36.52617], [138.97046, 36.52672], [138.97043, 36.52701], [138.9704, 36.52745], [138.97038, 36.52791], [138.97034, 36.52854], [138.97031, 36.52893], [138.97027, 36.52957], [138.97027, 36.52962], [138.97023, 36.53014], [138.97021, 36.5307], [138.97017, 36.53121], [138.97012, 36.53179], [138.97009, 36.53235], [138.97004, 36.53311], [138.97001, 36.53369], [138.96997, 36.53423], [138.96992, 36.53514], [138.96988, 36.53564], [138.96986, 36.53608], [138.9698, 36.53709], [138.96979, 36.53743], [138.96974, 36.53794], [138.96973, 36.53848], [138.96972, 36.53858], [138.9697, 36.53889], [138.96967, 36.53935], [138.96963, 36.5398], [138.96961, 36.54022], [138.96958, 36.54069], [138.96956, 36.54105], [138.96952, 36.54151], [138.96951, 36.54185], [138.96947, 36.54239], [138.96945, 36.5429], [138.96943, 36.54306], [138.96941, 36.54345], [138.9694, 36.54371], [138.96933, 36.54436], [138.9693, 36.54467], [138.9693, 36.54474], [138.9693, 36.54517], [138.96928, 36.54538], [138.96925, 36.54571], [138.96922, 36.54629], [138.96919, 36.54674], [138.96916, 36.54732], [138.96913, 36.54773], [138.96911, 36.54813], [138.96908, 36.54856], [138.96904, 36.5493], [138.969, 36.54963], [138.969, 36.54984], [138.96897, 36.55036], [138.96894, 36.55076], [138.96892, 36.55111], [138.96889, 36.55168], [138.96885, 36.55211], [138.96882, 36.55252], [138.9688, 36.55297], [138.96877, 36.55343], [138.96876, 36.55368], [138.96875, 36.55392], [138.96872, 36.55432], [138.96869, 36.55475], [138.96867, 36.55511], [138.96865, 36.55553], [138.96862, 36.55594], [138.96858, 36.55648], [138.96855, 36.55697], [138.96851, 36.5576], [138.96847, 36.55815], [138.96845, 36.55863], [138.9684, 36.55919], [138.96838, 36.55973], [138.96833, 36.5602], [138.9683, 36.56062], [138.96827, 36.56118], [138.96824, 36.5617], [138.96821, 36.56239], [138.96819, 36.56268], [138.96818, 36.56281], [138.96814, 36.56335], [138.96811, 36.56378], [138.96808, 36.56419], [138.96805, 36.56471], [138.96802, 36.56523], [138.96798, 36.56575], [138.96795, 36.56626], [138.96793, 36.56672], [138.96788, 36.56716], [138.96787, 36.56762], [138.96783, 36.568], [138.96781, 36.56846], [138.9678, 36.56881], [138.96776, 36.56927], [138.96773, 36.56968], [138.96771, 36.56998], [138.9677, 36.5703], [138.96767, 36.57063], [138.96765, 36.57096], [138.96764, 36.57124], [138.96761, 36.57157], [138.96761, 36.57168], [138.9676, 36.57189], [138.96756, 36.57232], [138.96754, 36.57271], [138.96754, 36.57304], [138.96749, 36.57352], [138.96747, 36.57381], [138.96745, 36.57434], [138.96743, 36.57471], [138.96743, 36.57495], [138.96742, 36.57546], [138.96742, 36.5759], [138.96742, 36.57634], [138.96742, 36.57688], [138.96744, 36.57752], [138.96743, 36.57792], [138.96746, 36.57834], [138.9675, 36.57873], [138.96751, 36.57905], [138.96754, 36.57952], [138.96757, 36.57986], [138.9676, 36.58024], [138.96761, 36.58053], [138.96764, 36.58069], [138.96768, 36.58092], [138.96775, 36.58152], [138.96783, 36.58224], [138.96789, 36.58265], [138.96797, 36.58314], [138.96803, 36.58354], [138.9681, 36.58401], [138.96817, 36.58442], [138.96823, 36.58482], [138.96827, 36.58513], [138.96833, 36.58556], [138.96838, 36.58594], [138.96843, 36.58627], [138.96846, 36.58645], [138.96849, 36.58682], [138.96851, 36.58737], [138.9685, 36.58778], [138.9684, 36.5891], [138.96828, 36.58969], [138.96801, 36.59058], [138.96753, 36.59182], [138.96701, 36.59331], [138.96671, 36.59439], [138.96664, 36.59462], [138.96629, 36.59596], [138.96614, 36.59707], [138.96598, 36.5986], [138.96592, 36.59956], [138.96589, 36.59999], [138.96586, 36.60046], [138.96585, 36.601], [138.96583, 36.60153], [138.96582, 36.60216], [138.96582, 36.60293], [138.96583, 36.60335], [138.96585, 36.60398], [138.96592, 36.60535], [138.96596, 36.60593], [138.96604, 36.6071], [138.96612, 36.60774], [138.96625, 36.60891], [138.96645, 36.61018], [138.96657, 36.61086], [138.96687, 36.61226], [138.96688, 36.61232], [138.96702, 36.61296], [138.96727, 36.61409], [138.96746, 36.61489], [138.96771, 36.61592], [138.9679, 36.61674], [138.96817, 36.61786], [138.96845, 36.61907], [138.96877, 36.62046], [138.96895, 36.62117], [138.96906, 36.62165], [138.96928, 36.62258], [138.96971, 36.6244], [138.97003, 36.62574], [138.97026, 36.62681], [138.97033, 36.62702], [138.97046, 36.62766], [138.97084, 36.62913], [138.97103, 36.63006], [138.97121, 36.63076], [138.97144, 36.63174], [138.97164, 36.6326], [138.97195, 36.63387], [138.97214, 36.63466], [138.97237, 36.6357], [138.97251, 36.63626], [138.97262, 36.63679], [138.97275, 36.6373], [138.9728, 36.63749], [138.97303, 36.63846], [138.97332, 36.63969], [138.97349, 36.64044], [138.97366, 36.64113], [138.97402, 36.64271], [138.97447, 36.64452], [138.97472, 36.64561], [138.97484, 36.64616], [138.97513, 36.64738], [138.97552, 36.64898], [138.97596, 36.65086], [138.97623, 36.65203], [138.97637, 36.65266], [138.97676, 36.65425], [138.97698, 36.65519], [138.97723, 36.65626], [138.97742, 36.65711], [138.97758, 36.65778], [138.97764, 36.65801], [138.97804, 36.65973], [138.97836, 36.66108], [138.97867, 36.66244], [138.97906, 36.66404], [138.97929, 36.66501], [138.97944, 36.66567], [138.97967, 36.66664], [138.97988, 36.66753], [138.97994, 36.66774], [138.98012, 36.66859], [138.98039, 36.66977], [138.9805, 36.67008], [138.98059, 36.6718], [138.98065, 36.67359], [138.98064, 36.67456], [138.98061, 36.67553], [138.98052, 36.67678], [138.98041, 36.67762], [138.98032, 36.67833], [138.98013, 36.67942], [138.97969, 36.6818], [138.97955, 36.68255], [138.97937, 36.68355], [138.97911, 36.68493], [138.97897, 36.6856]]}, "properties": {"id": "TRACK_TOKYO_2323", "line_name": "上越新幹線", "station_group_ids": [], "mode": "shinkansen", "operator_id": "jr_east", "line_color": "#E65045", "tags": ["tokyo", "track_centerline"]}}, {"type": "Feature", "bbox": [139.0132, 36.21958, 139.1779, 36.32111], "geometry": {"type": "LineString", "coordinates": [[139.1779, 36.21958], [139.17716, 36.21994], [139.17598, 36.22052], [139.17524, 36.22087], [139.17437, 36.22129], [139.17378, 36.22158], [139.17361, 36.22167], [139.17298, 36.22196], [139.17163, 36.22263], [139.17079, 36.22305], [139.16976, 36.22355], [139.16865, 36.22408], [139.16773, 36.22454], [139.16678, 36.22499], [139.16622, 36.22525], [139.16531, 36.22568], [139.16464, 36.22601], [139.16426, 36.2262], [139.16416, 36.22625], [139.16316, 36.22675], [139.16217, 36.22722], [139.16157, 36.22752], [139.16098, 36.22781], [139.16063, 36.22797], [139.15987, 36.22835], [139.15852, 36.22901], [139.157, 36.22974], [139.1564, 36.23004], [139.15592, 36.23027], [139.15548, 36.23049], [139.15509, 36.23068], [139.15489, 36.23077], [139.15475, 36.23083], [139.15457, 36.23092], [139.15374, 36.23133], [139.15317, 36.23161], [139.15273, 36.23183], [139.15252, 36.23193], [139.15221, 36.23209], [139.1519, 36.23223], [139.15137, 36.23249], [139.15044, 36.23295], [139.14986, 36.23323], [139.14976, 36.23328], [139.14913, 36.23358], [139.14873, 36.23376], [139.14832, 36.23397], [139.14777, 36.23425], [139.14716, 36.23454], [139.14661, 36.23481], [139.14596, 36.23512], [139.14538, 36.23539], [139.14478, 36.2357], [139.14432, 36.23593], [139.14377, 36.23619], [139.14263, 36.23674], [139.14132, 36.23738], [139.14025, 36.2379], [139.13966, 36.23818], [139.13883, 36.23859], [139.13764, 36.23917], [139.13675, 36.23962], [139.13585, 36.2401], [139.13469, 36.24073], [139.13366, 36.24126], [139.13239, 36.24194], [139.13143, 36.24247], [139.13092, 36.24276], [139.13043, 36.24303], [139.12977, 36.2434], [139.12903, 36.24381], [139.12867, 36.24401], [139.12754, 36.24463], [139.12678, 36.24507], [139.12615, 36.24541], [139.12525, 36.24591], [139.12434, 36.24641], [139.1237, 36.24679], [139.12262, 36.24741], [139.12181, 36.24789], [139.12146, 36.24808], [139.1198, 36.24897], [139.11741, 36.2503], [139.11575, 36.25122], [139.1145, 36.25192], [139.1136, 36.25242], [139.11278, 36.25288], [139.1123, 36.25315], [139.11198, 36.25332], [139.11144, 36.25363], [139.11091, 36.25392], [139.11044, 36.25417], [139.11015, 36.25433], [139.10938, 36.25475], [139.10879, 36.25508], [139.10877, 36.25509], [139.10824, 36.25538], [139.10773, 36.25567], [139.10759, 36.25574], [139.107, 36.25607], [139.10643, 36.25639], [139.10605, 36.25661], [139.10575, 36.25677], [139.10529, 36.25703], [139.10486, 36.25727], [139.10454, 36.25745], [139.10398, 36.25776], [139.10357, 36.25798], [139.103, 36.25829], [139.10286, 36.25837], [139.10242, 36.25862], [139.10197, 36.25888], [139.10146, 36.25916], [139.10099, 36.25943], [139.10015, 36.25989], [139.09965, 36.26017], [139.09925, 36.26038], [139.0987, 36.26068], [139.09826, 36.26093], [139.09736, 36.26143], [139.09712, 36.26157], [139.09656, 36.26188], [139.09592, 36.26224], [139.09522, 36.26263], [139.09464, 36.26295], [139.09438, 36.2631], [139.0938, 36.26343], [139.09372, 36.26348], [139.09325, 36.26373], [139.09295, 36.26388], [139.09246, 36.26416], [139.09207, 36.26437], [139.09143, 36.26472], [139.09052, 36.26525], [139.09018, 36.26543], [139.08999, 36.26554], [139.08973, 36.26567], [139.08918, 36.26597], [139.08847, 36.26638], [139.08782, 36.26675], [139.0871, 36.26713], [139.08655, 36.26744], [139.0858, 36.26787], [139.0852, 36.26819], [139.08456, 36.26854], [139.08259, 36.26962], [139.08189, 36.27002], [139.0812, 36.27041], [139.07958, 36.2713], [139.07809, 36.27212], [139.07693, 36.27273], [139.07604, 36.27318], [139.07555, 36.27341], [139.07532, 36.27352], [139.07483, 36.27374], [139.07388, 36.27415], [139.07328, 36.2744], [139.07209, 36.2749], [139.07166, 36.27508], [139.07108, 36.27532], [139.07088, 36.2754], [139.07052, 36.27555], [139.06998, 36.27577], [139.06953, 36.27596], [139.06902, 36.27618], [139.0684, 36.27643], [139.06789, 36.27663], [139.06737, 36.27685], [139.06681, 36.27707], [139.06614, 36.27734], [139.06548, 36.2776], [139.06544, 36.27761], [139.06515, 36.27774], [139.06484, 36.27787], [139.06442, 36.27804], [139.06394, 36.27824], [139.06348, 36.27842], [139.06308, 36.27858], [139.06289, 36.27866], [139.06259, 36.27879], [139.06207, 36.279], [139.06172, 36.27914], [139.06141, 36.27926], [139.0611, 36.27939], [139.06076, 36.27953], [139.06009, 36.27981], [139.05951, 36.28005], [139.05899, 36.28026], [139.05848, 36.28047], [139.05811, 36.28063], [139.05555, 36.28168], [139.05315, 36.28266], [139.0508, 36.28361], [139.0486, 36.28452], [139.04836, 36.28463], [139.04552, 36.2858], [139.04158, 36.28742], [139.04093, 36.28769], [139.04054, 36.28785], [139.04001, 36.28807], [139.03933, 36.28836], [139.03876, 36.2886], [139.03873, 36.28861], [139.03823, 36.28882], [139.03782, 36.28899], [139.03744, 36.28914], [139.03703, 36.28931], [139.03686, 36.28938], [139.03653, 36.28952], [139.03631, 36.28961], [139.03595, 36.28975], [139.03551, 36.28994], [139.03518, 36.29007], [139.03461, 36.2903], [139.03423, 36.29047], [139.03398, 36.29057], [139.03342, 36.29082], [139.03292, 36.29106], [139.03257, 36.29122], [139.03211, 36.29144], [139.03186, 36.29156], [139.03154, 36.29173], [139.03116, 36.29192], [139.03089, 36.29207], [139.03054, 36.29225], [139.03028, 36.2924], [139.02983, 36.29265], [139.02948, 36.29285], [139.02912, 36.29308], [139.02908, 36.29311], [139.02889, 36.29322], [139.02861, 36.2934], [139.02821, 36.29365], [139.02788, 36.29387], [139.02761, 36.29406], [139.02731, 36.29426], [139.02702, 36.29446], [139.02664, 36.29473], [139.0263, 36.29499], [139.026, 36.29521], [139.02544, 36.29562], [139.02508, 36.29592], [139.02467, 36.29625], [139.0242, 36.29665], [139.02392, 36.29689], [139.02372, 36.29706], [139.02332, 36.29744], [139.02295, 36.29778], [139.02258, 36.29814], [139.02247, 36.29825], [139.02217, 36.29856], [139.02154, 36.29921], [139.02135, 36.29942], [139.02132, 36.29944], [139.0211, 36.29969], [139.02092, 36.29989], [139.02047, 36.30038], [139.0201, 36.30082], [139.01992, 36.30104], [139.01965, 36.30139], [139.01942, 36.30169], [139.01917, 36.30201], [139.01891, 36.30238], [139.01859, 36.30285], [139.01853, 36.30294], [139.01845, 36.30307], [139.01794, 36.30385], [139.01774, 36.30418], [139.01759, 36.30442], [139.01739, 36.30475], [139.01725, 36.30501], [139.01706, 36.30534], [139.01691, 36.30563], [139.01677, 36.3059], [139.01664, 36.30616], [139.01651, 36.30642], [139.01645, 36.30654], [139.01625, 36.30698], [139.01612, 36.3073], [139.01609, 36.30735], [139.01599, 36.30757], [139.01589, 36.30782], [139.01573, 36.30825], [139.01557, 36.30864], [139.01546, 36.30894], [139.01529, 36.30943], [139.01515, 36.30981], [139.015, 36.31027], [139.01494, 36.31049], [139.01478, 36.31101], [139.01465, 36.3115], [139.01459, 36.31175], [139.01451, 36.31206], [139.01443, 36.31242], [139.01436, 36.31273], [139.0143, 36.31311], [139.01425, 36.31339], [139.01419, 36.31374], [139.01414, 36.31406], [139.01408, 36.31451], [139.01404, 36.31485], [139.01401, 36.31519], [139.01399, 36.31546], [139.01396, 36.31567], [139.01392, 36.31598], [139.0139, 36.31616], [139.01389, 36.31629], [139.01386, 36.31649], [139.01384, 36.31673], [139.01379, 36.3172], [139.01373, 36.31773], [139.01371, 36.31791], [139.01367, 36.31834], [139.01362, 36.31874], [139.0136, 36.31894], [139.01358, 36.31907], [139.01356, 36.31931], [139.01353, 36.31947], [139.01348, 36.31971], [139.01342, 36.32002], [139.01333, 36.32043], [139.01328, 36.32067], [139.0132, 36.32111]]}, "properties": {"id": "TRACK_TOKYO_2325", "line_name": "上越新幹線", "station_group_ids": [], "mode": "shinkansen", "operator_id": "jr_east", "line_color": "#E65045", "tags": ["tokyo", "track_centerline"]}}, {"type": "Feature", "bbox": [139.1779, 36.21779, 139.18155, 36.21958], "geometry": {"type": "LineString", "coordinates": [[139.1779, 36.21958], [139.17834, 36.21937], [139.1789, 36.2191], [139.17944, 36.21883], [139.17998, 36.21856], [139.18071, 36.21821], [139.18119, 36.21797], [139.18155, 36.21779]]}, "properties": {"id": "TRACK_TOKYO_2326", "line_name": "上越新幹線", "station_group_ids": [], "mode": "shinkansen", "operator_id": "jr_east", "line_color": "#E65045", "tags": ["tokyo", "track_centerline"]}}, {"type": "Feature", "bbox": [139.18155, 36.14006, 139.38814, 36.21779], "geometry": {"type": "LineString", "coordinates": [[139.38814, 36.14006], [139.38689, 36.1405], [139.38651, 36.14064], [139.38406, 36.14155], [139.38155, 36.14247], [139.3799, 36.14308], [139.3795, 36.14324], [139.37919, 36.14335], [139.37853, 36.1436], [139.37647, 36.14441], [139.37535, 36.14485], [139.37179, 36.14627], [139.37147, 36.14639], [139.37026, 36.14682], [139.36898, 36.14729], [139.36843, 36.14749], [139.36759, 36.14779], [139.36662, 36.14813], [139.3658, 36.1484], [139.36369, 36.14911], [139.36226, 36.14956], [139.36058, 36.15007], [139.35807, 36.15068], [139.35794, 36.15072], [139.35655, 36.151], [139.3553, 36.15123], [139.35382, 36.15148], [139.35246, 36.15168], [139.35109, 36.15184], [139.34965, 36.15197], [139.34829, 36.15208], [139.34716, 36.15217], [139.34685, 36.1522], [139.34539, 36.1523], [139.34367, 36.15243], [139.34177, 36.15257], [139.33986, 36.1527], [139.33823, 36.15282], [139.33659, 36.15296], [139.33612, 36.153], [139.33464, 36.15312], [139.33328, 36.15322], [139.33212, 36.15332], [139.32992, 36.15346], [139.32871, 36.15354], [139.32716, 36.15364], [139.32578, 36.15374], [139.32508, 36.15378], [139.3238, 36.15387], [139.32154, 36.15406], [139.31918, 36.15428], [139.31735, 36.15452], [139.31521, 36.15482], [139.31412, 36.15503], [139.31303, 36.15524], [139.31168, 36.15555], [139.31058, 36.15581], [139.30875, 36.15634], [139.30784, 36.15666], [139.30664, 36.15709], [139.30553, 36.1575], [139.30382, 36.15823], [139.3038, 36.15824], [139.30248, 36.15883], [139.301, 36.15954], [139.29961, 36.16021], [139.29859, 36.16071], [139.29645, 36.16174], [139.29517, 36.16236], [139.29425, 36.16282], [139.29362, 36.16313], [139.29208, 36.16388], [139.28983, 36.165], [139.2895, 36.16516], [139.28822, 36.16581], [139.28665, 36.16659], [139.2846, 36.1676], [139.28338, 36.1682], [139.28146, 36.16915], [139.28002, 36.16983], [139.27979, 36.16993], [139.27798, 36.17079], [139.27787, 36.17085], [139.27649, 36.17152], [139.27446, 36.17247], [139.27241, 36.17346], [139.27019, 36.17454], [139.26889, 36.17517], [139.26845, 36.17539], [139.26651, 36.17633], [139.26536, 36.17688], [139.26277, 36.17815], [139.26159, 36.17873], [139.25894, 36.18002], [139.2588, 36.18009], [139.25644, 36.18125], [139.25492, 36.18199], [139.25277, 36.18304], [139.24969, 36.18456], [139.24945, 36.18468], [139.24679, 36.186], [139.24612, 36.18635], [139.2452, 36.18679], [139.24461, 36.18707], [139.24386, 36.18744], [139.24334, 36.1877], [139.24303, 36.18785], [139.24242, 36.18815], [139.242, 36.18835], [139.24171, 36.18849], [139.24109, 36.18879], [139.24002, 36.1893], [139.23933, 36.18964], [139.23874, 36.18992], [139.23811, 36.19023], [139.23749, 36.19054], [139.23634, 36.19109], [139.23549, 36.19151], [139.2351, 36.1917], [139.23457, 36.19196], [139.23383, 36.19232], [139.23272, 36.19286], [139.23159, 36.19341], [139.23021, 36.19408], [139.22876, 36.1948], [139.22792, 36.19521], [139.2271, 36.1956], [139.2254, 36.19644], [139.22438, 36.19692], [139.22432, 36.19695], [139.22356, 36.19732], [139.22173, 36.19821], [139.22052, 36.19879], [139.21921, 36.19945], [139.21762, 36.20022], [139.21606, 36.20098], [139.21481, 36.20158], [139.21439, 36.20178], [139.21318, 36.20239], [139.21201, 36.20295], [139.21138, 36.20326], [139.21078, 36.20356], [139.20972, 36.20407], [139.20888, 36.20447], [139.20812, 36.20484], [139.20739, 36.2052], [139.20664, 36.20557], [139.20609, 36.20584], [139.20558, 36.2061], [139.20531, 36.20623], [139.20485, 36.20645], [139.20409, 36.20683], [139.20335, 36.2072], [139.20247, 36.20763], [139.2017, 36.20799], [139.20095, 36.20835], [139.20014, 36.20875], [139.19975, 36.20894], [139.19884, 36.20938], [139.19828, 36.20966], [139.19773, 36.20993], [139.19697, 36.2103], [139.19595, 36.21079], [139.1958, 36.21086], [139.19498, 36.21127], [139.19432, 36.21158], [139.19428, 36.2116], [139.19379, 36.21184], [139.19311, 36.21217], [139.19214, 36.21264], [139.19115, 36.21312], [139.1903, 36.21353], [139.18951, 36.21393], [139.18832, 36.2145], [139.18705, 36.21513], [139.18639, 36.21545], [139.18545, 36.2159], [139.18495, 36.21614], [139.18481, 36.21622], [139.18455, 36.21635], [139.18399, 36.21661], [139.18335, 36.21693], [139.18266, 36.21725], [139.18172, 36.21771], [139.18155, 36.21779]]}, "properties": {"id": "TRACK_TOKYO_2327", "line_name": "上越新幹線", "station_group_ids": [], "mode": "shinkansen", "operator_id": "jr_east", "line_color": "#E65045", "tags": ["tokyo", "track_centerline"]}}, {"type": "Feature", "bbox": [139.01277, 36.32111, 139.0132, 36.3248], "geometry": {"type": "LineString", "coordinates": [[139.0132, 36.32111], [139.01317, 36.32134], [139.01315, 36.32162], [139.01283, 36.32435], [139.01277, 36.3248]]}, "properties": {"id": "TRACK_TOKYO_3530", "line_name": "北陸新幹線", "station_group_ids": [], "mode": "shinkansen", "operator_id": "jr_east", "line_color": "#2C62C9", "tags": ["tokyo", "track_centerline"]}}, {"type": "Feature", "bbox": [138.99996, 36.3248, 139.01277, 36.3548], "geometry": {"type": "LineString", "coordinates": [[139.01277, 36.3248], [139.01273, 36.32525], [139.01271, 36.32542], [139.01249, 36.32713], [139.01226, 36.32899], [139.01213, 36.33015], [139.01191, 36.33197], [139.01178, 36.33304], [139.01162, 36.33422], [139.01159, 36.33439], [139.01151, 36.33484], [139.01148, 36.33517], [139.01141, 36.33568], [139.01133, 36.33609], [139.0113, 36.33627], [139.01126, 36.33648], [139.01111, 36.3371], [139.01095, 36.33766], [139.01065, 36.33869], [139.01042, 36.33936], [139.01028, 36.33979], [139.0099, 36.3408], [139.00971, 36.34125], [139.00926, 36.34216], [139.0089, 36.34283], [139.00849, 36.34354], [139.00787, 36.34449], [139.00757, 36.34493], [139.00741, 36.34516], [139.00636, 36.34652], [139.00603, 36.34695], [139.00552, 36.34763], [139.00545, 36.34771], [139.00431, 36.34921], [139.00374, 36.34994], [139.00343, 36.35035], [139.00202, 36.35219], [139.00092, 36.35361], [139.00046, 36.35418], [138.99996, 36.3548]]}, "properties": {"id": "TRACK_TOKYO_3531", "line_name": "北陸新幹線", "station_group_ids": [], "mode": "shinkansen", "operator_id": "jr_east", "line_color": "#2C62C9", "tags": ["tokyo", "track_centerline"]}}, {"type": "Feature", "bbox": [138.85084, 36.3548, 138.99996, 36.37982], "geometry": {"type": "LineString", "coordinates": [[138.85084, 36.36261], [138.85233, 36.36275], [138.85285, 36.36282], [138.8532, 36.36286], [138.85382, 36.36295], [138.85434, 36.36302], [138.85501, 36.36312], [138.8554, 36.36318], [138.85581, 36.36325], [138.85635, 36.36334], [138.85697, 36.36343], [138.85764, 36.36354], [138.85796, 36.3636], [138.85866, 36.36371], [138.85914, 36.36379], [138.85951, 36.36385], [138.85991, 36.36391], [138.86037, 36.36398], [138.86087, 36.36406], [138.8616, 36.36418], [138.86176, 36.3642], [138.86207, 36.36425], [138.86288, 36.36438], [138.86319, 36.36443], [138.86357, 36.36449], [138.86386, 36.36454], [138.86426, 36.3646], [138.8647, 36.36467], [138.865, 36.36472], [138.86519, 36.36475], [138.86548, 36.3648], [138.86577, 36.36484], [138.86618, 36.36491], [138.86672, 36.36499], [138.86705, 36.36504], [138.86731, 36.36508], [138.86771, 36.36515], [138.86816, 36.36522], [138.8682, 36.36523], [138.8685, 36.36527], [138.86892, 36.36534], [138.86914, 36.36537], [138.86958, 36.36544], [138.87002, 36.36551], [138.87032, 36.36555], [138.87064, 36.36561], [138.87094, 36.36565], [138.87133, 36.36572], [138.87183, 36.36579], [138.87421, 36.36617], [138.87716, 36.36664], [138.87989, 36.36706], [138.88121, 36.36727], [138.8815, 36.36731], [138.88217, 36.36742], [138.88345, 36.36761], [138.88469, 36.3678], [138.88632, 36.36806], [138.88754, 36.36826], [138.88798, 36.36833], [138.88857, 36.36845], [138.88885, 36.36849], [138.88922, 36.36858], [138.89078, 36.3689], [138.89116, 36.36896], [138.89156, 36.36905], [138.89216, 36.36919], [138.89306, 36.36938], [138.8938, 36.36954], [138.89497, 36.36978], [138.89511, 36.36981], [138.89605, 36.37002], [138.89846, 36.37056], [138.90097, 36.3711], [138.90173, 36.37126], [138.90361, 36.37167], [138.90618, 36.3722], [138.90838, 36.37267], [138.91014, 36.37304], [138.91142, 36.37332], [138.91246, 36.37354], [138.91297, 36.37364], [138.91438, 36.37395], [138.91453, 36.37398], [138.91558, 36.3742], [138.916, 36.3743], [138.91687, 36.37448], [138.91755, 36.37464], [138.91825, 36.37479], [138.91842, 36.37482], [138.91861, 36.37487], [138.92033, 36.37523], [138.92199, 36.37559], [138.92337, 36.37588], [138.92512, 36.37626], [138.92589, 36.37642], [138.92656, 36.37657], [138.92729, 36.37673], [138.92768, 36.3768], [138.93002, 36.3773], [138.93114, 36.37752], [138.93135, 36.37757], [138.93267, 36.37786], [138.93313, 36.37796], [138.93473, 36.3783], [138.93616, 36.37858], [138.93774, 36.37889], [138.93855, 36.37904], [138.93939, 36.37917], [138.93992, 36.37925], [138.94064, 36.37934], [138.94074, 36.37936], [138.94137, 36.37943], [138.94196, 36.37951], [138.942, 36.37951], [138.943, 36.3796], [138.94356, 36.37964], [138.94421, 36.37968], [138.94522, 36.37974], [138.94605, 36.3798], [138.94675, 36.37982], [138.94693, 36.37982], [138.94778, 36.37982], [138.94881, 36.37981], [138.94959, 36.37978], [138.94967, 36.37978], [138.95027, 36.37976], [138.95075, 36.37974], [138.95098, 36.37973], [138.95192, 36.37966], [138.95259, 36.37961], [138.95323, 36.37954], [138.95364, 36.37949], [138.95502, 36.37933], [138.95549, 36.37926], [138.95557, 36.37925], [138.95578, 36.37921], [138.95653, 36.3791], [138.9575, 36.37894], [138.95844, 36.37877], [138.95918, 36.3786], [138.96033, 36.3783], [138.96162, 36.37797], [138.96271, 36.37768], [138.96387, 36.37732], [138.96517, 36.37689], [138.96599, 36.37659], [138.96604, 36.37657], [138.96704, 36.3762], [138.96714, 36.37616], [138.96812, 36.37576], [138.96907, 36.37535], [138.9701, 36.37489], [138.97157, 36.3742], [138.97347, 36.37316], [138.9739, 36.37292], [138.97515, 36.37222], [138.97625, 36.3716], [138.9767, 36.37135], [138.97713, 36.3711], [138.98059, 36.36913], [138.98265, 36.36794], [138.98423, 36.36704], [138.98748, 36.36519], [138.98922, 36.36417], [138.98977, 36.36382], [138.99007, 36.36364], [138.99042, 36.36341], [138.99149, 36.36268], [138.99289, 36.36167], [138.99302, 36.36157], [138.99441, 36.36047], [138.99594, 36.35916], [138.99681, 36.35837], [138.998, 36.35704], [138.99996, 36.3548]]}, "properties": {"id": "TRACK_TOKYO_3532", "line_name": "北陸新幹線", "station_group_ids": [], "mode": "shinkansen", "operator_id": "jr_east", "line_color": "#2C62C9", "tags": ["tokyo", "track_centerline"]}}, {"type": "Feature", "bbox": [139.20157, 36.31735, 139.20206, 36.31882], "geometry": {"type": "LineString", "coordinates": [[139.20157, 36.31882], [139.20206, 36.31735]]}, "properties": {"id": "TRACK_TOKYO_3645", "line_name": "伊勢崎線", "station_group_ids": [], "mode": "private", "operator_id": "tobu", "line_color": "#1F78FF", "tags": ["tokyo", "track_centerline"]}}, {"type": "Feature", "bbox": [139.19581, 36.31882, 139.20157, 36.32628], "geometry": {"type": "LineString", "coordinates": [[139.20157, 36.31882], [139.20143, 36.31926], [139.20121, 36.31997], [139.20107, 36.32036], [139.20086, 36.32101], [139.20076, 36.32134], [139.20063, 36.32171], [139.20054, 36.32199], [139.20045, 36.32225], [139.20037, 36.32249], [139.20031, 36.32268], [139.20025, 36.32285], [139.20015, 36.32308], [139.20007, 36.32326], [139.19996, 36.32343], [139.19949, 36.32425], [139.1993, 36.32452], [139.19911, 36.32473], [139.19888, 36.32498], [139.19863, 36.32521], [139.19839, 36.32537], [139.1982, 36.3255], [139.19796, 36.32564], [139.19773, 36.32576], [139.19754, 36.32585], [139.19728, 36.32595], [139.197, 36.32606], [139.19683, 36.3261], [139.1966, 36.32615], [139.1963, 36.3262], [139.19581, 36.32628]]}, "properties": {"id": "TRACK_TOKYO_3646", "line_name": "伊勢崎線", "station_group_ids": [], "mode": "private", "operator_id": "tobu", "line_color": "#1F78FF", "tags": ["tokyo", "track_centerline"]}}, {"type": "Feature", "bbox": [139.1941, 36.32628, 139.19581, 36.32656], "geometry": {"type": "LineString", "coordinates": [[139.19581, 36.32628], [139.1941, 36.32656]]}, "properties": {"id": "TRACK_TOKYO_3647", "line_name": "伊勢崎線", "station_group_ids": [], "mode": "private", "operator_id": "tobu", "line_color": "#1F78FF", "tags": ["tokyo", "track_centerline"]}}, {"type": "Feature", "bbox": [139.2233, 36.29506, 139.22446, 36.29577], "geometry": {"type": "LineString", "coordinates": [[139.22446, 36.29506], [139.2233, 36.29577]]}, "properties": {"id": "TRACK_TOKYO_3648", "line_name": "伊勢崎線", "station_group_ids": [], "mode": "private", "operator_id": "tobu", "line_color": "#1F78FF", "tags": ["tokyo", "track_centerline"]}}, {"type": "Feature", "bbox": [139.20206, 36.29577, 139.2233, 36.31735], "geometry": {"type": "LineString", "coordinates": [[139.20206, 36.31735], [139.20215, 36.317], [139.20226, 36.31667], [139.20238, 36.31636], [139.20245, 36.3162], [139.20257, 36.316], [139.20271, 36.31579], [139.2028, 36.31565], [139.20292, 36.3155], [139.20307, 36.31534], [139.20318, 36.31521], [139.2033, 36.31509], [139.2036, 36.31483], [139.20382, 36.31466], [139.20408, 36.31449], [139.20435, 36.31435], [139.20457, 36.31425], [139.20524, 36.31399], [139.20548, 36.3139], [139.20596, 36.31372], [139.20629, 36.31359], [139.20647, 36.31352], [139.20682, 36.31338], [139.20706, 36.31331], [139.20729, 36.31322], [139.2075, 36.31315], [139.20769, 36.31307], [139.20793, 36.31299], [139.20828, 36.31286], [139.20835, 36.31284], [139.20862, 36.31273], [139.20879, 36.31266], [139.20892, 36.31261], [139.20909, 36.31253], [139.20924, 36.31245], [139.20946, 36.31233], [139.2098, 36.31212], [139.21006, 36.31194], [139.2102, 36.31182], [139.21038, 36.31167], [139.21059, 36.31147], [139.21076, 36.31128], [139.211, 36.31097], [139.21168, 36.31005], [139.21197, 36.30965], [139.21285, 36.30846], [139.21324, 36.30789], [139.21368, 36.30729], [139.21411, 36.3067], [139.2147, 36.30587], [139.21481, 36.3057], [139.21507, 36.30535], [139.21531, 36.30501], [139.21557, 36.30466], [139.21591, 36.30418], [139.21613, 36.30386], [139.21634, 36.30358], [139.21679, 36.30295], [139.21702, 36.30263], [139.21737, 36.30216], [139.21787, 36.30147], [139.21817, 36.30107], [139.21836, 36.30081], [139.21925, 36.29954], [139.21939, 36.29936], [139.21947, 36.29925], [139.21959, 36.29908], [139.2201, 36.29838], [139.22036, 36.29807], [139.22047, 36.29796], [139.22059, 36.29783], [139.22083, 36.2976], [139.22103, 36.29744], [139.22121, 36.29726], [139.22146, 36.29706], [139.22161, 36.29692], [139.22174, 36.29683], [139.22189, 36.29671], [139.22207, 36.29657], [139.2224, 36.29633], [139.22273, 36.29611], [139.22299, 36.29595], [139.2233, 36.29577]]}, "properties": {"id": "TRACK_TOKYO_3649", "line_name": "伊勢崎線", "station_group_ids": [], "mode": "private", "operator_id": "tobu", "line_color": "#1F78FF", "tags": ["tokyo", "track_centerline"]}}, {"type": "Feature", "bbox": [139.25454, 36.27688, 139.25797, 36.27745], "geometry": {"type": "LineString", "coordinates": [[139.25797, 36.27688], [139.25454, 36.27745]]}, "properties": {"id": "TRACK_TOKYO_3651", "line_name": "伊勢崎線", "station_group_ids": [], "mode": "private", "operator_id": "tobu", "line_color": "#1F78FF", "tags": ["tokyo", "track_centerline"]}}, {"type": "Feature", "bbox": [139.22446, 36.27745, 139.25454, 36.29506], "geometry": {"type": "LineString", "coordinates": [[139.22446, 36.29506], [139.22499, 36.29474], [139.22519, 36.29462], [139.22604, 36.29408], [139.22636, 36.29388], [139.22657, 36.29376], [139.22681, 36.29361], [139.22766, 36.29308], [139.22785, 36.29296], [139.22817, 36.29276], [139.22861, 36.29249], [139.2292, 36.29212], [139.22949, 36.29194], [139.23009, 36.29156], [139.23031, 36.29143], [139.23045, 36.29133], [139.23061, 36.29123], [139.23093, 36.29103], [139.23131, 36.2908], [139.23197, 36.29039], [139.23226, 36.29021], [139.2331, 36.28969], [139.23393, 36.28917], [139.23413, 36.28904], [139.23452, 36.2888], [139.2347, 36.28868], [139.23494, 36.28854], [139.23511, 36.28844], [139.23533, 36.2883], [139.23616, 36.28778], [139.23679, 36.2874], [139.2377, 36.28684], [139.23801, 36.28665], [139.23891, 36.28608], [139.2395, 36.28571], [139.23966, 36.28562], [139.23974, 36.28557], [139.24011, 36.28533], [139.24052, 36.28508], [139.24131, 36.28459], [139.2418, 36.28428], [139.24223, 36.28402], [139.2426, 36.28378], [139.24311, 36.28346], [139.24427, 36.28274], [139.24458, 36.28255], [139.2448, 36.28242], [139.24501, 36.28229], [139.24538, 36.28206], [139.24624, 36.28151], [139.24679, 36.28115], [139.24898, 36.27978], [139.25039, 36.2789], [139.25106, 36.2785], [139.25129, 36.27838], [139.25168, 36.27819], [139.252, 36.27805], [139.25243, 36.27792], [139.25284, 36.27779], [139.2532, 36.2777], [139.25366, 36.2776], [139.25454, 36.27745]]}, "properties": {"id": "TRACK_TOKYO_3652", "line_name": "伊勢崎線", "station_group_ids": [], "mode": "private", "operator_id": "tobu", "line_color": "#1F78FF", "tags": ["tokyo", "track_centerline"]}}, {"type": "Feature", "bbox": [139.25797, 36.27309, 139.28108, 36.27688], "geometry": {"type": "LineString", "coordinates": [[139.28108, 36.27309], [139.27781, 36.27364], [139.27606, 36.27391], [139.27413, 36.27424], [139.27183, 36.27461], [139.27153, 36.27466], [139.27121, 36.27471], [139.27081, 36.27477], [139.26884, 36.2751], [139.26792, 36.27525], [139.26477, 36.27577], [139.2616, 36.27629], [139.25996, 36.27656], [139.25797, 36.27688]]}, "properties": {"id": "TRACK_TOKYO_3653", "line_name": "伊勢崎線", "station_group_ids": [], "mode": "private", "operator_id": "tobu", "line_color": "#1F78FF", "tags": ["tokyo", "track_centerline"]}}]}