{"type": "FeatureCollection", "features": [{"type": "Feature", "bbox": [139.09779, 35.98387, 139.09876, 35.98513], "geometry": {"type": "LineString", "coordinates": [[139.09876, 35.98387], [139.09779, 35.98513]]}, "properties": {"id": "TRACK_TOKYO_0794", "line_name": "西武秩父線", "station_group_ids": [], "mode": "private", "operator_id": "seibu", "line_color": "#00A15F", "tags": ["tokyo", "track_centerline"]}}, {"type": "Feature", "bbox": [139.08262, 35.98896, 139.08337, 35.99106], "geometry": {"type": "LineString", "coordinates": [[139.08262, 35.98896], [139.08337, 35.99106]]}, "properties": {"id": "TRACK_TOKYO_0795", "line_name": "西武秩父線", "station_group_ids": [], "mode": "private", "operator_id": "seibu", "line_color": "#00A15F", "tags": ["tokyo", "track_centerline"]}}, {"type": "Feature", "bbox": [139.08233, 35.98829, 139.08262, 35.98896], "geometry": {"type": "LineString", "coordinates": [[139.08233, 35.98829], [139.08262, 35.98896]]}, "properties": {"id": "TRACK_TOKYO_0796", "line_name": "西武秩父線", "station_group_ids": [], "mode": "private", "operator_id": "seibu", "line_color": "#00A15F", "tags": ["tokyo", "track_centerline"]}}, {"type": "Feature", "bbox": [139.08233, 35.98829, 139.08237, 35.9889], "geometry": {"type": "LineString", "coordinates": [[139.08233, 35.98829], [139.08235, 35.98848], [139.08237, 35.9889]]}, "properties": {"id": "TRACK_TOKYO_0797", "line_name": "西武秩父線", "station_group_ids": [], "mode": "private", "operator_id": "seibu", "line_color": "#00A15F", "tags": ["tokyo", "track_centerline"]}}, {"type": "Feature", "bbox": [139.08181, 35.98413, 139.09779, 35.98887], "geometry": {"type": "LineString", "coordinates": [[139.09779, 35.98513], [139.09746, 35.98557], [139.09738, 35.98567], [139.0972, 35.98594], [139.09715, 35.986], [139.09707, 35.9861], [139.09698, 35.98623], [139.09631, 35.98713], [139.0962, 35.98729], [139.09609, 35.98743], [139.09601, 35.98755], [139.09582, 35.9878], [139.09557, 35.98806], [139.0953, 35.98829], [139.09508, 35.98842], [139.09473, 35.98859], [139.09453, 35.98867], [139.09433, 35.98872], [139.09411, 35.98876], [139.09349, 35.98885], [139.09317, 35.98887], [139.0928, 35.98886], [139.09247, 35.9888], [139.09217, 35.98873], [139.09194, 35.98868], [139.09119, 35.98842], [139.09096, 35.98833], [139.09073, 35.98822], [139.0905, 35.98806], [139.09034, 35.98794], [139.0902, 35.9878], [139.09002, 35.9876], [139.08982, 35.98729], [139.08964, 35.98699], [139.08908, 35.98616], [139.08862, 35.9856], [139.08828, 35.98536], [139.08779, 35.98506], [139.08732, 35.98484], [139.08683, 35.98465], [139.08644, 35.98454], [139.08597, 35.98441], [139.08542, 35.98426], [139.08528, 35.98423], [139.08513, 35.98419], [139.0848, 35.98414], [139.08468, 35.98413], [139.08451, 35.98413], [139.08433, 35.98414], [139.0842, 35.98415], [139.08405, 35.98418], [139.08388, 35.98421], [139.08344, 35.98434], [139.08336, 35.98437], [139.0832, 35.98444], [139.08267, 35.98474], [139.08237, 35.98499], [139.08223, 35.98514], [139.08205, 35.98541], [139.08195, 35.98563], [139.0819, 35.98576], [139.08184, 35.98596], [139.08181, 35.98618], [139.08182, 35.98655], [139.08184, 35.98675], [139.08187, 35.98688], [139.0819, 35.98699], [139.08211, 35.98756], [139.08218, 35.9878], [139.08233, 35.98829]]}, "properties": {"id": "TRACK_TOKYO_0798", "line_name": "西武秩父線", "station_group_ids": [], "mode": "private", "operator_id": "seibu", "line_color": "#00A15F", "tags": ["tokyo", "track_centerline"]}}, {"type": "Feature", "bbox": [139.13498, 35.97628, 139.13702, 35.97653], "geometry": {"type": "LineString", "coordinates": [[139.13498, 35.97628], [139.13702, 35.97653]]}, "properties": {"id": "TRACK_TOKYO_0799", "line_name": "西武秩父線", "station_group_ids": [], "mode": "private", "operator_id": "seibu", "line_color": "#00A15F", "tags": ["tokyo", "track_centerline"]}}, {"type": "Feature", "bbox": [139.13702, 35.9386, 139.18085, 35.9767], "geometry": {"type": "LineString", "coordinates": [[139.13702, 35.97653], [139.13748, 35.97658], [139.13781, 35.9766], [139.13824, 35.97665], [139.13878, 35.97668], [139.13951, 35.97669], [139.14019, 35.9767], [139.1408, 35.97669], [139.14098, 35.97669], [139.1413, 35.97666], [139.14161, 35.97661], [139.14223, 35.97644], [139.14286, 35.97625], [139.14326, 35.97607], [139.14358, 35.97597], [139.14416, 35.97575], [139.14443, 35.97564], [139.14483, 35.97553], [139.14521, 35.9754], [139.14542, 35.97531], [139.14553, 35.97527], [139.14562, 35.97524], [139.14597, 35.97507], [139.14633, 35.97485], [139.1466, 35.97466], [139.14683, 35.9744], [139.14699, 35.97422], [139.14714, 35.97402], [139.14745, 35.97367], [139.14775, 35.97336], [139.14796, 35.97313], [139.14809, 35.97299], [139.1484, 35.97267], [139.14927, 35.97173], [139.14943, 35.97155], [139.1496, 35.97136], [139.15003, 35.97091], [139.15035, 35.97057], [139.15139, 35.96944], [139.15153, 35.9693], [139.15187, 35.96894], [139.15219, 35.9686], [139.1525, 35.96825], [139.15292, 35.96782], [139.15322, 35.9675], [139.15352, 35.96717], [139.1542, 35.96641], [139.15452, 35.96607], [139.15474, 35.96581], [139.15476, 35.96579], [139.15496, 35.96558], [139.15507, 35.96546], [139.15527, 35.96526], [139.15563, 35.96487], [139.15596, 35.96454], [139.15626, 35.96418], [139.15664, 35.96379], [139.1576, 35.96276], [139.15788, 35.96246], [139.15824, 35.96207], [139.1586, 35.96169], [139.15895, 35.96131], [139.15948, 35.96078], [139.15954, 35.96068], [139.1597, 35.96053], [139.16002, 35.9602], [139.16038, 35.95982], [139.16078, 35.95941], [139.16091, 35.95928], [139.16151, 35.95864], [139.16178, 35.95835], [139.1622, 35.9579], [139.16253, 35.95756], [139.16283, 35.95721], [139.16315, 35.95689], [139.16348, 35.95654], [139.16382, 35.95616], [139.16407, 35.95589], [139.16447, 35.95546], [139.16463, 35.95529], [139.16585, 35.954], [139.16612, 35.95371], [139.16642, 35.95339], [139.16706, 35.9527], [139.16779, 35.9519], [139.16821, 35.95146], [139.16826, 35.95141], [139.16854, 35.95111], [139.16882, 35.95078], [139.16919, 35.95039], [139.16973, 35.94982], [139.17007, 35.94945], [139.17039, 35.94911], [139.17071, 35.94874], [139.17102, 35.94843], [139.17142, 35.94799], [139.17174, 35.94767], [139.17214, 35.94722], [139.17245, 35.94691], [139.17254, 35.94682], [139.17292, 35.94641], [139.17299, 35.94631], [139.17345, 35.94581], [139.17397, 35.94529], [139.17495, 35.94426], [139.17527, 35.94393], [139.17544, 35.94373], [139.1758, 35.94339], [139.17618, 35.94294], [139.17702, 35.94205], [139.17715, 35.94191], [139.17736, 35.94168], [139.17752, 35.9415], [139.17786, 35.94116], [139.17818, 35.94078], [139.17856, 35.9404], [139.17879, 35.94017], [139.17916, 35.93974], [139.17943, 35.93942], [139.17963, 35.93924], [139.17974, 35.93917], [139.18015, 35.93896], [139.18053, 35.93876], [139.18085, 35.9386]]}, "properties": {"id": "TRACK_TOKYO_0800", "line_name": "西武秩父線", "station_group_ids": [], "mode": "private", "operator_id": "seibu", "line_color": "#00A15F", "tags": ["tokyo", "track_centerline"]}}, {"type": "Feature", "bbox": [139.09876, 35.9724, 139.13498, 35.98387], "geometry": {"type": "LineString", "coordinates": [[139.09876, 35.98387], [139.09895, 35.98362], [139.09958, 35.98276], [139.09979, 35.98251], [139.09993, 35.9823], [139.10018, 35.98199], [139.10053, 35.9815], [139.10099, 35.98089], [139.10122, 35.98058], [139.10145, 35.98029], [139.10161, 35.98013], [139.10191, 35.97979], [139.1023, 35.97941], [139.10252, 35.97923], [139.1028, 35.97898], [139.10333, 35.97861], [139.10351, 35.97849], [139.10379, 35.97832], [139.10417, 35.97808], [139.10467, 35.97786], [139.10567, 35.97742], [139.1071, 35.97679], [139.10749, 35.97662], [139.10796, 35.97642], [139.10865, 35.97611], [139.10929, 35.97583], [139.1094, 35.97579], [139.10998, 35.97554], [139.11038, 35.97537], [139.11091, 35.97514], [139.11128, 35.97497], [139.11153, 35.97488], [139.11348, 35.97419], [139.11546, 35.97357], [139.11611, 35.97339], [139.11689, 35.97316], [139.11725, 35.97305], [139.11839, 35.97273], [139.11905, 35.97255], [139.11943, 35.97246], [139.11974, 35.97241], [139.12011, 35.9724], [139.12042, 35.97244], [139.12066, 35.97249], [139.121, 35.97261], [139.12134, 35.97282], [139.12182, 35.97315], [139.12198, 35.97328], [139.12245, 35.97366], [139.12269, 35.97382], [139.12296, 35.97395], [139.12331, 35.9741], [139.12352, 35.97417], [139.12373, 35.97425], [139.12386, 35.9743], [139.12406, 35.97435], [139.12424, 35.97445], [139.12459, 35.97454], [139.12481, 35.97462], [139.12509, 35.97469], [139.12538, 35.97475], [139.12592, 35.97486], [139.1262, 35.97492], [139.12645, 35.97497], [139.12664, 35.975], [139.12697, 35.97504], [139.12713, 35.97508], [139.12742, 35.97512], [139.12764, 35.97515], [139.12795, 35.97521], [139.12823, 35.97525], [139.12855, 35.9753], [139.12886, 35.97534], [139.12929, 35.97542], [139.12974, 35.97548], [139.13007, 35.97554], [139.13057, 35.97562], [139.13129, 35.97576], [139.13234, 35.97589], [139.13276, 35.97593], [139.13315, 35.97597], [139.13344, 35.97602], [139.13498, 35.97628]]}, "properties": {"id": "TRACK_TOKYO_0802", "line_name": "西武秩父線", "station_group_ids": [], "mode": "private", "operator_id": "seibu", "line_color": "#00A15F", "tags": ["tokyo", "track_centerline"]}}, {"type": "Feature", "bbox": [139.18085, 35.938, 139.18212, 35.9386], "geometry": {"type": "LineString", "coordinates": [[139.18085, 35.9386], [139.18212, 35.938]]}, "properties": {"id": "TRACK_TOKYO_0804", "line_name": "西武秩父線", "station_group_ids": [], "mode": "private", "operator_id": "seibu", "line_color": "#00A15F", "tags": ["tokyo", "track_centerline"]}}, {"type": "Feature", "bbox": [139.18212, 35.92757, 139.20313, 35.938], "geometry": {"type": "LineString", "coordinates": [[139.18212, 35.938], [139.18386, 35.9372], [139.18424, 35.93702], [139.18452, 35.93689], [139.18481, 35.93676], [139.18506, 35.93666], [139.18559, 35.93652], [139.18576, 35.9365], [139.18603, 35.93649], [139.18717, 35.93644], [139.18866, 35.93639], [139.18951, 35.93633], [139.19005, 35.9363], [139.1907, 35.93624], [139.19125, 35.93618], [139.19183, 35.9361], [139.19236, 35.93602], [139.19283, 35.93592], [139.19314, 35.93585], [139.19367, 35.93564], [139.19408, 35.93554], [139.19446, 35.93541], [139.19504, 35.93527], [139.19522, 35.93525], [139.1954, 35.93525], [139.19559, 35.93525], [139.19588, 35.93527], [139.19615, 35.93531], [139.19657, 35.93535], [139.19681, 35.93538], [139.19702, 35.93539], [139.19725, 35.93539], [139.19743, 35.93537], [139.19766, 35.93534], [139.19783, 35.93528], [139.19812, 35.93518], [139.19829, 35.93507], [139.19859, 35.93489], [139.19911, 35.93458], [139.19964, 35.93421], [139.20039, 35.9338], [139.20103, 35.93347], [139.2015, 35.9332], [139.20165, 35.93307], [139.20181, 35.93294], [139.20203, 35.93261], [139.20256, 35.93187], [139.20288, 35.93143], [139.20297, 35.93121], [139.20306, 35.93104], [139.20311, 35.93071], [139.20313, 35.9306], [139.20313, 35.93038], [139.20312, 35.93024], [139.20306, 35.92995], [139.2029, 35.92939], [139.20276, 35.92873], [139.20273, 35.92856], [139.20252, 35.92757]]}, "properties": {"id": "TRACK_TOKYO_0805", "line_name": "西武秩父線", "station_group_ids": [], "mode": "private", "operator_id": "seibu", "line_color": "#00A15F", "tags": ["tokyo", "track_centerline"]}}, {"type": "Feature", "bbox": [139.18155, 36.14006, 139.38814, 36.21779], "geometry": {"type": "LineString", "coordinates": [[139.38814, 36.14006], [139.38689, 36.1405], [139.38651, 36.14064], [139.38406, 36.14155], [139.38155, 36.14247], [139.3799, 36.14308], [139.3795, 36.14324], [139.37919, 36.14335], [139.37853, 36.1436], [139.37647, 36.14441], [139.37535, 36.14485], [139.37179, 36.14627], [139.37147, 36.14639], [139.37026, 36.14682], [139.36898, 36.14729], [139.36843, 36.14749], [139.36759, 36.14779], [139.36662, 36.14813], [139.3658, 36.1484], [139.36369, 36.14911], [139.36226, 36.14956], [139.36058, 36.15007], [139.35807, 36.15068], [139.35794, 36.15072], [139.35655, 36.151], [139.3553, 36.15123], [139.35382, 36.15148], [139.35246, 36.15168], [139.35109, 36.15184], [139.34965, 36.15197], [139.34829, 36.15208], [139.34716, 36.15217], [139.34685, 36.1522], [139.34539, 36.1523], [139.34367, 36.15243], [139.34177, 36.15257], [139.33986, 36.1527], [139.33823, 36.15282], [139.33659, 36.15296], [139.33612, 36.153], [139.33464, 36.15312], [139.33328, 36.15322], [139.33212, 36.15332], [139.32992, 36.15346], [139.32871, 36.15354], [139.32716, 36.15364], [139.32578, 36.15374], [139.32508, 36.15378], [139.3238, 36.15387], [139.32154, 36.15406], [139.31918, 36.15428], [139.31735, 36.15452], [139.31521, 36.15482], [139.31412, 36.15503], [139.31303, 36.15524], [139.31168, 36.15555], [139.31058, 36.15581], [139.30875, 36.15634], [139.30784, 36.15666], [139.30664, 36.15709], [139.30553, 36.1575], [139.30382, 36.15823], [139.3038, 36.15824], [139.30248, 36.15883], [139.301, 36.15954], [139.29961, 36.16021], [139.29859, 36.16071], [139.29645, 36.16174], [139.29517, 36.16236], [139.29425, 36.16282], [139.29362, 36.16313], [139.29208, 36.16388], [139.28983, 36.165], [139.2895, 36.16516], [139.28822, 36.16581], [139.28665, 36.16659], [139.2846, 36.1676], [139.28338, 36.1682], [139.28146, 36.16915], [139.28002, 36.16983], [139.27979, 36.16993], [139.27798, 36.17079], [139.27787, 36.17085], [139.27649, 36.17152], [139.27446, 36.17247], [139.27241, 36.17346], [139.27019, 36.17454], [139.26889, 36.17517], [139.26845, 36.17539], [139.26651, 36.17633], [139.26536, 36.17688], [139.26277, 36.17815], [139.26159, 36.17873], [139.25894, 36.18002], [139.2588, 36.18009], [139.25644, 36.18125], [139.25492, 36.18199], [139.25277, 36.18304], [139.24969, 36.18456], [139.24945, 36.18468], [139.24679, 36.186], [139.24612, 36.18635], [139.2452, 36.18679], [139.24461, 36.18707], [139.24386, 36.18744], [139.24334, 36.1877], [139.24303, 36.18785], [139.24242, 36.18815], [139.242, 36.18835], [139.24171, 36.18849], [139.24109, 36.18879], [139.24002, 36.1893], [139.23933, 36.18964], [139.23874, 36.18992], [139.23811, 36.19023], [139.23749, 36.19054], [139.23634, 36.19109], [139.23549, 36.19151], [139.2351, 36.1917], [139.23457, 36.19196], [139.23383, 36.19232], [139.23272, 36.19286], [139.23159, 36.19341], [139.23021, 36.19408], [139.22876, 36.1948], [139.22792, 36.19521], [139.2271, 36.1956], [139.2254, 36.19644], [139.22438, 36.19692], [139.22432, 36.19695], [139.22356, 36.19732], [139.22173, 36.19821], [139.22052, 36.19879], [139.21921, 36.19945], [139.21762, 36.20022], [139.21606, 36.20098], [139.21481, 36.20158], [139.21439, 36.20178], [139.21318, 36.20239], [139.21201, 36.20295], [139.21138, 36.20326], [139.21078, 36.20356], [139.20972, 36.20407], [139.20888, 36.20447], [139.20812, 36.20484], [139.20739, 36.2052], [139.20664, 36.20557], [139.20609, 36.20584], [139.20558, 36.2061], [139.20531, 36.20623], [139.20485, 36.20645], [139.20409, 36.20683], [139.20335, 36.2072], [139.20247, 36.20763], [139.2017, 36.20799], [139.20095, 36.20835], [139.20014, 36.20875], [139.19975, 36.20894], [139.19884, 36.20938], [139.19828, 36.20966], [139.19773, 36.20993], [139.19697, 36.2103], [139.19595, 36.21079], [139.1958, 36.21086], [139.19498, 36.21127], [139.19432, 36.21158], [139.19428, 36.2116], [139.19379, 36.21184], [139.19311, 36.21217], [139.19214, 36.21264], [139.19115, 36.21312], [139.1903, 36.21353], [139.18951, 36.21393], [139.18832, 36.2145], [139.18705, 36.21513], [139.18639, 36.21545], [139.18545, 36.2159], [139.18495, 36.21614], [139.18481, 36.21622], [139.18455, 36.21635], [139.18399, 36.21661], [139.18335, 36.21693], [139.18266, 36.21725], [139.18172, 36.21771], [139.18155, 36.21779]]}, "properties": {"id": "TRACK_TOKYO_2327", "line_name": "上越新幹線", "station_group_ids": [], "mode": "shinkansen", "operator_id": "jr_east", "line_color": "#E65045", "tags": ["tokyo", "track_centerline"]}}, {"type": "Feature", "bbox": [139.20929, 36.10845, 139.23379, 36.11453], "geometry": {"type": "LineString", "coordinates": [[139.23379, 36.10845], [139.23346, 36.10936], [139.23335, 36.10968], [139.23322, 36.10999], [139.23308, 36.11022], [139.23292, 36.11046], [139.23273, 36.1107], [139.23255, 36.11089], [139.2324, 36.11102], [139.23227, 36.11113], [139.23209, 36.11129], [139.2318, 36.11154], [139.23166, 36.11164], [139.23148, 36.11178], [139.23132, 36.11189], [139.23111, 36.11202], [139.23094, 36.11213], [139.23081, 36.1122], [139.23068, 36.11227], [139.23055, 36.11233], [139.23036, 36.11241], [139.23021, 36.11247], [139.23001, 36.11254], [139.22995, 36.11256], [139.22962, 36.11266], [139.22928, 36.11271], [139.22899, 36.11275], [139.22876, 36.11277], [139.22845, 36.11279], [139.22752, 36.1128], [139.22667, 36.11281], [139.22549, 36.11279], [139.22498, 36.11279], [139.22465, 36.1128], [139.2244, 36.11283], [139.22396, 36.11289], [139.22309, 36.11309], [139.22249, 36.11322], [139.2215, 36.11351], [139.22063, 36.11375], [139.22019, 36.11389], [139.22006, 36.11394], [139.21954, 36.11413], [139.21875, 36.11432], [139.21826, 36.11441], [139.21806, 36.11445], [139.21769, 36.11448], [139.21711, 36.1145], [139.21671, 36.11453], [139.21627, 36.11453], [139.21577, 36.11452], [139.2155, 36.1145], [139.21498, 36.11447], [139.21422, 36.11439], [139.21363, 36.11431], [139.21299, 36.11424], [139.21164, 36.11408], [139.21058, 36.11396], [139.20988, 36.11386], [139.20929, 36.11381]]}, "properties": {"id": "TRACK_TOKYO_3848", "line_name": "東上本線", "station_group_ids": [], "mode": "private", "operator_id": "tobu", "line_color": "#1F78FF", "tags": ["tokyo", "track_centerline"]}}, {"type": "Feature", "bbox": [139.26121, 36.04474, 139.32695, 36.05854], "geometry": {"type": "LineString", "coordinates": [[139.32695, 36.04474], [139.32626, 36.04504], [139.32481, 36.0457], [139.32333, 36.04638], [139.32207, 36.04698], [139.3213, 36.04735], [139.32072, 36.04764], [139.32047, 36.04776], [139.31961, 36.04819], [139.31853, 36.04869], [139.31798, 36.04901], [139.31762, 36.04923], [139.31739, 36.0494], [139.31696, 36.04968], [139.31663, 36.0499], [139.31609, 36.05028], [139.31562, 36.05062], [139.31519, 36.0509], [139.31491, 36.05108], [139.31449, 36.05133], [139.31403, 36.05151], [139.31369, 36.05163], [139.31347, 36.05169], [139.31294, 36.05178], [139.31252, 36.05182], [139.31222, 36.05181], [139.31193, 36.05178], [139.31143, 36.05173], [139.31116, 36.05169], [139.31086, 36.05164], [139.31057, 36.05159], [139.31028, 36.05154], [139.30952, 36.05141], [139.30902, 36.05134], [139.30857, 36.05132], [139.30823, 36.05131], [139.30798, 36.05131], [139.30758, 36.05132], [139.30715, 36.05138], [139.30662, 36.05148], [139.30595, 36.0517], [139.30555, 36.05187], [139.3051, 36.05208], [139.30433, 36.05254], [139.30408, 36.05271], [139.30357, 36.05312], [139.30284, 36.05371], [139.30215, 36.05428], [139.30155, 36.05478], [139.301, 36.05524], [139.30039, 36.05574], [139.29968, 36.05633], [139.29931, 36.05657], [139.29929, 36.05659], [139.29876, 36.05685], [139.29844, 36.05699], [139.29816, 36.05709], [139.2978, 36.0572], [139.29738, 36.05725], [139.29659, 36.05728], [139.2965, 36.05727], [139.29624, 36.05723], [139.29601, 36.05719], [139.29569, 36.05713], [139.29548, 36.05709], [139.29516, 36.05701], [139.29499, 36.05695], [139.29487, 36.05689], [139.29468, 36.05681], [139.29423, 36.05654], [139.29383, 36.05622], [139.29352, 36.05587], [139.29324, 36.05546], [139.29304, 36.05507], [139.29284, 36.05454], [139.29253, 36.05402], [139.29228, 36.05366], [139.29175, 36.05302], [139.29138, 36.05256], [139.29102, 36.05222], [139.29063, 36.05191], [139.29017, 36.05162], [139.28976, 36.05148], [139.28937, 36.05135], [139.28901, 36.0513], [139.2887, 36.05129], [139.2881, 36.05132], [139.28766, 36.05138], [139.28735, 36.05148], [139.2871, 36.05155], [139.28696, 36.05158], [139.28624, 36.05179], [139.28584, 36.05189], [139.28458, 36.05225], [139.28402, 36.0524], [139.28315, 36.05264], [139.28281, 36.05277], [139.28248, 36.05292], [139.28215, 36.05312], [139.28155, 36.05352], [139.28133, 36.05369], [139.28086, 36.05402], [139.2801, 36.05458], [139.27927, 36.0552], [139.2791, 36.05532], [139.27893, 36.05544], [139.27859, 36.05567], [139.27834, 36.05581], [139.27796, 36.05601], [139.2774, 36.05623], [139.27703, 36.05635], [139.27665, 36.05645], [139.27586, 36.0566], [139.27499, 36.0567], [139.27423, 36.05675], [139.27295, 36.0568], [139.27152, 36.05686], [139.26976, 36.05694], [139.26891, 36.05697], [139.26851, 36.05698], [139.26817, 36.05699], [139.2672, 36.05704], [139.26584, 36.05711], [139.2649, 36.05722], [139.26411, 36.05744], [139.2637, 36.05757], [139.263, 36.05783], [139.26197, 36.05824], [139.26121, 36.05854]]}, "properties": {"id": "TRACK_TOKYO_3849", "line_name": "東上本線", "station_group_ids": [], "mode": "private", "operator_id": "tobu", "line_color": "#1F78FF", "tags": ["tokyo", "track_centerline"]}}, {"type": "Feature", "bbox": [139.19426, 36.11719, 139.19985, 36.11785], "geometry": {"type": "LineString", "coordinates": [[139.19985, 36.11719], [139.19967, 36.11727], [139.19911, 36.11746], [139.19871, 36.11758], [139.19823, 36.1177], [139.19799, 36.11776], [139.19737, 36.11784], [139.19694, 36.11785], [139.19669, 36.11783], [139.1965, 36.11779], [139.19605, 36.11771], [139.19549, 36.11761], [139.19499, 36.11755], [139.19426, 36.11742]]}, "properties": {"id": "TRACK_TOKYO_3850", "line_name": "東上本線", "station_group_ids": [], "mode": "private", "operator_id": "tobu", "line_color": "#1F78FF", "tags": ["tokyo", "track_centerline"]}}, {"type": "Feature", "bbox": [139.2376, 36.0748, 139.23764, 36.07594], "geometry": {"type": "LineString", "coordinates": [[139.23764, 36.07594], [139.2376, 36.07502], [139.2376, 36.0748]]}, "properties": {"id": "TRACK_TOKYO_3851", "line_name": "東上本線", "station_group_ids": [], "mode": "private", "operator_id": "tobu", "line_color": "#1F78FF", "tags": ["tokyo", "track_centerline"]}}, {"type": "Feature", "bbox": [139.1931, 36.1172, 139.19426, 36.11742], "geometry": {"type": "LineString", "coordinates": [[139.19426, 36.11742], [139.1931, 36.1172]]}, "properties": {"id": "TRACK_TOKYO_3852", "line_name": "東上本線", "station_group_ids": [], "mode": "private", "operator_id": "tobu", "line_color": "#1F78FF", "tags": ["tokyo", "track_centerline"]}}, {"type": "Feature", "bbox": [139.23757, 36.05892, 139.26009, 36.0748], "geometry": {"type": "LineString", "coordinates": [[139.2376, 36.0748], [139.23759, 36.07448], [139.23757, 36.07395], [139.23757, 36.07384], [139.23757, 36.07348], [139.23757, 36.07341], [139.23758, 36.07322], [139.23763, 36.07301], [139.23772, 36.07271], [139.23782, 36.07246], [139.238, 36.07214], [139.23809, 36.07198], [139.23822, 36.07181], [139.23837, 36.07162], [139.23853, 36.07143], [139.23883, 36.07114], [139.23899, 36.071], [139.23953, 36.07056], [139.24009, 36.07014], [139.241, 36.06951], [139.24288, 36.0682], [139.24521, 36.06657], [139.2468, 36.06544], [139.24719, 36.06517], [139.24868, 36.0641], [139.24958, 36.06345], [139.25, 36.06315], [139.25039, 36.06287], [139.25075, 36.06261], [139.25114, 36.06234], [139.25142, 36.06215], [139.25195, 36.06185], [139.25245, 36.06164], [139.25297, 36.06144], [139.25388, 36.06113], [139.25563, 36.06053], [139.25588, 36.06044], [139.25656, 36.06021], [139.2577, 36.05983], [139.25865, 36.05947], [139.25949, 36.05917], [139.26009, 36.05892]]}, "properties": {"id": "TRACK_TOKYO_3853", "line_name": "東上本線", "station_group_ids": [], "mode": "private", "operator_id": "tobu", "line_color": "#1F78FF", "tags": ["tokyo", "track_centerline"]}}, {"type": "Feature", "bbox": [139.26009, 36.05854, 139.26121, 36.05892], "geometry": {"type": "LineString", "coordinates": [[139.26121, 36.05854], [139.26009, 36.05892]]}, "properties": {"id": "TRACK_TOKYO_3854", "line_name": "東上本線", "station_group_ids": [], "mode": "private", "operator_id": "tobu", "line_color": "#1F78FF", "tags": ["tokyo", "track_centerline"]}}, {"type": "Feature", "bbox": [139.20057, 36.11355, 139.20798, 36.1167], "geometry": {"type": "LineString", "coordinates": [[139.20798, 36.11364], [139.20772, 36.11361], [139.20706, 36.11355], [139.20662, 36.11355], [139.20616, 36.11357], [139.20584, 36.11362], [139.20564, 36.11365], [139.20518, 36.11378], [139.20495, 36.11385], [139.2047, 36.11396], [139.20441, 36.1141], [139.20411, 36.11431], [139.20359, 36.11463], [139.20231, 36.11542], [139.2016, 36.11586], [139.2013, 36.11606], [139.20111, 36.11622], [139.20096, 36.11638], [139.20086, 36.1165], [139.2007, 36.1166], [139.20057, 36.1167]]}, "properties": {"id": "TRACK_TOKYO_3857", "line_name": "東上本線", "station_group_ids": [], "mode": "private", "operator_id": "tobu", "line_color": "#1F78FF", "tags": ["tokyo", "track_centerline"]}}, {"type": "Feature", "bbox": [139.23379, 36.10728, 139.23421, 36.10845], "geometry": {"type": "LineString", "coordinates": [[139.23421, 36.10728], [139.23379, 36.10845]]}, "properties": {"id": "TRACK_TOKYO_3858", "line_name": "東上本線", "station_group_ids": [], "mode": "private", "operator_id": "tobu", "line_color": "#1F78FF", "tags": ["tokyo", "track_centerline"]}}, {"type": "Feature", "bbox": [139.19985, 36.1167, 139.20057, 36.11719], "geometry": {"type": "LineString", "coordinates": [[139.20057, 36.1167], [139.20015, 36.11699], [139.19985, 36.11719]]}, "properties": {"id": "TRACK_TOKYO_3859", "line_name": "東上本線", "station_group_ids": [], "mode": "private", "operator_id": "tobu", "line_color": "#1F78FF", "tags": ["tokyo", "track_centerline"]}}, {"type": "Feature", "bbox": [139.20798, 36.11364, 139.20929, 36.11381], "geometry": {"type": "LineString", "coordinates": [[139.20929, 36.11381], [139.20798, 36.11364]]}, "properties": {"id": "TRACK_TOKYO_3860", "line_name": "東上本線", "station_group_ids": [], "mode": "private", "operator_id": "tobu", "line_color": "#1F78FF", "tags": ["tokyo", "track_centerline"]}}, {"type": "Feature", "bbox": [139.23421, 36.09179002114735, 139.2365467315435, 36.10728], "geometry": {"type": "LineString", "coordinates": [[139.23421, 36.10728], [139.23457, 36.10636], [139.23478000000023, 36.10573], [139.23544000000015, 36.10395], [139.23578, 36.10304], [139.23585000000014, 36.1028500000001], [139.23587, 36.10271], [139.23593000000017, 36.10222], [139.23596, 36.10186], [139.23595, 36.1017], [139.2359100000001, 36.10148], [139.23583, 36.10115000000013], [139.2356900000002, 36.100770000000125], [139.2353, 36.10006], [139.23484, 36.09933], [139.23456, 36.09881000000013], [139.2345100000001, 36.0987], [139.2345, 36.09868], [139.23446, 36.09858], [139.23444000000018, 36.09848], [139.2344, 36.09835], [139.23436000000015, 36.09815], [139.2343300000001, 36.09779], [139.23432, 36.09767000000011], [139.23431, 36.097520000000145], [139.23431, 36.09726000000012], [139.23436000000015, 36.09705000000014], [139.23448, 36.09671], [139.23467, 36.09625], [139.23479, 36.096060000000136], [139.23500000000013, 36.09577000000013], [139.23527000000013, 36.09546], [139.23576031968094, 36.09477136885204], [139.23610534152692, 36.09431332260846], [139.23621836592474, 36.0940515818977], [139.23638016927305, 36.093727657939496], [139.23647534771328, 36.09339453339874], [139.2365467315435, 36.092990025027746], [139.23652293693328, 36.09247844091152], [139.23649682336747, 36.09179002114735]]}, "properties": {"id": "TRACK_TOKYO_3863", "line_name": "東上本線", "station_group_ids": [], "mode": "private", "operator_id": "tobu", "line_color": "#1F78FF", "tags": ["tokyo", "track_centerline"]}}, {"type": "Feature", "bbox": [139.23576000000014, 36.07594, 139.23788, 36.090976245483375], "geometry": {"type": "LineString", "coordinates": [[139.23643694026543, 36.090976245483375], [139.23639206657788, 36.09042020714145], [139.2363, 36.08999], [139.23611, 36.08939], [139.2358800000003, 36.08858], [139.23581, 36.08824], [139.23578, 36.088], [139.23577000000012, 36.08774], [139.23577000000012, 36.08765000000011], [139.23576000000014, 36.08735000000013], [139.23577000000012, 36.08679], [139.23579000000018, 36.08651], [139.23581, 36.08627000000013], [139.23583, 36.0861000000001], [139.23592, 36.08537], [139.23597, 36.08512], [139.23607, 36.08484], [139.2361800000001, 36.08465], [139.23707, 36.08313], [139.23763, 36.08219], [139.23774, 36.08193], [139.23782, 36.08169], [139.23787000000027, 36.08142], [139.23788, 36.08121], [139.23783, 36.08034], [139.23779, 36.07938], [139.23775000000012, 36.07864000000012], [139.23770000000025, 36.07765000000012], [139.23767, 36.07694], [139.23764, 36.07609], [139.23764, 36.07594]]}, "properties": {"id": "TRACK_TOKYO_4183", "line_name": "東上本線", "station_group_ids": [], "mode": "private", "operator_id": "tobu", "line_color": "#1F78FF", "tags": ["tokyo", "track_centerline"]}}, {"type": "Feature", "bbox": [139.23643694026543, 36.090976245483375, 139.23649682336747, 36.09179002114735], "geometry": {"type": "LineString", "coordinates": [[139.23649682336747, 36.09179002114735], [139.23643694026543, 36.090976245483375]]}, "properties": {"id": "TRACK_TOKYO_4184", "line_name": "東上本線", "station_group_ids": [], "mode": "private", "operator_id": "tobu", "line_color": "#1F78FF", "tags": ["tokyo", "track_centerline"]}}]}