{"type": "FeatureCollection", "features": [{"type": "Feature", "bbox": [139.20231, 35.92642, 139.20252, 35.92757], "geometry": {"type": "LineString", "coordinates": [[139.20252, 35.92757], [139.20231, 35.92642]]}, "properties": {"id": "TRACK_TOKYO_0801", "line_name": "西武秩父線", "station_group_ids": [], "mode": "private", "operator_id": "seibu", "line_color": "#00A15F", "tags": ["tokyo", "track_centerline"]}}, {"type": "Feature", "bbox": [139.20144, 35.90834, 139.22536, 35.92642], "geometry": {"type": "LineString", "coordinates": [[139.22536, 35.90834], [139.22514, 35.90839], [139.22395, 35.90867], [139.22329, 35.9089], [139.22283, 35.90912], [139.2223, 35.90944], [139.22191, 35.90981], [139.22159, 35.91025], [139.22145, 35.91063], [139.22115, 35.91157], [139.22101, 35.91189], [139.22069, 35.91241], [139.22049, 35.91264], [139.22027, 35.91281], [139.21987, 35.91306], [139.21958, 35.91325], [139.21902, 35.91358], [139.21871, 35.91376], [139.21828, 35.91404], [139.21787, 35.9144], [139.2177, 35.91462], [139.21751, 35.91496], [139.21739, 35.91528], [139.21726, 35.91592], [139.21705, 35.91671], [139.21689, 35.9171], [139.21659, 35.9175], [139.21618, 35.91785], [139.21566, 35.91817], [139.21508, 35.91846], [139.21442, 35.91874], [139.21406, 35.91888], [139.2136, 35.91907], [139.21306, 35.91918], [139.21294, 35.91919], [139.21254, 35.91921], [139.212, 35.91921], [139.21117, 35.91917], [139.2111, 35.91917], [139.20864, 35.91905], [139.20775, 35.91908], [139.20724, 35.91914], [139.207, 35.91919], [139.20671, 35.91928], [139.2061, 35.91959], [139.20567, 35.91981], [139.20557, 35.91986], [139.20518, 35.92004], [139.20475, 35.92027], [139.20381, 35.92076], [139.20352, 35.92094], [139.2033, 35.92109], [139.20299, 35.92138], [139.20239, 35.92198], [139.20227, 35.92212], [139.20196, 35.92251], [139.20167, 35.9229], [139.20154, 35.92311], [139.20148, 35.92329], [139.20145, 35.92346], [139.20144, 35.92367], [139.20144, 35.92391], [139.20146, 35.92398], [139.20162, 35.92452], [139.20169, 35.92481], [139.20179, 35.92507], [139.20202, 35.92556], [139.20211, 35.92576], [139.20223, 35.92604], [139.20231, 35.92642]]}, "properties": {"id": "TRACK_TOKYO_0803", "line_name": "西武秩父線", "station_group_ids": [], "mode": "private", "operator_id": "seibu", "line_color": "#00A15F", "tags": ["tokyo", "track_centerline"]}}, {"type": "Feature", "bbox": [139.18212, 35.92757, 139.20313, 35.938], "geometry": {"type": "LineString", "coordinates": [[139.18212, 35.938], [139.18386, 35.9372], [139.18424, 35.93702], [139.18452, 35.93689], [139.18481, 35.93676], [139.18506, 35.93666], [139.18559, 35.93652], [139.18576, 35.9365], [139.18603, 35.93649], [139.18717, 35.93644], [139.18866, 35.93639], [139.18951, 35.93633], [139.19005, 35.9363], [139.1907, 35.93624], [139.19125, 35.93618], [139.19183, 35.9361], [139.19236, 35.93602], [139.19283, 35.93592], [139.19314, 35.93585], [139.19367, 35.93564], [139.19408, 35.93554], [139.19446, 35.93541], [139.19504, 35.93527], [139.19522, 35.93525], [139.1954, 35.93525], [139.19559, 35.93525], [139.19588, 35.93527], [139.19615, 35.93531], [139.19657, 35.93535], [139.19681, 35.93538], [139.19702, 35.93539], [139.19725, 35.93539], [139.19743, 35.93537], [139.19766, 35.93534], [139.19783, 35.93528], [139.19812, 35.93518], [139.19829, 35.93507], [139.19859, 35.93489], [139.19911, 35.93458], [139.19964, 35.93421], [139.20039, 35.9338], [139.20103, 35.93347], [139.2015, 35.9332], [139.20165, 35.93307], [139.20181, 35.93294], [139.20203, 35.93261], [139.20256, 35.93187], [139.20288, 35.93143], [139.20297, 35.93121], [139.20306, 35.93104], [139.20311, 35.93071], [139.20313, 35.9306], [139.20313, 35.93038], [139.20312, 35.93024], [139.20306, 35.92995], [139.2029, 35.92939], [139.20276, 35.92873], [139.20273, 35.92856], [139.20252, 35.92757]]}, "properties": {"id": "TRACK_TOKYO_0805", "line_name": "西武秩父線", "station_group_ids": [], "mode": "private", "operator_id": "seibu", "line_color": "#00A15F", "tags": ["tokyo", "track_centerline"]}}, {"type": "Feature", "bbox": [139.22536, 35.90829, 139.22645, 35.90834], "geometry": {"type": "LineString", "coordinates": [[139.22645, 35.90831], [139.22592, 35.90829], [139.22536, 35.90834]]}, "properties": {"id": "TRACK_TOKYO_0806", "line_name": "西武秩父線", "station_group_ids": [], "mode": "private", "operator_id": "seibu", "line_color": "#00A15F", "tags": ["tokyo", "track_centerline"]}}, {"type": "Feature", "bbox": [139.26053, 35.88575, 139.28015, 35.89205], "geometry": {"type": "LineString", "coordinates": [[139.28015, 35.88575], [139.27994, 35.886], [139.27964, 35.88631], [139.27943, 35.88649], [139.2792, 35.88668], [139.27904, 35.88681], [139.279, 35.88685], [139.27891, 35.88691], [139.27868, 35.88707], [139.27858, 35.88713], [139.27846, 35.8872], [139.27817, 35.88734], [139.27806, 35.88739], [139.27791, 35.88746], [139.2778, 35.88751], [139.2777, 35.88755], [139.27758, 35.88758], [139.27731, 35.88765], [139.27709, 35.88769], [139.27684, 35.88771], [139.27655, 35.8877], [139.27624, 35.88765], [139.27612, 35.88762], [139.27573, 35.88748], [139.27553, 35.88739], [139.27506, 35.88713], [139.27491, 35.88705], [139.27447, 35.88682], [139.27407, 35.8866], [139.274, 35.88657], [139.27396, 35.88655], [139.27355, 35.88636], [139.27334, 35.88627], [139.27304, 35.88619], [139.27266, 35.88614], [139.27238, 35.88612], [139.27191, 35.88612], [139.27162, 35.88615], [139.27123, 35.88621], [139.27099, 35.88626], [139.27082, 35.88631], [139.27068, 35.88635], [139.27056, 35.88639], [139.27044, 35.88644], [139.27039, 35.88647], [139.27032, 35.88651], [139.27013, 35.88664], [139.27001, 35.88672], [139.2699, 35.88682], [139.26971, 35.88703], [139.26952, 35.88726], [139.26928, 35.88756], [139.26918, 35.88774], [139.26911, 35.88808], [139.26907, 35.88838], [139.26906, 35.88858], [139.26903, 35.88942], [139.26903, 35.88956], [139.26901, 35.88983], [139.26896, 35.8901], [139.2689, 35.89029], [139.26882, 35.89045], [139.2687, 35.89067], [139.26862, 35.89076], [139.26856, 35.89084], [139.26849, 35.89091], [139.26835, 35.89105], [139.26814, 35.89121], [139.26794, 35.89136], [139.26764, 35.89154], [139.26756, 35.89156], [139.26746, 35.8916], [139.26733, 35.89163], [139.26717, 35.89167], [139.26682, 35.89171], [139.26651, 35.89173], [139.26632, 35.89172], [139.26606, 35.89167], [139.26578, 35.89161], [139.2656, 35.89157], [139.26524, 35.89147], [139.26504, 35.89139], [139.26483, 35.89133], [139.26401, 35.89106], [139.26379, 35.89099], [139.26353, 35.8909], [139.26342, 35.89088], [139.26328, 35.89088], [139.26306, 35.89088], [139.26303, 35.89088], [139.26285, 35.89089], [139.26257, 35.89093], [139.26233, 35.89098], [139.26215, 35.89103], [139.26206, 35.89105], [139.26198, 35.89108], [139.26184, 35.89112], [139.26168, 35.89119], [139.26143, 35.89132], [139.26104, 35.89156], [139.26097, 35.89161], [139.26088, 35.89168], [139.26073, 35.89182], [139.26063, 35.89193], [139.26057, 35.892], [139.26053, 35.89205]]}, "properties": {"id": "TRACK_TOKYO_0888", "line_name": "池袋線", "station_group_ids": [], "mode": "private", "operator_id": "seibu", "line_color": "#00A15F", "tags": ["tokyo", "track_centerline"]}}, {"type": "Feature", "bbox": [139.26002, 35.89205, 139.26053, 35.89289], "geometry": {"type": "LineString", "coordinates": [[139.26053, 35.89205], [139.26002, 35.89289]]}, "properties": {"id": "TRACK_TOKYO_0889", "line_name": "池袋線", "station_group_ids": [], "mode": "private", "operator_id": "seibu", "line_color": "#00A15F", "tags": ["tokyo", "track_centerline"]}}, {"type": "Feature", "bbox": [139.22645, 35.89289, 139.26002, 35.9097], "geometry": {"type": "LineString", "coordinates": [[139.22645, 35.90831], [139.22661, 35.90834], [139.22695, 35.9084], [139.22725, 35.9085], [139.22758, 35.90868], [139.22796, 35.90894], [139.22852, 35.90925], [139.22929, 35.90957], [139.22955, 35.90964], [139.22999, 35.9097], [139.23041, 35.9097], [139.23087, 35.90962], [139.23136, 35.90943], [139.23189, 35.9092], [139.23248, 35.90893], [139.233, 35.90869], [139.23364, 35.90844], [139.23407, 35.90835], [139.23456, 35.90829], [139.23509, 35.90825], [139.23557, 35.90819], [139.23591, 35.90814], [139.23621, 35.90802], [139.23636, 35.90793], [139.23652, 35.90783], [139.23662, 35.90775], [139.2369, 35.90752], [139.23745, 35.90703], [139.23819, 35.90643], [139.23859, 35.90616], [139.23918, 35.90587], [139.23958, 35.90578], [139.23992, 35.90574], [139.24078, 35.90567], [139.24122, 35.90564], [139.24134, 35.90562], [139.24176, 35.90555], [139.24243, 35.9053], [139.24322, 35.90486], [139.24345, 35.90467], [139.2436, 35.90457], [139.24384, 35.90431], [139.24405, 35.90404], [139.2443, 35.9036], [139.2445, 35.90309], [139.24472, 35.90215], [139.24483, 35.90133], [139.24501, 35.90029], [139.24511, 35.89981], [139.2454, 35.89922], [139.24571, 35.89881], [139.24617, 35.89841], [139.24681, 35.89806], [139.24694, 35.89801], [139.24715, 35.89792], [139.2474, 35.89785], [139.24755, 35.89782], [139.24784, 35.89775], [139.24824, 35.89769], [139.24881, 35.8976], [139.24984, 35.89745], [139.25099, 35.89727], [139.25256, 35.89703], [139.25306, 35.89695], [139.25329, 35.89689], [139.25343, 35.89683], [139.25368, 35.89671], [139.25386, 35.89663], [139.25417, 35.89648], [139.2544, 35.89636], [139.25474, 35.8962], [139.25503, 35.89606], [139.25539, 35.89589], [139.25586, 35.89568], [139.25675, 35.89525], [139.25715, 35.89506], [139.25783, 35.89473], [139.25827, 35.89453], [139.25863, 35.89434], [139.25887, 35.8942], [139.25906, 35.89407], [139.25928, 35.89391], [139.25942, 35.89379], [139.25954, 35.89365], [139.25969, 35.89344], [139.25987, 35.89314], [139.26002, 35.89289]]}, "properties": {"id": "TRACK_TOKYO_0897", "line_name": "池袋線", "station_group_ids": [], "mode": "private", "operator_id": "seibu", "line_color": "#00A15F", "tags": ["tokyo", "track_centerline"]}}, {"type": "Feature", "bbox": [139.22536, 35.90829, 139.22645, 35.90834], "geometry": {"type": "LineString", "coordinates": [[139.22645, 35.90831], [139.22592, 35.90829], [139.22536, 35.90834]]}, "properties": {"id": "TRACK_TOKYO_0901", "line_name": "池袋線", "station_group_ids": [], "mode": "private", "operator_id": "seibu", "line_color": "#00A15F", "tags": ["tokyo", "track_centerline"]}}, {"type": "Feature", "bbox": [139.25741, 35.7905, 139.25884, 35.79059], "geometry": {"type": "LineString", "coordinates": [[139.25884, 35.7905], [139.25741, 35.79059]]}, "properties": {"id": "TRACK_TOKYO_2799", "line_name": "青梅線", "station_group_ids": [], "mode": "rail", "operator_id": "jr_east", "line_color": "#EB5A28", "tags": ["tokyo", "track_centerline"]}}, {"type": "Feature", "bbox": [139.21645, 35.79714, 139.2249, 35.80369], "geometry": {"type": "LineString", "coordinates": [[139.2249, 35.79714], [139.2247, 35.79735], [139.22411, 35.79786], [139.2238, 35.7981], [139.2224, 35.7992], [139.22165, 35.79976], [139.22129, 35.80004], [139.22048, 35.80064], [139.21997, 35.80101], [139.21919, 35.80158], [139.2183, 35.80224], [139.21771, 35.80269], [139.21697, 35.80328], [139.21645, 35.80369]]}, "properties": {"id": "TRACK_TOKYO_2802", "line_name": "青梅線", "station_group_ids": [], "mode": "rail", "operator_id": "jr_east", "line_color": "#EB5A28", "tags": ["tokyo", "track_centerline"]}}, {"type": "Feature", "bbox": [139.16468, 35.80122, 139.18198, 35.81374], "geometry": {"type": "LineString", "coordinates": [[139.18198, 35.80138], [139.18147, 35.80134], [139.18109, 35.80132], [139.18049, 35.80129], [139.17972, 35.80124], [139.17933, 35.80123], [139.17893, 35.80122], [139.17878, 35.80124], [139.1786, 35.80128], [139.17843, 35.80134], [139.17819, 35.80143], [139.17794, 35.80154], [139.17771, 35.80169], [139.17767, 35.80172], [139.17762, 35.80177], [139.17757, 35.80181], [139.17752, 35.80185], [139.17747, 35.80189], [139.17742, 35.80193], [139.17736, 35.80198], [139.17729, 35.80206], [139.17724, 35.80214], [139.17719, 35.80223], [139.17714, 35.80232], [139.17713, 35.80236], [139.17713, 35.8024], [139.17711, 35.80247], [139.1771, 35.80258], [139.1771, 35.80269], [139.1771, 35.80276], [139.17709, 35.8028], [139.1771, 35.80283], [139.17711, 35.80306], [139.17725, 35.8037], [139.17739, 35.80415], [139.17758, 35.80483], [139.17771, 35.80531], [139.17778, 35.8057], [139.17785, 35.80618], [139.17785, 35.80633], [139.17784, 35.80655], [139.17778, 35.80678], [139.17772, 35.80694], [139.17767, 35.80705], [139.17763, 35.80715], [139.17756, 35.80726], [139.17742, 35.80743], [139.17729, 35.80759], [139.17714, 35.80772], [139.17697, 35.80786], [139.17683, 35.80796], [139.17673, 35.80801], [139.17643, 35.80815], [139.17613, 35.80825], [139.17577, 35.80832], [139.1757, 35.80832], [139.17539, 35.80831], [139.17503, 35.80828], [139.17472, 35.80822], [139.17457, 35.80817], [139.17431, 35.80808], [139.17413, 35.80801], [139.17395, 35.80792], [139.17374, 35.80781], [139.17334, 35.80757], [139.17287, 35.80731], [139.17263, 35.80716], [139.17242, 35.80707], [139.17228, 35.80703], [139.17205, 35.80699], [139.17191, 35.80698], [139.1718, 35.80698], [139.17164, 35.80701], [139.17148, 35.80705], [139.17132, 35.80711], [139.17114, 35.80718], [139.17097, 35.80726], [139.17078, 35.80738], [139.1707, 35.80744], [139.17058, 35.80755], [139.1705, 35.80766], [139.17018, 35.80806], [139.16998, 35.80832], [139.16988, 35.80847], [139.1698, 35.80863], [139.16974, 35.80876], [139.16967, 35.80893], [139.16953, 35.80921], [139.16937, 35.80959], [139.16899, 35.81039], [139.16881, 35.81064], [139.16854, 35.811], [139.16843, 35.8111], [139.16822, 35.81131], [139.16795, 35.81154], [139.16755, 35.81185], [139.1668, 35.8124], [139.16668, 35.81248], [139.16622, 35.81284], [139.16573, 35.81321], [139.16553, 35.81336], [139.16512, 35.81358], [139.16468, 35.81374]]}, "properties": {"id": "TRACK_TOKYO_2803", "line_name": "青梅線", "station_group_ids": [], "mode": "rail", "operator_id": "jr_east", "line_color": "#EB5A28", "tags": ["tokyo", "track_centerline"]}}, {"type": "Feature", "bbox": [139.18198, 35.80138, 139.18328, 35.80145], "geometry": {"type": "LineString", "coordinates": [[139.18328, 35.80145], [139.18312, 35.80143], [139.18283, 35.80143], [139.18255, 35.80141], [139.18198, 35.80138]]}, "properties": {"id": "TRACK_TOKYO_2804", "line_name": "青梅線", "station_group_ids": [], "mode": "rail", "operator_id": "jr_east", "line_color": "#EB5A28", "tags": ["tokyo", "track_centerline"]}}, {"type": "Feature", "bbox": [139.22932, 35.78833, 139.22975, 35.78896], "geometry": {"type": "LineString", "coordinates": [[139.22975, 35.78833], [139.22932, 35.78896]]}, "properties": {"id": "TRACK_TOKYO_2805", "line_name": "青梅線", "station_group_ids": [], "mode": "rail", "operator_id": "jr_east", "line_color": "#EB5A28", "tags": ["tokyo", "track_centerline"]}}, {"type": "Feature", "bbox": [139.20798, 35.8042, 139.21584, 35.80831], "geometry": {"type": "LineString", "coordinates": [[139.21584, 35.8042], [139.21524, 35.80482], [139.21488, 35.80523], [139.21442, 35.80577], [139.21381, 35.80653], [139.21335, 35.80703], [139.21288, 35.8074], [139.2123, 35.80775], [139.21185, 35.80799], [139.21147, 35.80815], [139.21122, 35.80823], [139.2111, 35.80826], [139.21098, 35.80829], [139.21083, 35.80831], [139.21064, 35.80831], [139.21038, 35.8083], [139.21019, 35.80826], [139.20973, 35.80818], [139.20877, 35.80801], [139.2082, 35.80786], [139.20798, 35.80778]]}, "properties": {"id": "TRACK_TOKYO_2810", "line_name": "青梅線", "station_group_ids": [], "mode": "rail", "operator_id": "jr_east", "line_color": "#EB5A28", "tags": ["tokyo", "track_centerline"]}}, {"type": "Feature", "bbox": [139.11508, 35.81197, 139.12857, 35.81493], "geometry": {"type": "LineString", "coordinates": [[139.12857, 35.81493], [139.12849, 35.81489], [139.12832, 35.8148], [139.1282, 35.81475], [139.12805, 35.81469], [139.12782, 35.81459], [139.12769, 35.81453], [139.12756, 35.81447], [139.12694, 35.81421], [139.12642, 35.81399], [139.12568, 35.81368], [139.12526, 35.81347], [139.12498, 35.81332], [139.12463, 35.81313], [139.12432, 35.81297], [139.12413, 35.81285], [139.12394, 35.81279], [139.12374, 35.81271], [139.12362, 35.81268], [139.12348, 35.81266], [139.12329, 35.81263], [139.12314, 35.81263], [139.1229, 35.81264], [139.1227, 35.81265], [139.12247, 35.81266], [139.12212, 35.81268], [139.12182, 35.81272], [139.12105, 35.81281], [139.12099, 35.81282], [139.12045, 35.81289], [139.12041, 35.81289], [139.12008, 35.81292], [139.11961, 35.81295], [139.11947, 35.81294], [139.11939, 35.81294], [139.11893, 35.81292], [139.11856, 35.81288], [139.11746, 35.81276], [139.11704, 35.81272], [139.11673, 35.81267], [139.1166, 35.81264], [139.11583, 35.81238], [139.11542, 35.81219], [139.11526, 35.81209], [139.11508, 35.81197]]}, "properties": {"id": "TRACK_TOKYO_2811", "line_name": "青梅線", "station_group_ids": [], "mode": "rail", "operator_id": "jr_east", "line_color": "#EB5A28", "tags": ["tokyo", "track_centerline"]}}, {"type": "Feature", "bbox": [139.21584, 35.80369, 139.21645, 35.8042], "geometry": {"type": "LineString", "coordinates": [[139.21645, 35.80369], [139.21584, 35.8042]]}, "properties": {"id": "TRACK_TOKYO_2812", "line_name": "青梅線", "station_group_ids": [], "mode": "rail", "operator_id": "jr_east", "line_color": "#EB5A28", "tags": ["tokyo", "track_centerline"]}}, {"type": "Feature", "bbox": [139.12931, 35.81502, 139.15056, 35.81629], "geometry": {"type": "LineString", "coordinates": [[139.15056, 35.81629], [139.15049, 35.81629], [139.15019, 35.81626], [139.14973, 35.8162], [139.14933, 35.81617], [139.149, 35.81613], [139.14874, 35.81604], [139.14846, 35.81592], [139.14819, 35.81578], [139.14778, 35.8155], [139.14765, 35.81539], [139.14729, 35.81519], [139.14691, 35.81505], [139.14656, 35.81502], [139.14614, 35.81505], [139.14593, 35.8151], [139.14574, 35.81514], [139.14556, 35.81519], [139.14533, 35.81527], [139.14513, 35.81535], [139.14484, 35.8155], [139.14434, 35.81578], [139.14406, 35.81591], [139.14363, 35.81603], [139.14315, 35.81609], [139.14282, 35.8161], [139.14178, 35.81608], [139.14129, 35.81607], [139.14074, 35.81606], [139.14008, 35.81604], [139.1396, 35.81604], [139.13926, 35.81602], [139.13896, 35.816], [139.13864, 35.81595], [139.13844, 35.81589], [139.13813, 35.81578], [139.13787, 35.81565], [139.13753, 35.81547], [139.13726, 35.81535], [139.1371, 35.81529], [139.13682, 35.8152], [139.13657, 35.81515], [139.13629, 35.81513], [139.136, 35.81511], [139.13576, 35.81512], [139.13482, 35.81525], [139.13465, 35.81527], [139.13423, 35.81533], [139.13392, 35.81539], [139.13349, 35.8155], [139.13292, 35.81563], [139.13202, 35.81579], [139.13155, 35.81584], [139.13122, 35.81582], [139.13112, 35.81582], [139.13074, 35.81576], [139.1303, 35.81566], [139.12992, 35.81553], [139.12931, 35.81528]]}, "properties": {"id": "TRACK_TOKYO_2813", "line_name": "青梅線", "station_group_ids": [], "mode": "rail", "operator_id": "jr_east", "line_color": "#EB5A28", "tags": ["tokyo", "track_centerline"]}}, {"type": "Feature", "bbox": [139.23687, 35.78736, 139.23776, 35.78782], "geometry": {"type": "LineString", "coordinates": [[139.23776, 35.78782], [139.23687, 35.78736]]}, "properties": {"id": "TRACK_TOKYO_2814", "line_name": "青梅線", "station_group_ids": [], "mode": "rail", "operator_id": "jr_east", "line_color": "#EB5A28", "tags": ["tokyo", "track_centerline"]}}, {"type": "Feature", "bbox": [139.2249, 35.79652, 139.22537, 35.79714], "geometry": {"type": "LineString", "coordinates": [[139.22537, 35.79652], [139.2249, 35.79714]]}, "properties": {"id": "TRACK_TOKYO_2815", "line_name": "青梅線", "station_group_ids": [], "mode": "rail", "operator_id": "jr_east", "line_color": "#EB5A28", "tags": ["tokyo", "track_centerline"]}}, {"type": "Feature", "bbox": [139.18328, 35.80145, 139.19291, 35.80672], "geometry": {"type": "LineString", "coordinates": [[139.19291, 35.80607], [139.19244, 35.80619], [139.19135, 35.80646], [139.19086, 35.80657], [139.19044, 35.80665], [139.19012, 35.80668], [139.18971, 35.80671], [139.18943, 35.80672], [139.18924, 35.80672], [139.18892, 35.80671], [139.18877, 35.80669], [139.1886, 35.80666], [139.18844, 35.80662], [139.18825, 35.80656], [139.18797, 35.80646], [139.18771, 35.80633], [139.18725, 35.80609], [139.18724, 35.80608], [139.18691, 35.80589], [139.1869, 35.80589], [139.18636, 35.80557], [139.1858, 35.80513], [139.18564, 35.80493], [139.18545, 35.80456], [139.18529, 35.80409], [139.18511, 35.80361], [139.18506, 35.80343], [139.18486, 35.80281], [139.18476, 35.80252], [139.18471, 35.80241], [139.18465, 35.8023], [139.18455, 35.80213], [139.18446, 35.80204], [139.18434, 35.80193], [139.18419, 35.80181], [139.184, 35.8017], [139.18379, 35.8016], [139.18361, 35.80152], [139.18328, 35.80145]]}, "properties": {"id": "TRACK_TOKYO_2817", "line_name": "青梅線", "station_group_ids": [], "mode": "rail", "operator_id": "jr_east", "line_color": "#EB5A28", "tags": ["tokyo", "track_centerline"]}}, {"type": "Feature", "bbox": [139.27217, 35.78951, 139.27344, 35.79012], "geometry": {"type": "LineString", "coordinates": [[139.27344, 35.78951], [139.27217, 35.79012]]}, "properties": {"id": "TRACK_TOKYO_2818", "line_name": "青梅線", "station_group_ids": [], "mode": "rail", "operator_id": "jr_east", "line_color": "#EB5A28", "tags": ["tokyo", "track_centerline"]}}, {"type": "Feature", "bbox": [139.19389, 35.80515, 139.20732, 35.80738], "geometry": {"type": "LineString", "coordinates": [[139.20732, 35.80738], [139.20721, 35.80727], [139.20674, 35.80686], [139.20656, 35.80672], [139.20642, 35.80661], [139.20625, 35.80651], [139.20605, 35.80642], [139.20579, 35.80633], [139.20544, 35.80622], [139.20486, 35.80609], [139.20445, 35.80603], [139.20366, 35.80583], [139.20323, 35.80572], [139.20259, 35.80554], [139.20189, 35.80538], [139.20133, 35.80531], [139.20084, 35.80531], [139.20028, 35.80531], [139.1999, 35.80529], [139.1992, 35.80525], [139.19773, 35.80518], [139.19765, 35.80518], [139.19722, 35.80516], [139.19715, 35.80516], [139.1967, 35.80515], [139.19602, 35.80528], [139.19527, 35.80548], [139.19452, 35.80568], [139.19389, 35.80583]]}, "properties": {"id": "TRACK_TOKYO_2819", "line_name": "青梅線", "station_group_ids": [], "mode": "rail", "operator_id": "jr_east", "line_color": "#EB5A28", "tags": ["tokyo", "track_centerline"]}}, {"type": "Feature", "bbox": [139.16377, 35.81374, 139.16468, 35.81379], "geometry": {"type": "LineString", "coordinates": [[139.16468, 35.81374], [139.16464, 35.81375], [139.16451, 35.81376], [139.16393, 35.81379], [139.16377, 35.81379]]}, "properties": {"id": "TRACK_TOKYO_2820", "line_name": "青梅線", "station_group_ids": [], "mode": "rail", "operator_id": "jr_east", "line_color": "#EB5A28", "tags": ["tokyo", "track_centerline"]}}, {"type": "Feature", "bbox": [139.19291, 35.80583, 139.19389, 35.80607], "geometry": {"type": "LineString", "coordinates": [[139.19389, 35.80583], [139.19291, 35.80607]]}, "properties": {"id": "TRACK_TOKYO_2821", "line_name": "青梅線", "station_group_ids": [], "mode": "rail", "operator_id": "jr_east", "line_color": "#EB5A28", "tags": ["tokyo", "track_centerline"]}}, {"type": "Feature", "bbox": [139.22975, 35.78636, 139.23687, 35.78833], "geometry": {"type": "LineString", "coordinates": [[139.23687, 35.78736], [139.23677, 35.78731], [139.23585, 35.78688], [139.23526, 35.78661], [139.2352, 35.78658], [139.23513, 35.78655], [139.23503, 35.78651], [139.23495, 35.78648], [139.23483, 35.78644], [139.23471, 35.78641], [139.23451, 35.78641], [139.2344, 35.78641], [139.23426, 35.7864], [139.23407, 35.7864], [139.23315, 35.78637], [139.23303, 35.78636], [139.23289, 35.78637], [139.23277, 35.78639], [139.23263, 35.7864], [139.23223, 35.78648], [139.23215, 35.7865], [139.23209, 35.78653], [139.23201, 35.78656], [139.23197, 35.78658], [139.23193, 35.7866], [139.2319, 35.78661], [139.23155, 35.7868], [139.23139, 35.7869], [139.23114, 35.7871], [139.23058, 35.78758], [139.23012, 35.78798], [139.22975, 35.78833]]}, "properties": {"id": "TRACK_TOKYO_2822", "line_name": "青梅線", "station_group_ids": [], "mode": "rail", "operator_id": "jr_east", "line_color": "#EB5A28", "tags": ["tokyo", "track_centerline"]}}, {"type": "Feature", "bbox": [139.09674, 35.80915, 139.09714, 35.80968], "geometry": {"type": "LineString", "coordinates": [[139.09674, 35.80968], [139.09688, 35.80945], [139.097, 35.8093], [139.09714, 35.80915]]}, "properties": {"id": "TRACK_TOKYO_2823", "line_name": "青梅線", "station_group_ids": [], "mode": "rail", "operator_id": "jr_east", "line_color": "#EB5A28", "tags": ["tokyo", "track_centerline"]}}, {"type": "Feature", "bbox": [139.22537, 35.78896, 139.22932, 35.79652], "geometry": {"type": "LineString", "coordinates": [[139.22932, 35.78896], [139.2292, 35.78933], [139.22909, 35.78988], [139.22898, 35.79052], [139.2289, 35.79093], [139.22884, 35.79124], [139.22869, 35.79183], [139.22862, 35.79203], [139.22855, 35.79218], [139.22848, 35.79233], [139.22833, 35.79256], [139.22798, 35.79307], [139.22787, 35.79322], [139.22761, 35.79359], [139.2275, 35.79376], [139.22735, 35.79394], [139.2273, 35.79398], [139.22716, 35.79409], [139.22711, 35.79413], [139.22702, 35.7942], [139.22699, 35.79423], [139.22692, 35.79429], [139.2268, 35.79438], [139.22674, 35.79443], [139.22668, 35.7945], [139.22659, 35.7946], [139.22655, 35.79467], [139.22649, 35.79475], [139.22642, 35.79483], [139.22637, 35.79492], [139.22634, 35.79497], [139.22629, 35.79504], [139.22626, 35.79508], [139.2262, 35.79518], [139.22615, 35.79528], [139.22614, 35.79531], [139.22611, 35.79536], [139.22587, 35.79578], [139.22571, 35.79601], [139.22537, 35.79652]]}, "properties": {"id": "TRACK_TOKYO_2824", "line_name": "青梅線", "station_group_ids": [], "mode": "rail", "operator_id": "jr_east", "line_color": "#EB5A28", "tags": ["tokyo", "track_centerline"]}}, {"type": "Feature", "bbox": [139.09714, 35.8082, 139.11458, 35.81147], "geometry": {"type": "LineString", "coordinates": [[139.09714, 35.80915], [139.09735, 35.80898], [139.09753, 35.80885], [139.09765, 35.80877], [139.0977, 35.80874], [139.09779, 35.80869], [139.09799, 35.8086], [139.09818, 35.80855], [139.09848, 35.80848], [139.09874, 35.80845], [139.09909, 35.80843], [139.09935, 35.80843], [139.09969, 35.80841], [139.10035, 35.80838], [139.1009, 35.80838], [139.10177, 35.80834], [139.10227, 35.80833], [139.103, 35.80831], [139.1032, 35.80831], [139.10329, 35.80831], [139.10359, 35.80829], [139.10407, 35.80827], [139.1045, 35.80826], [139.10486, 35.80825], [139.10532, 35.80825], [139.10578, 35.80824], [139.10614, 35.80822], [139.10647, 35.80822], [139.10709, 35.80822], [139.10754, 35.8082], [139.10792, 35.80821], [139.10839, 35.80822], [139.10881, 35.80826], [139.1093, 35.80831], [139.10956, 35.80836], [139.10979, 35.80841], [139.11026, 35.80855], [139.11071, 35.80874], [139.11156, 35.80911], [139.11185, 35.80927], [139.11222, 35.80948], [139.11356, 35.81044], [139.11358, 35.81046], [139.11402, 35.81082], [139.11404, 35.81084], [139.11444, 35.81132], [139.11458, 35.81147]]}, "properties": {"id": "TRACK_TOKYO_2825", "line_name": "青梅線", "station_group_ids": [], "mode": "rail", "operator_id": "jr_east", "line_color": "#EB5A28", "tags": ["tokyo", "track_centerline"]}}, {"type": "Feature", "bbox": [139.11458, 35.81147, 139.11508, 35.81197], "geometry": {"type": "LineString", "coordinates": [[139.11458, 35.81147], [139.11508, 35.81197]]}, "properties": {"id": "TRACK_TOKYO_2826", "line_name": "青梅線", "station_group_ids": [], "mode": "rail", "operator_id": "jr_east", "line_color": "#EB5A28", "tags": ["tokyo", "track_centerline"]}}, {"type": "Feature", "bbox": [139.20732, 35.80738, 139.20798, 35.80778], "geometry": {"type": "LineString", "coordinates": [[139.20798, 35.80778], [139.20732, 35.80738]]}, "properties": {"id": "TRACK_TOKYO_2827", "line_name": "青梅線", "station_group_ids": [], "mode": "rail", "operator_id": "jr_east", "line_color": "#EB5A28", "tags": ["tokyo", "track_centerline"]}}, {"type": "Feature", "bbox": [139.23776, 35.78782, 139.25741, 35.79177], "geometry": {"type": "LineString", "coordinates": [[139.25741, 35.79059], [139.2573, 35.79059], [139.25668, 35.79064], [139.25616, 35.79067], [139.25536, 35.79073], [139.25461, 35.79079], [139.2538, 35.79087], [139.25309, 35.79091], [139.25249, 35.79098], [139.25203, 35.79102], [139.2515, 35.79108], [139.2507, 35.7912], [139.25003, 35.7913], [139.24965, 35.79135], [139.24929, 35.7914], [139.24884, 35.79148], [139.24837, 35.79157], [139.24775, 35.79167], [139.24735, 35.79173], [139.24706, 35.79176], [139.24681, 35.79177], [139.24668, 35.79177], [139.2463, 35.79176], [139.24597, 35.79171], [139.24569, 35.79164], [139.24542, 35.79158], [139.24509, 35.79149], [139.24439, 35.7913], [139.24387, 35.79114], [139.2434, 35.79093], [139.24243, 35.79042], [139.2416, 35.78998], [139.24086, 35.78955], [139.24014, 35.78917], [139.23954, 35.78882], [139.23865, 35.78832], [139.23776, 35.78782]]}, "properties": {"id": "TRACK_TOKYO_2828", "line_name": "青梅線", "station_group_ids": [], "mode": "rail", "operator_id": "jr_east", "line_color": "#EB5A28", "tags": ["tokyo", "track_centerline"]}}, {"type": "Feature", "bbox": [139.15056, 35.81629, 139.15172, 35.81635], "geometry": {"type": "LineString", "coordinates": [[139.15172, 35.81635], [139.15056, 35.81629]]}, "properties": {"id": "TRACK_TOKYO_2831", "line_name": "青梅線", "station_group_ids": [], "mode": "rail", "operator_id": "jr_east", "line_color": "#EB5A28", "tags": ["tokyo", "track_centerline"]}}, {"type": "Feature", "bbox": [139.15172, 35.81069, 139.16377, 35.81641], "geometry": {"type": "LineString", "coordinates": [[139.16377, 35.81379], [139.16374, 35.81379], [139.16367, 35.81377], [139.16352, 35.81372], [139.16345, 35.8137], [139.16331, 35.81365], [139.16315, 35.8136], [139.16306, 35.81356], [139.16293, 35.81351], [139.16276, 35.81342], [139.16246, 35.81326], [139.16228, 35.81313], [139.16214, 35.813], [139.16203, 35.81286], [139.16187, 35.81255], [139.16167, 35.8121], [139.16156, 35.81185], [139.16154, 35.81182], [139.16149, 35.81175], [139.16144, 35.81168], [139.16137, 35.81157], [139.1613, 35.81151], [139.16128, 35.81148], [139.16122, 35.81143], [139.16116, 35.81138], [139.16104, 35.81127], [139.16089, 35.81121], [139.16063, 35.81111], [139.16041, 35.81102], [139.16017, 35.81095], [139.15992, 35.81087], [139.15972, 35.81082], [139.15962, 35.81079], [139.15942, 35.81075], [139.15925, 35.81072], [139.15917, 35.8107], [139.15901, 35.8107], [139.1588, 35.81069], [139.15864, 35.81073], [139.15862, 35.81073], [139.15829, 35.81082], [139.15777, 35.81107], [139.15739, 35.81129], [139.15687, 35.81163], [139.15652, 35.81186], [139.15645, 35.81189], [139.15617, 35.8121], [139.15609, 35.8122], [139.15604, 35.81231], [139.15599, 35.81251], [139.15595, 35.8127], [139.15592, 35.81286], [139.15589, 35.81316], [139.15585, 35.81346], [139.15574, 35.81418], [139.15565, 35.81443], [139.1555, 35.81476], [139.15531, 35.81506], [139.15505, 35.81545], [139.15482, 35.81574], [139.15459, 35.81591], [139.15439, 35.81603], [139.15419, 35.81613], [139.15382, 35.81626], [139.15351, 35.81633], [139.15302, 35.81639], [139.15274, 35.81641], [139.15229, 35.8164], [139.15172, 35.81635]]}, "properties": {"id": "TRACK_TOKYO_2832", "line_name": "青梅線", "station_group_ids": [], "mode": "rail", "operator_id": "jr_east", "line_color": "#EB5A28", "tags": ["tokyo", "track_centerline"]}}, {"type": "Feature", "bbox": [139.25884, 35.78983, 139.27217, 35.79112], "geometry": {"type": "LineString", "coordinates": [[139.27217, 35.79012], [139.27111, 35.7906], [139.27064, 35.79083], [139.2701, 35.79098], [139.2696, 35.79109], [139.26954, 35.79111], [139.26906, 35.79112], [139.26864, 35.79105], [139.2677, 35.79085], [139.26613, 35.79046], [139.2649, 35.79015], [139.26442, 35.79003], [139.26369, 35.78987], [139.26315, 35.78983], [139.26253, 35.78988], [139.26209, 35.78997], [139.26123, 35.7902], [139.26068, 35.79034], [139.26, 35.79042], [139.25884, 35.7905]]}, "properties": {"id": "TRACK_TOKYO_2833", "line_name": "青梅線", "station_group_ids": [], "mode": "rail", "operator_id": "jr_east", "line_color": "#EB5A28", "tags": ["tokyo", "track_centerline"]}}, {"type": "Feature", "bbox": [139.12857, 35.81493, 139.12931, 35.81528], "geometry": {"type": "LineString", "coordinates": [[139.12931, 35.81528], [139.12857, 35.81493]]}, "properties": {"id": "TRACK_TOKYO_2836", "line_name": "青梅線", "station_group_ids": [], "mode": "rail", "operator_id": "jr_east", "line_color": "#EB5A28", "tags": ["tokyo", "track_centerline"]}}]}