{"type": "FeatureCollection", "features": [{"type": "Feature", "bbox": [139.2695, 35.63192, 139.27013, 35.63284], "geometry": {"type": "LineString", "coordinates": [[139.2695, 35.63192], [139.27013, 35.63284]]}, "properties": {"id": "TRACK_TOKYO_0112", "line_name": "高尾線", "station_group_ids": [], "mode": "private", "operator_id": "keio", "line_color": "#F18A00", "tags": ["tokyo", "track_centerline"]}}, {"type": "Feature", "bbox": [139.27013, 35.63284, 139.28094, 35.64149], "geometry": {"type": "LineString", "coordinates": [[139.27013, 35.63284], [139.27016, 35.63289], [139.27041, 35.63329], [139.2706, 35.63365], [139.27088, 35.63421], [139.27097, 35.63444], [139.27143, 35.63542], [139.27172, 35.63597], [139.27189, 35.63645], [139.27191, 35.63661], [139.27192, 35.6368], [139.2719, 35.63714], [139.27188, 35.63756], [139.27188, 35.63779], [139.27189, 35.63806], [139.27194, 35.63827], [139.272, 35.63849], [139.27209, 35.63869], [139.27216, 35.63882], [139.2723, 35.63898], [139.27247, 35.63914], [139.27262, 35.63925], [139.27293, 35.63946], [139.27344, 35.63976], [139.27399, 35.64004], [139.27432, 35.64021], [139.27457, 35.64032], [139.27481, 35.6404], [139.27508, 35.64045], [139.27556, 35.64053], [139.27671, 35.64069], [139.27728, 35.64078], [139.27783, 35.64088], [139.27876, 35.64103], [139.27944, 35.64115], [139.28009, 35.64129], [139.28089, 35.64148], [139.28094, 35.64149]]}, "properties": {"id": "TRACK_TOKYO_0124", "line_name": "高尾線", "station_group_ids": [], "mode": "private", "operator_id": "keio", "line_color": "#F18A00", "tags": ["tokyo", "track_centerline"]}}, {"type": "Feature", "bbox": [139.15582, 35.25741, 139.59111, 35.48638], "geometry": {"type": "LineString", "coordinates": [[139.15582, 35.25741], [139.15594, 35.25752], [139.16043, 35.26191], [139.16057, 35.26205], [139.1608, 35.26227], [139.16119, 35.26265], [139.16123, 35.26269], [139.16157, 35.26302], [139.16268, 35.26411], [139.16291, 35.26433], [139.1658, 35.26716], [139.16615, 35.2675], [139.16642, 35.26776], [139.16782, 35.26913], [139.17077, 35.272], [139.17232, 35.27352], [139.1732, 35.27431], [139.17399, 35.27499], [139.17413, 35.2751], [139.17476, 35.27562], [139.17489, 35.27573], [139.17511, 35.27591], [139.17527, 35.27604], [139.17536, 35.27611], [139.17595, 35.27653], [139.17608, 35.27662], [139.17675, 35.2771], [139.17916, 35.27864], [139.18203, 35.28019], [139.1826, 35.28047], [139.18883, 35.28337], [139.18949, 35.28367], [139.18961, 35.28372], [139.1897, 35.28377], [139.19055, 35.28416], [139.1912, 35.28446], [139.19142, 35.28456], [139.19148, 35.28459], [139.19184, 35.28475], [139.19213, 35.28489], [139.19313, 35.28534], [139.19636, 35.28683], [139.19667, 35.28697], [139.19836, 35.28778], [139.1999, 35.28849], [139.20357, 35.29016], [139.20401, 35.29036], [139.20512, 35.29088], [139.21261, 35.29431], [139.21476, 35.29532], [139.21687, 35.29631], [139.21743, 35.29655], [139.21757, 35.29661], [139.2188, 35.29718], [139.21941, 35.29746], [139.21976, 35.29762], [139.22111, 35.29825], [139.22125, 35.29831], [139.22133, 35.29835], [139.22144, 35.2984], [139.22265, 35.29896], [139.22277, 35.29901], [139.22322, 35.29922], [139.22345, 35.29933], [139.22368, 35.29943], [139.22389, 35.29953], [139.22395, 35.29956], [139.22517, 35.30009], [139.2253, 35.30014], [139.22619, 35.3005], [139.22631, 35.30054], [139.22752, 35.30102], [139.22925, 35.30165], [139.23048, 35.30206], [139.2322, 35.30253], [139.23346, 35.30288], [139.23456, 35.3032], [139.23535, 35.30342], [139.23557, 35.30348], [139.23674, 35.3038], [139.23691, 35.30385], [139.23771, 35.30408], [139.23832, 35.30425], [139.2431, 35.30562], [139.24682, 35.3067], [139.24687, 35.30677], [139.24716, 35.30687], [139.24725, 35.30691], [139.2477, 35.30704], [139.24795, 35.30712], [139.24839, 35.30725], [139.24857, 35.3073], [139.24908, 35.30746], [139.24915, 35.30748], [139.25056, 35.30789], [139.25197, 35.30831], [139.25325, 35.30868], [139.25426, 35.30898], [139.25494, 35.30918], [139.255, 35.3092], [139.25545, 35.30934], [139.25557, 35.30937], [139.2563, 35.30958], [139.25639, 35.3096], [139.2572, 35.30983], [139.25729, 35.30985], [139.2575, 35.30992], [139.25793, 35.31004], [139.25798, 35.31005], [139.25836, 35.31016], [139.25843, 35.31018], [139.25905, 35.31037], [139.2603, 35.31072], [139.26066, 35.31082], [139.26101, 35.31092], [139.26112, 35.31095], [139.26157, 35.3111], [139.26166, 35.31112], [139.26256, 35.31138], [139.26442, 35.31189], [139.26488, 35.31201], [139.26602, 35.31231], [139.26668, 35.31252], [139.26761, 35.31282], [139.26785, 35.31291], [139.27007, 35.31376], [139.27121, 35.31428], [139.27225, 35.31478], [139.27272, 35.31504], [139.27337, 35.31543], [139.27471, 35.31619], [139.276, 35.31693], [139.27675, 35.31738], [139.2775, 35.31782], [139.278, 35.31811], [139.27975, 35.31913], [139.28082, 35.31976], [139.28225, 35.32059], [139.28377, 35.32148], [139.28532, 35.3224], [139.28652, 35.32306], [139.28731, 35.32354], [139.28831, 35.32418], [139.2889, 35.32462], [139.28944, 35.32509], [139.28993, 35.32552], [139.29089, 35.32638], [139.29167, 35.32711], [139.29285, 35.3282], [139.29306, 35.3284], [139.29328, 35.32861], [139.29477, 35.32995], [139.29567, 35.33076], [139.29589, 35.33095], [139.29684, 35.33178], [139.29721, 35.33215], [139.2978, 35.33269], [139.29853, 35.33335], [139.29902, 35.3338], [139.29925, 35.33401], [139.30023, 35.33489], [139.30081, 35.33539], [139.301, 35.33556], [139.30126, 35.3358], [139.30187, 35.33631], [139.3022, 35.33661], [139.30247, 35.33685], [139.30302, 35.33745], [139.30407, 35.33857], [139.30507, 35.33965], [139.30633, 35.341], [139.30661, 35.3413], [139.30725, 35.34199], [139.30758, 35.34235], [139.30886, 35.3437], [139.30909, 35.34395], [139.30913, 35.344], [139.30947, 35.34437], [139.31056, 35.34554], [139.31075, 35.34574], [139.31103, 35.34605], [139.31116, 35.34619], [139.31199, 35.34707], [139.3122, 35.34731], [139.31277, 35.34792], [139.31296, 35.34815], [139.314, 35.34923], [139.31528, 35.35058], [139.31626, 35.3516], [139.31649, 35.35183], [139.3173, 35.35268], [139.31738, 35.35277], [139.3189, 35.35436], [139.31961, 35.35501], [139.31996, 35.35532], [139.32022, 35.35553], [139.3214, 35.35642], [139.32223, 35.35701], [139.32321, 35.3577], [139.32521, 35.35913], [139.32595, 35.35965], [139.327, 35.36042], [139.32733, 35.36066], [139.32858, 35.36156], [139.32997, 35.36256], [139.3302, 35.36273], [139.33412, 35.36555], [139.33439, 35.36573], [139.33623, 35.36707], [139.3365, 35.36726], [139.3381, 35.36841], [139.33868, 35.36884], [139.34055, 35.37018], [139.34172, 35.37102], [139.3425, 35.37157], [139.3429, 35.37187], [139.3439, 35.37259], [139.34509, 35.37345], [139.34541, 35.37369], [139.34651, 35.37447], [139.3473, 35.37504], [139.34785, 35.37544], [139.34847, 35.37589], [139.34902, 35.37628], [139.34932, 35.37652], [139.35091, 35.37766], [139.35117, 35.37785], [139.35229, 35.37864], [139.35272, 35.37896], [139.35284, 35.37904], [139.35306, 35.37921], [139.3548, 35.38046], [139.35505, 35.38064], [139.35525, 35.38079], [139.35539, 35.38089], [139.3555, 35.38098], [139.356, 35.38134], [139.35615, 35.38145], [139.35624, 35.38152], [139.35742, 35.38237], [139.35772, 35.38258], [139.35935, 35.38376], [139.36037, 35.3845], [139.36145, 35.38525], [139.36151, 35.3853], [139.36171, 35.38542], [139.36194, 35.38556], [139.36203, 35.38562], [139.3623, 35.38579], [139.36362, 35.38661], [139.36462, 35.38718], [139.36506, 35.38739], [139.36553, 35.38763], [139.36611, 35.3879], [139.36667, 35.38818], [139.36808, 35.38882], [139.36927, 35.38937], [139.36979, 35.3896], [139.37024, 35.38981], [139.3714, 35.39034], [139.3718, 35.39053], [139.37397, 35.39145], [139.374, 35.39146], [139.37573, 35.39223], [139.37805, 35.39323], [139.37843, 35.39341], [139.37963, 35.39394], [139.38162, 35.39481], [139.38216, 35.39505], [139.38239, 35.39516], [139.38262, 35.39526], [139.38378, 35.39577], [139.38404, 35.39588], [139.38435, 35.39602], [139.38469, 35.39616], [139.38515, 35.39636], [139.38674, 35.39706], [139.3876, 35.39744], [139.3884, 35.39779], [139.38934, 35.39821], [139.38986, 35.39844], [139.39136, 35.3991], [139.39182, 35.3993], [139.39277, 35.39973], [139.39423, 35.40035], [139.39533, 35.40084], [139.39666, 35.40142], [139.39689, 35.40152], [139.3995, 35.40267], [139.39974, 35.40278], [139.40106, 35.40335], [139.40382, 35.40455], [139.40527, 35.4052], [139.40643, 35.40571], [139.40796, 35.40638], [139.41148, 35.40793], [139.4121, 35.4082], [139.41234, 35.4083], [139.41462, 35.40933], [139.41508, 35.40952], [139.41868, 35.41114], [139.42113, 35.41224], [139.42307, 35.41308], [139.42479, 35.41386], [139.42638, 35.41458], [139.42861, 35.41562], [139.42898, 35.41579], [139.43033, 35.41641], [139.43088, 35.41666], [139.4311, 35.41676], [139.43321, 35.41774], [139.43436, 35.41826], [139.43586, 35.41894], [139.43754, 35.4197], [139.43785, 35.41984], [139.43805, 35.41993], [139.43957, 35.42062], [139.44045, 35.42101], [139.44099, 35.42126], [139.44102, 35.42127], [139.44228, 35.42184], [139.44262, 35.42199], [139.44294, 35.42213], [139.44343, 35.42236], [139.44374, 35.4225], [139.4449, 35.42302], [139.44506, 35.42309], [139.44583, 35.42344], [139.44693, 35.42394], [139.44785, 35.42436], [139.44832, 35.42457], [139.45085, 35.42573], [139.45102, 35.4258], [139.45107, 35.42583], [139.45259, 35.42652], [139.4533, 35.42685], [139.45342, 35.4269], [139.45524, 35.42769], [139.45541, 35.42776], [139.45697, 35.42844], [139.45761, 35.42874], [139.45795, 35.42889], [139.45889, 35.42933], [139.45912, 35.42943], [139.45981, 35.42974], [139.45992, 35.42979], [139.46018, 35.42991], [139.46086, 35.43022], [139.46107, 35.43031], [139.46113, 35.43033], [139.46139, 35.43045], [139.46187, 35.43065], [139.46207, 35.43073], [139.46211, 35.43075], [139.46303, 35.43113], [139.46358, 35.43135], [139.46374, 35.43141], [139.46382, 35.43144], [139.46393, 35.43149], [139.46408, 35.43154], [139.46441, 35.43167], [139.46626, 35.4324], [139.46726, 35.43274], [139.4679, 35.43297], [139.46912, 35.4334], [139.47025, 35.43381], [139.47062, 35.43395], [139.47291, 35.43481], [139.47321, 35.43492], [139.47356, 35.43505], [139.47397, 35.43519], [139.47429, 35.4353], [139.47587, 35.43587], [139.47741, 35.43644], [139.47747, 35.43646], [139.47772, 35.43656], [139.47778, 35.43658], [139.47823, 35.43675], [139.47829, 35.43677], [139.47846, 35.43683], [139.47854, 35.43686], [139.47893, 35.43701], [139.47986, 35.43736], [139.48004, 35.43742], [139.48177, 35.43808], [139.48185, 35.43811], [139.48193, 35.43814], [139.48201, 35.43817], [139.48226, 35.43826], [139.48258, 35.43838], [139.48329, 35.43864], [139.48339, 35.43868], [139.48362, 35.43876], [139.48419, 35.43896], [139.48431, 35.439], [139.48454, 35.43907], [139.48466, 35.43912], [139.4853, 35.43935], [139.48538, 35.43938], [139.48548, 35.43942], [139.48554, 35.43944], [139.48705, 35.44001], [139.48713, 35.44004], [139.4885, 35.44054], [139.48894, 35.44069], [139.48926, 35.44081], [139.49138, 35.44158], [139.49167, 35.44168], [139.49217, 35.44186], [139.49383, 35.44246], [139.49401, 35.44253], [139.49404, 35.44253], [139.49523, 35.44299], [139.49571, 35.44316], [139.49594, 35.44324], [139.4968, 35.4435], [139.49855, 35.44415], [139.50027, 35.44479], [139.50249, 35.44562], [139.5042, 35.44627], [139.50492, 35.44653], [139.50649, 35.44704], [139.50939, 35.4479], [139.50986, 35.44804], [139.51347, 35.4491], [139.51615, 35.44996], [139.51626, 35.44999], [139.51872, 35.45104], [139.52105, 35.45223], [139.52268, 35.45313], [139.52548, 35.45479], [139.52569, 35.45492], [139.52718, 35.4558], [139.52737, 35.45591], [139.53057, 35.45782], [139.53146, 35.45837], [139.53247, 35.45893], [139.53461, 35.46023], [139.53629, 35.46122], [139.53903, 35.46284], [139.5415, 35.46432], [139.54216, 35.46469], [139.54233, 35.4648], [139.54251, 35.46491], [139.54346, 35.46547], [139.54474, 35.46625], [139.54654, 35.4673], [139.54751, 35.46786], [139.54783, 35.46805], [139.54791, 35.46809], [139.5502, 35.46949], [139.55044, 35.46963], [139.55053, 35.46968], [139.55066, 35.46976], [139.55126, 35.47012], [139.55244, 35.47082], [139.5535, 35.47145], [139.55366, 35.47155], [139.55405, 35.47177], [139.55524, 35.47248], [139.55619, 35.47303], [139.55771, 35.47393], [139.5586, 35.47449], [139.56025, 35.47544], [139.5611, 35.47594], [139.56133, 35.47608], [139.56229, 35.47665], [139.5629, 35.477], [139.56368, 35.47743], [139.56386, 35.47753], [139.56473, 35.47796], [139.56532, 35.47828], [139.56582, 35.47853], [139.56651, 35.47885], [139.56687, 35.479], [139.56941, 35.47996], [139.57003, 35.48018], [139.57048, 35.48032], [139.57156, 35.48064], [139.57202, 35.48078], [139.57253, 35.48091], [139.57409, 35.48128], [139.57544, 35.48162], [139.57662, 35.48192], [139.57718, 35.48205], [139.58086, 35.48293], [139.58127, 35.48303], [139.58172, 35.48314], [139.58294, 35.48344], [139.58528, 35.48409], [139.5854, 35.48413], [139.58569, 35.48421], [139.58577, 35.48423], [139.588, 35.485], [139.58914, 35.48547], [139.58987, 35.48578], [139.59002, 35.48585], [139.5907, 35.48617], [139.59083, 35.48624], [139.59111, 35.48638]]}, "properties": {"id": "TRACK_TOKYO_0966", "line_name": "東海道新幹線", "station_group_ids": [], "mode": "shinkansen", "operator_id": "東海旅客鉄道", "line_color": "#1F78FF", "tags": ["tokyo", "track_centerline"]}}, {"type": "Feature", "bbox": [139.03485, 35.60711, 139.03632, 35.608], "geometry": {"type": "LineString", "coordinates": [[139.03632, 35.60711], [139.03616, 35.60722], [139.03569, 35.60755], [139.03525, 35.60778], [139.03485, 35.608]]}, "properties": {"id": "TRACK_TOKYO_3111", "line_name": "中央線", "station_group_ids": [], "mode": "rail", "operator_id": "jr_east", "line_color": "#F15A24", "tags": ["tokyo", "track_centerline"]}}, {"type": "Feature", "bbox": [139.07139, 35.61403, 139.07238, 35.61407], "geometry": {"type": "LineString", "coordinates": [[139.07238, 35.61407], [139.07139, 35.61403]]}, "properties": {"id": "TRACK_TOKYO_3112", "line_name": "中央線", "station_group_ids": [], "mode": "rail", "operator_id": "jr_east", "line_color": "#F15A24", "tags": ["tokyo", "track_centerline"]}}, {"type": "Feature", "bbox": [139.10128, 35.61775, 139.11428, 35.61845], "geometry": {"type": "LineString", "coordinates": [[139.11428, 35.6179], [139.11403, 35.61783], [139.11362, 35.61779], [139.11331, 35.61776], [139.11285, 35.61775], [139.11246, 35.61778], [139.11153, 35.61783], [139.11069, 35.61789], [139.11027, 35.61791], [139.10917, 35.61797], [139.10782, 35.61808], [139.10699, 35.61812], [139.10623, 35.61816], [139.10519, 35.61823], [139.10505, 35.61824], [139.10354, 35.61834], [139.10184, 35.61845], [139.10128, 35.61844]]}, "properties": {"id": "TRACK_TOKYO_3113", "line_name": "中央線", "station_group_ids": [], "mode": "rail", "operator_id": "jr_east", "line_color": "#F15A24", "tags": ["tokyo", "track_centerline"]}}, {"type": "Feature", "bbox": [139.25207, 35.63968, 139.25807, 35.64023], "geometry": {"type": "LineString", "coordinates": [[139.25207, 35.64023], [139.25253, 35.64013], [139.25349, 35.63995], [139.25408, 35.63983], [139.25439, 35.63979], [139.25482, 35.63974], [139.25551, 35.63969], [139.25577, 35.63968], [139.25615, 35.63969], [139.25656, 35.6397], [139.25698, 35.63974], [139.25748, 35.63982], [139.25807, 35.63996]]}, "properties": {"id": "TRACK_TOKYO_3114", "line_name": "中央線", "station_group_ids": [], "mode": "rail", "operator_id": "jr_east", "line_color": "#F15A24", "tags": ["tokyo", "track_centerline"]}}, {"type": "Feature", "bbox": [139.12084, 35.61784, 139.14111, 35.62064], "geometry": {"type": "LineString", "coordinates": [[139.12084, 35.62018], [139.12118, 35.62015], [139.12165, 35.62007], [139.12183, 35.62006], [139.12197, 35.62005], [139.1221, 35.62003], [139.12233, 35.61997], [139.1228, 35.61988], [139.12309, 35.61984], [139.1235, 35.61984], [139.12369, 35.61984], [139.12413, 35.61986], [139.12458, 35.61993], [139.12524, 35.62006], [139.12627, 35.6203], [139.12712, 35.62051], [139.12751, 35.62057], [139.12787, 35.62061], [139.12794, 35.62061], [139.12818, 35.62063], [139.12823, 35.62064], [139.12885, 35.62064], [139.12998, 35.6206], [139.13136, 35.62059], [139.13185, 35.62059], [139.13217, 35.62058], [139.13267, 35.62058], [139.13314, 35.62057], [139.1347, 35.62045], [139.1353, 35.6204], [139.13586, 35.62032], [139.13618, 35.62027], [139.13653, 35.62021], [139.1369, 35.62012], [139.13776, 35.6198], [139.13844, 35.61946], [139.1394, 35.61884], [139.14007, 35.6184], [139.14037, 35.61821], [139.14081, 35.61797], [139.14111, 35.61784]]}, "properties": {"id": "TRACK_TOKYO_3116", "line_name": "中央線", "station_group_ids": [], "mode": "rail", "operator_id": "jr_east", "line_color": "#F15A24", "tags": ["tokyo", "track_centerline"]}}, {"type": "Feature", "bbox": [139.00221, 35.60798, 139.00476, 35.6081], "geometry": {"type": "LineString", "coordinates": [[139.00476, 35.6081], [139.00221, 35.60798]]}, "properties": {"id": "TRACK_TOKYO_3117", "line_name": "中央線", "station_group_ids": [], "mode": "rail", "operator_id": "jr_east", "line_color": "#F15A24", "tags": ["tokyo", "track_centerline"]}}, {"type": "Feature", "bbox": [139.08517, 35.61251, 139.10128, 35.61844], "geometry": {"type": "LineString", "coordinates": [[139.08517, 35.61251], [139.08557, 35.61261], [139.08635, 35.61296], [139.08674, 35.61315], [139.08755, 35.61358], [139.0885, 35.61409], [139.08917, 35.61448], [139.08988, 35.61486], [139.09076, 35.61542], [139.09216, 35.61632], [139.09237, 35.61648], [139.09249, 35.61659], [139.09258, 35.61667], [139.0929, 35.61684], [139.09405, 35.61727], [139.09464, 35.61747], [139.09587, 35.61788], [139.09629, 35.61802], [139.09739, 35.6183], [139.0978, 35.61836], [139.09826, 35.61838], [139.09883, 35.61843], [139.10026, 35.61841], [139.10057, 35.6184], [139.10128, 35.61844]]}, "properties": {"id": "TRACK_TOKYO_3119", "line_name": "中央線", "station_group_ids": [], "mode": "rail", "operator_id": "jr_east", "line_color": "#F15A24", "tags": ["tokyo", "track_centerline"]}}, {"type": "Feature", "bbox": [139.00476, 35.60735, 139.01395, 35.60827], "geometry": {"type": "LineString", "coordinates": [[139.00476, 35.6081], [139.00567, 35.60816], [139.00584, 35.60817], [139.00617, 35.6082], [139.00649, 35.60821], [139.0074, 35.60825], [139.00799, 35.60827], [139.00857, 35.60825], [139.00875, 35.60824], [139.00936, 35.60817], [139.00995, 35.60808], [139.01097, 35.60798], [139.01202, 35.60782], [139.0125, 35.60774], [139.01295, 35.60765], [139.0132, 35.60759], [139.01347, 35.60752], [139.01358, 35.60748], [139.01395, 35.60735]]}, "properties": {"id": "TRACK_TOKYO_3120", "line_name": "中央線", "station_group_ids": [], "mode": "rail", "operator_id": "jr_east", "line_color": "#F15A24", "tags": ["tokyo", "track_centerline"]}}, {"type": "Feature", "bbox": [139.07494, 35.61227, 139.08517, 35.6142], "geometry": {"type": "LineString", "coordinates": [[139.07494, 35.6142], [139.07556, 35.61419], [139.07577, 35.61418], [139.07622, 35.6141], [139.07666, 35.61399], [139.07744, 35.61375], [139.07954, 35.61311], [139.08, 35.61296], [139.08104, 35.6126], [139.08159, 35.61246], [139.08197, 35.61238], [139.08237, 35.61233], [139.08309, 35.61229], [139.08364, 35.61227], [139.08418, 35.61232], [139.08462, 35.61239], [139.08517, 35.61251]]}, "properties": {"id": "TRACK_TOKYO_3122", "line_name": "中央線", "station_group_ids": [], "mode": "rail", "operator_id": "jr_east", "line_color": "#F15A24", "tags": ["tokyo", "track_centerline"]}}, {"type": "Feature", "bbox": [139.14111, 35.61607, 139.15063, 35.61784], "geometry": {"type": "LineString", "coordinates": [[139.14111, 35.61784], [139.14159, 35.61765], [139.1422, 35.61745], [139.14263, 35.61735], [139.14342, 35.6172], [139.14426, 35.61706], [139.14575, 35.61679], [139.14698, 35.61658], [139.14816, 35.61641], [139.14838, 35.61638], [139.15063, 35.61607]]}, "properties": {"id": "TRACK_TOKYO_3123", "line_name": "中央線", "station_group_ids": [], "mode": "rail", "operator_id": "jr_east", "line_color": "#F15A24", "tags": ["tokyo", "track_centerline"]}}, {"type": "Feature", "bbox": [139.03846, 35.60274, 139.07139, 35.61403], "geometry": {"type": "LineString", "coordinates": [[139.03846, 35.60528], [139.03858, 35.60509], [139.03895, 35.60464], [139.03907, 35.60454], [139.04028, 35.6036], [139.04039, 35.60354], [139.0413, 35.60312], [139.04162, 35.603], [139.04229, 35.60282], [139.04282, 35.60276], [139.04308, 35.60274], [139.04361, 35.60277], [139.04403, 35.60283], [139.04453, 35.60292], [139.04491, 35.60304], [139.04521, 35.60314], [139.04541, 35.60324], [139.04571, 35.60342], [139.04605, 35.60363], [139.04646, 35.60385], [139.04693, 35.60413], [139.04732, 35.60433], [139.04794, 35.60469], [139.05031, 35.60602], [139.05039, 35.60607], [139.05068, 35.60617], [139.05171, 35.60637], [139.05201, 35.6064], [139.05363, 35.60662], [139.05445, 35.60672], [139.0558, 35.60688], [139.05619, 35.60693], [139.05656, 35.607], [139.05688, 35.60709], [139.05732, 35.6073], [139.05747, 35.60738], [139.05762, 35.60749], [139.05813, 35.60791], [139.05987, 35.60927], [139.06044, 35.60973], [139.06068, 35.60992], [139.06119, 35.61031], [139.06212, 35.61106], [139.06219, 35.61112], [139.06241, 35.61132], [139.06247, 35.61137], [139.06331, 35.61213], [139.06339, 35.61219], [139.06358, 35.61234], [139.06416, 35.6128], [139.06425, 35.61286], [139.06444, 35.61298], [139.06502, 35.61321], [139.06564, 35.61336], [139.06609, 35.61346], [139.06706, 35.61363], [139.06806, 35.61376], [139.06882, 35.61382], [139.07052, 35.61397], [139.07139, 35.61403]]}, "properties": {"id": "TRACK_TOKYO_3124", "line_name": "中央線", "station_group_ids": [], "mode": "rail", "operator_id": "jr_east", "line_color": "#F15A24", "tags": ["tokyo", "track_centerline"]}}, {"type": "Feature", "bbox": [139.20444, 35.63001, 139.25207, 35.64043], "geometry": {"type": "LineString", "coordinates": [[139.20444, 35.63001], [139.20455, 35.63019], [139.20477, 35.63051], [139.20491, 35.63069], [139.20523, 35.63098], [139.20543, 35.63114], [139.20569, 35.63133], [139.20604, 35.63152], [139.20645, 35.63168], [139.20676, 35.63182], [139.20696, 35.63191], [139.2084, 35.63248], [139.20936, 35.63288], [139.21033, 35.63333], [139.21123, 35.63373], [139.21273, 35.63435], [139.21428, 35.63493], [139.21447, 35.63498], [139.21568, 35.63539], [139.21656, 35.63565], [139.21772, 35.636], [139.219, 35.63638], [139.22031, 35.63679], [139.22202, 35.63729], [139.22267, 35.63748], [139.22306, 35.63759], [139.22423, 35.6379], [139.22573, 35.63832], [139.2262, 35.63844], [139.22727, 35.63869], [139.22871, 35.63901], [139.23027, 35.63931], [139.2307, 35.63938], [139.23121, 35.63945], [139.23204, 35.63954], [139.23289, 35.63962], [139.23339, 35.63965], [139.23365, 35.63966], [139.23391, 35.63966], [139.23421, 35.63966], [139.23463, 35.63962], [139.23499, 35.63959], [139.236, 35.63949], [139.23607, 35.63949], [139.2369, 35.63939], [139.23812, 35.63926], [139.2392, 35.63913], [139.23959, 35.63912], [139.24025, 35.63918], [139.24084, 35.63927], [139.24141, 35.63943], [139.24177, 35.63954], [139.24277, 35.64003], [139.243, 35.64011], [139.24335, 35.64022], [139.24399, 35.64033], [139.24438, 35.64036], [139.24475, 35.64038], [139.24531, 35.64037], [139.24591, 35.64031], [139.24628, 35.64027], [139.24681, 35.64027], [139.24745, 35.64029], [139.24786, 35.64031], [139.24862, 35.64039], [139.24896, 35.64041], [139.2492, 35.64043], [139.24975, 35.64041], [139.25089, 35.64033], [139.25207, 35.64023]]}, "properties": {"id": "TRACK_TOKYO_3125", "line_name": "中央線", "station_group_ids": [], "mode": "rail", "operator_id": "jr_east", "line_color": "#F15A24", "tags": ["tokyo", "track_centerline"]}}, {"type": "Feature", "bbox": [139.11428, 35.6179, 139.11653, 35.61899], "geometry": {"type": "LineString", "coordinates": [[139.11653, 35.61899], [139.11428, 35.6179]]}, "properties": {"id": "TRACK_TOKYO_3127", "line_name": "中央線", "station_group_ids": [], "mode": "rail", "operator_id": "jr_east", "line_color": "#F15A24", "tags": ["tokyo", "track_centerline"]}}, {"type": "Feature", "bbox": [139.11653, 35.61899, 139.12084, 35.62018], "geometry": {"type": "LineString", "coordinates": [[139.11653, 35.61899], [139.11685, 35.61914], [139.11772, 35.61953], [139.11807, 35.61969], [139.11845, 35.61982], [139.11896, 35.61998], [139.11949, 35.62009], [139.11954, 35.6201], [139.11964, 35.62011], [139.12001, 35.62015], [139.12084, 35.62018]]}, "properties": {"id": "TRACK_TOKYO_3129", "line_name": "中央線", "station_group_ids": [], "mode": "rail", "operator_id": "jr_east", "line_color": "#F15A24", "tags": ["tokyo", "track_centerline"]}}, {"type": "Feature", "bbox": [139.15063, 35.61592, 139.15203, 35.61607], "geometry": {"type": "LineString", "coordinates": [[139.15063, 35.61607], [139.15203, 35.61592]]}, "properties": {"id": "TRACK_TOKYO_3130", "line_name": "中央線", "station_group_ids": [], "mode": "rail", "operator_id": "jr_east", "line_color": "#F15A24", "tags": ["tokyo", "track_centerline"]}}, {"type": "Feature", "bbox": [139.03846, 35.60293, 139.07139, 35.61416], "geometry": {"type": "LineString", "coordinates": [[139.03846, 35.60528], [139.03871, 35.60506], [139.03926, 35.60466], [139.0395, 35.60445], [139.04046, 35.60371], [139.04064, 35.60363], [139.04106, 35.60341], [139.04153, 35.60324], [139.04185, 35.60314], [139.04224, 35.60305], [139.04275, 35.60295], [139.04317, 35.60293], [139.0437, 35.60296], [139.0442, 35.60304], [139.0447, 35.60317], [139.04493, 35.60325], [139.04514, 35.60336], [139.04565, 35.60359], [139.04634, 35.60397], [139.04666, 35.60419], [139.04765, 35.60484], [139.05041, 35.6067], [139.05374, 35.60895], [139.05488, 35.60972], [139.05547, 35.61012], [139.05648, 35.61062], [139.06033, 35.61199], [139.06274, 35.6128], [139.06287, 35.61284], [139.06336, 35.613], [139.06368, 35.61311], [139.06378, 35.61314], [139.06439, 35.61336], [139.06531, 35.61363], [139.06562, 35.61371], [139.06681, 35.61398], [139.0674, 35.61409], [139.06771, 35.61413], [139.06841, 35.61416], [139.06988, 35.61413], [139.07076, 35.6141], [139.07139, 35.61403]]}, "properties": {"id": "TRACK_TOKYO_3131", "line_name": "中央線", "station_group_ids": [], "mode": "rail", "operator_id": "jr_east", "line_color": "#F15A24", "tags": ["tokyo", "track_centerline"]}}, {"type": "Feature", "bbox": [139.18962, 35.61694, 139.19161, 35.6171], "geometry": {"type": "LineString", "coordinates": [[139.18962, 35.61702], [139.19002, 35.61696], [139.19014, 35.61695], [139.19032, 35.61694], [139.19059, 35.61694], [139.19086, 35.61696], [139.19118, 35.617], [139.19154, 35.61707], [139.19161, 35.6171]]}, "properties": {"id": "TRACK_TOKYO_3132", "line_name": "中央線", "station_group_ids": [], "mode": "rail", "operator_id": "jr_east", "line_color": "#F15A24", "tags": ["tokyo", "track_centerline"]}}, {"type": "Feature", "bbox": [139.19863, 35.62174, 139.20444, 35.63001], "geometry": {"type": "LineString", "coordinates": [[139.19863, 35.62174], [139.19915, 35.62225], [139.19932, 35.62244], [139.20004, 35.62314], [139.20027, 35.62333], [139.20047, 35.62353], [139.20053, 35.62358], [139.20065, 35.62369], [139.20132, 35.62433], [139.20174, 35.62471], [139.20238, 35.62531], [139.20261, 35.62555], [139.20312, 35.6262], [139.20326, 35.62642], [139.20335, 35.62657], [139.20349, 35.6269], [139.20372, 35.6275], [139.20392, 35.62826], [139.20412, 35.62933], [139.20439, 35.62994], [139.20444, 35.63001]]}, "properties": {"id": "TRACK_TOKYO_3133", "line_name": "中央線", "station_group_ids": [], "mode": "rail", "operator_id": "jr_east", "line_color": "#F15A24", "tags": ["tokyo", "track_centerline"]}}, {"type": "Feature", "bbox": [139.07238, 35.61407, 139.07494, 35.6142], "geometry": {"type": "LineString", "coordinates": [[139.07494, 35.6142], [139.07339, 35.61413], [139.07238, 35.61407]]}, "properties": {"id": "TRACK_TOKYO_3135", "line_name": "中央線", "station_group_ids": [], "mode": "rail", "operator_id": "jr_east", "line_color": "#F15A24", "tags": ["tokyo", "track_centerline"]}}, {"type": "Feature", "bbox": [139.25207, 35.6399, 139.25807, 35.64023], "geometry": {"type": "LineString", "coordinates": [[139.25207, 35.64023], [139.25266, 35.64019], [139.25385, 35.64008], [139.25438, 35.64006], [139.25581, 35.63993], [139.25652, 35.6399], [139.25729, 35.63991], [139.25794, 35.63995], [139.25807, 35.63996]]}, "properties": {"id": "TRACK_TOKYO_3138", "line_name": "中央線", "station_group_ids": [], "mode": "rail", "operator_id": "jr_east", "line_color": "#F15A24", "tags": ["tokyo", "track_centerline"]}}, {"type": "Feature", "bbox": [139.01395, 35.60638, 139.03485, 35.60921], "geometry": {"type": "LineString", "coordinates": [[139.01395, 35.60735], [139.01534, 35.60688], [139.01552, 35.60682], [139.01578, 35.60673], [139.01595, 35.60665], [139.01665, 35.60647], [139.01716, 35.60638], [139.01764, 35.60638], [139.01837, 35.60643], [139.0187, 35.60647], [139.01923, 35.60658], [139.02017, 35.60689], [139.02031, 35.60695], [139.02061, 35.60702], [139.0217, 35.60736], [139.023, 35.60777], [139.02379, 35.60799], [139.02526, 35.60827], [139.02577, 35.60836], [139.02716, 35.60861], [139.02759, 35.60866], [139.02817, 35.60879], [139.0298, 35.60908], [139.03012, 35.60913], [139.03053, 35.60917], [139.03111, 35.60921], [139.0315, 35.6092], [139.03186, 35.60913], [139.03245, 35.609], [139.03296, 35.60885], [139.03384, 35.6085], [139.03441, 35.60825], [139.03485, 35.608]]}, "properties": {"id": "TRACK_TOKYO_3139", "line_name": "中央線", "station_group_ids": [], "mode": "rail", "operator_id": "jr_east", "line_color": "#F15A24", "tags": ["tokyo", "track_centerline"]}}, {"type": "Feature", "bbox": [139.08517, 35.61251, 139.10128, 35.61863], "geometry": {"type": "LineString", "coordinates": [[139.08517, 35.61251], [139.08597, 35.61296], [139.08658, 35.61328], [139.08734, 35.6137], [139.08835, 35.61429], [139.0913, 35.61603], [139.0922, 35.6166], [139.09239, 35.61674], [139.09247, 35.6168], [139.09275, 35.61693], [139.09309, 35.61705], [139.09469, 35.61766], [139.09586, 35.61813], [139.09628, 35.61827], [139.09713, 35.61844], [139.09787, 35.61856], [139.09857, 35.6186], [139.09989, 35.61863], [139.1008, 35.61851], [139.10128, 35.61844]]}, "properties": {"id": "TRACK_TOKYO_3140", "line_name": "中央線", "station_group_ids": [], "mode": "rail", "operator_id": "jr_east", "line_color": "#F15A24", "tags": ["tokyo", "track_centerline"]}}, {"type": "Feature", "bbox": [139.01395, 35.60438, 139.03485, 35.60825], "geometry": {"type": "LineString", "coordinates": [[139.01395, 35.60735], [139.01415, 35.6072], [139.01519, 35.60623], [139.01566, 35.60583], [139.01609, 35.60546], [139.01688, 35.60498], [139.01731, 35.60478], [139.01771, 35.60464], [139.01815, 35.60452], [139.01865, 35.60445], [139.01905, 35.60442], [139.02058, 35.60442], [139.02209, 35.6044], [139.02266, 35.6044], [139.02327, 35.60438], [139.02342, 35.60439], [139.02398, 35.60441], [139.02452, 35.60445], [139.02527, 35.60454], [139.0258, 35.60465], [139.02622, 35.60477], [139.02655, 35.60489], [139.027, 35.60506], [139.0274, 35.60528], [139.02859, 35.60607], [139.02887, 35.60624], [139.02909, 35.60641], [139.02953, 35.6069], [139.0296, 35.60696], [139.03008, 35.60734], [139.03029, 35.60747], [139.03072, 35.60771], [139.03123, 35.60794], [139.0316, 35.60806], [139.03194, 35.60812], [139.03231, 35.60821], [139.03271, 35.60823], [139.03315, 35.60825], [139.03348, 35.60824], [139.034, 35.60817], [139.03485, 35.608]]}, "properties": {"id": "TRACK_TOKYO_3143", "line_name": "中央線", "station_group_ids": [], "mode": "rail", "operator_id": "jr_east", "line_color": "#F15A24", "tags": ["tokyo", "track_centerline"]}}, {"type": "Feature", "bbox": [139.12084, 35.61784, 139.14111, 35.62094], "geometry": {"type": "LineString", "coordinates": [[139.12084, 35.62018], [139.12123, 35.62021], [139.12183, 35.62025], [139.12206, 35.62022], [139.12255, 35.62022], [139.12306, 35.62025], [139.12541, 35.62068], [139.12566, 35.62074], [139.1261, 35.62091], [139.12634, 35.62092], [139.12641, 35.62093], [139.12669, 35.62094], [139.12798, 35.6209], [139.12863, 35.62087], [139.12887, 35.62086], [139.12987, 35.62082], [139.13186, 35.62074], [139.1322, 35.62073], [139.13263, 35.62071], [139.1333, 35.62072], [139.1353, 35.62063], [139.13588, 35.62056], [139.1363, 35.62049], [139.13644, 35.62046], [139.13735, 35.62016], [139.13829, 35.61978], [139.13879, 35.61948], [139.13943, 35.61913], [139.14, 35.61871], [139.14035, 35.61843], [139.14083, 35.61806], [139.14111, 35.61784]]}, "properties": {"id": "TRACK_TOKYO_3144", "line_name": "中央線", "station_group_ids": [], "mode": "rail", "operator_id": "jr_east", "line_color": "#F15A24", "tags": ["tokyo", "track_centerline"]}}, {"type": "Feature", "bbox": [139.25807, 35.63996, 139.28133, 35.64202], "geometry": {"type": "LineString", "coordinates": [[139.28133, 35.64192], [139.28066, 35.64168], [139.28011, 35.64152], [139.27962, 35.64139], [139.27886, 35.64127], [139.27814, 35.64119], [139.27716, 35.64112], [139.27687, 35.64112], [139.27668, 35.64113], [139.27635, 35.64116], [139.27533, 35.64127], [139.27446, 35.64135], [139.27374, 35.64142], [139.27203, 35.64157], [139.2707, 35.64169], [139.27001, 35.64175], [139.26906, 35.64184], [139.26776, 35.64195], [139.2672, 35.642], [139.26669, 35.64202], [139.26637, 35.64201], [139.26626, 35.642], [139.26578, 35.64195], [139.26523, 35.64185], [139.26486, 35.64175], [139.26307, 35.64128], [139.26231, 35.64108], [139.26145, 35.64083], [139.25973, 35.6404], [139.25807, 35.63996]]}, "properties": {"id": "TRACK_TOKYO_3145", "line_name": "中央線", "station_group_ids": [], "mode": "rail", "operator_id": "jr_east", "line_color": "#F15A24", "tags": ["tokyo", "track_centerline"]}}, {"type": "Feature", "bbox": [139.15203, 35.61513, 139.15813, 35.61592], "geometry": {"type": "LineString", "coordinates": [[139.15203, 35.61592], [139.15209, 35.61592], [139.15238, 35.61587], [139.15598, 35.61543], [139.15813, 35.61513]]}, "properties": {"id": "TRACK_TOKYO_3149", "line_name": "中央線", "station_group_ids": [], "mode": "rail", "operator_id": "jr_east", "line_color": "#F15A24", "tags": ["tokyo", "track_centerline"]}}, {"type": "Feature", "bbox": [139.19863, 35.62174, 139.20444, 35.63001], "geometry": {"type": "LineString", "coordinates": [[139.19863, 35.62174], [139.19905, 35.62236], [139.19971, 35.62323], [139.20096, 35.62505], [139.20119, 35.62538], [139.20145, 35.62575], [139.202, 35.62654], [139.2042, 35.62978], [139.20444, 35.63001]]}, "properties": {"id": "TRACK_TOKYO_3150", "line_name": "中央線", "station_group_ids": [], "mode": "rail", "operator_id": "jr_east", "line_color": "#F15A24", "tags": ["tokyo", "track_centerline"]}}, {"type": "Feature", "bbox": [138.96983, 35.60798, 139.00221, 35.61392], "geometry": {"type": "LineString", "coordinates": [[139.00221, 35.60798], [139.00154, 35.60798], [138.99871, 35.60811], [138.99748, 35.60819], [138.99684, 35.60823], [138.99659, 35.60824], [138.99311, 35.60843], [138.99277, 35.60844], [138.99157, 35.60849], [138.99026, 35.60855], [138.99015, 35.60856], [138.98803, 35.60869], [138.98762, 35.60871], [138.98654, 35.60881], [138.98611, 35.60887], [138.9855, 35.60907], [138.98436, 35.60959], [138.98409, 35.60973], [138.98338, 35.61012], [138.98261, 35.61057], [138.98161, 35.61116], [138.98077, 35.61167], [138.98025, 35.61198], [138.97988, 35.61219], [138.97939, 35.6125], [138.97917, 35.61262], [138.97883, 35.6128], [138.97853, 35.61292], [138.97803, 35.6131], [138.97705, 35.61333], [138.97661, 35.6134], [138.97631, 35.61344], [138.97453, 35.6137], [138.97399, 35.61379], [138.97347, 35.61384], [138.9732, 35.61386], [138.97302, 35.61388], [138.97269, 35.6139], [138.97233, 35.61392], [138.9719, 35.61392], [138.97154, 35.61389], [138.97132, 35.61385], [138.97104, 35.61381], [138.97061, 35.61368], [138.96989, 35.61343], [138.96983, 35.61341]]}, "properties": {"id": "TRACK_TOKYO_3152", "line_name": "中央線", "station_group_ids": [], "mode": "rail", "operator_id": "jr_east", "line_color": "#F15A24", "tags": ["tokyo", "track_centerline"]}}, {"type": "Feature", "bbox": [139.16353, 35.61644, 139.18743, 35.62203], "geometry": {"type": "LineString", "coordinates": [[139.18743, 35.61761], [139.18679, 35.61778], [139.18507, 35.61824], [139.18399, 35.61856], [139.18342, 35.61879], [139.18289, 35.61904], [139.18198, 35.61949], [139.18102, 35.61999], [139.18066, 35.62013], [139.17885, 35.62078], [139.17819, 35.62095], [139.1777, 35.6211], [139.17716, 35.62126], [139.17504, 35.62184], [139.17482, 35.62189], [139.1745, 35.62195], [139.17414, 35.622], [139.17399, 35.62201], [139.17366, 35.62203], [139.17341, 35.62203], [139.1732, 35.62202], [139.17292, 35.62199], [139.1724, 35.62188], [139.17194, 35.62177], [139.17169, 35.6217], [139.17142, 35.6216], [139.17124, 35.62149], [139.17112, 35.62143], [139.1711, 35.62142], [139.17084, 35.62127], [139.17078, 35.62123], [139.16892, 35.62], [139.16836, 35.61963], [139.16805, 35.61943], [139.16599, 35.61809], [139.16409, 35.61684], [139.16368, 35.61655], [139.16353, 35.61644]]}, "properties": {"id": "TRACK_TOKYO_3153", "line_name": "中央線", "station_group_ids": [], "mode": "rail", "operator_id": "jr_east", "line_color": "#F15A24", "tags": ["tokyo", "track_centerline"]}}, {"type": "Feature", "bbox": [139.18743, 35.61702, 139.18962, 35.61761], "geometry": {"type": "LineString", "coordinates": [[139.18743, 35.61761], [139.18962, 35.61702]]}, "properties": {"id": "TRACK_TOKYO_3154", "line_name": "中央線", "station_group_ids": [], "mode": "rail", "operator_id": "jr_east", "line_color": "#F15A24", "tags": ["tokyo", "track_centerline"]}}, {"type": "Feature", "bbox": [139.03632, 35.60542, 139.03828, 35.60711], "geometry": {"type": "LineString", "coordinates": [[139.03828, 35.60542], [139.03632, 35.60711]]}, "properties": {"id": "TRACK_TOKYO_3155", "line_name": "中央線", "station_group_ids": [], "mode": "rail", "operator_id": "jr_east", "line_color": "#F15A24", "tags": ["tokyo", "track_centerline"]}}, {"type": "Feature", "bbox": [139.03828, 35.60528, 139.03846, 35.60542], "geometry": {"type": "LineString", "coordinates": [[139.03828, 35.60542], [139.03846, 35.60528]]}, "properties": {"id": "TRACK_TOKYO_3156", "line_name": "中央線", "station_group_ids": [], "mode": "rail", "operator_id": "jr_east", "line_color": "#F15A24", "tags": ["tokyo", "track_centerline"]}}, {"type": "Feature", "bbox": [139.15813, 35.61495, 139.16353, 35.61644], "geometry": {"type": "LineString", "coordinates": [[139.15813, 35.61513], [139.15855, 35.61506], [139.15916, 35.61498], [139.15953, 35.61495], [139.15995, 35.61496], [139.16036, 35.61503], [139.1613, 35.61523], [139.16172, 35.61536], [139.16211, 35.61555], [139.16249, 35.61574], [139.16288, 35.61596], [139.16353, 35.61644]]}, "properties": {"id": "TRACK_TOKYO_3157", "line_name": "中央線", "station_group_ids": [], "mode": "rail", "operator_id": "jr_east", "line_color": "#F15A24", "tags": ["tokyo", "track_centerline"]}}, {"type": "Feature", "bbox": [139.15813, 35.61513, 139.16353, 35.61644], "geometry": {"type": "LineString", "coordinates": [[139.15813, 35.61513], [139.1591, 35.61515], [139.15969, 35.61519], [139.16033, 35.61528], [139.16092, 35.6154], [139.16156, 35.61556], [139.16198, 35.61571], [139.16218, 35.61578], [139.16283, 35.61608], [139.16334, 35.61634], [139.16353, 35.61644]]}, "properties": {"id": "TRACK_TOKYO_3158", "line_name": "中央線", "station_group_ids": [], "mode": "rail", "operator_id": "jr_east", "line_color": "#F15A24", "tags": ["tokyo", "track_centerline"]}}, {"type": "Feature", "bbox": [139.19782, 35.62093, 139.19863, 35.62174], "geometry": {"type": "LineString", "coordinates": [[139.19782, 35.62093], [139.19787, 35.62098], [139.19863, 35.62174]]}, "properties": {"id": "TRACK_TOKYO_3185", "line_name": "中央線", "station_group_ids": [], "mode": "rail", "operator_id": "jr_east", "line_color": "#F15A24", "tags": ["tokyo", "track_centerline"]}}, {"type": "Feature", "bbox": [139.19161, 35.6171, 139.19782, 35.62093], "geometry": {"type": "LineString", "coordinates": [[139.19161, 35.6171], [139.1923, 35.61717], [139.19279, 35.61732], [139.19347, 35.61755], [139.1941, 35.61788], [139.1945, 35.61812], [139.19538, 35.61863], [139.19604, 35.61917], [139.19616, 35.61927], [139.19739, 35.62048], [139.19782, 35.62093]]}, "properties": {"id": "TRACK_TOKYO_3186", "line_name": "中央線", "station_group_ids": [], "mode": "rail", "operator_id": "jr_east", "line_color": "#F15A24", "tags": ["tokyo", "track_centerline"]}}, {"type": "Feature", "bbox": [139.19161, 35.6171, 139.19782, 35.62093], "geometry": {"type": "LineString", "coordinates": [[139.19161, 35.6171], [139.19226, 35.61731], [139.19314, 35.61772], [139.19377, 35.61812], [139.19405, 35.61837], [139.1948, 35.61901], [139.19558, 35.6196], [139.19578, 35.61977], [139.1963, 35.62007], [139.19675, 35.62032], [139.19718, 35.62055], [139.19754, 35.62076], [139.19782, 35.62093]]}, "properties": {"id": "TRACK_TOKYO_3187", "line_name": "中央線", "station_group_ids": [], "mode": "rail", "operator_id": "jr_east", "line_color": "#F15A24", "tags": ["tokyo", "track_centerline"]}}]}