{"type": "FeatureCollection", "features": [{"type": "Feature", "bbox": [137.779405, 34.717065, 137.779405, 34.717065], "geometry": {"type": "Point", "coordinates": [137.779405, 34.717065]}, "properties": {"id": "PS_C0E3C97D2280", "station_group_id": "SG_20EDFCE95D4F", "operator_id": "jr_central", "operator_ids": "jr_central", "name_en": "天竜川", "name_ja": "天竜川", "label_rank": 72, "tags": ["tokyo", "v3"]}}, {"type": "Feature", "bbox": [137.60309, 34.690145, 137.60309, 34.690145], "geometry": {"type": "Point", "coordinates": [137.60309, 34.690145]}, "properties": {"id": "PS_FA945C172117", "station_group_id": "SG_A4EB759164EE", "operator_id": "jr_central", "operator_ids": "jr_central", "name_en": "弁天島", "name_ja": "弁天島", "label_rank": 72, "tags": ["tokyo", "v3"]}}, {"type": "Feature", "bbox": [137.568985, 34.694275000000005, 137.568985, 34.694275000000005], "geometry": {"type": "Point", "coordinates": [137.568985, 34.694275000000005]}, "properties": {"id": "PS_0ECBBC26D2FE", "station_group_id": "SG_B75AD794D18A", "operator_id": "jr_central", "operator_ids": "jr_central", "name_en": "新居町", "name_ja": "新居町", "label_rank": 72, "tags": ["tokyo", "v3"]}}, {"type": "Feature", "bbox": [137.73559, 34.703825, 137.73559, 34.703825], "geometry": {"type": "Point", "coordinates": [137.73559, 34.703825]}, "properties": {"id": "PS_0F4BD3D4CCC2", "station_group_id": "SG_A744F35C60FF", "operator_id": "jr_central", "operator_ids": "jr_central", "name_en": "浜松", "name_ja": "浜松", "label_rank": 72, "tags": ["tokyo", "v3"]}}, {"type": "Feature", "bbox": [137.735045, 34.70397, 137.735045, 34.70397], "geometry": {"type": "Point", "coordinates": [137.735045, 34.70397]}, "properties": {"id": "PS_9D19CFF1C518", "station_group_id": "SG_A744F35C60FF", "operator_id": "jr_central", "operator_ids": "jr_central", "name_en": "浜松", "name_ja": "浜松", "label_rank": 72, "tags": ["tokyo", "v3"]}}, {"type": "Feature", "bbox": [137.62633, 34.68569, 137.62633, 34.68569], "geometry": {"type": "Point", "coordinates": [137.62633, 34.68569]}, "properties": {"id": "PS_55DDDD371342", "station_group_id": "SG_F95DE0C6C372", "operator_id": "jr_central", "operator_ids": "jr_central", "name_en": "舞阪", "name_ja": "舞阪", "label_rank": 72, "tags": ["tokyo", "v3"]}}, {"type": "Feature", "bbox": [137.8198, 34.712085, 137.8198, 34.712085], "geometry": {"type": "Point", "coordinates": [137.8198, 34.712085]}, "properties": {"id": "PS_40994378BA5D", "station_group_id": "SG_F5BDA6032607", "operator_id": "jr_central", "operator_ids": "jr_central", "name_en": "豊田町", "name_ja": "豊田町", "label_rank": 72, "tags": ["tokyo", "v3"]}}, {"type": "Feature", "bbox": [137.68134500000002, 34.690425000000005, 137.68134500000002, 34.690425000000005], "geometry": {"type": "Point", "coordinates": [137.68134500000002, 34.690425000000005]}, "properties": {"id": "PS_C55446A6BF4E", "station_group_id": "SG_43E11407893B", "operator_id": "jr_central", "operator_ids": "jr_central", "name_en": "高塚", "name_ja": "高塚", "label_rank": 72, "tags": ["tokyo", "v3"]}}, {"type": "Feature", "bbox": [137.54619, 34.71677, 137.54619, 34.71677], "geometry": {"type": "Point", "coordinates": [137.54619, 34.71677]}, "properties": {"id": "PS_515F030B9466", "station_group_id": "SG_43C9037E9CB2", "operator_id": "jr_central", "operator_ids": "jr_central", "name_en": "鷲津", "name_ja": "鷲津", "label_rank": 72, "tags": ["tokyo", "v3"]}}]}