{"type": "FeatureCollection", "features": [{"type": "Feature", "bbox": [131.16218, 34.03704, 131.3954, 34.09226], "geometry": {"type": "LineString", "coordinates": [[131.3954, 34.09226], [131.39433, 34.09166], [131.39269, 34.09061], [131.39078, 34.08932], [131.38871, 34.08784], [131.38698, 34.08659], [131.38591, 34.08588], [131.38482, 34.08524], [131.38394, 34.08471], [131.38029, 34.08229], [131.37952, 34.08176], [131.37922, 34.08157], [131.37487, 34.07862], [131.37323, 34.07737], [131.37258, 34.07686], [131.37162, 34.07599], [131.37085, 34.07527], [131.36962, 34.0739], [131.36867, 34.07289], [131.36854, 34.07276], [131.36519, 34.06912], [131.36421, 34.0681], [131.36321, 34.067], [131.36214, 34.06584], [131.36213, 34.06582], [131.36121, 34.06485], [131.35992, 34.06356], [131.3592, 34.06286], [131.35853, 34.06224], [131.35757, 34.06146], [131.35645, 34.06053], [131.35516, 34.05955], [131.35467, 34.0592], [131.35373, 34.0586], [131.35284, 34.05803], [131.35139, 34.0571], [131.3499, 34.05622], [131.34911, 34.05578], [131.34785, 34.05515], [131.34666, 34.05461], [131.34586, 34.05426], [131.34477, 34.05383], [131.34227, 34.05296], [131.34079, 34.05246], [131.33926, 34.05204], [131.33786, 34.05167], [131.33675, 34.05142], [131.33619, 34.05131], [131.33551, 34.05117], [131.3343, 34.05098], [131.33258, 34.05085], [131.33242, 34.05084], [131.33034, 34.05072], [131.32864, 34.05068], [131.32653, 34.05064], [131.32129, 34.05055], [131.31961, 34.05064], [131.31856, 34.0507], [131.31644, 34.05075], [131.3149, 34.05078], [131.31378, 34.05077], [131.31308, 34.05079], [131.31206, 34.05074], [131.31087, 34.05067], [131.30965, 34.05056], [131.30838, 34.05038], [131.30661, 34.05012], [131.30467, 34.0498], [131.30374, 34.04963], [131.30191, 34.04923], [131.30024, 34.04881], [131.29827, 34.04816], [131.29607, 34.04741], [131.29248, 34.0462], [131.28945, 34.04523], [131.28577, 34.04408], [131.2788, 34.0418], [131.27667, 34.04111], [131.27481, 34.04061], [131.27348, 34.04026], [131.27201, 34.03988], [131.27074, 34.03959], [131.26973, 34.03938], [131.26871, 34.03919], [131.26591, 34.03874], [131.26329, 34.03832], [131.26136, 34.03805], [131.25769, 34.03756], [131.25528, 34.0373], [131.25497, 34.03728], [131.25422, 34.03723], [131.25362, 34.0372], [131.25316, 34.03718], [131.25229, 34.03716], [131.24919, 34.03711], [131.24807, 34.0371], [131.24769, 34.03709], [131.24759, 34.03709], [131.24696, 34.03707], [131.24623, 34.03707], [131.24459, 34.03704], [131.243, 34.03707], [131.24191, 34.0371], [131.24135, 34.03715], [131.23919, 34.0373], [131.23863, 34.03736], [131.23766, 34.0375], [131.23647, 34.03767], [131.23489, 34.03788], [131.23359, 34.03807], [131.23279, 34.03821], [131.23219, 34.03831], [131.23122, 34.03848], [131.23054, 34.03858], [131.22939, 34.03872], [131.22778, 34.03893], [131.22691, 34.03907], [131.22633, 34.03917], [131.2259, 34.03923], [131.22515, 34.03935], [131.22398, 34.03953], [131.22239, 34.03978], [131.22103, 34.03999], [131.2193, 34.04026], [131.21582, 34.04082], [131.21436, 34.04106], [131.21392, 34.04113], [131.2101, 34.04172], [131.20728, 34.04217], [131.20449, 34.04264], [131.20411, 34.04271], [131.20373, 34.04276], [131.20258, 34.04293], [131.2018, 34.04306], [131.2006, 34.04322], [131.20028, 34.04326], [131.19792, 34.0436], [131.19534, 34.04398], [131.19487, 34.04405], [131.19426, 34.04414], [131.19383, 34.04421], [131.19228, 34.04445], [131.19072, 34.0447], [131.18967, 34.04487], [131.18846, 34.04507], [131.18787, 34.04516], [131.18547, 34.04556], [131.18487, 34.04566], [131.18364, 34.04589], [131.18342, 34.04594], [131.18132, 34.04635], [131.18097, 34.04642], [131.17926, 34.04681], [131.17724, 34.04729], [131.17582, 34.04761], [131.175, 34.04782], [131.17285, 34.0484], [131.17244, 34.04854], [131.17229, 34.04859], [131.17147, 34.04884], [131.17, 34.04931], [131.16876, 34.04973], [131.1675, 34.05017], [131.16601, 34.05073], [131.16473, 34.0512], [131.16377, 34.0516], [131.16218, 34.05227]]}, "properties": {"id": "TRACK_TOKYO_0681", "line_name": "山陽新幹線", "station_group_ids": [], "mode": "shinkansen", "operator_id": "西日本旅客鉄道", "tags": ["tokyo", "track_centerline"]}}, {"type": "Feature", "bbox": [131.39907, 34.05277, 131.80082, 34.10351], "geometry": {"type": "LineString", "coordinates": [[131.80082, 34.05277], [131.80059, 34.05311], [131.80031, 34.05357], [131.79999, 34.05413], [131.79955, 34.05506], [131.79922, 34.05588], [131.79884, 34.05711], [131.79841, 34.05837], [131.79803, 34.05959], [131.79798, 34.05976], [131.7976, 34.06085], [131.79726, 34.06183], [131.79703, 34.06247], [131.79685, 34.06303], [131.79654, 34.06399], [131.79615, 34.06514], [131.79596, 34.06572], [131.79559, 34.06692], [131.79514, 34.06829], [131.79492, 34.06894], [131.79477, 34.06936], [131.79458, 34.06991], [131.7942, 34.07061], [131.79387, 34.07123], [131.79362, 34.07173], [131.79328, 34.07239], [131.79299, 34.07294], [131.79275, 34.07339], [131.79242, 34.07401], [131.7922, 34.07449], [131.79198, 34.07494], [131.79183, 34.07523], [131.79158, 34.07564], [131.79126, 34.07622], [131.79098, 34.07668], [131.79065, 34.07724], [131.79021, 34.07789], [131.78965, 34.07868], [131.78922, 34.07926], [131.78877, 34.07981], [131.78833, 34.08031], [131.78766, 34.08095], [131.78713, 34.08139], [131.78649, 34.08194], [131.78588, 34.08236], [131.78543, 34.08269], [131.78495, 34.08304], [131.78438, 34.08343], [131.78373, 34.08393], [131.78315, 34.08433], [131.78262, 34.08472], [131.78189, 34.08524], [131.78117, 34.08578], [131.78071, 34.08609], [131.7802, 34.08641], [131.77985, 34.0866], [131.77872, 34.08738], [131.77785, 34.08783], [131.77631, 34.08853], [131.77622, 34.08858], [131.77449, 34.08925], [131.77326, 34.08963], [131.77158, 34.09013], [131.76962, 34.09065], [131.76698, 34.09112], [131.76581, 34.0913], [131.76479, 34.09146], [131.76319, 34.09165], [131.76255, 34.09171], [131.76205, 34.09175], [131.76083, 34.09184], [131.75962, 34.09193], [131.75811, 34.09199], [131.75686, 34.09197], [131.75578, 34.09194], [131.75512, 34.0919], [131.75413, 34.0918], [131.75338, 34.0917], [131.75149, 34.09137], [131.75036, 34.09119], [131.74934, 34.09102], [131.7483, 34.09084], [131.74755, 34.0907], [131.746, 34.09042], [131.74438, 34.0901], [131.74345, 34.08989], [131.74224, 34.08957], [131.73926, 34.08887], [131.73687, 34.0883], [131.73664, 34.08825], [131.73587, 34.08807], [131.7325, 34.08727], [131.73043, 34.0868], [131.72956, 34.0866], [131.72921, 34.08655], [131.7287, 34.08642], [131.72824, 34.08633], [131.72795, 34.08627], [131.72735, 34.08616], [131.72636, 34.08597], [131.72536, 34.08577], [131.72428, 34.08556], [131.72319, 34.08536], [131.72211, 34.08518], [131.72077, 34.0849], [131.71961, 34.08471], [131.71908, 34.08461], [131.71773, 34.08436], [131.71599, 34.08405], [131.71412, 34.0837], [131.71322, 34.08353], [131.71159, 34.08321], [131.7094, 34.08276], [131.70822, 34.08256], [131.70697, 34.08231], [131.70656, 34.08224], [131.70605, 34.08215], [131.70529, 34.082], [131.70466, 34.08187], [131.70404, 34.08176], [131.70343, 34.08165], [131.70264, 34.08153], [131.70187, 34.08139], [131.7011, 34.08129], [131.70025, 34.08119], [131.69944, 34.08112], [131.69909, 34.08109], [131.69841, 34.08103], [131.69762, 34.08096], [131.69684, 34.08093], [131.69593, 34.08092], [131.6951, 34.08089], [131.69501, 34.08089], [131.69403, 34.08088], [131.69264, 34.08086], [131.69255, 34.08087], [131.69225, 34.08087], [131.69204, 34.08087], [131.69167, 34.08087], [131.69043, 34.08088], [131.68991, 34.08089], [131.68879, 34.08089], [131.68768, 34.0809], [131.68657, 34.08091], [131.68546, 34.08092], [131.68427, 34.08093], [131.68367, 34.08093], [131.68234, 34.08093], [131.68171, 34.08093], [131.67957, 34.08087], [131.67902, 34.08083], [131.6784, 34.08078], [131.67779, 34.08071], [131.67729, 34.08068], [131.67618, 34.08059], [131.67509, 34.08054], [131.67399, 34.08046], [131.67288, 34.08037], [131.67178, 34.08025], [131.67068, 34.08011], [131.67067, 34.08011], [131.66957, 34.07996], [131.66846, 34.07983], [131.66736, 34.07969], [131.66626, 34.07954], [131.66517, 34.07939], [131.66407, 34.07922], [131.66297, 34.07907], [131.66187, 34.07891], [131.66078, 34.07875], [131.65976, 34.0786], [131.65968, 34.07859], [131.65858, 34.07844], [131.65749, 34.07831], [131.65639, 34.07816], [131.65529, 34.07801], [131.65419, 34.07786], [131.65309, 34.07772], [131.65199, 34.07756], [131.65089, 34.07741], [131.64979, 34.07727], [131.64882, 34.07715], [131.64868, 34.07713], [131.64758, 34.07698], [131.64647, 34.07684], [131.64537, 34.07669], [131.64426, 34.07653], [131.64314, 34.07638], [131.64203, 34.07624], [131.64198, 34.07623], [131.64091, 34.07609], [131.6398, 34.07595], [131.63869, 34.0758], [131.63758, 34.07564], [131.63647, 34.07548], [131.63536, 34.07534], [131.63426, 34.0752], [131.63316, 34.07506], [131.63205, 34.07491], [131.63104, 34.07477], [131.63095, 34.07476], [131.62984, 34.07461], [131.62874, 34.07446], [131.62763, 34.07435], [131.62685, 34.07424], [131.62587, 34.07412], [131.62489, 34.074], [131.62386, 34.07387], [131.62287, 34.07375], [131.62256, 34.07371], [131.62146, 34.07357], [131.61998, 34.07338], [131.61325, 34.07248], [131.61049, 34.0723], [131.60953, 34.07227], [131.60923, 34.07226], [131.60904, 34.07225], [131.60874, 34.07224], [131.60746, 34.07219], [131.60696, 34.07217], [131.60666, 34.07216], [131.60627, 34.07215], [131.60601, 34.07214], [131.60562, 34.07212], [131.60525, 34.07211], [131.60507, 34.0721], [131.6031, 34.07204], [131.60299, 34.07204], [131.60154, 34.07203], [131.60106, 34.07205], [131.59984, 34.07209], [131.59943, 34.0721], [131.5991, 34.07212], [131.59896, 34.07212], [131.59862, 34.07215], [131.59831, 34.07217], [131.59798, 34.0722], [131.59732, 34.07225], [131.59693, 34.07228], [131.59631, 34.07234], [131.59624, 34.07234], [131.59569, 34.07239], [131.5956, 34.0724], [131.59102, 34.07278], [131.58933, 34.07293], [131.58094, 34.07365], [131.57831, 34.07388], [131.57792, 34.07391], [131.57479, 34.07419], [131.57461, 34.07421], [131.57075, 34.07455], [131.57065, 34.07456], [131.57025, 34.0746], [131.57015, 34.07461], [131.56828, 34.07478], [131.56821, 34.07479], [131.56791, 34.07481], [131.56785, 34.07482], [131.56591, 34.075], [131.56577, 34.07502], [131.56554, 34.07503], [131.56546, 34.07504], [131.565, 34.07508], [131.56483, 34.0751], [131.56447, 34.07514], [131.56434, 34.07515], [131.56199, 34.07536], [131.56189, 34.07537], [131.55213, 34.07628], [131.55179, 34.07631], [131.55002, 34.07647], [131.54672, 34.07679], [131.54086, 34.07735], [131.53902, 34.07754], [131.53748, 34.07769], [131.52806, 34.07887], [131.52797, 34.07889], [131.52707, 34.07901], [131.52701, 34.07901], [131.52194, 34.07964], [131.51769, 34.08019], [131.51726, 34.08024], [131.51454, 34.08057], [131.50977, 34.08118], [131.50631, 34.08162], [131.50594, 34.08167], [131.50514, 34.08177], [131.5051, 34.08178], [131.5047, 34.08183], [131.50465, 34.08184], [131.50399, 34.08193], [131.5039, 34.08194], [131.50305, 34.08205], [131.50296, 34.08206], [131.50278, 34.08209], [131.50233, 34.08215], [131.50112, 34.08231], [131.50108, 34.08231], [131.49849, 34.08266], [131.49757, 34.08279], [131.49556, 34.08304], [131.49377, 34.08333], [131.493, 34.08349], [131.4923, 34.08365], [131.49151, 34.08387], [131.49078, 34.08413], [131.48941, 34.0847], [131.4856, 34.08591], [131.48349, 34.08659], [131.48187, 34.08706], [131.4794, 34.08791], [131.47786, 34.08845], [131.47752, 34.08857], [131.47553, 34.0892], [131.47458, 34.08951], [131.47147, 34.09063], [131.46702, 34.09223], [131.46659, 34.09238], [131.46214, 34.09395], [131.46186, 34.09405], [131.45697, 34.09577], [131.45374, 34.09691], [131.45169, 34.09764], [131.44958, 34.09839], [131.44866, 34.09872], [131.44721, 34.09923], [131.44291, 34.10076], [131.44264, 34.10083], [131.44194, 34.10102], [131.44102, 34.10125], [131.43827, 34.10194], [131.43557, 34.10255], [131.43308, 34.10298], [131.43192, 34.10318], [131.43076, 34.10333], [131.43026, 34.10338], [131.42769, 34.1035], [131.42738, 34.10351], [131.42466, 34.10333], [131.42317, 34.10315], [131.42037, 34.10269], [131.41849, 34.10238], [131.41643, 34.1019], [131.41411, 34.10128], [131.41314, 34.10094], [131.41, 34.09964], [131.40978, 34.09955], [131.40929, 34.09931], [131.409, 34.09917], [131.40857, 34.09897], [131.40718, 34.0983], [131.40283, 34.09624], [131.39988, 34.0948], [131.39907, 34.09434]]}, "properties": {"id": "TRACK_TOKYO_0682", "line_name": "山陽新幹線", "station_group_ids": [], "mode": "shinkansen", "operator_id": "西日本旅客鉄道", "tags": ["tokyo", "track_centerline"]}}, {"type": "Feature", "bbox": [131.3954, 34.09226, 131.39907, 34.09434], "geometry": {"type": "LineString", "coordinates": [[131.39907, 34.09434], [131.3954, 34.09226]]}, "properties": {"id": "TRACK_TOKYO_0683", "line_name": "山陽新幹線", "station_group_ids": [], "mode": "shinkansen", "operator_id": "西日本旅客鉄道", "tags": ["tokyo", "track_centerline"]}}]}