{"type": "FeatureCollection", "features": [{"type": "Feature", "bbox": [139.28287, 36.17515, 139.32852, 36.19097], "geometry": {"type": "LineString", "coordinates": [[139.32852, 36.17515], [139.3277, 36.17548], [139.32714, 36.17572], [139.32615, 36.17613], [139.32558, 36.17638], [139.32536, 36.17647], [139.32311, 36.1774], [139.32245, 36.17769], [139.32055, 36.17848], [139.31856, 36.17932], [139.31719, 36.17989], [139.31673, 36.18009], [139.31538, 36.18066], [139.31447, 36.18105], [139.31272, 36.18177], [139.312, 36.18208], [139.31011, 36.18288], [139.30952, 36.18312], [139.30758, 36.18393], [139.30707, 36.18416], [139.30689, 36.18423], [139.30616, 36.18452], [139.30448, 36.18524], [139.30415, 36.18538], [139.30336, 36.18567], [139.30283, 36.18589], [139.30202, 36.18614], [139.30112, 36.18639], [139.29906, 36.18691], [139.29844, 36.18706], [139.29661, 36.18752], [139.29597, 36.18768], [139.29473, 36.188], [139.29269, 36.18851], [139.29166, 36.18877], [139.28983, 36.18923], [139.28886, 36.18946], [139.2872, 36.18989], [139.28654, 36.19005], [139.28602, 36.19018], [139.28575, 36.19025], [139.28476, 36.1905], [139.28423, 36.19062], [139.28287, 36.19097]]}, "properties": {"id": "GEOM_TOKYO_2289", "route_id": "R_7E54B177", "route_name": null, "route_color": "#F28E1C", "route_text_color": null, "line_name": "高崎線", "operator_id": "jr_east", "representation": "service_path", "min_zoom": 0, "max_zoom": 24, "offset_rank": 0}}, {"type": "Feature", "bbox": [139.27982, 36.19097, 139.28287, 36.19172], "geometry": {"type": "LineString", "coordinates": [[139.28287, 36.19097], [139.27982, 36.19172]]}, "properties": {"id": "GEOM_TOKYO_2291", "route_id": "R_7E54B177", "route_name": null, "route_color": "#F28E1C", "route_text_color": null, "line_name": "高崎線", "operator_id": "jr_east", "representation": "service_path", "min_zoom": 0, "max_zoom": 24, "offset_rank": 0}}, {"type": "Feature", "bbox": [139.23926, 36.19172, 139.27982, 36.20496], "geometry": {"type": "LineString", "coordinates": [[139.27982, 36.19172], [139.27952, 36.19181], [139.27816, 36.19215], [139.27755, 36.19231], [139.27671, 36.19253], [139.27668, 36.19254], [139.27528, 36.19289], [139.27474, 36.19304], [139.27386, 36.19328], [139.27271, 36.19361], [139.27239, 36.1937], [139.27209, 36.19379], [139.27174, 36.19388], [139.27114, 36.19402], [139.2708, 36.1941], [139.27017, 36.1942], [139.26937, 36.19429], [139.2686, 36.19438], [139.26778, 36.19444], [139.26708, 36.1945], [139.26627, 36.19455], [139.26598, 36.19457], [139.26567, 36.1946], [139.2649, 36.19469], [139.26424, 36.19476], [139.2635, 36.19485], [139.26267, 36.19499], [139.2621, 36.19511], [139.26151, 36.19527], [139.26111, 36.19538], [139.26076, 36.1955], [139.2603, 36.19564], [139.26014, 36.19571], [139.25996, 36.19578], [139.25969, 36.1959], [139.25918, 36.19612], [139.25712, 36.19704], [139.2557, 36.19767], [139.2552, 36.19789], [139.25322, 36.19877], [139.25234, 36.19917], [139.25064, 36.19991], [139.24958, 36.20039], [139.24828, 36.20099], [139.24782, 36.20121], [139.24679, 36.20172], [139.24614, 36.20202], [139.24509, 36.20247], [139.24421, 36.20284], [139.2431, 36.20331], [139.24203, 36.20377], [139.24121, 36.20413], [139.24043, 36.20446], [139.23964, 36.20479], [139.23926, 36.20496]]}, "properties": {"id": "GEOM_TOKYO_2303", "route_id": "R_7E54B177", "route_name": null, "route_color": "#F28E1C", "route_text_color": null, "line_name": "高崎線", "operator_id": "jr_east", "representation": "service_path", "min_zoom": 0, "max_zoom": 24, "offset_rank": 0}}, {"type": "Feature", "bbox": [139.18155, 36.14006, 139.38814, 36.21779], "geometry": {"type": "LineString", "coordinates": [[139.38814, 36.14006], [139.38689, 36.1405], [139.38651, 36.14064], [139.38406, 36.14155], [139.38155, 36.14247], [139.3799, 36.14308], [139.3795, 36.14324], [139.37919, 36.14335], [139.37853, 36.1436], [139.37647, 36.14441], [139.37535, 36.14485], [139.37179, 36.14627], [139.37147, 36.14639], [139.37026, 36.14682], [139.36898, 36.14729], [139.36843, 36.14749], [139.36759, 36.14779], [139.36662, 36.14813], [139.3658, 36.1484], [139.36369, 36.14911], [139.36226, 36.14956], [139.36058, 36.15007], [139.35807, 36.15068], [139.35794, 36.15072], [139.35655, 36.151], [139.3553, 36.15123], [139.35382, 36.15148], [139.35246, 36.15168], [139.35109, 36.15184], [139.34965, 36.15197], [139.34829, 36.15208], [139.34716, 36.15217], [139.34685, 36.1522], [139.34539, 36.1523], [139.34367, 36.15243], [139.34177, 36.15257], [139.33986, 36.1527], [139.33823, 36.15282], [139.33659, 36.15296], [139.33612, 36.153], [139.33464, 36.15312], [139.33328, 36.15322], [139.33212, 36.15332], [139.32992, 36.15346], [139.32871, 36.15354], [139.32716, 36.15364], [139.32578, 36.15374], [139.32508, 36.15378], [139.3238, 36.15387], [139.32154, 36.15406], [139.31918, 36.15428], [139.31735, 36.15452], [139.31521, 36.15482], [139.31412, 36.15503], [139.31303, 36.15524], [139.31168, 36.15555], [139.31058, 36.15581], [139.30875, 36.15634], [139.30784, 36.15666], [139.30664, 36.15709], [139.30553, 36.1575], [139.30382, 36.15823], [139.3038, 36.15824], [139.30248, 36.15883], [139.301, 36.15954], [139.29961, 36.16021], [139.29859, 36.16071], [139.29645, 36.16174], [139.29517, 36.16236], [139.29425, 36.16282], [139.29362, 36.16313], [139.29208, 36.16388], [139.28983, 36.165], [139.2895, 36.16516], [139.28822, 36.16581], [139.28665, 36.16659], [139.2846, 36.1676], [139.28338, 36.1682], [139.28146, 36.16915], [139.28002, 36.16983], [139.27979, 36.16993], [139.27798, 36.17079], [139.27787, 36.17085], [139.27649, 36.17152], [139.27446, 36.17247], [139.27241, 36.17346], [139.27019, 36.17454], [139.26889, 36.17517], [139.26845, 36.17539], [139.26651, 36.17633], [139.26536, 36.17688], [139.26277, 36.17815], [139.26159, 36.17873], [139.25894, 36.18002], [139.2588, 36.18009], [139.25644, 36.18125], [139.25492, 36.18199], [139.25277, 36.18304], [139.24969, 36.18456], [139.24945, 36.18468], [139.24679, 36.186], [139.24612, 36.18635], [139.2452, 36.18679], [139.24461, 36.18707], [139.24386, 36.18744], [139.24334, 36.1877], [139.24303, 36.18785], [139.24242, 36.18815], [139.242, 36.18835], [139.24171, 36.18849], [139.24109, 36.18879], [139.24002, 36.1893], [139.23933, 36.18964], [139.23874, 36.18992], [139.23811, 36.19023], [139.23749, 36.19054], [139.23634, 36.19109], [139.23549, 36.19151], [139.2351, 36.1917], [139.23457, 36.19196], [139.23383, 36.19232], [139.23272, 36.19286], [139.23159, 36.19341], [139.23021, 36.19408], [139.22876, 36.1948], [139.22792, 36.19521], [139.2271, 36.1956], [139.2254, 36.19644], [139.22438, 36.19692], [139.22432, 36.19695], [139.22356, 36.19732], [139.22173, 36.19821], [139.22052, 36.19879], [139.21921, 36.19945], [139.21762, 36.20022], [139.21606, 36.20098], [139.21481, 36.20158], [139.21439, 36.20178], [139.21318, 36.20239], [139.21201, 36.20295], [139.21138, 36.20326], [139.21078, 36.20356], [139.20972, 36.20407], [139.20888, 36.20447], [139.20812, 36.20484], [139.20739, 36.2052], [139.20664, 36.20557], [139.20609, 36.20584], [139.20558, 36.2061], [139.20531, 36.20623], [139.20485, 36.20645], [139.20409, 36.20683], [139.20335, 36.2072], [139.20247, 36.20763], [139.2017, 36.20799], [139.20095, 36.20835], [139.20014, 36.20875], [139.19975, 36.20894], [139.19884, 36.20938], [139.19828, 36.20966], [139.19773, 36.20993], [139.19697, 36.2103], [139.19595, 36.21079], [139.1958, 36.21086], [139.19498, 36.21127], [139.19432, 36.21158], [139.19428, 36.2116], [139.19379, 36.21184], [139.19311, 36.21217], [139.19214, 36.21264], [139.19115, 36.21312], [139.1903, 36.21353], [139.18951, 36.21393], [139.18832, 36.2145], [139.18705, 36.21513], [139.18639, 36.21545], [139.18545, 36.2159], [139.18495, 36.21614], [139.18481, 36.21622], [139.18455, 36.21635], [139.18399, 36.21661], [139.18335, 36.21693], [139.18266, 36.21725], [139.18172, 36.21771], [139.18155, 36.21779]]}, "properties": {"id": "GEOM_TOKYO_2415", "route_id": "R_D6BC8A01", "route_name": null, "route_color": "#E65045", "route_text_color": null, "line_name": "上越新幹線", "operator_id": "jr_east", "representation": "service_path", "min_zoom": 0, "max_zoom": 24, "offset_rank": 0}}, {"type": "Feature", "bbox": [139.3739, 36.37456, 139.37495, 36.37542], "geometry": {"type": "LineString", "coordinates": [[139.37495, 36.37456], [139.3739, 36.37542]]}, "properties": {"id": "GEOM_TOKYO_3886", "route_id": "R_5032FAD9", "route_name": null, "route_color": "#E49F00", "route_text_color": null, "line_name": "両毛線", "operator_id": "jr_east", "representation": "service_path", "min_zoom": 0, "max_zoom": 24, "offset_rank": 0}}, {"type": "Feature", "bbox": [139.45555, 36.33164, 139.45715, 36.3321], "geometry": {"type": "LineString", "coordinates": [[139.45715, 36.33164], [139.45555, 36.3321]]}, "properties": {"id": "GEOM_TOKYO_3898", "route_id": "R_5032FAD9", "route_name": null, "route_color": "#E49F00", "route_text_color": null, "line_name": "両毛線", "operator_id": "jr_east", "representation": "service_path", "min_zoom": 0, "max_zoom": 24, "offset_rank": 0}}, {"type": "Feature", "bbox": [139.52788, 36.31617, 139.5297, 36.31619], "geometry": {"type": "LineString", "coordinates": [[139.5297, 36.31617], [139.52788, 36.31619]]}, "properties": {"id": "GEOM_TOKYO_3899", "route_id": "R_5032FAD9", "route_name": null, "route_color": "#E49F00", "route_text_color": null, "line_name": "両毛線", "operator_id": "jr_east", "representation": "service_path", "min_zoom": 0, "max_zoom": 24, "offset_rank": 0}}, {"type": "Feature", "bbox": [139.37495, 36.34779, 139.41069, 36.37456], "geometry": {"type": "LineString", "coordinates": [[139.41069, 36.34779], [139.4093, 36.34875], [139.4073, 36.35016], [139.40421, 36.35233], [139.40122, 36.35443], [139.40092, 36.35465], [139.3987, 36.35622], [139.39576, 36.3583], [139.39295, 36.36031], [139.39257, 36.36058], [139.39241, 36.36069], [139.39221, 36.36083], [139.39102, 36.36169], [139.39027, 36.36223], [139.38828, 36.3638], [139.38603, 36.3656], [139.38567, 36.36589], [139.38313, 36.36793], [139.37993, 36.3705], [139.37816, 36.37195], [139.37777, 36.37226], [139.37495, 36.37456]]}, "properties": {"id": "GEOM_TOKYO_3900", "route_id": "R_5032FAD9", "route_name": null, "route_color": "#E49F00", "route_text_color": null, "line_name": "両毛線", "operator_id": "jr_east", "representation": "service_path", "min_zoom": 0, "max_zoom": 24, "offset_rank": 0}}, {"type": "Feature", "bbox": [139.41185, 36.3321, 139.45555, 36.34699], "geometry": {"type": "LineString", "coordinates": [[139.45555, 36.3321], [139.45544, 36.33213], [139.45379, 36.33263], [139.45368, 36.33266], [139.45353, 36.33271], [139.45257, 36.33298], [139.45218, 36.3331], [139.45203, 36.33314], [139.4518, 36.3332], [139.45151, 36.3333], [139.45005, 36.33372], [139.44985, 36.33378], [139.4496, 36.33385], [139.44891, 36.33405], [139.44872, 36.33412], [139.44864, 36.33413], [139.44796, 36.33433], [139.4479, 36.33435], [139.44708, 36.33458], [139.44685, 36.33465], [139.44663, 36.33472], [139.44628, 36.33483], [139.4452, 36.33513], [139.4443, 36.33537], [139.44375, 36.33547], [139.44352, 36.33551], [139.4432, 36.33554], [139.44289, 36.33558], [139.44247, 36.33562], [139.44199, 36.33565], [139.44119, 36.3357], [139.44018, 36.33571], [139.43971, 36.33569], [139.43934, 36.33565], [139.43909, 36.33562], [139.43896, 36.33561], [139.43885, 36.3356], [139.43838, 36.33556], [139.43833, 36.33555], [139.43769, 36.33548], [139.43735, 36.33545], [139.43723, 36.33544], [139.4371, 36.33542], [139.43623, 36.33531], [139.43523, 36.3352], [139.43468, 36.33514], [139.43431, 36.33512], [139.4339, 36.33512], [139.43368, 36.33514], [139.43327, 36.33522], [139.43281, 36.33534], [139.4325, 36.33545], [139.43241, 36.33549], [139.43232, 36.33553], [139.43218, 36.33561], [139.43203, 36.3357], [139.43166, 36.33595], [139.43156, 36.33601], [139.43128, 36.33623], [139.43117, 36.3363], [139.431, 36.33642], [139.43093, 36.33648], [139.43049, 36.33684], [139.43007, 36.33719], [139.4285, 36.3385], [139.42652, 36.34008], [139.42582, 36.34062], [139.42545, 36.34086], [139.42476, 36.34128], [139.42444, 36.34144], [139.42408, 36.34159], [139.42131, 36.3425], [139.42032, 36.34282], [139.41721, 36.34386], [139.41605, 36.34426], [139.41562, 36.34444], [139.41514, 36.34469], [139.41471, 36.34496], [139.41382, 36.34559], [139.41185, 36.34699]]}, "properties": {"id": "GEOM_TOKYO_3901", "route_id": "R_5032FAD9", "route_name": null, "route_color": "#E49F00", "route_text_color": null, "line_name": "両毛線", "operator_id": "jr_east", "representation": "service_path", "min_zoom": 0, "max_zoom": 24, "offset_rank": 0}}, {"type": "Feature", "bbox": [139.5297, 36.31593, 139.57739, 36.31653], "geometry": {"type": "LineString", "coordinates": [[139.57739, 36.31653], [139.576, 36.31651], [139.57451, 36.31647], [139.57111, 36.31634], [139.56963, 36.31628], [139.56888, 36.31626], [139.56791, 36.31624], [139.56656, 36.3162], [139.56539, 36.31616], [139.56495, 36.31615], [139.56443, 36.31614], [139.56229, 36.31607], [139.56031, 36.31601], [139.55826, 36.31596], [139.55685, 36.31594], [139.55583, 36.31593], [139.55548, 36.31594], [139.55474, 36.31593], [139.55417, 36.31593], [139.55265, 36.31595], [139.5504, 36.31598], [139.54788, 36.31601], [139.54558, 36.31603], [139.54322, 36.31604], [139.54308, 36.31605], [139.5426, 36.31605], [139.54238, 36.31605], [139.54144, 36.31607], [139.54027, 36.31608], [139.53996, 36.31609], [139.53834, 36.31609], [139.53597, 36.31612], [139.53435, 36.31615], [139.53328, 36.31617], [139.53293, 36.31618], [139.53069, 36.31618], [139.5297, 36.31617]]}, "properties": {"id": "GEOM_TOKYO_3902", "route_id": "R_5032FAD9", "route_name": null, "route_color": "#E49F00", "route_text_color": null, "line_name": "両毛線", "operator_id": "jr_east", "representation": "service_path", "min_zoom": 0, "max_zoom": 24, "offset_rank": 0}}, {"type": "Feature", "bbox": [139.41069, 36.34699, 139.41185, 36.34779], "geometry": {"type": "LineString", "coordinates": [[139.41185, 36.34699], [139.41069, 36.34779]]}, "properties": {"id": "GEOM_TOKYO_3904", "route_id": "R_5032FAD9", "route_name": null, "route_color": "#E49F00", "route_text_color": null, "line_name": "両毛線", "operator_id": "jr_east", "representation": "service_path", "min_zoom": 0, "max_zoom": 24, "offset_rank": 0}}, {"type": "Feature", "bbox": [139.45715, 36.3131, 139.51830025178, 36.33164], "geometry": {"type": "LineString", "coordinates": [[139.45715, 36.33164], [139.45722, 36.33163], [139.45741, 36.33158], [139.45869, 36.33123], [139.4598, 36.33094], [139.46012, 36.33084], [139.46187, 36.33035], [139.46214, 36.33028], [139.4628, 36.33009], [139.46284, 36.33008], [139.46289, 36.33007], [139.46304, 36.33002], [139.4631, 36.33], [139.46382, 36.3298], [139.46386, 36.32978], [139.46399, 36.32974], [139.46629, 36.32906], [139.46656, 36.32897], [139.46746, 36.32871], [139.46794, 36.32858], [139.46908, 36.32825], [139.4697, 36.32808], [139.47049, 36.32785], [139.47055, 36.32784], [139.47102, 36.3277], [139.47122, 36.32765], [139.47135, 36.3276], [139.47249, 36.32729], [139.47258, 36.32726], [139.47284, 36.32719], [139.47338, 36.32704], [139.47374, 36.32695], [139.47402, 36.32686], [139.47456, 36.3267], [139.47491, 36.3266], [139.47519, 36.32652], [139.47543, 36.32646], [139.47592, 36.3263], [139.47596, 36.32629], [139.47627, 36.32619], [139.47707, 36.32588], [139.47719, 36.32584], [139.47739, 36.32577], [139.47793, 36.32556], [139.47805, 36.32552], [139.47828, 36.32543], [139.47886, 36.32517], [139.47937, 36.32492], [139.48029, 36.32434], [139.48133, 36.32368], [139.48147, 36.32359], [139.48151, 36.32357], [139.48168, 36.32345], [139.48179, 36.32339], [139.48208, 36.3232], [139.48224, 36.3231], [139.48225, 36.32309], [139.48268, 36.32281], [139.48331, 36.3224], [139.4835, 36.32227], [139.4838, 36.32208], [139.48418, 36.32185], [139.48423, 36.32183], [139.48457, 36.32159], [139.48475, 36.32149], [139.48588, 36.32077], [139.48594, 36.32072], [139.48635, 36.32047], [139.48713, 36.31997], [139.48806, 36.31939], [139.489, 36.3188], [139.4898, 36.31835], [139.4907, 36.31795], [139.4908, 36.31791], [139.49101, 36.31782], [139.49196, 36.31739], [139.4936, 36.31668], [139.49445, 36.31631], [139.49474, 36.31617], [139.49565, 36.31576], [139.49586, 36.31567], [139.49629, 36.31548], [139.49677, 36.31528], [139.49767, 36.3149], [139.49928, 36.31421], [139.5002, 36.31382], [139.5007, 36.31361], [139.50096, 36.31351], [139.50125, 36.31338], [139.50171, 36.31323], [139.50197, 36.31315], [139.50219, 36.31312], [139.50252, 36.3131], [139.50276, 36.3131], [139.50328, 36.31313], [139.50446, 36.31327], [139.50518, 36.31335], [139.50576, 36.31345], [139.50598, 36.31348], [139.50776, 36.31372], [139.50819, 36.31377], [139.50852, 36.31382], [139.51002, 36.31403], [139.5117, 36.31425], [139.5131, 36.31445], [139.51449, 36.31462], [139.51643, 36.31489], [139.51777, 36.31508], [139.51830025178, 36.3151462814725]]}, "properties": {"id": "GEOM_TOKYO_3905", "route_id": "R_5032FAD9", "route_name": null, "route_color": "#E49F00", "route_text_color": null, "line_name": "両毛線", "operator_id": "jr_east", "representation": "service_path", "min_zoom": 0, "max_zoom": 24, "offset_rank": 0}}, {"type": "Feature", "bbox": [139.24345, 36.35978, 139.29614, 36.39528], "geometry": {"type": "LineString", "coordinates": [[139.29614, 36.39528], [139.29586, 36.39509], [139.29536, 36.39475], [139.29516, 36.39462], [139.29464, 36.39428], [139.29437, 36.39412], [139.29393, 36.39383], [139.29342, 36.39351], [139.29312, 36.39333], [139.29288, 36.39317], [139.29268, 36.39304], [139.29237, 36.39283], [139.29176, 36.39244], [139.29132, 36.39217], [139.29078, 36.39181], [139.28996, 36.3913], [139.28954, 36.39102], [139.28897, 36.39066], [139.28855, 36.39039], [139.28797, 36.39001], [139.28751, 36.38972], [139.28696, 36.38937], [139.28672, 36.38921], [139.28638, 36.38899], [139.28594, 36.38871], [139.28543, 36.38838], [139.28485, 36.38802], [139.28456, 36.38782], [139.28418, 36.38758], [139.28402, 36.38747], [139.2836, 36.38721], [139.28307, 36.38687], [139.28279, 36.38668], [139.28224, 36.38634], [139.28176, 36.38603], [139.28142, 36.38581], [139.28102, 36.38556], [139.2804, 36.38515], [139.27995, 36.38487], [139.27958, 36.38462], [139.27886, 36.38416], [139.27847, 36.38391], [139.27815, 36.3837], [139.27748, 36.38327], [139.27709, 36.38302], [139.27661, 36.38272], [139.27606, 36.38237], [139.27549, 36.382], [139.27548, 36.38199], [139.27506, 36.38173], [139.27475, 36.38153], [139.27439, 36.3813], [139.27389, 36.38097], [139.27368, 36.38084], [139.27336, 36.38063], [139.27279, 36.38027], [139.27242, 36.38002], [139.2719, 36.3797], [139.27145, 36.3794], [139.27118, 36.37923], [139.2707, 36.37891], [139.27019, 36.37859], [139.26964, 36.37824], [139.26932, 36.37804], [139.26899, 36.37782], [139.26833, 36.3774], [139.26798, 36.37717], [139.26747, 36.37685], [139.26708, 36.3766], [139.26678, 36.37641], [139.26626, 36.37607], [139.26578, 36.37576], [139.26506, 36.3753], [139.2648, 36.37514], [139.26475, 36.37511], [139.26447, 36.37492], [139.26408, 36.37466], [139.26349, 36.37429], [139.26308, 36.37402], [139.26273, 36.3738], [139.26222, 36.37347], [139.26199, 36.37333], [139.26153, 36.37304], [139.26051, 36.37238], [139.25999, 36.37206], [139.25941, 36.37167], [139.25905, 36.37143], [139.25852, 36.37109], [139.25817, 36.37087], [139.25772, 36.37059], [139.25727, 36.37031], [139.25695, 36.37008], [139.25652, 36.36981], [139.25629, 36.36967], [139.2561, 36.36955], [139.25593, 36.36944], [139.25553, 36.36918], [139.25502, 36.36885], [139.25474, 36.36868], [139.25455, 36.36856], [139.25419, 36.36832], [139.25381, 36.36808], [139.25356, 36.3679], [139.25335, 36.36776], [139.25315, 36.36761], [139.25295, 36.36744], [139.25266, 36.36721], [139.25236, 36.36698], [139.25208, 36.36674], [139.25166, 36.36639], [139.25128, 36.36609], [139.25087, 36.36575], [139.25061, 36.36553], [139.25034, 36.36534], [139.25007, 36.36511], [139.24982, 36.36491], [139.24961, 36.36473], [139.24932, 36.3645], [139.24907, 36.36431], [139.2487, 36.36401], [139.24826, 36.36367], [139.24778, 36.36324], [139.24734, 36.36287], [139.24705, 36.36262], [139.24679, 36.36242], [139.24563, 36.3615], [139.24345, 36.35978]]}, "properties": {"id": "GEOM_TOKYO_3907", "route_id": "R_5032FAD9", "route_name": null, "route_color": "#E49F00", "route_text_color": null, "line_name": "両毛線", "operator_id": "jr_east", "representation": "service_path", "min_zoom": 0, "max_zoom": 24, "offset_rank": 0}}, {"type": "Feature", "bbox": [139.33387, 36.37542, 139.3739, 36.41082], "geometry": {"type": "LineString", "coordinates": [[139.3739, 36.37542], [139.37265, 36.37641], [139.37178, 36.3771], [139.37168, 36.3772], [139.37151, 36.37733], [139.37131, 36.37751], [139.37069, 36.37799], [139.37045, 36.37819], [139.36983, 36.37869], [139.36951, 36.37893], [139.36914, 36.37922], [139.36872, 36.37956], [139.36849, 36.37974], [139.36829, 36.3799], [139.36809, 36.38003], [139.36789, 36.38012], [139.36765, 36.38021], [139.36722, 36.38036], [139.3669, 36.38046], [139.36675, 36.3805], [139.36656, 36.38054], [139.36624, 36.38061], [139.36613, 36.38063], [139.36566, 36.38074], [139.3652, 36.38084], [139.36505, 36.38087], [139.36488, 36.38092], [139.36458, 36.381], [139.36431, 36.38108], [139.36405, 36.38117], [139.36385, 36.38126], [139.36361, 36.3814], [139.36344, 36.38153], [139.36322, 36.38169], [139.3629, 36.38197], [139.36255, 36.38223], [139.36218, 36.38253], [139.36175, 36.38286], [139.36146, 36.38311], [139.36097, 36.38349], [139.36064, 36.38377], [139.36027, 36.38406], [139.35987, 36.38438], [139.3594, 36.38475], [139.35896, 36.38511], [139.3584, 36.38556], [139.35797, 36.38591], [139.3575, 36.38628], [139.35717, 36.38656], [139.35674, 36.3869], [139.35644, 36.38714], [139.3558, 36.38767], [139.35535, 36.38802], [139.35489, 36.3884], [139.35455, 36.38867], [139.35424, 36.38892], [139.35374, 36.38934], [139.35335, 36.38964], [139.35279, 36.39012], [139.35213, 36.39065], [139.35182, 36.39091], [139.35155, 36.39112], [139.35127, 36.39135], [139.35094, 36.39162], [139.35042, 36.39203], [139.35015, 36.39225], [139.34975, 36.39258], [139.34931, 36.39294], [139.34892, 36.39325], [139.34851, 36.3936], [139.34818, 36.39386], [139.34765, 36.39428], [139.34692, 36.39486], [139.34655, 36.39514], [139.34623, 36.39538], [139.34589, 36.39566], [139.34547, 36.39602], [139.34521, 36.39628], [139.34499, 36.39653], [139.34479, 36.39679], [139.34462, 36.39708], [139.34443, 36.39744], [139.34427, 36.39781], [139.34408, 36.39827], [139.34385, 36.39889], [139.3437, 36.39929], [139.34359, 36.39963], [139.3435, 36.39992], [139.3433, 36.40058], [139.34315, 36.40109], [139.34302, 36.4015], [139.34292, 36.40185], [139.3428, 36.40229], [139.34262, 36.40291], [139.34245, 36.40348], [139.34233, 36.40394], [139.3422, 36.40438], [139.34206, 36.40484], [139.34198, 36.40506], [139.34196, 36.40511], [139.34184, 36.40548], [139.34161, 36.40603], [139.34144, 36.40634], [139.34126, 36.40663], [139.34104, 36.40691], [139.34068, 36.40732], [139.34042, 36.40759], [139.34014, 36.40783], [139.33996, 36.40797], [139.3396, 36.40821], [139.33928, 36.40841], [139.33888, 36.40863], [139.33858, 36.40878], [139.33832, 36.40889], [139.33793, 36.40906], [139.33732, 36.40932], [139.33661, 36.40963], [139.33612, 36.40983], [139.33564, 36.41003], [139.33518, 36.41023], [139.33488, 36.41036], [139.33443, 36.41057], [139.33392, 36.4108], [139.33387, 36.41082]]}, "properties": {"id": "GEOM_TOKYO_3916", "route_id": "R_5032FAD9", "route_name": null, "route_color": "#E49F00", "route_text_color": null, "line_name": "両毛線", "operator_id": "jr_east", "representation": "service_path", "min_zoom": 0, "max_zoom": 24, "offset_rank": 0}}, {"type": "Feature", "bbox": [139.31844, 36.40977, 139.33257, 36.41349], "geometry": {"type": "LineString", "coordinates": [[139.33257, 36.41141], [139.33216, 36.41161], [139.33178, 36.41179], [139.3314, 36.41196], [139.33092, 36.41218], [139.33041, 36.41243], [139.33001, 36.41261], [139.32956, 36.4128], [139.32918, 36.41298], [139.32897, 36.41307], [139.32868, 36.41318], [139.32821, 36.4133], [139.32782, 36.4134], [139.32744, 36.41347], [139.3273, 36.41348], [139.32721, 36.41348], [139.32673, 36.41348], [139.32649, 36.41349], [139.32619, 36.41348], [139.32593, 36.41346], [139.32551, 36.41342], [139.32523, 36.41339], [139.32497, 36.41335], [139.32482, 36.41331], [139.32442, 36.41319], [139.32423, 36.41316], [139.32403, 36.41311], [139.32383, 36.41305], [139.32368, 36.413], [139.32348, 36.41292], [139.32321, 36.4128], [139.32302, 36.4127], [139.32272, 36.41256], [139.32256, 36.41247], [139.3223, 36.41233], [139.32198, 36.41215], [139.32179, 36.41203], [139.32148, 36.41184], [139.32129, 36.4117], [139.321, 36.4115], [139.32053, 36.4112], [139.32036, 36.41108], [139.32022, 36.41098], [139.31987, 36.41074], [139.31961, 36.41057], [139.3194, 36.41042], [139.31926, 36.41033], [139.31901, 36.41016], [139.31867, 36.40993], [139.31844, 36.40977]]}, "properties": {"id": "GEOM_TOKYO_3921", "route_id": "R_5032FAD9", "route_name": null, "route_color": "#E49F00", "route_text_color": null, "line_name": "両毛線", "operator_id": "jr_east", "representation": "service_path", "min_zoom": 0, "max_zoom": 24, "offset_rank": 0}}, {"type": "Feature", "bbox": [139.29809, 36.3965, 139.31844, 36.40977], "geometry": {"type": "LineString", "coordinates": [[139.31844, 36.40977], [139.31826, 36.40965], [139.31808, 36.40952], [139.31743, 36.40908], [139.31712, 36.40888], [139.3165, 36.40846], [139.3162, 36.40826], [139.31559, 36.40786], [139.31506, 36.40751], [139.31483, 36.40736], [139.31461, 36.40723], [139.31452, 36.40717], [139.31424, 36.40699], [139.31367, 36.40662], [139.3134, 36.40643], [139.31313, 36.40625], [139.31272, 36.40598], [139.31228, 36.40568], [139.31186, 36.40541], [139.31144, 36.40513], [139.31086, 36.40475], [139.31029, 36.4044], [139.30989, 36.40413], [139.30945, 36.40386], [139.30895, 36.40354], [139.30869, 36.40336], [139.30841, 36.40317], [139.30795, 36.40287], [139.30745, 36.40256], [139.30719, 36.40239], [139.30631, 36.40183], [139.30606, 36.40166], [139.30598, 36.4016], [139.3054, 36.40122], [139.30507, 36.40102], [139.30474, 36.40081], [139.30409, 36.40038], [139.3038, 36.40018], [139.30343, 36.39995], [139.3029, 36.39962], [139.30244, 36.39932], [139.30177, 36.39889], [139.30131, 36.39859], [139.30079, 36.39826], [139.30016, 36.39786], [139.29971, 36.39756], [139.29919, 36.39724], [139.29874, 36.39693], [139.29809, 36.3965]]}, "properties": {"id": "GEOM_TOKYO_3922", "route_id": "R_5032FAD9", "route_name": null, "route_color": "#E49F00", "route_text_color": null, "line_name": "両毛線", "operator_id": "jr_east", "representation": "service_path", "min_zoom": 0, "max_zoom": 24, "offset_rank": 0}}, {"type": "Feature", "bbox": [139.29614, 36.39528, 139.29809, 36.3965], "geometry": {"type": "LineString", "coordinates": [[139.29809, 36.3965], [139.29763, 36.39622], [139.29718, 36.39593], [139.29671, 36.39562], [139.29614, 36.39528]]}, "properties": {"id": "GEOM_TOKYO_3923", "route_id": "R_5032FAD9", "route_name": null, "route_color": "#E49F00", "route_text_color": null, "line_name": "両毛線", "operator_id": "jr_east", "representation": "service_path", "min_zoom": 0, "max_zoom": 24, "offset_rank": 0}}, {"type": "Feature", "bbox": [139.33257, 36.41082, 139.33387, 36.41141], "geometry": {"type": "LineString", "coordinates": [[139.33387, 36.41082], [139.33377, 36.41086], [139.33339, 36.41103], [139.33315, 36.41114], [139.33277, 36.41132], [139.33257, 36.41141]]}, "properties": {"id": "GEOM_TOKYO_3924", "route_id": "R_5032FAD9", "route_name": null, "route_color": "#E49F00", "route_text_color": null, "line_name": "両毛線", "operator_id": "jr_east", "representation": "service_path", "min_zoom": 0, "max_zoom": 24, "offset_rank": 0}}, {"type": "Feature", "bbox": [139.5276, 36.24573, 139.52802, 36.24746], "geometry": {"type": "LineString", "coordinates": [[139.52802, 36.24573], [139.52787, 36.24638], [139.52773, 36.24689], [139.5276, 36.24746]]}, "properties": {"id": "GEOM_TOKYO_3951", "route_id": "R_7581302C", "route_name": "伊勢崎線", "route_color": "#1F78FF", "route_text_color": "#ffffff", "line_name": "伊勢崎線", "operator_id": "tobu", "representation": "service_path", "min_zoom": 0, "max_zoom": 24, "offset_rank": 0}}, {"type": "Feature", "bbox": [139.52341, 36.24996, 139.5257, 36.2526], "geometry": {"type": "LineString", "coordinates": [[139.5257, 36.24996], [139.52564, 36.25004], [139.5254, 36.2503], [139.52503, 36.25073], [139.52445, 36.25138], [139.52382, 36.2521], [139.52359, 36.25235], [139.52341, 36.2526]]}, "properties": {"id": "GEOM_TOKYO_3952", "route_id": "R_7581302C", "route_name": "伊勢崎線", "route_color": "#1F78FF", "route_text_color": "#ffffff", "line_name": "伊勢崎線", "operator_id": "tobu", "representation": "service_path", "min_zoom": 0, "max_zoom": 24, "offset_rank": 0}}, {"type": "Feature", "bbox": [139.5257, 36.24746, 139.5276, 36.24996], "geometry": {"type": "LineString", "coordinates": [[139.5276, 36.24746], [139.52749, 36.24776], [139.52731, 36.24804], [139.52723, 36.24817], [139.52693, 36.24855], [139.52654, 36.24903], [139.5257, 36.24996]]}, "properties": {"id": "GEOM_TOKYO_3953", "route_id": "R_7581302C", "route_name": "伊勢崎線", "route_color": "#1F78FF", "route_text_color": "#ffffff", "line_name": "伊勢崎線", "operator_id": "tobu", "representation": "service_path", "min_zoom": 0, "max_zoom": 24, "offset_rank": 0}}, {"type": "Feature", "bbox": [139.45845, 36.30469, 139.45889, 36.30572], "geometry": {"type": "LineString", "coordinates": [[139.45845, 36.30572], [139.45889, 36.30469]]}, "properties": {"id": "GEOM_TOKYO_3954", "route_id": "R_7581302C", "route_name": "伊勢崎線", "route_color": "#1F78FF", "route_text_color": "#ffffff", "line_name": "伊勢崎線", "operator_id": "tobu", "representation": "service_path", "min_zoom": 0, "max_zoom": 24, "offset_rank": 0}}, {"type": "Feature", "bbox": [139.38008, 36.29397, 139.40177, 36.30776], "geometry": {"type": "LineString", "coordinates": [[139.40177, 36.30776], [139.40134, 36.30749], [139.40127, 36.30746], [139.40123, 36.30743], [139.40115, 36.30738], [139.40113, 36.30737], [139.4011, 36.30736], [139.40092, 36.30724], [139.40087, 36.30721], [139.40048, 36.30697], [139.40009, 36.30674], [139.40002, 36.30669], [139.39998, 36.30667], [139.39987, 36.30658], [139.39966, 36.30646], [139.39937, 36.30628], [139.39931, 36.30623], [139.39924, 36.30619], [139.39922, 36.30617], [139.39916, 36.30613], [139.39886, 36.30591], [139.39838, 36.30553], [139.39811, 36.30529], [139.39811, 36.30528], [139.39747, 36.30469], [139.39704, 36.30428], [139.39683, 36.30409], [139.3968, 36.30406], [139.39671, 36.30398], [139.39629, 36.30358], [139.39533, 36.30271], [139.39492, 36.30233], [139.39485, 36.30226], [139.39445, 36.30189], [139.39396, 36.30143], [139.39387, 36.30135], [139.39374, 36.30123], [139.39326, 36.30079], [139.39302, 36.30059], [139.39295, 36.30051], [139.39269, 36.30028], [139.39246, 36.30005], [139.39217, 36.2998], [139.39189, 36.29954], [139.39161, 36.29927], [139.39139, 36.29909], [139.39127, 36.29896], [139.39096, 36.29868], [139.39074, 36.29847], [139.38995, 36.29774], [139.3895, 36.29733], [139.38935, 36.29719], [139.38906, 36.29692], [139.38857, 36.29647], [139.38846, 36.29637], [139.38825, 36.29617], [139.38725, 36.29523], [139.387, 36.29499], [139.38694, 36.29494], [139.38686, 36.29488], [139.38677, 36.29481], [139.38657, 36.29468], [139.38643, 36.29458], [139.38634, 36.29452], [139.38603, 36.29437], [139.38574, 36.29425], [139.3855, 36.29417], [139.38518, 36.29409], [139.38479, 36.29402], [139.38469, 36.29401], [139.38458, 36.29399], [139.38443, 36.29399], [139.38419, 36.29397], [139.38393, 36.29397], [139.3835, 36.29397], [139.3828, 36.29398], [139.38172, 36.29401], [139.38008, 36.2941]]}, "properties": {"id": "GEOM_TOKYO_3955", "route_id": "R_7581302C", "route_name": "伊勢崎線", "route_color": "#1F78FF", "route_text_color": "#ffffff", "line_name": "伊勢崎線", "operator_id": "tobu", "representation": "service_path", "min_zoom": 0, "max_zoom": 24, "offset_rank": 0}}, {"type": "Feature", "bbox": [139.52702, 36.22572, 139.52707, 36.22698], "geometry": {"type": "LineString", "coordinates": [[139.52702, 36.22572], [139.52707, 36.22698]]}, "properties": {"id": "GEOM_TOKYO_3956", "route_id": "R_7581302C", "route_name": "伊勢崎線", "route_color": "#1F78FF", "route_text_color": "#ffffff", "line_name": "伊勢崎線", "operator_id": "tobu", "representation": "service_path", "min_zoom": 0, "max_zoom": 24, "offset_rank": 0}}, {"type": "Feature", "bbox": [139.47172, 36.29024, 139.473, 36.29101], "geometry": {"type": "LineString", "coordinates": [[139.473, 36.29024], [139.47172, 36.29101]]}, "properties": {"id": "GEOM_TOKYO_3957", "route_id": "R_7581302C", "route_name": "伊勢崎線", "route_color": "#1F78FF", "route_text_color": "#ffffff", "line_name": "伊勢崎線", "operator_id": "tobu", "representation": "service_path", "min_zoom": 0, "max_zoom": 24, "offset_rank": 0}}, {"type": "Feature", "bbox": [139.52653, 36.20954, 139.52702, 36.22572], "geometry": {"type": "LineString", "coordinates": [[139.52653, 36.20954], [139.52654, 36.21007], [139.52657, 36.21095], [139.52663, 36.21282], [139.52667, 36.21433], [139.52671, 36.21541], [139.52675, 36.21699], [139.52678, 36.21787], [139.52678, 36.21789], [139.52679, 36.21814], [139.5268, 36.21847], [139.52686, 36.22013], [139.52687, 36.22049], [139.52687, 36.22063], [139.52689, 36.22101], [139.52695, 36.22299], [139.52699, 36.22455], [139.52702, 36.22572]]}, "properties": {"id": "GEOM_TOKYO_3958", "route_id": "R_7581302C", "route_name": "伊勢崎線", "route_color": "#1F78FF", "route_text_color": "#ffffff", "line_name": "伊勢崎線", "operator_id": "tobu", "representation": "service_path", "min_zoom": 0, "max_zoom": 24, "offset_rank": 0}}, {"type": "Feature", "bbox": [139.52707, 36.22698, 139.5286, 36.24573], "geometry": {"type": "LineString", "coordinates": [[139.52707, 36.22698], [139.52708, 36.22725], [139.5271, 36.22784], [139.52711, 36.22821], [139.52716, 36.22988], [139.5272, 36.23083], [139.52725, 36.23247], [139.52727, 36.23303], [139.52731, 36.23429], [139.52733, 36.23476], [139.52736, 36.23576], [139.52738, 36.23668], [139.52739, 36.23686], [139.52741, 36.23743], [139.52745, 36.23792], [139.52751, 36.23828], [139.52763, 36.23872], [139.52775, 36.23906], [139.5279, 36.23958], [139.52815, 36.24042], [139.52833, 36.24098], [139.52845, 36.24144], [139.52855, 36.24197], [139.5286, 36.24234], [139.52859, 36.24281], [139.52858, 36.24314], [139.52854, 36.24336], [139.52846, 36.2438], [139.52832, 36.24439], [139.52817, 36.24513], [139.52802, 36.24573]]}, "properties": {"id": "GEOM_TOKYO_3960", "route_id": "R_7581302C", "route_name": "伊勢崎線", "route_color": "#1F78FF", "route_text_color": "#ffffff", "line_name": "伊勢崎線", "operator_id": "tobu", "representation": "service_path", "min_zoom": 0, "max_zoom": 24, "offset_rank": 0}}, {"type": "Feature", "bbox": [139.37226, 36.29431, 139.37779, 36.2947], "geometry": {"type": "LineString", "coordinates": [[139.37779, 36.29431], [139.37759, 36.29433], [139.37734, 36.29435], [139.37709, 36.29438], [139.37659, 36.29441], [139.37226, 36.2947]]}, "properties": {"id": "GEOM_TOKYO_3961", "route_id": "R_7581302C", "route_name": "伊勢崎線", "route_color": "#1F78FF", "route_text_color": "#ffffff", "line_name": "伊勢崎線", "operator_id": "tobu", "representation": "service_path", "min_zoom": 0, "max_zoom": 24, "offset_rank": 0}}, {"type": "Feature", "bbox": [139.4326, 36.32662, 139.44756, 36.33143], "geometry": {"type": "LineString", "coordinates": [[139.4326, 36.32662], [139.43274, 36.32671], [139.43316, 36.32695], [139.43355, 36.32718], [139.43366, 36.32724], [139.43397, 36.32742], [139.43436, 36.32765], [139.43441, 36.32768], [139.43538, 36.32823], [139.43624, 36.32875], [139.43733, 36.32938], [139.43738, 36.32941], [139.43804, 36.32977], [139.43868, 36.33004], [139.439, 36.33017], [139.43955, 36.33036], [139.4398, 36.33046], [139.44003, 36.33054], [139.44031, 36.33064], [139.44063, 36.33076], [139.44089, 36.33084], [139.44174, 36.33112], [139.44195, 36.33119], [139.44219, 36.33126], [139.44255, 36.33135], [139.44289, 36.3314], [139.44329, 36.33143], [139.44391, 36.33142], [139.44429, 36.33137], [139.44436, 36.33136], [139.44442, 36.33134], [139.44476, 36.33124], [139.4451, 36.33113], [139.44522, 36.33108], [139.44539, 36.33102], [139.44546, 36.33099], [139.44561, 36.33093], [139.44569, 36.33089], [139.44589, 36.3308], [139.44642, 36.33054], [139.44684, 36.33029], [139.44716, 36.3301], [139.44734, 36.32999], [139.44743, 36.32994], [139.44756, 36.32986]]}, "properties": {"id": "GEOM_TOKYO_3962", "route_id": "R_7581302C", "route_name": "伊勢崎線", "route_color": "#1F78FF", "route_text_color": "#ffffff", "line_name": "伊勢崎線", "operator_id": "tobu", "representation": "service_path", "min_zoom": 0, "max_zoom": 24, "offset_rank": 0}}, {"type": "Feature", "bbox": [139.45522, 36.30572, 139.45845, 36.31517], "geometry": {"type": "LineString", "coordinates": [[139.45845, 36.30572], [139.4584, 36.30585], [139.45821, 36.30635], [139.45805, 36.30681], [139.45785, 36.30728], [139.45773, 36.30759], [139.4575, 36.30815], [139.45744, 36.30828], [139.45741, 36.30837], [139.45738, 36.30849], [139.45725, 36.30883], [139.45717, 36.30904], [139.45673, 36.31019], [139.45669, 36.31028], [139.45666, 36.31038], [139.45662, 36.31047], [139.45652, 36.31071], [139.45639, 36.31104], [139.45638, 36.3111], [139.45634, 36.31119], [139.45623, 36.31149], [139.45611, 36.31181], [139.45607, 36.31192], [139.456, 36.31208], [139.45587, 36.31243], [139.45569, 36.31311], [139.45565, 36.31322], [139.45545, 36.31409], [139.45539, 36.31434], [139.45526, 36.31498], [139.45522, 36.31517]]}, "properties": {"id": "GEOM_TOKYO_3963", "route_id": "R_7581302C", "route_name": "伊勢崎線", "route_color": "#1F78FF", "route_text_color": "#ffffff", "line_name": "伊勢崎線", "operator_id": "tobu", "representation": "service_path", "min_zoom": 0, "max_zoom": 24, "offset_rank": 0}}, {"type": "Feature", "bbox": [139.40177, 36.30776, 139.40303, 36.30854], "geometry": {"type": "LineString", "coordinates": [[139.40303, 36.30854], [139.40295, 36.30849], [139.40264, 36.30831], [139.40217, 36.30802], [139.40177, 36.30776]]}, "properties": {"id": "GEOM_TOKYO_3964", "route_id": "R_7581302C", "route_name": "伊勢崎線", "route_color": "#1F78FF", "route_text_color": "#ffffff", "line_name": "伊勢崎線", "operator_id": "tobu", "representation": "service_path", "min_zoom": 0, "max_zoom": 24, "offset_rank": 0}}, {"type": "Feature", "bbox": [139.52619, 36.17113, 139.53377, 36.20823], "geometry": {"type": "LineString", "coordinates": [[139.53377, 36.17113], [139.53323, 36.17298], [139.53262, 36.17511], [139.5323, 36.17621], [139.5321, 36.1769], [139.53161, 36.17861], [139.5314, 36.1793], [139.53091, 36.18102], [139.53045, 36.1826], [139.52983, 36.18476], [139.52976, 36.18498], [139.52968, 36.18528], [139.52952, 36.18585], [139.52921, 36.18691], [139.52912, 36.18722], [139.52904, 36.1875], [139.52874, 36.1885], [139.52871, 36.18863], [139.5286, 36.18904], [139.52817, 36.19049], [139.52792, 36.19137], [139.52788, 36.19149], [139.52767, 36.19223], [139.52734, 36.19339], [139.52711, 36.19418], [139.52703, 36.19444], [139.52697, 36.19468], [139.52672, 36.19549], [139.5266, 36.19594], [139.52653, 36.19621], [139.52643, 36.19674], [139.52635, 36.19717], [139.52632, 36.19735], [139.52631, 36.19743], [139.52623, 36.19814], [139.5262, 36.19852], [139.52619, 36.19877], [139.52619, 36.1992], [139.52619, 36.19922], [139.52624, 36.20053], [139.52628, 36.20145], [139.52632, 36.20299], [139.5264, 36.20513], [139.52644, 36.20693], [139.52648, 36.20823]]}, "properties": {"id": "GEOM_TOKYO_3965", "route_id": "R_7581302C", "route_name": "伊勢崎線", "route_color": "#1F78FF", "route_text_color": "#ffffff", "line_name": "伊勢崎線", "operator_id": "tobu", "representation": "service_path", "min_zoom": 0, "max_zoom": 24, "offset_rank": 0}}, {"type": "Feature", "bbox": [139.45889, 36.29101, 139.47172, 36.30469], "geometry": {"type": "LineString", "coordinates": [[139.45889, 36.30469], [139.45895, 36.30451], [139.45911, 36.30407], [139.45917, 36.30392], [139.45921, 36.30379], [139.45924, 36.30371], [139.45946, 36.30312], [139.45948, 36.30308], [139.45972, 36.3024], [139.45983, 36.30211], [139.45991, 36.30192], [139.45994, 36.30181], [139.46031, 36.30082], [139.46047, 36.30045], [139.46054, 36.30028], [139.46093, 36.29967], [139.46097, 36.2996], [139.46144, 36.29888], [139.46147, 36.29883], [139.46167, 36.29854], [139.46191, 36.2982], [139.462, 36.29809], [139.46203, 36.29805], [139.46212, 36.29793], [139.46251, 36.29746], [139.46256, 36.29741], [139.46261, 36.29735], [139.46306, 36.29687], [139.4632, 36.29674], [139.46362, 36.29633], [139.46382, 36.29616], [139.46386, 36.29612], [139.46404, 36.29598], [139.46406, 36.29595], [139.46408, 36.29593], [139.46453, 36.29558], [139.46456, 36.29555], [139.46462, 36.29551], [139.46465, 36.29549], [139.46473, 36.29542], [139.46518, 36.29509], [139.46604, 36.2945], [139.4665, 36.29419], [139.46653, 36.29417], [139.46656, 36.29416], [139.46719, 36.29376], [139.46781, 36.29338], [139.46824, 36.29311], [139.46826, 36.2931], [139.46831, 36.29307], [139.46834, 36.29305], [139.46849, 36.29295], [139.46856, 36.29292], [139.46913, 36.29257], [139.47001, 36.29202], [139.47006, 36.292], [139.47041, 36.29178], [139.4705, 36.29173], [139.47095, 36.29146], [139.47132, 36.29123], [139.47167, 36.29103], [139.47172, 36.29101]]}, "properties": {"id": "GEOM_TOKYO_3966", "route_id": "R_7581302C", "route_name": "伊勢崎線", "route_color": "#1F78FF", "route_text_color": "#ffffff", "line_name": "伊勢崎線", "operator_id": "tobu", "representation": "service_path", "min_zoom": 0, "max_zoom": 24, "offset_rank": 0}}, {"type": "Feature", "bbox": [139.52648, 36.20823, 139.52653, 36.20954], "geometry": {"type": "LineString", "coordinates": [[139.52648, 36.20823], [139.52653, 36.20954]]}, "properties": {"id": "GEOM_TOKYO_3967", "route_id": "R_7581302C", "route_name": "伊勢崎線", "route_color": "#1F78FF", "route_text_color": "#ffffff", "line_name": "伊勢崎線", "operator_id": "tobu", "representation": "service_path", "min_zoom": 0, "max_zoom": 24, "offset_rank": 0}}, {"type": "Feature", "bbox": [139.49973, 36.27333, 139.50091, 36.27403], "geometry": {"type": "LineString", "coordinates": [[139.50091, 36.27333], [139.49973, 36.27403]]}, "properties": {"id": "GEOM_TOKYO_3971", "route_id": "R_7581302C", "route_name": "伊勢崎線", "route_color": "#1F78FF", "route_text_color": "#ffffff", "line_name": "伊勢崎線", "operator_id": "tobu", "representation": "service_path", "min_zoom": 0, "max_zoom": 24, "offset_rank": 0}}, {"type": "Feature", "bbox": [139.40303, 36.30854, 139.43142, 36.32595], "geometry": {"type": "LineString", "coordinates": [[139.40303, 36.30854], [139.40314, 36.30861], [139.40356, 36.30888], [139.40368, 36.30895], [139.40464, 36.30955], [139.40548, 36.31007], [139.40562, 36.31016], [139.40573, 36.31022], [139.40595, 36.31035], [139.40615, 36.31048], [139.40625, 36.31054], [139.40636, 36.31061], [139.40652, 36.31071], [139.40666, 36.3108], [139.40685, 36.31092], [139.40706, 36.31105], [139.40725, 36.31116], [139.40735, 36.31122], [139.40777, 36.31148], [139.40782, 36.31151], [139.40796, 36.31159], [139.40817, 36.31173], [139.40835, 36.31184], [139.40866, 36.31203], [139.40885, 36.31214], [139.40956, 36.31257], [139.40978, 36.31271], [139.40994, 36.3128], [139.41015, 36.31294], [139.4103, 36.31302], [139.4107, 36.31328], [139.41088, 36.31338], [139.41107, 36.3135], [139.41181, 36.31394], [139.41248, 36.31435], [139.4126, 36.31442], [139.41299, 36.31466], [139.41344, 36.31494], [139.41429, 36.31545], [139.41612, 36.31654], [139.41698, 36.31707], [139.41715, 36.31719], [139.41721, 36.31722], [139.41733, 36.31729], [139.41752, 36.3174], [139.41787, 36.31762], [139.41859, 36.31804], [139.41874, 36.31813], [139.41948, 36.31859], [139.4195, 36.3186], [139.42086, 36.31946], [139.422, 36.32017], [139.42233, 36.32038], [139.423, 36.3208], [139.4235, 36.3211], [139.42431, 36.32159], [139.42492, 36.32197], [139.42546, 36.3223], [139.42564, 36.32243], [139.42655, 36.32297], [139.42668, 36.32306], [139.4269, 36.3232], [139.42744, 36.32354], [139.42794, 36.32385], [139.42814, 36.32397], [139.4282, 36.32401], [139.4283, 36.32407], [139.42843, 36.32415], [139.42853, 36.32421], [139.42861, 36.32426], [139.42921, 36.32463], [139.43074, 36.32554], [139.43142, 36.32595]]}, "properties": {"id": "GEOM_TOKYO_3972", "route_id": "R_7581302C", "route_name": "伊勢崎線", "route_color": "#1F78FF", "route_text_color": "#ffffff", "line_name": "伊勢崎線", "operator_id": "tobu", "representation": "service_path", "min_zoom": 0, "max_zoom": 24, "offset_rank": 0}}, {"type": "Feature", "bbox": [139.44756, 36.32901, 139.4488, 36.32986], "geometry": {"type": "LineString", "coordinates": [[139.4488, 36.32901], [139.44756, 36.32986]]}, "properties": {"id": "GEOM_TOKYO_3974", "route_id": "R_7581302C", "route_name": "伊勢崎線", "route_color": "#1F78FF", "route_text_color": "#ffffff", "line_name": "伊勢崎線", "operator_id": "tobu", "representation": "service_path", "min_zoom": 0, "max_zoom": 24, "offset_rank": 0}}, {"type": "Feature", "bbox": [139.4488, 36.31614, 139.45496, 36.32901], "geometry": {"type": "LineString", "coordinates": [[139.4488, 36.32901], [139.4489, 36.32895], [139.44955, 36.3285], [139.45028, 36.32799], [139.45043, 36.32789], [139.45055, 36.3278], [139.45088, 36.32758], [139.45114, 36.32738], [139.45158, 36.32706], [139.45189, 36.32684], [139.45193, 36.32681], [139.45207, 36.32668], [139.45213, 36.32663], [139.45219, 36.32655], [139.4523, 36.3264], [139.45244, 36.32618], [139.45254, 36.32596], [139.45271, 36.32545], [139.45275, 36.32533], [139.45283, 36.32499], [139.453, 36.32428], [139.45304, 36.32414], [139.4532, 36.32348], [139.45341, 36.32262], [139.45347, 36.32235], [139.45353, 36.32212], [139.4537, 36.32137], [139.45374, 36.32115], [139.45384, 36.32078], [139.45386, 36.32072], [139.45388, 36.3206], [139.45421, 36.31931], [139.45428, 36.31905], [139.45433, 36.31883], [139.45435, 36.31881], [139.45441, 36.31853], [139.45449, 36.31823], [139.45452, 36.31812], [139.45459, 36.31787], [139.45462, 36.31774], [139.4547, 36.31741], [139.45488, 36.31649], [139.45496, 36.31614]]}, "properties": {"id": "GEOM_TOKYO_3975", "route_id": "R_7581302C", "route_name": "伊勢崎線", "route_color": "#1F78FF", "route_text_color": "#ffffff", "line_name": "伊勢崎線", "operator_id": "tobu", "representation": "service_path", "min_zoom": 0, "max_zoom": 24, "offset_rank": 0}}, {"type": "Feature", "bbox": [139.50091, 36.2526, 139.52341, 36.27333], "geometry": {"type": "LineString", "coordinates": [[139.52341, 36.2526], [139.52325, 36.25275], [139.52305, 36.25298], [139.52289, 36.25316], [139.52249, 36.25363], [139.52237, 36.25377], [139.52192, 36.2543], [139.52101, 36.25534], [139.52007, 36.25642], [139.51889, 36.25777], [139.51812, 36.25867], [139.51739, 36.25948], [139.51663, 36.26033], [139.51595, 36.26113], [139.51592, 36.26116], [139.51515, 36.26203], [139.51443, 36.26282], [139.51373, 36.26365], [139.51306, 36.26439], [139.51233, 36.26527], [139.51166, 36.26607], [139.51113, 36.26668], [139.51069, 36.26714], [139.51014, 36.26771], [139.50973, 36.26806], [139.50935, 36.26835], [139.50904, 36.26856], [139.50756, 36.26947], [139.50663, 36.26999], [139.50642, 36.27012], [139.50518, 36.27084], [139.50399, 36.27152], [139.50299, 36.27212], [139.50201, 36.27269], [139.50091, 36.27333]]}, "properties": {"id": "GEOM_TOKYO_3976", "route_id": "R_7581302C", "route_name": "伊勢崎線", "route_color": "#1F78FF", "route_text_color": "#ffffff", "line_name": "伊勢崎線", "operator_id": "tobu", "representation": "service_path", "min_zoom": 0, "max_zoom": 24, "offset_rank": 0}}, {"type": "Feature", "bbox": [139.473, 36.27403, 139.49973, 36.29024], "geometry": {"type": "LineString", "coordinates": [[139.49973, 36.27403], [139.49946, 36.27419], [139.49793, 36.27513], [139.49713, 36.27563], [139.49707, 36.27566], [139.49677, 36.27586], [139.49652, 36.27602], [139.4962, 36.27623], [139.49611, 36.2763], [139.49562, 36.27658], [139.49519, 36.27684], [139.49513, 36.27687], [139.49511, 36.27688], [139.49495, 36.27699], [139.49406, 36.27751], [139.49383, 36.27764], [139.49353, 36.27783], [139.49344, 36.27788], [139.49338, 36.27791], [139.49295, 36.27818], [139.4928, 36.27828], [139.4927, 36.27834], [139.4926, 36.2784], [139.49251, 36.27846], [139.49245, 36.27849], [139.49199, 36.27876], [139.49173, 36.27893], [139.49166, 36.27897], [139.49162, 36.27899], [139.49159, 36.27901], [139.49036, 36.27975], [139.48985, 36.28006], [139.48886, 36.28065], [139.48878, 36.28069], [139.48877, 36.28071], [139.48811, 36.2811], [139.48622, 36.28224], [139.48535, 36.28277], [139.48517, 36.28288], [139.48472, 36.28316], [139.48441, 36.28334], [139.48412, 36.28352], [139.484, 36.2836], [139.48371, 36.28377], [139.48347, 36.28392], [139.48306, 36.28415], [139.483, 36.28419], [139.48285, 36.28429], [139.48259, 36.28445], [139.48203, 36.28478], [139.48193, 36.28484], [139.4817, 36.28499], [139.48149, 36.28511], [139.48133, 36.28521], [139.48108, 36.28536], [139.48098, 36.28542], [139.48088, 36.28548], [139.47982, 36.28613], [139.47873, 36.28678], [139.47862, 36.28686], [139.47843, 36.28697], [139.47837, 36.287], [139.4783, 36.28704], [139.47825, 36.28708], [139.47799, 36.28724], [139.47754, 36.28751], [139.4774, 36.2876], [139.47698, 36.28786], [139.47664, 36.28806], [139.47629, 36.28827], [139.47607, 36.28841], [139.47586, 36.28853], [139.47576, 36.28859], [139.47488, 36.28913], [139.47457, 36.28931], [139.47451, 36.28934], [139.47441, 36.28941], [139.47319, 36.29014], [139.473, 36.29024]]}, "properties": {"id": "GEOM_TOKYO_3977", "route_id": "R_7581302C", "route_name": "伊勢崎線", "route_color": "#1F78FF", "route_text_color": "#ffffff", "line_name": "伊勢崎線", "operator_id": "tobu", "representation": "service_path", "min_zoom": 0, "max_zoom": 24, "offset_rank": 0}}, {"type": "Feature", "bbox": [139.37779, 36.2941, 139.38008, 36.29431], "geometry": {"type": "LineString", "coordinates": [[139.38008, 36.2941], [139.37931, 36.29416], [139.37883, 36.2942], [139.3785, 36.29422], [139.3781, 36.29427], [139.37779, 36.29431]]}, "properties": {"id": "GEOM_TOKYO_3980", "route_id": "R_7581302C", "route_name": "伊勢崎線", "route_color": "#1F78FF", "route_text_color": "#ffffff", "line_name": "伊勢崎線", "operator_id": "tobu", "representation": "service_path", "min_zoom": 0, "max_zoom": 24, "offset_rank": 0}}, {"type": "Feature", "bbox": [139.43142, 36.32595, 139.4326, 36.32662], "geometry": {"type": "LineString", "coordinates": [[139.4326, 36.32662], [139.43142, 36.32595]]}, "properties": {"id": "GEOM_TOKYO_3981", "route_id": "R_7581302C", "route_name": "伊勢崎線", "route_color": "#1F78FF", "route_text_color": "#ffffff", "line_name": "伊勢崎線", "operator_id": "tobu", "representation": "service_path", "min_zoom": 0, "max_zoom": 24, "offset_rank": 0}}, {"type": "Feature", "bbox": [139.45496, 36.31517, 139.45522, 36.31614], "geometry": {"type": "LineString", "coordinates": [[139.45496, 36.31614], [139.45522, 36.31517]]}, "properties": {"id": "GEOM_TOKYO_3983", "route_id": "R_7581302C", "route_name": "伊勢崎線", "route_color": "#1F78FF", "route_text_color": "#ffffff", "line_name": "伊勢崎線", "operator_id": "tobu", "representation": "service_path", "min_zoom": 0, "max_zoom": 24, "offset_rank": 0}}, {"type": "Feature", "bbox": [139.28287, 36.26966, 139.31224, 36.27279], "geometry": {"type": "LineString", "coordinates": [[139.31224, 36.27117], [139.31126, 36.27089], [139.31048, 36.27067], [139.30963, 36.27043], [139.30915, 36.27032], [139.30876, 36.27023], [139.30798, 36.27006], [139.30728, 36.26995], [139.30669, 36.26986], [139.30586, 36.26976], [139.30506, 36.2697], [139.30477, 36.26969], [139.30448, 36.26969], [139.30398, 36.26966], [139.30346, 36.26966], [139.30262, 36.26968], [139.30207, 36.26971], [139.30127, 36.26979], [139.30055, 36.26988], [139.29977, 36.27], [139.2985, 36.27021], [139.29707, 36.27046], [139.29674, 36.27052], [139.29561, 36.2707], [139.29443, 36.27091], [139.29325, 36.2711], [139.29164, 36.27136], [139.29007, 36.27163], [139.2867, 36.27216], [139.28588, 36.2723], [139.28568, 36.27234], [139.28558, 36.27235], [139.28542, 36.27238], [139.28287, 36.27279]]}, "properties": {"id": "GEOM_TOKYO_4034", "route_id": "R_7581302C", "route_name": "伊勢崎線", "route_color": "#1F78FF", "route_text_color": "#ffffff", "line_name": "伊勢崎線", "operator_id": "tobu", "representation": "service_path", "min_zoom": 0, "max_zoom": 24, "offset_rank": 0}}, {"type": "Feature", "bbox": [139.25797, 36.27309, 139.28108, 36.27688], "geometry": {"type": "LineString", "coordinates": [[139.28108, 36.27309], [139.27781, 36.27364], [139.27606, 36.27391], [139.27413, 36.27424], [139.27183, 36.27461], [139.27153, 36.27466], [139.27121, 36.27471], [139.27081, 36.27477], [139.26884, 36.2751], [139.26792, 36.27525], [139.26477, 36.27577], [139.2616, 36.27629], [139.25996, 36.27656], [139.25797, 36.27688]]}, "properties": {"id": "GEOM_TOKYO_4037", "route_id": "R_7581302C", "route_name": "伊勢崎線", "route_color": "#1F78FF", "route_text_color": "#ffffff", "line_name": "伊勢崎線", "operator_id": "tobu", "representation": "service_path", "min_zoom": 0, "max_zoom": 24, "offset_rank": 0}}, {"type": "Feature", "bbox": [139.31377, 36.27161, 139.34837, 36.28257], "geometry": {"type": "LineString", "coordinates": [[139.34837, 36.28257], [139.34784, 36.2822], [139.34762, 36.28207], [139.34742, 36.28194], [139.34709, 36.28175], [139.34669, 36.28155], [139.34591, 36.28122], [139.3455, 36.28106], [139.34505, 36.28089], [139.3445, 36.2807], [139.3434, 36.28036], [139.34009, 36.27938], [139.3387, 36.27897], [139.33744, 36.27859], [139.33667, 36.27837], [139.33519, 36.27792], [139.33405, 36.27759], [139.33257, 36.27714], [139.33109, 36.27671], [139.32837, 36.2759], [139.32703, 36.2755], [139.32684, 36.27544], [139.32303, 36.27432], [139.31927, 36.27322], [139.31745, 36.27268], [139.3166, 36.27243], [139.31377, 36.27161]]}, "properties": {"id": "GEOM_TOKYO_4038", "route_id": "R_7581302C", "route_name": "伊勢崎線", "route_color": "#1F78FF", "route_text_color": "#ffffff", "line_name": "伊勢崎線", "operator_id": "tobu", "representation": "service_path", "min_zoom": 0, "max_zoom": 24, "offset_rank": 0}}, {"type": "Feature", "bbox": [139.28108, 36.27279, 139.28287, 36.27309], "geometry": {"type": "LineString", "coordinates": [[139.28287, 36.27279], [139.28108, 36.27309]]}, "properties": {"id": "GEOM_TOKYO_4039", "route_id": "R_7581302C", "route_name": "伊勢崎線", "route_color": "#1F78FF", "route_text_color": "#ffffff", "line_name": "伊勢崎線", "operator_id": "tobu", "representation": "service_path", "min_zoom": 0, "max_zoom": 24, "offset_rank": 0}}, {"type": "Feature", "bbox": [139.31224, 36.27117, 139.31377, 36.27161], "geometry": {"type": "LineString", "coordinates": [[139.31377, 36.27161], [139.31224, 36.27117]]}, "properties": {"id": "GEOM_TOKYO_4040", "route_id": "R_7581302C", "route_name": "伊勢崎線", "route_color": "#1F78FF", "route_text_color": "#ffffff", "line_name": "伊勢崎線", "operator_id": "tobu", "representation": "service_path", "min_zoom": 0, "max_zoom": 24, "offset_rank": 0}}, {"type": "Feature", "bbox": [139.34837, 36.28257, 139.34961, 36.28338], "geometry": {"type": "LineString", "coordinates": [[139.34961, 36.28338], [139.34837, 36.28257]]}, "properties": {"id": "GEOM_TOKYO_4041", "route_id": "R_7581302C", "route_name": "伊勢崎線", "route_color": "#1F78FF", "route_text_color": "#ffffff", "line_name": "伊勢崎線", "operator_id": "tobu", "representation": "service_path", "min_zoom": 0, "max_zoom": 24, "offset_rank": 0}}, {"type": "Feature", "bbox": [139.34961, 36.28338, 139.37226, 36.2947], "geometry": {"type": "LineString", "coordinates": [[139.37226, 36.2947], [139.37214, 36.29465], [139.37201, 36.2946], [139.37178, 36.29454], [139.37126, 36.29438], [139.37112, 36.29433], [139.37065, 36.29418], [139.36998, 36.29395], [139.36935, 36.29372], [139.36848, 36.29342], [139.36748, 36.29306], [139.36678, 36.29282], [139.36611, 36.29257], [139.365, 36.29219], [139.36271, 36.29137], [139.36223, 36.2912], [139.36188, 36.29105], [139.36155, 36.29091], [139.36125, 36.29078], [139.36113, 36.29072], [139.36088, 36.29062], [139.36076, 36.29056], [139.36049, 36.29043], [139.36001, 36.29017], [139.35936, 36.28983], [139.35821, 36.28907], [139.35779, 36.28879], [139.35612, 36.28767], [139.35333, 36.28583], [139.35198, 36.28494], [139.34961, 36.28338]]}, "properties": {"id": "GEOM_TOKYO_4042", "route_id": "R_7581302C", "route_name": "伊勢崎線", "route_color": "#1F78FF", "route_text_color": "#ffffff", "line_name": "伊勢崎線", "operator_id": "tobu", "representation": "service_path", "min_zoom": 0, "max_zoom": 24, "offset_rank": 0}}, {"type": "Feature", "bbox": [139.37779, 36.2941, 139.38008, 36.29431], "geometry": {"type": "LineString", "coordinates": [[139.38008, 36.2941], [139.37931, 36.29416], [139.37883, 36.2942], [139.3785, 36.29422], [139.3781, 36.29427], [139.37779, 36.29431]]}, "properties": {"id": "GEOM_TOKYO_4106", "route_id": "R_8B11A847", "route_name": "桐生線", "route_color": "#1F78FF", "route_text_color": "#ffffff", "line_name": "桐生線", "operator_id": "tobu", "representation": "service_path", "min_zoom": 0, "max_zoom": 24, "offset_rank": 0}}, {"type": "Feature", "bbox": [139.37226, 36.29431, 139.37779, 36.2947], "geometry": {"type": "LineString", "coordinates": [[139.37779, 36.29431], [139.37759, 36.29433], [139.37734, 36.29435], [139.37709, 36.29438], [139.37659, 36.29441], [139.37226, 36.2947]]}, "properties": {"id": "GEOM_TOKYO_4107", "route_id": "R_8B11A847", "route_name": "桐生線", "route_color": "#1F78FF", "route_text_color": "#ffffff", "line_name": "桐生線", "operator_id": "tobu", "representation": "service_path", "min_zoom": 0, "max_zoom": 24, "offset_rank": 0}}, {"type": "Feature", "bbox": [139.27642, 36.4255, 139.27714, 36.42574], "geometry": {"type": "LineString", "coordinates": [[139.27714, 36.42574], [139.27642, 36.4255]]}, "properties": {"id": "GEOM_TOKYO_4108", "route_id": "R_8B11A847", "route_name": "桐生線", "route_color": "#1F78FF", "route_text_color": "#ffffff", "line_name": "桐生線", "operator_id": "tobu", "representation": "service_path", "min_zoom": 0, "max_zoom": 24, "offset_rank": 0}}, {"type": "Feature", "bbox": [139.31507, 36.35819, 139.31647, 36.35933], "geometry": {"type": "LineString", "coordinates": [[139.31647, 36.35819], [139.31631, 36.35832], [139.31603, 36.35855], [139.31569, 36.35883], [139.31535, 36.3591], [139.31507, 36.35933]]}, "properties": {"id": "GEOM_TOKYO_4109", "route_id": "R_8B11A847", "route_name": "桐生線", "route_color": "#1F78FF", "route_text_color": "#ffffff", "line_name": "桐生線", "operator_id": "tobu", "representation": "service_path", "min_zoom": 0, "max_zoom": 24, "offset_rank": 0}}, {"type": "Feature", "bbox": [139.30633, 36.38465, 139.30676, 36.38555], "geometry": {"type": "LineString", "coordinates": [[139.30633, 36.38465], [139.30636, 36.38473], [139.30644, 36.38492], [139.30653, 36.38511], [139.3066, 36.38525], [139.30668, 36.3854], [139.30676, 36.38555]]}, "properties": {"id": "GEOM_TOKYO_4110", "route_id": "R_8B11A847", "route_name": "桐生線", "route_color": "#1F78FF", "route_text_color": "#ffffff", "line_name": "桐生線", "operator_id": "tobu", "representation": "service_path", "min_zoom": 0, "max_zoom": 24, "offset_rank": 0}}, {"type": "Feature", "bbox": [139.35519, 36.2947, 139.37226, 36.31292], "geometry": {"type": "LineString", "coordinates": [[139.37226, 36.2947], [139.37178, 36.29472], [139.37103, 36.29475], [139.36968, 36.29486], [139.36886, 36.29494], [139.3676, 36.29504], [139.36722, 36.29509], [139.36686, 36.29513], [139.36654, 36.2952], [139.36633, 36.29524], [139.36598, 36.29532], [139.3654, 36.29549], [139.36493, 36.29566], [139.36471, 36.29576], [139.36442, 36.29591], [139.36394, 36.2962], [139.36368, 36.2964], [139.36366, 36.29641], [139.36335, 36.29667], [139.36308, 36.29693], [139.36279, 36.29725], [139.36233, 36.29787], [139.36215, 36.29815], [139.3619, 36.29864], [139.36134, 36.2998], [139.36096, 36.30064], [139.36051, 36.30156], [139.35977, 36.30316], [139.35952, 36.30369], [139.35912, 36.30454], [139.35893, 36.30494], [139.35885, 36.30511], [139.35849, 36.30588], [139.35804, 36.30684], [139.35787, 36.30723], [139.35767, 36.30765], [139.35735, 36.30832], [139.35702, 36.30904], [139.35617, 36.31083], [139.35519, 36.31292]]}, "properties": {"id": "GEOM_TOKYO_4111", "route_id": "R_8B11A847", "route_name": "桐生線", "route_color": "#1F78FF", "route_text_color": "#ffffff", "line_name": "桐生線", "operator_id": "tobu", "representation": "service_path", "min_zoom": 0, "max_zoom": 24, "offset_rank": 0}}, {"type": "Feature", "bbox": [139.30377, 36.41021, 139.30406, 36.41106], "geometry": {"type": "LineString", "coordinates": [[139.30406, 36.41021], [139.30377, 36.41106]]}, "properties": {"id": "GEOM_TOKYO_4112", "route_id": "R_8B11A847", "route_name": "桐生線", "route_color": "#1F78FF", "route_text_color": "#ffffff", "line_name": "桐生線", "operator_id": "tobu", "representation": "service_path", "min_zoom": 0, "max_zoom": 24, "offset_rank": 0}}, {"type": "Feature", "bbox": [139.34058, 36.33249, 139.34215, 36.33356], "geometry": {"type": "LineString", "coordinates": [[139.34215, 36.33249], [139.34058, 36.33356]]}, "properties": {"id": "GEOM_TOKYO_4113", "route_id": "R_8B11A847", "route_name": "桐生線", "route_color": "#1F78FF", "route_text_color": "#ffffff", "line_name": "桐生線", "operator_id": "tobu", "representation": "service_path", "min_zoom": 0, "max_zoom": 24, "offset_rank": 0}}, {"type": "Feature", "bbox": [139.31999, 36.39446, 139.32018, 36.39559], "geometry": {"type": "LineString", "coordinates": [[139.32018, 36.39446], [139.32014, 36.3948], [139.3201, 36.39507], [139.32005, 36.39535], [139.31999, 36.39559]]}, "properties": {"id": "GEOM_TOKYO_4114", "route_id": "R_8B11A847", "route_name": "桐生線", "route_color": "#1F78FF", "route_text_color": "#ffffff", "line_name": "桐生線", "operator_id": "tobu", "representation": "service_path", "min_zoom": 0, "max_zoom": 24, "offset_rank": 0}}, {"type": "Feature", "bbox": [139.34215, 36.31388, 139.35474, 36.33249], "geometry": {"type": "LineString", "coordinates": [[139.35474, 36.31388], [139.35421, 36.31501], [139.35336, 36.31682], [139.35311, 36.31736], [139.35257, 36.31855], [139.35177, 36.32027], [139.35158, 36.32068], [139.35131, 36.32124], [139.3507, 36.32254], [139.35044, 36.32308], [139.35026, 36.32346], [139.34979, 36.32447], [139.34917, 36.32579], [139.34881, 36.32654], [139.34862, 36.32696], [139.34825, 36.32774], [139.34814, 36.32796], [139.34798, 36.3282], [139.34775, 36.32848], [139.34758, 36.32867], [139.34733, 36.32892], [139.34706, 36.32915], [139.34686, 36.32929], [139.34615, 36.32978], [139.34415, 36.33114], [139.34215, 36.33249]]}, "properties": {"id": "GEOM_TOKYO_4115", "route_id": "R_8B11A847", "route_name": "桐生線", "route_color": "#1F78FF", "route_text_color": "#ffffff", "line_name": "桐生線", "operator_id": "tobu", "representation": "service_path", "min_zoom": 0, "max_zoom": 24, "offset_rank": 0}}, {"type": "Feature", "bbox": [139.30406, 36.39559, 139.31999, 36.41021], "geometry": {"type": "LineString", "coordinates": [[139.31999, 36.39559], [139.3199, 36.39585], [139.3198, 36.39607], [139.3197, 36.39628], [139.31951, 36.39662], [139.31933, 36.39696], [139.31915, 36.39723], [139.31899, 36.39743], [139.31883, 36.39762], [139.31865, 36.39779], [139.31834, 36.39804], [139.3181, 36.3982], [139.3178, 36.39839], [139.31723, 36.39873], [139.31687, 36.39893], [139.31658, 36.3991], [139.31631, 36.39927], [139.31609, 36.3994], [139.31563, 36.39973], [139.31537, 36.39995], [139.31513, 36.40017], [139.31468, 36.40057], [139.31438, 36.40084], [139.31399, 36.4012], [139.31377, 36.4014], [139.31358, 36.40156], [139.31341, 36.40172], [139.31328, 36.40187], [139.31324, 36.40192], [139.31316, 36.402], [139.31311, 36.40208], [139.31306, 36.40216], [139.31301, 36.40225], [139.31293, 36.40242], [139.31282, 36.40265], [139.3127, 36.40293], [139.31261, 36.40314], [139.31252, 36.40333], [139.31239, 36.40358], [139.31223, 36.40384], [139.31206, 36.40405], [139.31176, 36.40437], [139.31139, 36.40477], [139.31132, 36.40484], [139.31119, 36.40496], [139.31107, 36.40507], [139.31078, 36.40532], [139.31049, 36.40554], [139.31002, 36.40588], [139.30967, 36.40612], [139.30935, 36.40635], [139.30903, 36.40657], [139.3088, 36.40671], [139.30854, 36.40688], [139.30772, 36.40738], [139.30704, 36.40776], [139.30653, 36.40805], [139.30586, 36.40843], [139.30558, 36.40863], [139.30529, 36.40887], [139.30496, 36.40915], [139.30462, 36.40946], [139.30435, 36.40976], [139.30417, 36.41], [139.30406, 36.41021]]}, "properties": {"id": "GEOM_TOKYO_4116", "route_id": "R_8B11A847", "route_name": "桐生線", "route_color": "#1F78FF", "route_text_color": "#ffffff", "line_name": "桐生線", "operator_id": "tobu", "representation": "service_path", "min_zoom": 0, "max_zoom": 24, "offset_rank": 0}}, {"type": "Feature", "bbox": [139.30529, 36.35933, 139.31507, 36.38465], "geometry": {"type": "LineString", "coordinates": [[139.31507, 36.35933], [139.31504, 36.35935], [139.31495, 36.35941], [139.31467, 36.35965], [139.31438, 36.35987], [139.31383, 36.36031], [139.3135, 36.36058], [139.31317, 36.36086], [139.3127, 36.36124], [139.31233, 36.36153], [139.31197, 36.36184], [139.31149, 36.36224], [139.31125, 36.36246], [139.31102, 36.36269], [139.31059, 36.36319], [139.3104, 36.36345], [139.31017, 36.36375], [139.30971, 36.36434], [139.30946, 36.3647], [139.3092, 36.36505], [139.3088, 36.36558], [139.30852, 36.36595], [139.30825, 36.36634], [139.30821, 36.36638], [139.30758, 36.36722], [139.30733, 36.36758], [139.30705, 36.36795], [139.30662, 36.36859], [139.30649, 36.36887], [139.30636, 36.36913], [139.30625, 36.36944], [139.30619, 36.36973], [139.30613, 36.36998], [139.30605, 36.37042], [139.30596, 36.37101], [139.30586, 36.37159], [139.3058, 36.37203], [139.30574, 36.37244], [139.30566, 36.37302], [139.30559, 36.37344], [139.30553, 36.37386], [139.30542, 36.37455], [139.30536, 36.37491], [139.30536, 36.37494], [139.30533, 36.37523], [139.3053, 36.37555], [139.3053, 36.37567], [139.30529, 36.37579], [139.3053, 36.37603], [139.30532, 36.37627], [139.30534, 36.37675], [139.30537, 36.37702], [139.3054, 36.37731], [139.30546, 36.37791], [139.30553, 36.37841], [139.30556, 36.37871], [139.30562, 36.37918], [139.30568, 36.3795], [139.30571, 36.37989], [139.3058, 36.38052], [139.30586, 36.38106], [139.30592, 36.38154], [139.30597, 36.38197], [139.30604, 36.38245], [139.3061, 36.38294], [139.30617, 36.38354], [139.30621, 36.3839], [139.30625, 36.38421], [139.30629, 36.38445], [139.30633, 36.38465]]}, "properties": {"id": "GEOM_TOKYO_4117", "route_id": "R_8B11A847", "route_name": "桐生線", "route_color": "#1F78FF", "route_text_color": "#ffffff", "line_name": "桐生線", "operator_id": "tobu", "representation": "service_path", "min_zoom": 0, "max_zoom": 24, "offset_rank": 0}}, {"type": "Feature", "bbox": [139.31647, 36.33356, 139.34058, 36.35819], "geometry": {"type": "LineString", "coordinates": [[139.34058, 36.33356], [139.33992, 36.33402], [139.33816, 36.33523], [139.33672, 36.33621], [139.33636, 36.33648], [139.3362, 36.33659], [139.33566, 36.33697], [139.3352, 36.33729], [139.33479, 36.33758], [139.33436, 36.33788], [139.3334, 36.33854], [139.33305, 36.33879], [139.3327, 36.33905], [139.3324, 36.33928], [139.33208, 36.33952], [139.33182, 36.33971], [139.33157, 36.33991], [139.33132, 36.34014], [139.33113, 36.34033], [139.33104, 36.34044], [139.33089, 36.3406], [139.33052, 36.34111], [139.33028, 36.34144], [139.32997, 36.34184], [139.32967, 36.34226], [139.32928, 36.34277], [139.32885, 36.34335], [139.32818, 36.34425], [139.32793, 36.34459], [139.32762, 36.345], [139.32728, 36.34545], [139.32668, 36.34628], [139.32635, 36.34674], [139.326, 36.34723], [139.32593, 36.34733], [139.32578, 36.34753], [139.32559, 36.34781], [139.32531, 36.34818], [139.32484, 36.34886], [139.32473, 36.349], [139.3246, 36.34921], [139.3245, 36.34933], [139.32421, 36.34974], [139.3237, 36.35045], [139.32343, 36.3508], [139.32326, 36.35106], [139.32322, 36.35111], [139.3229, 36.35154], [139.32245, 36.35216], [139.32224, 36.35245], [139.32193, 36.35286], [139.3216, 36.3533], [139.32134, 36.35365], [139.3211, 36.35397], [139.32088, 36.35425], [139.32061, 36.35459], [139.32023, 36.35503], [139.32002, 36.35526], [139.3198, 36.35546], [139.31961, 36.35563], [139.31942, 36.3558], [139.31921, 36.35597], [139.31893, 36.35619], [139.3186, 36.35646], [139.31817, 36.35682], [139.31769, 36.35721], [139.31726, 36.35754], [139.31682, 36.3579], [139.31647, 36.35819]]}, "properties": {"id": "GEOM_TOKYO_4118", "route_id": "R_8B11A847", "route_name": "桐生線", "route_color": "#1F78FF", "route_text_color": "#ffffff", "line_name": "桐生線", "operator_id": "tobu", "representation": "service_path", "min_zoom": 0, "max_zoom": 24, "offset_rank": 0}}, {"type": "Feature", "bbox": [139.35474, 36.31292, 139.35519, 36.31388], "geometry": {"type": "LineString", "coordinates": [[139.35519, 36.31292], [139.35474, 36.31388]]}, "properties": {"id": "GEOM_TOKYO_4119", "route_id": "R_8B11A847", "route_name": "桐生線", "route_color": "#1F78FF", "route_text_color": "#ffffff", "line_name": "桐生線", "operator_id": "tobu", "representation": "service_path", "min_zoom": 0, "max_zoom": 24, "offset_rank": 0}}, {"type": "Feature", "bbox": [139.30676, 36.38555, 139.3202, 36.39446], "geometry": {"type": "LineString", "coordinates": [[139.30676, 36.38555], [139.30687, 36.38569], [139.30701, 36.38589], [139.30717, 36.38604], [139.30732, 36.3862], [139.30749, 36.38633], [139.30768, 36.38646], [139.3078, 36.38654], [139.30796, 36.38665], [139.3084, 36.38686], [139.30875, 36.38701], [139.30917, 36.38719], [139.30949, 36.3873], [139.31001, 36.38746], [139.31042, 36.38759], [139.31115, 36.3878], [139.3117, 36.38799], [139.31239, 36.38822], [139.31298, 36.38845], [139.31367, 36.38872], [139.31409, 36.38889], [139.31475, 36.3892], [139.31526, 36.38948], [139.31551, 36.38962], [139.3156, 36.38967], [139.31609, 36.38993], [139.31639, 36.39011], [139.31667, 36.39028], [139.31701, 36.39047], [139.31734, 36.39067], [139.31754, 36.39078], [139.31787, 36.39097], [139.31812, 36.39112], [139.31861, 36.3914], [139.31888, 36.39156], [139.3191, 36.39172], [139.31923, 36.39184], [139.3194, 36.392], [139.31957, 36.3922], [139.31969, 36.39239], [139.31981, 36.39259], [139.31992, 36.39278], [139.32, 36.39301], [139.3201, 36.3933], [139.32016, 36.39357], [139.32018, 36.39385], [139.3202, 36.39409], [139.3202, 36.3943], [139.32018, 36.39446]]}, "properties": {"id": "GEOM_TOKYO_4120", "route_id": "R_8B11A847", "route_name": "桐生線", "route_color": "#1F78FF", "route_text_color": "#ffffff", "line_name": "桐生線", "operator_id": "tobu", "representation": "service_path", "min_zoom": 0, "max_zoom": 24, "offset_rank": 0}}, {"type": "Feature", "bbox": [139.2989, 36.41106, 139.30377, 36.41857], "geometry": {"type": "LineString", "coordinates": [[139.30377, 36.41106], [139.3037, 36.41132], [139.30349, 36.41197], [139.30313, 36.41299], [139.30289, 36.41364], [139.30272, 36.4142], [139.30254, 36.41468], [139.30239, 36.415], [139.30227, 36.41519], [139.30218, 36.41529], [139.30172, 36.41577], [139.30135, 36.41617], [139.30093, 36.41662], [139.30012, 36.41744], [139.29997, 36.41759], [139.29953, 36.41803], [139.29928, 36.41827], [139.2989, 36.41857]]}, "properties": {"id": "GEOM_TOKYO_4121", "route_id": "R_8B11A847", "route_name": "桐生線", "route_color": "#1F78FF", "route_text_color": "#ffffff", "line_name": "桐生線", "operator_id": "tobu", "representation": "service_path", "min_zoom": 0, "max_zoom": 24, "offset_rank": 0}}, {"type": "Feature", "bbox": [139.5257, 36.24746, 139.5276, 36.24996], "geometry": {"type": "LineString", "coordinates": [[139.5276, 36.24746], [139.52749, 36.24776], [139.52731, 36.24804], [139.52723, 36.24817], [139.52693, 36.24855], [139.52654, 36.24903], [139.5257, 36.24996]]}, "properties": {"id": "GEOM_TOKYO_4127", "route_id": "R_99693EF0", "route_name": "佐野線", "route_color": "#1F78FF", "route_text_color": "#ffffff", "line_name": "佐野線", "operator_id": "tobu", "representation": "service_path", "min_zoom": 0, "max_zoom": 24, "offset_rank": 0}}, {"type": "Feature", "bbox": [139.5276, 36.24573, 139.52802, 36.24746], "geometry": {"type": "LineString", "coordinates": [[139.52802, 36.24573], [139.52787, 36.24638], [139.52773, 36.24689], [139.5276, 36.24746]]}, "properties": {"id": "GEOM_TOKYO_4128", "route_id": "R_99693EF0", "route_name": "佐野線", "route_color": "#1F78FF", "route_text_color": "#ffffff", "line_name": "佐野線", "operator_id": "tobu", "representation": "service_path", "min_zoom": 0, "max_zoom": 24, "offset_rank": 0}}, {"type": "Feature", "bbox": [139.53694, 36.26165, 139.53802, 36.26203], "geometry": {"type": "LineString", "coordinates": [[139.53802, 36.26203], [139.53694, 36.26165]]}, "properties": {"id": "GEOM_TOKYO_4130", "route_id": "R_99693EF0", "route_name": "佐野線", "route_color": "#1F78FF", "route_text_color": "#ffffff", "line_name": "佐野線", "operator_id": "tobu", "representation": "service_path", "min_zoom": 0, "max_zoom": 24, "offset_rank": 0}}, {"type": "Feature", "bbox": [139.52294, 36.2526, 139.53694, 36.26165], "geometry": {"type": "LineString", "coordinates": [[139.52341, 36.2526], [139.52333, 36.25287], [139.52321, 36.25316], [139.52311, 36.25338], [139.52299, 36.25383], [139.52294, 36.25413], [139.52294, 36.25446], [139.52297, 36.25485], [139.52305, 36.25522], [139.5232, 36.25559], [139.52327, 36.25582], [139.52348, 36.25615], [139.52368, 36.25639], [139.52395, 36.25671], [139.52411, 36.25685], [139.52431, 36.25701], [139.52449, 36.25714], [139.52475, 36.25729], [139.52516, 36.25751], [139.52566, 36.25774], [139.52633, 36.25798], [139.52738, 36.25833], [139.52845, 36.25871], [139.52924, 36.25897], [139.52963, 36.25911], [139.53046, 36.2594], [139.53172, 36.25984], [139.53278, 36.26021], [139.53412, 36.26068], [139.53546, 36.26116], [139.53673, 36.26158], [139.53694, 36.26165]]}, "properties": {"id": "GEOM_TOKYO_4131", "route_id": "R_99693EF0", "route_name": "佐野線", "route_color": "#1F78FF", "route_text_color": "#ffffff", "line_name": "佐野線", "operator_id": "tobu", "representation": "service_path", "min_zoom": 0, "max_zoom": 24, "offset_rank": 0}}, {"type": "Feature", "bbox": [139.52341, 36.24996, 139.5257, 36.2526], "geometry": {"type": "LineString", "coordinates": [[139.5257, 36.24996], [139.52564, 36.25004], [139.5254, 36.2503], [139.52503, 36.25073], [139.52445, 36.25138], [139.52382, 36.2521], [139.52359, 36.25235], [139.52341, 36.2526]]}, "properties": {"id": "GEOM_TOKYO_4132", "route_id": "R_99693EF0", "route_name": "佐野線", "route_color": "#1F78FF", "route_text_color": "#ffffff", "line_name": "佐野線", "operator_id": "tobu", "representation": "service_path", "min_zoom": 0, "max_zoom": 24, "offset_rank": 0}}, {"type": "Feature", "bbox": [139.53802, 36.26203, 139.56469, 36.28985], "geometry": {"type": "LineString", "coordinates": [[139.56469, 36.28985], [139.56425, 36.28907], [139.56384, 36.28833], [139.56364, 36.28793], [139.56348, 36.28756], [139.56325, 36.28717], [139.56288, 36.28653], [139.56246, 36.2858], [139.56198, 36.28501], [139.56156, 36.28428], [139.56107, 36.28346], [139.56072, 36.28287], [139.56038, 36.2823], [139.56014, 36.28192], [139.55991, 36.28151], [139.55948, 36.2808], [139.55918, 36.2803], [139.55884, 36.27975], [139.55842, 36.27907], [139.55813, 36.2786], [139.55777, 36.27799], [139.55755, 36.27762], [139.55732, 36.27716], [139.55723, 36.27693], [139.55719, 36.27672], [139.55719, 36.27652], [139.5572, 36.27626], [139.55724, 36.27602], [139.5573, 36.27566], [139.55734, 36.2753], [139.55737, 36.27497], [139.55739, 36.27465], [139.55737, 36.27437], [139.55732, 36.27415], [139.55723, 36.27391], [139.55709, 36.27363], [139.5569, 36.27331], [139.55677, 36.27315], [139.55651, 36.27285], [139.55607, 36.27234], [139.55573, 36.27195], [139.5557, 36.27192], [139.55515, 36.27128], [139.55462, 36.27068], [139.55399, 36.26997], [139.55393, 36.2699], [139.55375, 36.26969], [139.55344, 36.26933], [139.5529, 36.26875], [139.55274, 36.26857], [139.55231, 36.26813], [139.55171, 36.26759], [139.55151, 36.26745], [139.55105, 36.26709], [139.54994, 36.2664], [139.54864, 36.26579], [139.54748, 36.26531], [139.54552, 36.26462], [139.54405, 36.2641], [139.54367, 36.26396], [139.54244, 36.26355], [139.54103, 36.26306], [139.53985, 36.26267], [139.53853, 36.26222], [139.53802, 36.26203]]}, "properties": {"id": "GEOM_TOKYO_4138", "route_id": "R_99693EF0", "route_name": "佐野線", "route_color": "#1F78FF", "route_text_color": "#ffffff", "line_name": "佐野線", "operator_id": "tobu", "representation": "service_path", "min_zoom": 0, "max_zoom": 24, "offset_rank": 0}}, {"type": "Feature", "bbox": [139.37774, 36.29378, 139.38057, 36.29406], "geometry": {"type": "LineString", "coordinates": [[139.37774, 36.29406], [139.38057, 36.29378]]}, "properties": {"id": "GEOM_TOKYO_4143", "route_id": "R_AE1CF018", "route_name": "小泉線", "route_color": "#1F78FF", "route_text_color": "#ffffff", "line_name": "小泉線", "operator_id": "tobu", "representation": "service_path", "min_zoom": 0, "max_zoom": 24, "offset_rank": 0}}, {"type": "Feature", "bbox": [139.42809, 36.2596, 139.42903, 36.25983], "geometry": {"type": "LineString", "coordinates": [[139.42903, 36.2596], [139.42809, 36.25983]]}, "properties": {"id": "GEOM_TOKYO_4144", "route_id": "R_AE1CF018", "route_name": "小泉線", "route_color": "#1F78FF", "route_text_color": "#ffffff", "line_name": "小泉線", "operator_id": "tobu", "representation": "service_path", "min_zoom": 0, "max_zoom": 24, "offset_rank": 0}}, {"type": "Feature", "bbox": [139.42903, 36.2569, 139.4452, 36.2596], "geometry": {"type": "LineString", "coordinates": [[139.4452, 36.2569], [139.44494, 36.25693], [139.44483, 36.25693], [139.44454, 36.25697], [139.4438, 36.25704], [139.44352, 36.25707], [139.44336, 36.2571], [139.44265, 36.25718], [139.44228, 36.25721], [139.44224, 36.25723], [139.44119, 36.25734], [139.4401, 36.25746], [139.43919, 36.25759], [139.43859, 36.25766], [139.43771, 36.25778], [139.43693, 36.2579], [139.43686, 36.25792], [139.43671, 36.25794], [139.43638, 36.258], [139.43624, 36.25802], [139.43571, 36.25812], [139.43533, 36.25819], [139.43514, 36.25824], [139.43506, 36.25826], [139.43492, 36.25829], [139.43476, 36.25832], [139.43399, 36.2585], [139.4339, 36.25852], [139.43376, 36.25854], [139.43332, 36.25865], [139.43293, 36.25873], [139.43281, 36.25876], [139.43244, 36.25884], [139.4323, 36.25887], [139.43207, 36.25893], [139.43172, 36.259], [139.43157, 36.25903], [139.43142, 36.25907], [139.43089, 36.25919], [139.43041, 36.25929], [139.43014, 36.25935], [139.42991, 36.25941], [139.42982, 36.25943], [139.42944, 36.25951], [139.42932, 36.25954], [139.42903, 36.2596]]}, "properties": {"id": "GEOM_TOKYO_4145", "route_id": "R_AE1CF018", "route_name": "小泉線", "route_color": "#1F78FF", "route_text_color": "#ffffff", "line_name": "小泉線", "operator_id": "tobu", "representation": "service_path", "min_zoom": 0, "max_zoom": 24, "offset_rank": 0}}, {"type": "Feature", "bbox": [139.50501, 36.24903, 139.50613, 36.24913], "geometry": {"type": "LineString", "coordinates": [[139.50613, 36.24913], [139.50501, 36.24903]]}, "properties": {"id": "GEOM_TOKYO_4146", "route_id": "R_AE1CF018", "route_name": "小泉線", "route_color": "#1F78FF", "route_text_color": "#ffffff", "line_name": "小泉線", "operator_id": "tobu", "representation": "service_path", "min_zoom": 0, "max_zoom": 24, "offset_rank": 0}}, {"type": "Feature", "bbox": [139.42548, 36.25983, 139.42809, 36.2604], "geometry": {"type": "LineString", "coordinates": [[139.42809, 36.25983], [139.42787, 36.25988], [139.42783, 36.25989], [139.42776, 36.2599], [139.42722, 36.26002], [139.42698, 36.26007], [139.42685, 36.2601], [139.42665, 36.26014], [139.42652, 36.26017], [139.42646, 36.26018], [139.42598, 36.26028], [139.42548, 36.2604]]}, "properties": {"id": "GEOM_TOKYO_4147", "route_id": "R_AE1CF018", "route_name": "小泉線", "route_color": "#1F78FF", "route_text_color": "#ffffff", "line_name": "小泉線", "operator_id": "tobu", "representation": "service_path", "min_zoom": 0, "max_zoom": 24, "offset_rank": 0}}, {"type": "Feature", "bbox": [139.40881, 36.25925, 139.41975, 36.26267], "geometry": {"type": "LineString", "coordinates": [[139.41975, 36.26164], [139.41916, 36.26176], [139.41694, 36.26222], [139.41641, 36.26233], [139.4163, 36.26235], [139.41574, 36.26246], [139.41566, 36.26249], [139.41504, 36.2626], [139.41464, 36.26266], [139.41387, 36.26267], [139.41356, 36.26264], [139.41315, 36.2626], [139.41261, 36.26251], [139.41258, 36.2625], [139.41255, 36.2625], [139.41222, 36.26242], [139.4118, 36.2623], [139.41165, 36.26225], [139.41154, 36.2622], [139.41151, 36.26219], [139.41138, 36.26214], [139.41101, 36.26196], [139.41067, 36.26175], [139.41063, 36.26174], [139.41028, 36.26144], [139.41017, 36.26132], [139.40996, 36.26111], [139.40976, 36.26089], [139.40951, 36.26053], [139.40939, 36.26032], [139.40935, 36.26027], [139.40905, 36.25973], [139.40899, 36.2596], [139.40897, 36.25957], [139.40882, 36.25929], [139.40881, 36.25925]]}, "properties": {"id": "GEOM_TOKYO_4148", "route_id": "R_AE1CF018", "route_name": "小泉線", "route_color": "#1F78FF", "route_text_color": "#ffffff", "line_name": "小泉線", "operator_id": "tobu", "representation": "service_path", "min_zoom": 0, "max_zoom": 24, "offset_rank": 0}}, {"type": "Feature", "bbox": [139.40872, 36.27851, 139.40948, 36.27919], "geometry": {"type": "LineString", "coordinates": [[139.40948, 36.27851], [139.40872, 36.27919]]}, "properties": {"id": "GEOM_TOKYO_4149", "route_id": "R_AE1CF018", "route_name": "小泉線", "route_color": "#1F78FF", "route_text_color": "#ffffff", "line_name": "小泉線", "operator_id": "tobu", "representation": "service_path", "min_zoom": 0, "max_zoom": 24, "offset_rank": 0}}, {"type": "Feature", "bbox": [139.40821, 36.25808, 139.40881, 36.25925], "geometry": {"type": "LineString", "coordinates": [[139.40881, 36.25925], [139.40821, 36.25808]]}, "properties": {"id": "GEOM_TOKYO_4150", "route_id": "R_AE1CF018", "route_name": "小泉線", "route_color": "#1F78FF", "route_text_color": "#ffffff", "line_name": "小泉線", "operator_id": "tobu", "representation": "service_path", "min_zoom": 0, "max_zoom": 24, "offset_rank": 0}}, {"type": "Feature", "bbox": [139.47001, 36.24786, 139.50501, 36.25847], "geometry": {"type": "LineString", "coordinates": [[139.50501, 36.24903], [139.50427, 36.24896], [139.50264, 36.2488], [139.50056, 36.24863], [139.49969, 36.24854], [139.49765, 36.24835], [139.49677, 36.24827], [139.49364, 36.24808], [139.49302, 36.24804], [139.49228, 36.248], [139.49207, 36.24799], [139.49186, 36.24798], [139.49163, 36.24797], [139.4915, 36.24796], [139.49086, 36.24793], [139.48971, 36.24788], [139.48893, 36.24786], [139.48826, 36.24786], [139.48802, 36.24789], [139.48782, 36.24794], [139.48751, 36.24804], [139.48721, 36.24814], [139.48703, 36.24819], [139.48647, 36.24838], [139.48587, 36.24858], [139.48425, 36.24912], [139.48329, 36.24944], [139.48326, 36.24945], [139.48293, 36.24956], [139.47868, 36.25098], [139.47721, 36.25148], [139.47673, 36.25165], [139.47648, 36.25177], [139.47627, 36.25189], [139.47601, 36.2521], [139.47565, 36.25258], [139.47527, 36.25316], [139.47521, 36.25328], [139.47475, 36.25439], [139.47434, 36.25528], [139.47423, 36.2555], [139.47413, 36.25572], [139.47402, 36.25594], [139.47393, 36.25611], [139.47359, 36.25663], [139.47347, 36.25679], [139.47339, 36.25689], [139.47325, 36.25706], [139.47281, 36.25755], [139.47258, 36.25777], [139.47229, 36.25799], [139.47208, 36.2581], [139.47202, 36.25815], [139.47189, 36.2582], [139.47179, 36.25825], [139.47161, 36.25831], [139.47128, 36.25838], [139.47087, 36.25844], [139.47059, 36.25847], [139.47048, 36.25847], [139.47039, 36.25847], [139.47001, 36.25845]]}, "properties": {"id": "GEOM_TOKYO_4151", "route_id": "R_AE1CF018", "route_name": "小泉線", "route_color": "#1F78FF", "route_text_color": "#ffffff", "line_name": "小泉線", "operator_id": "tobu", "representation": "service_path", "min_zoom": 0, "max_zoom": 24, "offset_rank": 0}}, {"type": "Feature", "bbox": [139.4452, 36.25673, 139.44698, 36.2569], "geometry": {"type": "LineString", "coordinates": [[139.44698, 36.25673], [139.4452, 36.2569]]}, "properties": {"id": "GEOM_TOKYO_4152", "route_id": "R_AE1CF018", "route_name": "小泉線", "route_color": "#1F78FF", "route_text_color": "#ffffff", "line_name": "小泉線", "operator_id": "tobu", "representation": "service_path", "min_zoom": 0, "max_zoom": 24, "offset_rank": 0}}, {"type": "Feature", "bbox": [139.5276, 36.24573, 139.52802, 36.24746], "geometry": {"type": "LineString", "coordinates": [[139.52802, 36.24573], [139.52787, 36.24638], [139.52773, 36.24689], [139.5276, 36.24746]]}, "properties": {"id": "GEOM_TOKYO_4153", "route_id": "R_AE1CF018", "route_name": "小泉線", "route_color": "#1F78FF", "route_text_color": "#ffffff", "line_name": "小泉線", "operator_id": "tobu", "representation": "service_path", "min_zoom": 0, "max_zoom": 24, "offset_rank": 0}}, {"type": "Feature", "bbox": [139.5257, 36.24746, 139.5276, 36.24996], "geometry": {"type": "LineString", "coordinates": [[139.5276, 36.24746], [139.52749, 36.24776], [139.52731, 36.24804], [139.52723, 36.24817], [139.52693, 36.24855], [139.52654, 36.24903], [139.5257, 36.24996]]}, "properties": {"id": "GEOM_TOKYO_4154", "route_id": "R_AE1CF018", "route_name": "小泉線", "route_color": "#1F78FF", "route_text_color": "#ffffff", "line_name": "小泉線", "operator_id": "tobu", "representation": "service_path", "min_zoom": 0, "max_zoom": 24, "offset_rank": 0}}, {"type": "Feature", "bbox": [139.50613, 36.24913, 139.5257, 36.25071], "geometry": {"type": "LineString", "coordinates": [[139.5257, 36.24996], [139.52539, 36.25016], [139.525, 36.2504], [139.52465, 36.25055], [139.5243, 36.25065], [139.52386, 36.25071], [139.52362, 36.25071], [139.52308, 36.25069], [139.52252, 36.25065], [139.52152, 36.25057], [139.52079, 36.2505], [139.51993, 36.25042], [139.51866, 36.2503], [139.51714, 36.25016], [139.51647, 36.25009], [139.51529, 36.24999], [139.51281, 36.24976], [139.51129, 36.24961], [139.50896, 36.2494], [139.50752, 36.24927], [139.50613, 36.24913]]}, "properties": {"id": "GEOM_TOKYO_4155", "route_id": "R_AE1CF018", "route_name": "小泉線", "route_color": "#1F78FF", "route_text_color": "#ffffff", "line_name": "小泉線", "operator_id": "tobu", "representation": "service_path", "min_zoom": 0, "max_zoom": 24, "offset_rank": 0}}, {"type": "Feature", "bbox": [139.40948, 36.2604, 139.42548, 36.27851], "geometry": {"type": "LineString", "coordinates": [[139.40948, 36.27851], [139.4099, 36.27814], [139.41115, 36.27699], [139.41154, 36.27667], [139.41179, 36.27648], [139.41211, 36.27625], [139.41243, 36.27605], [139.41309, 36.27566], [139.41401, 36.27512], [139.41419, 36.27502], [139.41429, 36.27497], [139.41441, 36.27489], [139.41502, 36.27454], [139.41524, 36.27441], [139.41563, 36.27418], [139.41606, 36.27392], [139.41633, 36.27377], [139.41639, 36.27373], [139.41645, 36.2737], [139.41652, 36.27366], [139.41699, 36.27339], [139.41763, 36.27304], [139.41779, 36.27293], [139.41815, 36.27274], [139.41874, 36.27241], [139.41957, 36.27193], [139.41989, 36.27175], [139.42053, 36.27138], [139.42075, 36.27124], [139.42079, 36.27121], [139.42085, 36.27117], [139.42096, 36.27109], [139.42107, 36.27101], [139.42114, 36.27095], [139.42121, 36.2709], [139.4213, 36.27081], [139.42151, 36.27061], [139.42168, 36.27042], [139.42177, 36.27028], [139.42185, 36.27017], [139.42194, 36.26999], [139.42201, 36.2698], [139.42212, 36.2695], [139.42216, 36.2694], [139.42222, 36.26924], [139.42231, 36.26887], [139.42233, 36.26868], [139.42234, 36.26851], [139.42234, 36.26824], [139.42235, 36.26819], [139.42235, 36.26802], [139.42238, 36.26667], [139.42242, 36.26543], [139.42245, 36.2646], [139.42245, 36.26458], [139.42245, 36.26455], [139.42248, 36.26375], [139.42248, 36.26372], [139.42249, 36.26365], [139.42251, 36.26328], [139.42258, 36.26295], [139.4226, 36.2629], [139.42262, 36.26285], [139.42268, 36.26272], [139.42271, 36.26266], [139.42273, 36.26262], [139.42277, 36.26253], [139.4229, 36.2623], [139.42299, 36.26216], [139.42303, 36.26209], [139.42314, 36.26192], [139.4232, 36.26183], [139.42326, 36.26175], [139.42328, 36.26172], [139.42333, 36.26167], [139.42346, 36.26152], [139.42348, 36.2615], [139.4237, 36.26132], [139.42399, 36.26111], [139.42418, 36.26099], [139.4244, 36.26088], [139.42473, 36.26071], [139.42508, 36.26058], [139.42548, 36.2604]]}, "properties": {"id": "GEOM_TOKYO_4156", "route_id": "R_AE1CF018", "route_name": "小泉線", "route_color": "#1F78FF", "route_text_color": "#ffffff", "line_name": "小泉線", "operator_id": "tobu", "representation": "service_path", "min_zoom": 0, "max_zoom": 24, "offset_rank": 0}}, {"type": "Feature", "bbox": [139.46907, 36.25844, 139.47001, 36.25845], "geometry": {"type": "LineString", "coordinates": [[139.47001, 36.25845], [139.46907, 36.25844]]}, "properties": {"id": "GEOM_TOKYO_4157", "route_id": "R_AE1CF018", "route_name": "小泉線", "route_color": "#1F78FF", "route_text_color": "#ffffff", "line_name": "小泉線", "operator_id": "tobu", "representation": "service_path", "min_zoom": 0, "max_zoom": 24, "offset_rank": 0}}, {"type": "Feature", "bbox": [139.42075, 36.2604, 139.42548, 36.26142], "geometry": {"type": "LineString", "coordinates": [[139.42075, 36.26142], [139.42438, 36.26063], [139.42445, 36.26061], [139.42447, 36.26061], [139.42498, 36.2605], [139.42548, 36.2604]]}, "properties": {"id": "GEOM_TOKYO_4158", "route_id": "R_AE1CF018", "route_name": "小泉線", "route_color": "#1F78FF", "route_text_color": "#ffffff", "line_name": "小泉線", "operator_id": "tobu", "representation": "service_path", "min_zoom": 0, "max_zoom": 24, "offset_rank": 0}}, {"type": "Feature", "bbox": [139.38057, 36.27919, 139.40872, 36.29378], "geometry": {"type": "LineString", "coordinates": [[139.40872, 36.27919], [139.40858, 36.27932], [139.40679, 36.28087], [139.40667, 36.28099], [139.40654, 36.2811], [139.40609, 36.2815], [139.406, 36.28157], [139.40512, 36.28233], [139.40503, 36.28243], [139.40492, 36.28252], [139.40475, 36.28267], [139.4045, 36.28289], [139.40416, 36.28317], [139.40369, 36.28354], [139.40328, 36.28382], [139.40307, 36.28395], [139.40261, 36.28418], [139.40258, 36.2842], [139.40199, 36.28449], [139.40155, 36.28471], [139.40139, 36.28479], [139.40113, 36.28493], [139.40036, 36.28532], [139.39998, 36.28552], [139.39962, 36.2857], [139.39939, 36.28583], [139.39828, 36.28639], [139.39744, 36.28683], [139.39738, 36.28686], [139.39713, 36.28699], [139.39679, 36.28716], [139.39664, 36.28723], [139.39645, 36.28733], [139.39568, 36.28771], [139.39552, 36.28779], [139.39548, 36.28781], [139.39484, 36.28812], [139.39476, 36.28817], [139.39437, 36.28837], [139.39376, 36.28869], [139.39368, 36.28874], [139.39336, 36.2889], [139.39273, 36.28922], [139.3927, 36.28923], [139.39234, 36.28943], [139.39181, 36.28976], [139.39179, 36.28977], [139.39126, 36.29003], [139.39081, 36.29025], [139.39071, 36.2903], [139.39012, 36.29061], [139.38971, 36.29086], [139.38937, 36.2911], [139.38865, 36.29166], [139.38788, 36.29228], [139.38742, 36.29264], [139.38691, 36.29301], [139.38659, 36.29322], [139.38633, 36.29335], [139.38606, 36.29345], [139.38593, 36.29349], [139.3858, 36.29353], [139.38542, 36.2936], [139.38531, 36.29362], [139.38511, 36.29365], [139.3848, 36.29369], [139.38447, 36.29372], [139.38406, 36.29373], [139.38393, 36.29373], [139.3837, 36.29374], [139.38332, 36.29375], [139.38299, 36.29377], [139.38245, 36.29378], [139.3811, 36.29378], [139.38057, 36.29378]]}, "properties": {"id": "GEOM_TOKYO_4159", "route_id": "R_AE1CF018", "route_name": "小泉線", "route_color": "#1F78FF", "route_text_color": "#ffffff", "line_name": "小泉線", "operator_id": "tobu", "representation": "service_path", "min_zoom": 0, "max_zoom": 24, "offset_rank": 0}}, {"type": "Feature", "bbox": [139.41975, 36.26142, 139.42075, 36.26164], "geometry": {"type": "LineString", "coordinates": [[139.42075, 36.26142], [139.41975, 36.26164]]}, "properties": {"id": "GEOM_TOKYO_4160", "route_id": "R_AE1CF018", "route_name": "小泉線", "route_color": "#1F78FF", "route_text_color": "#ffffff", "line_name": "小泉線", "operator_id": "tobu", "representation": "service_path", "min_zoom": 0, "max_zoom": 24, "offset_rank": 0}}, {"type": "Feature", "bbox": [139.44698, 36.2566, 139.46907, 36.25844], "geometry": {"type": "LineString", "coordinates": [[139.46907, 36.25844], [139.46899, 36.25843], [139.46835, 36.25841], [139.46704, 36.25835], [139.46681, 36.25834], [139.46672, 36.25835], [139.46671, 36.25834], [139.46585, 36.2583], [139.46456, 36.25823], [139.46421, 36.25821], [139.4639, 36.25819], [139.46385, 36.25818], [139.4637, 36.25817], [139.46361, 36.25815], [139.46329, 36.25812], [139.46187, 36.25795], [139.46091, 36.25783], [139.46052, 36.25779], [139.46042, 36.25777], [139.4603, 36.25777], [139.45975, 36.2577], [139.45888, 36.25761], [139.45835, 36.25754], [139.45798, 36.2575], [139.45683, 36.25738], [139.45678, 36.25737], [139.45671, 36.25737], [139.45567, 36.25725], [139.45557, 36.25724], [139.45467, 36.25713], [139.45423, 36.25708], [139.45363, 36.25702], [139.45351, 36.25701], [139.45271, 36.25692], [139.45235, 36.25688], [139.45209, 36.25684], [139.45189, 36.25681], [139.45166, 36.2568], [139.45097, 36.25671], [139.4505, 36.25666], [139.44971, 36.2566], [139.44878, 36.2566], [139.44869, 36.25661], [139.44818, 36.25663], [139.44816, 36.25663], [139.44782, 36.25666], [139.44738, 36.2567], [139.44698, 36.25673]]}, "properties": {"id": "GEOM_TOKYO_4161", "route_id": "R_AE1CF018", "route_name": "小泉線", "route_color": "#1F78FF", "route_text_color": "#ffffff", "line_name": "小泉線", "operator_id": "tobu", "representation": "service_path", "min_zoom": 0, "max_zoom": 24, "offset_rank": 0}}, {"type": "Feature", "bbox": [139.27714, 36.41939, 139.29753, 36.4275], "geometry": {"type": "LineString", "coordinates": [[139.29753, 36.41939], [139.29707, 36.41967], [139.29685, 36.4198], [139.29648, 36.42009], [139.29527, 36.42083], [139.29223, 36.42271], [139.2913, 36.4233], [139.28872, 36.42485], [139.28661, 36.42612], [139.28641, 36.42624], [139.28586, 36.42657], [139.28549, 36.42678], [139.28517, 36.42695], [139.28472, 36.42712], [139.28433, 36.42724], [139.28345, 36.42743], [139.28307, 36.42748], [139.28275, 36.4275], [139.28238, 36.42748], [139.28212, 36.42744], [139.28141, 36.4273], [139.27744, 36.42584], [139.27714, 36.42574]]}, "properties": {"id": "GEOM_TOKYO_4418", "route_id": "R_8B11A847", "route_name": "桐生線", "route_color": "#1F78FF", "route_text_color": "#ffffff", "line_name": "桐生線", "operator_id": "tobu", "representation": "service_path", "min_zoom": 0, "max_zoom": 24, "offset_rank": 0}}, {"type": "Feature", "bbox": [139.29815, 36.41857, 139.2989, 36.41901], "geometry": {"type": "LineString", "coordinates": [[139.2989, 36.41857], [139.29855, 36.41877], [139.29815, 36.41901]]}, "properties": {"id": "GEOM_TOKYO_4419", "route_id": "R_8B11A847", "route_name": "桐生線", "route_color": "#1F78FF", "route_text_color": "#ffffff", "line_name": "桐生線", "operator_id": "tobu", "representation": "service_path", "min_zoom": 0, "max_zoom": 24, "offset_rank": 0}}, {"type": "Feature", "bbox": [139.51830025178, 36.3151462814725, 139.51861138608336, 36.31518517326042], "geometry": {"type": "LineString", "coordinates": [[139.51830025178, 36.3151462814725], [139.51861138608336, 36.31518517326042]]}, "properties": {"id": "GEOM_TOKYO_4557", "route_id": "R_5032FAD9", "route_name": null, "route_color": "#E49F00", "route_text_color": null, "line_name": "両毛線", "operator_id": "jr_east", "representation": "service_path", "min_zoom": 0, "max_zoom": 24, "offset_rank": 0}}, {"type": "Feature", "bbox": [139.51861138608336, 36.31518517326042, 139.52788, 36.31622], "geometry": {"type": "LineString", "coordinates": [[139.51861138608336, 36.31518517326042], [139.51889, 36.31522], [139.51945, 36.3153], [139.52024, 36.3154], [139.52179, 36.31561], [139.52314, 36.31582], [139.5244, 36.316], [139.52506, 36.31609], [139.52576, 36.31617], [139.5267, 36.31622], [139.52788, 36.31619]]}, "properties": {"id": "GEOM_TOKYO_4558", "route_id": "R_5032FAD9", "route_name": null, "route_color": "#E49F00", "route_text_color": null, "line_name": "両毛線", "operator_id": "jr_east", "representation": "service_path", "min_zoom": 0, "max_zoom": 24, "offset_rank": 0}}, {"type": "Feature", "bbox": [139.29753, 36.41901, 139.29815, 36.41939], "geometry": {"type": "LineString", "coordinates": [[139.29815, 36.41901], [139.29794, 36.41914], [139.29753, 36.41939]]}, "properties": {"id": "GEOM_TOKYO_4611", "route_id": "R_8B11A847", "route_name": "桐生線", "route_color": "#1F78FF", "route_text_color": "#ffffff", "line_name": "桐生線", "operator_id": "tobu", "representation": "service_path", "min_zoom": 0, "max_zoom": 24, "offset_rank": 0}}]}