{"type": "FeatureCollection", "features": [{"type": "Feature", "bbox": [139.4647, 35.4128, 139.4657, 35.43159], "geometry": {"type": "LineString", "coordinates": [[139.4647, 35.43159], [139.46474, 35.43067], [139.46484, 35.4292], [139.46487, 35.42875], [139.46494, 35.42785], [139.46496, 35.42759], [139.46504, 35.42623], [139.4651, 35.42542], [139.46516, 35.42465], [139.46518, 35.42446], [139.46525, 35.42344], [139.46531, 35.42261], [139.46542, 35.42123], [139.46549, 35.41993], [139.46551, 35.41958], [139.46567, 35.41729], [139.4657, 35.41676], [139.46569, 35.41638], [139.46559, 35.41481], [139.46538, 35.4128]]}, "properties": {"id": "GEOM_TOKYO_0512", "route_id": "R_3C82054B", "route_name": null, "route_color": "#2B78D0", "route_text_color": null, "line_name": "江ノ島線", "operator_id": "odakyu", "representation": "service_path", "min_zoom": 0, "max_zoom": 24, "offset_rank": 0}}, {"type": "Feature", "bbox": [139.46463, 35.39701, 139.46632, 35.4117], "geometry": {"type": "LineString", "coordinates": [[139.46527, 35.4117], [139.46516, 35.41017], [139.46497, 35.40757], [139.46494, 35.40715], [139.46487, 35.40623], [139.46477, 35.40506], [139.46469, 35.40415], [139.46463, 35.40324], [139.46463, 35.403], [139.46466, 35.40246], [139.4647, 35.40216], [139.46474, 35.40188], [139.46476, 35.40176], [139.46481, 35.40154], [139.46505, 35.40083], [139.46597, 35.39811], [139.46618, 35.39744], [139.46632, 35.39701]]}, "properties": {"id": "GEOM_TOKYO_0514", "route_id": "R_3C82054B", "route_name": null, "route_color": "#2B78D0", "route_text_color": null, "line_name": "江ノ島線", "operator_id": "odakyu", "representation": "service_path", "min_zoom": 0, "max_zoom": 24, "offset_rank": 0}}, {"type": "Feature", "bbox": [139.48284, 35.33816, 139.4864, 35.33858], "geometry": {"type": "LineString", "coordinates": [[139.48284, 35.33816], [139.48327, 35.33825], [139.48385, 35.33838], [139.48426, 35.33845], [139.48455, 35.33849], [139.4849, 35.33852], [139.48575, 35.33855], [139.4864, 35.33858]]}, "properties": {"id": "GEOM_TOKYO_0516", "route_id": "R_3C82054B", "route_name": null, "route_color": "#2B78D0", "route_text_color": null, "line_name": "江ノ島線", "operator_id": "odakyu", "representation": "service_path", "min_zoom": 0, "max_zoom": 24, "offset_rank": 0}}, {"type": "Feature", "bbox": [139.48235, 35.30887, 139.4835, 35.30975], "geometry": {"type": "LineString", "coordinates": [[139.4835, 35.30887], [139.48235, 35.30975]]}, "properties": {"id": "GEOM_TOKYO_0521", "route_id": "R_3C82054B", "route_name": null, "route_color": "#2B78D0", "route_text_color": null, "line_name": "江ノ島線", "operator_id": "odakyu", "representation": "service_path", "min_zoom": 0, "max_zoom": 24, "offset_rank": 0}}, {"type": "Feature", "bbox": [139.47324, 35.36225, 139.47329, 35.36293], "geometry": {"type": "LineString", "coordinates": [[139.47324, 35.36293], [139.47329, 35.36225]]}, "properties": {"id": "GEOM_TOKYO_0522", "route_id": "R_3C82054B", "route_name": null, "route_color": "#2B78D0", "route_text_color": null, "line_name": "江ノ島線", "operator_id": "odakyu", "representation": "service_path", "min_zoom": 0, "max_zoom": 24, "offset_rank": 0}}, {"type": "Feature", "bbox": [139.47602, 35.33809, 139.48284, 35.34788], "geometry": {"type": "LineString", "coordinates": [[139.47602, 35.34788], [139.47609, 35.34775], [139.47622, 35.34753], [139.47635, 35.34733], [139.47654, 35.34705], [139.47678, 35.34664], [139.47688, 35.34645], [139.47736, 35.34566], [139.47749, 35.34541], [139.47759, 35.34519], [139.47775, 35.34476], [139.47782, 35.34453], [139.47802, 35.34372], [139.47817, 35.34297], [139.47823, 35.34271], [139.47835, 35.34218], [139.47838, 35.34201], [139.47842, 35.34182], [139.47866, 35.34085], [139.47875, 35.34047], [139.47889, 35.33987], [139.47892, 35.33975], [139.47897, 35.33963], [139.47906, 35.33953], [139.47922, 35.33937], [139.47943, 35.3392], [139.47964, 35.33904], [139.48029, 35.33868], [139.48093, 35.33833], [139.48113, 35.33823], [139.48131, 35.33817], [139.48149, 35.33813], [139.48169, 35.3381], [139.48184, 35.33809], [139.48207, 35.33809], [139.48254, 35.33811], [139.48284, 35.33816]]}, "properties": {"id": "GEOM_TOKYO_0523", "route_id": "R_3C82054B", "route_name": null, "route_color": "#2B78D0", "route_text_color": null, "line_name": "江ノ島線", "operator_id": "odakyu", "representation": "service_path", "min_zoom": 0, "max_zoom": 24, "offset_rank": 0}}, {"type": "Feature", "bbox": [139.47144, 35.30975, 139.48235, 35.3204], "geometry": {"type": "LineString", "coordinates": [[139.48235, 35.30975], [139.48166, 35.31029], [139.48101, 35.3108], [139.48071, 35.31106], [139.4804, 35.31138], [139.48014, 35.31166], [139.47918, 35.31293], [139.47865, 35.31364], [139.47843, 35.31393], [139.47792, 35.31461], [139.47767, 35.31489], [139.47734, 35.31519], [139.47697, 35.31549], [139.47659, 35.31576], [139.47574, 35.31636], [139.47526, 35.31669], [139.47453, 35.31722], [139.47421, 35.31744], [139.47379, 35.31775], [139.47334, 35.31816], [139.47295, 35.31854], [139.4725, 35.31902], [139.47215, 35.31943], [139.47185, 35.31981], [139.47144, 35.3204]]}, "properties": {"id": "GEOM_TOKYO_0524", "route_id": "R_3C82054B", "route_name": null, "route_color": "#2B78D0", "route_text_color": null, "line_name": "江ノ島線", "operator_id": "odakyu", "representation": "service_path", "min_zoom": 0, "max_zoom": 24, "offset_rank": 0}}, {"type": "Feature", "bbox": [139.47566, 35.34788, 139.47602, 35.34854], "geometry": {"type": "LineString", "coordinates": [[139.47566, 35.34854], [139.47602, 35.34788]]}, "properties": {"id": "GEOM_TOKYO_0525", "route_id": "R_3C82054B", "route_name": null, "route_color": "#2B78D0", "route_text_color": null, "line_name": "江ノ島線", "operator_id": "odakyu", "representation": "service_path", "min_zoom": 0, "max_zoom": 24, "offset_rank": 0}}, {"type": "Feature", "bbox": [139.47061, 35.3834, 139.47083, 35.38412], "geometry": {"type": "LineString", "coordinates": [[139.47061, 35.38412], [139.47083, 35.3834]]}, "properties": {"id": "GEOM_TOKYO_0527", "route_id": "R_3C82054B", "route_name": null, "route_color": "#2B78D0", "route_text_color": null, "line_name": "江ノ島線", "operator_id": "odakyu", "representation": "service_path", "min_zoom": 0, "max_zoom": 24, "offset_rank": 0}}, {"type": "Feature", "bbox": [139.46662, 35.38412, 139.47061, 35.39608], "geometry": {"type": "LineString", "coordinates": [[139.46662, 35.39608], [139.46685, 35.39541], [139.46747, 35.39351], [139.46768, 35.39288], [139.46775, 35.3927], [139.46807, 35.39173], [139.46861, 35.39016], [139.46916, 35.38836], [139.46979, 35.38658], [139.46984, 35.38643], [139.4699, 35.38627], [139.47016, 35.38546], [139.47061, 35.38412]]}, "properties": {"id": "GEOM_TOKYO_0528", "route_id": "R_3C82054B", "route_name": null, "route_color": "#2B78D0", "route_text_color": null, "line_name": "江ノ島線", "operator_id": "odakyu", "representation": "service_path", "min_zoom": 0, "max_zoom": 24, "offset_rank": 0}}, {"type": "Feature", "bbox": [139.46989, 35.3211, 139.47497, 35.33073], "geometry": {"type": "LineString", "coordinates": [[139.471, 35.3211], [139.47089, 35.32129], [139.47057, 35.32176], [139.47019, 35.32244], [139.47005, 35.32279], [139.46999, 35.32302], [139.46996, 35.32318], [139.46992, 35.32344], [139.46989, 35.32372], [139.46989, 35.32421], [139.46997, 35.32469], [139.47013, 35.32516], [139.47038, 35.32571], [139.47065, 35.32615], [139.47091, 35.32653], [139.47132, 35.327], [139.47147, 35.32716], [139.47213, 35.32783], [139.47314, 35.32886], [139.47497, 35.33073]]}, "properties": {"id": "GEOM_TOKYO_0530", "route_id": "R_3C82054B", "route_name": null, "route_color": "#2B78D0", "route_text_color": null, "line_name": "江ノ島線", "operator_id": "odakyu", "representation": "service_path", "min_zoom": 0, "max_zoom": 24, "offset_rank": 0}}, {"type": "Feature", "bbox": [139.47497, 35.33073, 139.47561, 35.33134], "geometry": {"type": "LineString", "coordinates": [[139.47561, 35.33134], [139.47497, 35.33073]]}, "properties": {"id": "GEOM_TOKYO_0534", "route_id": "R_3C82054B", "route_name": null, "route_color": "#2B78D0", "route_text_color": null, "line_name": "江ノ島線", "operator_id": "odakyu", "representation": "service_path", "min_zoom": 0, "max_zoom": 24, "offset_rank": 0}}, {"type": "Feature", "bbox": [139.471, 35.3204, 139.47144, 35.3211], "geometry": {"type": "LineString", "coordinates": [[139.47144, 35.3204], [139.471, 35.3211]]}, "properties": {"id": "GEOM_TOKYO_0536", "route_id": "R_3C82054B", "route_name": null, "route_color": "#2B78D0", "route_text_color": null, "line_name": "江ノ島線", "operator_id": "odakyu", "representation": "service_path", "min_zoom": 0, "max_zoom": 24, "offset_rank": 0}}, {"type": "Feature", "bbox": [139.4864, 35.33858, 139.48784, 35.33861], "geometry": {"type": "LineString", "coordinates": [[139.4864, 35.33858], [139.48784, 35.33861]]}, "properties": {"id": "GEOM_TOKYO_0537", "route_id": "R_3C82054B", "route_name": null, "route_color": "#2B78D0", "route_text_color": null, "line_name": "江ノ島線", "operator_id": "odakyu", "representation": "service_path", "min_zoom": 0, "max_zoom": 24, "offset_rank": 0}}, {"type": "Feature", "bbox": [139.47561, 35.33134, 139.48284, 35.33816], "geometry": {"type": "LineString", "coordinates": [[139.47561, 35.33134], [139.47681, 35.33259], [139.47788, 35.3337], [139.47941, 35.33527], [139.48046, 35.33637], [139.48072, 35.33661], [139.48118, 35.33704], [139.48178, 35.33754], [139.48205, 35.33773], [139.48233, 35.33791], [139.48256, 35.33804], [139.48284, 35.33816]]}, "properties": {"id": "GEOM_TOKYO_0538", "route_id": "R_3C82054B", "route_name": null, "route_color": "#2B78D0", "route_text_color": null, "line_name": "江ノ島線", "operator_id": "odakyu", "representation": "service_path", "min_zoom": 0, "max_zoom": 24, "offset_rank": 0}}, {"type": "Feature", "bbox": [139.46527, 35.4117, 139.46538, 35.4128], "geometry": {"type": "LineString", "coordinates": [[139.46538, 35.4128], [139.46527, 35.4117]]}, "properties": {"id": "GEOM_TOKYO_0539", "route_id": "R_3C82054B", "route_name": null, "route_color": "#2B78D0", "route_text_color": null, "line_name": "江ノ島線", "operator_id": "odakyu", "representation": "service_path", "min_zoom": 0, "max_zoom": 24, "offset_rank": 0}}, {"type": "Feature", "bbox": [139.47329, 35.34854, 139.47566, 35.36225], "geometry": {"type": "LineString", "coordinates": [[139.47329, 35.36225], [139.4734, 35.361], [139.47358, 35.3594], [139.47366, 35.35854], [139.47375, 35.35732], [139.47382, 35.35631], [139.47394, 35.35453], [139.47413, 35.35249], [139.47422, 35.35195], [139.47429, 35.35151], [139.4744, 35.35111], [139.47451, 35.35074], [139.47467, 35.3504], [139.47492, 35.34983], [139.47508, 35.34951], [139.47523, 35.34926], [139.47566, 35.34854]]}, "properties": {"id": "GEOM_TOKYO_0540", "route_id": "R_3C82054B", "route_name": null, "route_color": "#2B78D0", "route_text_color": null, "line_name": "江ノ島線", "operator_id": "odakyu", "representation": "service_path", "min_zoom": 0, "max_zoom": 24, "offset_rank": 0}}, {"type": "Feature", "bbox": [139.46632, 35.39608, 139.46662, 35.39701], "geometry": {"type": "LineString", "coordinates": [[139.46632, 35.39701], [139.46662, 35.39608]]}, "properties": {"id": "GEOM_TOKYO_0544", "route_id": "R_3C82054B", "route_name": null, "route_color": "#2B78D0", "route_text_color": null, "line_name": "江ノ島線", "operator_id": "odakyu", "representation": "service_path", "min_zoom": 0, "max_zoom": 24, "offset_rank": 0}}, {"type": "Feature", "bbox": [139.47083, 35.36293, 139.47324, 35.3834], "geometry": {"type": "LineString", "coordinates": [[139.47083, 35.3834], [139.47121, 35.38235], [139.47124, 35.38228], [139.47179, 35.38061], [139.47224, 35.37913], [139.47261, 35.37808], [139.4727, 35.37771], [139.47278, 35.37705], [139.47283, 35.37635], [139.47286, 35.37471], [139.47287, 35.37349], [139.47289, 35.37209], [139.47289, 35.36799], [139.47293, 35.36653], [139.47309, 35.36448], [139.47312, 35.36423], [139.47324, 35.36293]]}, "properties": {"id": "GEOM_TOKYO_0545", "route_id": "R_3C82054B", "route_name": null, "route_color": "#2B78D0", "route_text_color": null, "line_name": "江ノ島線", "operator_id": "odakyu", "representation": "service_path", "min_zoom": 0, "max_zoom": 24, "offset_rank": 0}}, {"type": "Feature", "bbox": [139.2779, 35.38099, 139.3132, 35.3958], "geometry": {"type": "LineString", "coordinates": [[139.2779, 35.38099], [139.27853, 35.38125], [139.27878, 35.38135], [139.27908, 35.38148], [139.28019, 35.38194], [139.28038, 35.382], [139.28071, 35.38214], [139.2814, 35.38242], [139.28252, 35.38289], [139.28289, 35.38304], [139.28331, 35.3832], [139.28349, 35.38328], [139.2836, 35.38333], [139.28371, 35.38336], [139.28374, 35.38338], [139.28409, 35.3835], [139.2845, 35.38365], [139.2848, 35.38376], [139.28503, 35.38384], [139.28505, 35.38386], [139.28509, 35.38386], [139.28545, 35.38399], [139.28582, 35.38413], [139.28658, 35.3844], [139.28745, 35.38471], [139.28809, 35.38495], [139.28832, 35.38503], [139.28999, 35.38563], [139.2903, 35.38573], [139.29071, 35.38588], [139.29094, 35.38597], [139.29214, 35.38639], [139.2923, 35.38646], [139.29249, 35.38652], [139.29348, 35.38687], [139.29389, 35.38702], [139.29458, 35.38725], [139.29489, 35.38737], [139.29545, 35.38756], [139.29584, 35.3877], [139.29594, 35.38774], [139.29614, 35.3878], [139.29658, 35.38796], [139.29697, 35.3881], [139.29753, 35.38831], [139.29805, 35.38853], [139.29816, 35.38857], [139.29854, 35.38874], [139.29887, 35.38888], [139.29939, 35.38911], [139.29978, 35.3893], [139.30023, 35.38951], [139.30045, 35.38963], [139.30099, 35.38988], [139.3012, 35.38999], [139.30186, 35.39031], [139.30289, 35.39081], [139.30327, 35.39098], [139.30347, 35.39109], [139.30421, 35.39145], [139.3046, 35.39163], [139.30544, 35.39204], [139.30579, 35.39221], [139.30701, 35.3928], [139.30796, 35.39328], [139.30841, 35.39348], [139.30914, 35.39383], [139.30946, 35.394], [139.30989, 35.39421], [139.31017, 35.39434], [139.31062, 35.39455], [139.31119, 35.39483], [139.31214, 35.39528], [139.3125, 35.39546], [139.3132, 35.3958]]}, "properties": {"id": "GEOM_TOKYO_0617", "route_id": "R_71E9E9F5", "route_name": null, "route_color": "#2B78D0", "route_text_color": null, "line_name": "小田原線", "operator_id": "odakyu", "representation": "service_path", "min_zoom": 0, "max_zoom": 24, "offset_rank": 0}}, {"type": "Feature", "bbox": [139.3132, 35.3958, 139.31439, 35.39638], "geometry": {"type": "LineString", "coordinates": [[139.31439, 35.39638], [139.3132, 35.3958]]}, "properties": {"id": "GEOM_TOKYO_0620", "route_id": "R_71E9E9F5", "route_name": null, "route_color": "#2B78D0", "route_text_color": null, "line_name": "小田原線", "operator_id": "odakyu", "representation": "service_path", "min_zoom": 0, "max_zoom": 24, "offset_rank": 0}}, {"type": "Feature", "bbox": [139.27666, 35.38026, 139.2779, 35.38099], "geometry": {"type": "LineString", "coordinates": [[139.2779, 35.38099], [139.27723, 35.38062], [139.27675, 35.38034], [139.27666, 35.38026]]}, "properties": {"id": "GEOM_TOKYO_0625", "route_id": "R_71E9E9F5", "route_name": null, "route_color": "#2B78D0", "route_text_color": null, "line_name": "小田原線", "operator_id": "odakyu", "representation": "service_path", "min_zoom": 0, "max_zoom": 24, "offset_rank": 0}}, {"type": "Feature", "bbox": [139.27125, 35.37317, 139.27666, 35.38026], "geometry": {"type": "LineString", "coordinates": [[139.27125, 35.37317], [139.27136, 35.37327], [139.27169, 35.37363], [139.27205, 35.37405], [139.27244, 35.37459], [139.27312, 35.37553], [139.2733, 35.37577], [139.27365, 35.37625], [139.2737, 35.37633], [139.27383, 35.3765], [139.27388, 35.37658], [139.27393, 35.37664], [139.27429, 35.37714], [139.27447, 35.37738], [139.2746, 35.37756], [139.27621, 35.37976], [139.27641, 35.37999], [139.27657, 35.38015], [139.27666, 35.38026]]}, "properties": {"id": "GEOM_TOKYO_0626", "route_id": "R_71E9E9F5", "route_name": null, "route_color": "#2B78D0", "route_text_color": null, "line_name": "小田原線", "operator_id": "odakyu", "representation": "service_path", "min_zoom": 0, "max_zoom": 24, "offset_rank": 0}}, {"type": "Feature", "bbox": [139.31439, 35.39638, 139.34366, 35.41737], "geometry": {"type": "LineString", "coordinates": [[139.31439, 35.39638], [139.31502, 35.39671], [139.31538, 35.39689], [139.31574, 35.39706], [139.31755, 35.39796], [139.31806, 35.39822], [139.31828, 35.39835], [139.31861, 35.39857], [139.31898, 35.3988], [139.3191, 35.39889], [139.32054, 35.39988], [139.3211, 35.40027], [139.32195, 35.40084], [139.32246, 35.4012], [139.32384, 35.40216], [139.32514, 35.40304], [139.3254, 35.40322], [139.3267, 35.4041], [139.32757, 35.4047], [139.32793, 35.40495], [139.32825, 35.40516], [139.32864, 35.40543], [139.32995, 35.40633], [139.33056, 35.40674], [139.33068, 35.40682], [139.33183, 35.40761], [139.33191, 35.40767], [139.33198, 35.40772], [139.33228, 35.40792], [139.33236, 35.40798], [139.33339, 35.40866], [139.33423, 35.40925], [139.33447, 35.40945], [139.33465, 35.40962], [139.335, 35.41], [139.3357, 35.41092], [139.33576, 35.41099], [139.33606, 35.4114], [139.33611, 35.41145], [139.33625, 35.41165], [139.33626, 35.41165], [139.33664, 35.41213], [139.33691, 35.41244], [139.33743, 35.41293], [139.33768, 35.41313], [139.33806, 35.41341], [139.33909, 35.41406], [139.33927, 35.41416], [139.34013, 35.41471], [139.34119, 35.41545], [139.34175, 35.41585], [139.34241, 35.41635], [139.34356, 35.4173], [139.34366, 35.41737]]}, "properties": {"id": "GEOM_TOKYO_0629", "route_id": "R_71E9E9F5", "route_name": null, "route_color": "#2B78D0", "route_text_color": null, "line_name": "小田原線", "operator_id": "odakyu", "representation": "service_path", "min_zoom": 0, "max_zoom": 24, "offset_rank": 0}}, {"type": "Feature", "bbox": [139.15582, 35.25741, 139.59111, 35.48638], "geometry": {"type": "LineString", "coordinates": [[139.15582, 35.25741], [139.15594, 35.25752], [139.16043, 35.26191], [139.16057, 35.26205], [139.1608, 35.26227], [139.16119, 35.26265], [139.16123, 35.26269], [139.16157, 35.26302], [139.16268, 35.26411], [139.16291, 35.26433], [139.1658, 35.26716], [139.16615, 35.2675], [139.16642, 35.26776], [139.16782, 35.26913], [139.17077, 35.272], [139.17232, 35.27352], [139.1732, 35.27431], [139.17399, 35.27499], [139.17413, 35.2751], [139.17476, 35.27562], [139.17489, 35.27573], [139.17511, 35.27591], [139.17527, 35.27604], [139.17536, 35.27611], [139.17595, 35.27653], [139.17608, 35.27662], [139.17675, 35.2771], [139.17916, 35.27864], [139.18203, 35.28019], [139.1826, 35.28047], [139.18883, 35.28337], [139.18949, 35.28367], [139.18961, 35.28372], [139.1897, 35.28377], [139.19055, 35.28416], [139.1912, 35.28446], [139.19142, 35.28456], [139.19148, 35.28459], [139.19184, 35.28475], [139.19213, 35.28489], [139.19313, 35.28534], [139.19636, 35.28683], [139.19667, 35.28697], [139.19836, 35.28778], [139.1999, 35.28849], [139.20357, 35.29016], [139.20401, 35.29036], [139.20512, 35.29088], [139.21261, 35.29431], [139.21476, 35.29532], [139.21687, 35.29631], [139.21743, 35.29655], [139.21757, 35.29661], [139.2188, 35.29718], [139.21941, 35.29746], [139.21976, 35.29762], [139.22111, 35.29825], [139.22125, 35.29831], [139.22133, 35.29835], [139.22144, 35.2984], [139.22265, 35.29896], [139.22277, 35.29901], [139.22322, 35.29922], [139.22345, 35.29933], [139.22368, 35.29943], [139.22389, 35.29953], [139.22395, 35.29956], [139.22517, 35.30009], [139.2253, 35.30014], [139.22619, 35.3005], [139.22631, 35.30054], [139.22752, 35.30102], [139.22925, 35.30165], [139.23048, 35.30206], [139.2322, 35.30253], [139.23346, 35.30288], [139.23456, 35.3032], [139.23535, 35.30342], [139.23557, 35.30348], [139.23674, 35.3038], [139.23691, 35.30385], [139.23771, 35.30408], [139.23832, 35.30425], [139.2431, 35.30562], [139.24682, 35.3067], [139.24687, 35.30677], [139.24716, 35.30687], [139.24725, 35.30691], [139.2477, 35.30704], [139.24795, 35.30712], [139.24839, 35.30725], [139.24857, 35.3073], [139.24908, 35.30746], [139.24915, 35.30748], [139.25056, 35.30789], [139.25197, 35.30831], [139.25325, 35.30868], [139.25426, 35.30898], [139.25494, 35.30918], [139.255, 35.3092], [139.25545, 35.30934], [139.25557, 35.30937], [139.2563, 35.30958], [139.25639, 35.3096], [139.2572, 35.30983], [139.25729, 35.30985], [139.2575, 35.30992], [139.25793, 35.31004], [139.25798, 35.31005], [139.25836, 35.31016], [139.25843, 35.31018], [139.25905, 35.31037], [139.2603, 35.31072], [139.26066, 35.31082], [139.26101, 35.31092], [139.26112, 35.31095], [139.26157, 35.3111], [139.26166, 35.31112], [139.26256, 35.31138], [139.26442, 35.31189], [139.26488, 35.31201], [139.26602, 35.31231], [139.26668, 35.31252], [139.26761, 35.31282], [139.26785, 35.31291], [139.27007, 35.31376], [139.27121, 35.31428], [139.27225, 35.31478], [139.27272, 35.31504], [139.27337, 35.31543], [139.27471, 35.31619], [139.276, 35.31693], [139.27675, 35.31738], [139.2775, 35.31782], [139.278, 35.31811], [139.27975, 35.31913], [139.28082, 35.31976], [139.28225, 35.32059], [139.28377, 35.32148], [139.28532, 35.3224], [139.28652, 35.32306], [139.28731, 35.32354], [139.28831, 35.32418], [139.2889, 35.32462], [139.28944, 35.32509], [139.28993, 35.32552], [139.29089, 35.32638], [139.29167, 35.32711], [139.29285, 35.3282], [139.29306, 35.3284], [139.29328, 35.32861], [139.29477, 35.32995], [139.29567, 35.33076], [139.29589, 35.33095], [139.29684, 35.33178], [139.29721, 35.33215], [139.2978, 35.33269], [139.29853, 35.33335], [139.29902, 35.3338], [139.29925, 35.33401], [139.30023, 35.33489], [139.30081, 35.33539], [139.301, 35.33556], [139.30126, 35.3358], [139.30187, 35.33631], [139.3022, 35.33661], [139.30247, 35.33685], [139.30302, 35.33745], [139.30407, 35.33857], [139.30507, 35.33965], [139.30633, 35.341], [139.30661, 35.3413], [139.30725, 35.34199], [139.30758, 35.34235], [139.30886, 35.3437], [139.30909, 35.34395], [139.30913, 35.344], [139.30947, 35.34437], [139.31056, 35.34554], [139.31075, 35.34574], [139.31103, 35.34605], [139.31116, 35.34619], [139.31199, 35.34707], [139.3122, 35.34731], [139.31277, 35.34792], [139.31296, 35.34815], [139.314, 35.34923], [139.31528, 35.35058], [139.31626, 35.3516], [139.31649, 35.35183], [139.3173, 35.35268], [139.31738, 35.35277], [139.3189, 35.35436], [139.31961, 35.35501], [139.31996, 35.35532], [139.32022, 35.35553], [139.3214, 35.35642], [139.32223, 35.35701], [139.32321, 35.3577], [139.32521, 35.35913], [139.32595, 35.35965], [139.327, 35.36042], [139.32733, 35.36066], [139.32858, 35.36156], [139.32997, 35.36256], [139.3302, 35.36273], [139.33412, 35.36555], [139.33439, 35.36573], [139.33623, 35.36707], [139.3365, 35.36726], [139.3381, 35.36841], [139.33868, 35.36884], [139.34055, 35.37018], [139.34172, 35.37102], [139.3425, 35.37157], [139.3429, 35.37187], [139.3439, 35.37259], [139.34509, 35.37345], [139.34541, 35.37369], [139.34651, 35.37447], [139.3473, 35.37504], [139.34785, 35.37544], [139.34847, 35.37589], [139.34902, 35.37628], [139.34932, 35.37652], [139.35091, 35.37766], [139.35117, 35.37785], [139.35229, 35.37864], [139.35272, 35.37896], [139.35284, 35.37904], [139.35306, 35.37921], [139.3548, 35.38046], [139.35505, 35.38064], [139.35525, 35.38079], [139.35539, 35.38089], [139.3555, 35.38098], [139.356, 35.38134], [139.35615, 35.38145], [139.35624, 35.38152], [139.35742, 35.38237], [139.35772, 35.38258], [139.35935, 35.38376], [139.36037, 35.3845], [139.36145, 35.38525], [139.36151, 35.3853], [139.36171, 35.38542], [139.36194, 35.38556], [139.36203, 35.38562], [139.3623, 35.38579], [139.36362, 35.38661], [139.36462, 35.38718], [139.36506, 35.38739], [139.36553, 35.38763], [139.36611, 35.3879], [139.36667, 35.38818], [139.36808, 35.38882], [139.36927, 35.38937], [139.36979, 35.3896], [139.37024, 35.38981], [139.3714, 35.39034], [139.3718, 35.39053], [139.37397, 35.39145], [139.374, 35.39146], [139.37573, 35.39223], [139.37805, 35.39323], [139.37843, 35.39341], [139.37963, 35.39394], [139.38162, 35.39481], [139.38216, 35.39505], [139.38239, 35.39516], [139.38262, 35.39526], [139.38378, 35.39577], [139.38404, 35.39588], [139.38435, 35.39602], [139.38469, 35.39616], [139.38515, 35.39636], [139.38674, 35.39706], [139.3876, 35.39744], [139.3884, 35.39779], [139.38934, 35.39821], [139.38986, 35.39844], [139.39136, 35.3991], [139.39182, 35.3993], [139.39277, 35.39973], [139.39423, 35.40035], [139.39533, 35.40084], [139.39666, 35.40142], [139.39689, 35.40152], [139.3995, 35.40267], [139.39974, 35.40278], [139.40106, 35.40335], [139.40382, 35.40455], [139.40527, 35.4052], [139.40643, 35.40571], [139.40796, 35.40638], [139.41148, 35.40793], [139.4121, 35.4082], [139.41234, 35.4083], [139.41462, 35.40933], [139.41508, 35.40952], [139.41868, 35.41114], [139.42113, 35.41224], [139.42307, 35.41308], [139.42479, 35.41386], [139.42638, 35.41458], [139.42861, 35.41562], [139.42898, 35.41579], [139.43033, 35.41641], [139.43088, 35.41666], [139.4311, 35.41676], [139.43321, 35.41774], [139.43436, 35.41826], [139.43586, 35.41894], [139.43754, 35.4197], [139.43785, 35.41984], [139.43805, 35.41993], [139.43957, 35.42062], [139.44045, 35.42101], [139.44099, 35.42126], [139.44102, 35.42127], [139.44228, 35.42184], [139.44262, 35.42199], [139.44294, 35.42213], [139.44343, 35.42236], [139.44374, 35.4225], [139.4449, 35.42302], [139.44506, 35.42309], [139.44583, 35.42344], [139.44693, 35.42394], [139.44785, 35.42436], [139.44832, 35.42457], [139.45085, 35.42573], [139.45102, 35.4258], [139.45107, 35.42583], [139.45259, 35.42652], [139.4533, 35.42685], [139.45342, 35.4269], [139.45524, 35.42769], [139.45541, 35.42776], [139.45697, 35.42844], [139.45761, 35.42874], [139.45795, 35.42889], [139.45889, 35.42933], [139.45912, 35.42943], [139.45981, 35.42974], [139.45992, 35.42979], [139.46018, 35.42991], [139.46086, 35.43022], [139.46107, 35.43031], [139.46113, 35.43033], [139.46139, 35.43045], [139.46187, 35.43065], [139.46207, 35.43073], [139.46211, 35.43075], [139.46303, 35.43113], [139.46358, 35.43135], [139.46374, 35.43141], [139.46382, 35.43144], [139.46393, 35.43149], [139.46408, 35.43154], [139.46441, 35.43167], [139.46626, 35.4324], [139.46726, 35.43274], [139.4679, 35.43297], [139.46912, 35.4334], [139.47025, 35.43381], [139.47062, 35.43395], [139.47291, 35.43481], [139.47321, 35.43492], [139.47356, 35.43505], [139.47397, 35.43519], [139.47429, 35.4353], [139.47587, 35.43587], [139.47741, 35.43644], [139.47747, 35.43646], [139.47772, 35.43656], [139.47778, 35.43658], [139.47823, 35.43675], [139.47829, 35.43677], [139.47846, 35.43683], [139.47854, 35.43686], [139.47893, 35.43701], [139.47986, 35.43736], [139.48004, 35.43742], [139.48177, 35.43808], [139.48185, 35.43811], [139.48193, 35.43814], [139.48201, 35.43817], [139.48226, 35.43826], [139.48258, 35.43838], [139.48329, 35.43864], [139.48339, 35.43868], [139.48362, 35.43876], [139.48419, 35.43896], [139.48431, 35.439], [139.48454, 35.43907], [139.48466, 35.43912], [139.4853, 35.43935], [139.48538, 35.43938], [139.48548, 35.43942], [139.48554, 35.43944], [139.48705, 35.44001], [139.48713, 35.44004], [139.4885, 35.44054], [139.48894, 35.44069], [139.48926, 35.44081], [139.49138, 35.44158], [139.49167, 35.44168], [139.49217, 35.44186], [139.49383, 35.44246], [139.49401, 35.44253], [139.49404, 35.44253], [139.49523, 35.44299], [139.49571, 35.44316], [139.49594, 35.44324], [139.4968, 35.4435], [139.49855, 35.44415], [139.50027, 35.44479], [139.50249, 35.44562], [139.5042, 35.44627], [139.50492, 35.44653], [139.50649, 35.44704], [139.50939, 35.4479], [139.50986, 35.44804], [139.51347, 35.4491], [139.51615, 35.44996], [139.51626, 35.44999], [139.51872, 35.45104], [139.52105, 35.45223], [139.52268, 35.45313], [139.52548, 35.45479], [139.52569, 35.45492], [139.52718, 35.4558], [139.52737, 35.45591], [139.53057, 35.45782], [139.53146, 35.45837], [139.53247, 35.45893], [139.53461, 35.46023], [139.53629, 35.46122], [139.53903, 35.46284], [139.5415, 35.46432], [139.54216, 35.46469], [139.54233, 35.4648], [139.54251, 35.46491], [139.54346, 35.46547], [139.54474, 35.46625], [139.54654, 35.4673], [139.54751, 35.46786], [139.54783, 35.46805], [139.54791, 35.46809], [139.5502, 35.46949], [139.55044, 35.46963], [139.55053, 35.46968], [139.55066, 35.46976], [139.55126, 35.47012], [139.55244, 35.47082], [139.5535, 35.47145], [139.55366, 35.47155], [139.55405, 35.47177], [139.55524, 35.47248], [139.55619, 35.47303], [139.55771, 35.47393], [139.5586, 35.47449], [139.56025, 35.47544], [139.5611, 35.47594], [139.56133, 35.47608], [139.56229, 35.47665], [139.5629, 35.477], [139.56368, 35.47743], [139.56386, 35.47753], [139.56473, 35.47796], [139.56532, 35.47828], [139.56582, 35.47853], [139.56651, 35.47885], [139.56687, 35.479], [139.56941, 35.47996], [139.57003, 35.48018], [139.57048, 35.48032], [139.57156, 35.48064], [139.57202, 35.48078], [139.57253, 35.48091], [139.57409, 35.48128], [139.57544, 35.48162], [139.57662, 35.48192], [139.57718, 35.48205], [139.58086, 35.48293], [139.58127, 35.48303], [139.58172, 35.48314], [139.58294, 35.48344], [139.58528, 35.48409], [139.5854, 35.48413], [139.58569, 35.48421], [139.58577, 35.48423], [139.588, 35.485], [139.58914, 35.48547], [139.58987, 35.48578], [139.59002, 35.48585], [139.5907, 35.48617], [139.59083, 35.48624], [139.59111, 35.48638]]}, "properties": {"id": "GEOM_TOKYO_0966", "route_id": "R_3B2E9FFD", "route_name": null, "route_color": "#1F78FF", "route_text_color": null, "line_name": "東海道新幹線", "operator_id": "東海旅客鉄道", "representation": "service_path", "min_zoom": 0, "max_zoom": 24, "offset_rank": 0}}, {"type": "Feature", "bbox": [139.54536, 35.33331, 139.54852, 35.33721], "geometry": {"type": "LineString", "coordinates": [[139.54536, 35.33721], [139.54601, 35.33661], [139.54618, 35.33646], [139.54647, 35.33619], [139.5469, 35.33579], [139.54728, 35.33546], [139.54759, 35.33514], [139.54778, 35.33493], [139.54809, 35.33456], [139.54817, 35.33443], [139.5483, 35.33416], [139.54843, 35.33389], [139.5485, 35.3336], [139.54852, 35.33331]]}, "properties": {"id": "GEOM_TOKYO_2138", "route_id": "R_05335D5F", "route_name": null, "route_color": "#2F4CA0", "route_text_color": null, "line_name": "横須賀線", "operator_id": "jr_east", "representation": "service_path", "min_zoom": 0, "max_zoom": 24, "offset_rank": 0}}, {"type": "Feature", "bbox": [139.55039, 35.30998, 139.56007, 35.31826], "geometry": {"type": "LineString", "coordinates": [[139.55039, 35.31826], [139.55041, 35.31792], [139.55047, 35.31752], [139.55054, 35.31716], [139.55058, 35.31698], [139.55073, 35.3165], [139.55081, 35.31624], [139.55085, 35.31611], [139.55089, 35.31599], [139.55107, 35.31554], [139.5512, 35.31525], [139.55135, 35.31495], [139.55164, 35.31447], [139.5518, 35.31423], [139.55202, 35.31391], [139.55238, 35.31344], [139.5526, 35.31323], [139.55293, 35.31292], [139.55332, 35.31257], [139.55359, 35.31236], [139.55394, 35.3121], [139.55425, 35.3119], [139.55456, 35.31171], [139.55494, 35.31148], [139.55526, 35.31129], [139.55563, 35.31111], [139.55622, 35.31087], [139.55663, 35.31073], [139.55733, 35.31052], [139.55799, 35.31036], [139.55862, 35.31024], [139.55867, 35.31022], [139.55895, 35.31017], [139.55928, 35.3101], [139.55963, 35.31005], [139.56007, 35.30998]]}, "properties": {"id": "GEOM_TOKYO_2139", "route_id": "R_05335D5F", "route_name": null, "route_color": "#2F4CA0", "route_text_color": null, "line_name": "横須賀線", "operator_id": "jr_east", "representation": "service_path", "min_zoom": 0, "max_zoom": 24, "offset_rank": 0}}, {"type": "Feature", "bbox": [139.54377, 35.33721, 139.54536, 35.33867], "geometry": {"type": "LineString", "coordinates": [[139.54536, 35.33721], [139.54377, 35.33867]]}, "properties": {"id": "GEOM_TOKYO_2140", "route_id": "R_05335D5F", "route_name": null, "route_color": "#2F4CA0", "route_text_color": null, "line_name": "横須賀線", "operator_id": "jr_east", "representation": "service_path", "min_zoom": 0, "max_zoom": 24, "offset_rank": 0}}, {"type": "Feature", "bbox": [139.53102, 35.3526, 139.53164, 35.35542], "geometry": {"type": "LineString", "coordinates": [[139.53102, 35.3526], [139.53112694, 35.35302777], [139.53141, 35.35416], [139.53164, 35.35542]]}, "properties": {"id": "GEOM_TOKYO_2141", "route_id": "R_05335D5F", "route_name": null, "route_color": "#2F4CA0", "route_text_color": null, "line_name": "横須賀線", "operator_id": "jr_east", "representation": "service_path", "min_zoom": 0, "max_zoom": 24, "offset_rank": 0}}, {"type": "Feature", "bbox": [139.56007, 35.30636, 139.56764, 35.30998], "geometry": {"type": "LineString", "coordinates": [[139.56007, 35.30998], [139.56064, 35.3098], [139.561, 35.30965], [139.56156, 35.30939], [139.56179, 35.30927], [139.56216, 35.30909], [139.56253, 35.30889], [139.56309, 35.30859], [139.56342, 35.30843], [139.56358, 35.30834], [139.56402, 35.3081], [139.56484, 35.30767], [139.56543, 35.30738], [139.56593, 35.30711], [139.56622, 35.30696], [139.56643, 35.30688], [139.5667, 35.30673], [139.56719, 35.30654], [139.56764, 35.30636]]}, "properties": {"id": "GEOM_TOKYO_2142", "route_id": "R_05335D5F", "route_name": null, "route_color": "#2F4CA0", "route_text_color": null, "line_name": "横須賀線", "operator_id": "jr_east", "representation": "service_path", "min_zoom": 0, "max_zoom": 24, "offset_rank": 0}}, {"type": "Feature", "bbox": [139.54829, 35.3284, 139.54852, 35.33331], "geometry": {"type": "LineString", "coordinates": [[139.54848, 35.3284], [139.54842, 35.32862], [139.54832, 35.32916], [139.54829, 35.32968], [139.54829, 35.32983], [139.54829, 35.33056], [139.5483, 35.33128], [139.5483, 35.33171], [139.54832, 35.33201], [139.54836, 35.33238], [139.54839, 35.33272], [139.54844, 35.33292], [139.54847, 35.33312], [139.54852, 35.33331]]}, "properties": {"id": "GEOM_TOKYO_2144", "route_id": "R_05335D5F", "route_name": null, "route_color": "#2F4CA0", "route_text_color": null, "line_name": "横須賀線", "operator_id": "jr_east", "representation": "service_path", "min_zoom": 0, "max_zoom": 24, "offset_rank": 0}}, {"type": "Feature", "bbox": [139.54848, 35.32036, 139.5508, 35.3284], "geometry": {"type": "LineString", "coordinates": [[139.55051, 35.32036], [139.55054, 35.32054], [139.55065, 35.3213], [139.55071, 35.32194], [139.55078, 35.32288], [139.5508, 35.32335], [139.55079, 35.32381], [139.55073, 35.32413], [139.55069, 35.32429], [139.55055, 35.32464], [139.55038, 35.32495], [139.55022, 35.32521], [139.54999, 35.32551], [139.54979, 35.32576], [139.54948, 35.32611], [139.54936, 35.32624], [139.54915, 35.3265], [139.54881, 35.3271], [139.54868, 35.32736], [139.54861, 35.3275], [139.54852, 35.32787], [139.5485, 35.32808], [139.54848, 35.3284]]}, "properties": {"id": "GEOM_TOKYO_2145", "route_id": "R_05335D5F", "route_name": null, "route_color": "#2F4CA0", "route_text_color": null, "line_name": "横須賀線", "operator_id": "jr_east", "representation": "service_path", "min_zoom": 0, "max_zoom": 24, "offset_rank": 0}}, {"type": "Feature", "bbox": [139.53016, 35.33867, 139.54377, 35.3526], "geometry": {"type": "LineString", "coordinates": [[139.54377, 35.33867], [139.54243, 35.33991], [139.54174, 35.34056], [139.54087, 35.34134], [139.54038, 35.34167], [139.53993, 35.34193], [139.53927, 35.34221], [139.53782, 35.34272], [139.5364, 35.34314], [139.53579, 35.34339], [139.53534, 35.34365], [139.53497, 35.34388], [139.53461, 35.34425], [139.53371, 35.34515], [139.53304, 35.34592], [139.53275, 35.3462], [139.53245, 35.34651], [139.53182, 35.34716], [139.53144, 35.34758], [139.53119, 35.34785], [139.53069, 35.34853], [139.53038, 35.34903], [139.53022, 35.3495], [139.53016, 35.34979], [139.53022, 35.35024], [139.53043, 35.35101], [139.53081, 35.35209], [139.53102, 35.3526]]}, "properties": {"id": "GEOM_TOKYO_2146", "route_id": "R_05335D5F", "route_name": null, "route_color": "#2F4CA0", "route_text_color": null, "line_name": "横須賀線", "operator_id": "jr_east", "representation": "service_path", "min_zoom": 0, "max_zoom": 24, "offset_rank": 0}}, {"type": "Feature", "bbox": [139.54848, 35.3284, 139.54862, 35.33331], "geometry": {"type": "LineString", "coordinates": [[139.54848, 35.3284], [139.5485, 35.32864], [139.54852, 35.32938], [139.54853, 35.3301], [139.54856, 35.3305], [139.54858, 35.33149], [139.54862, 35.33198], [139.54861, 35.3321], [139.54861, 35.33249], [139.5486, 35.33283], [139.54858, 35.33305], [139.54852, 35.33331]]}, "properties": {"id": "GEOM_TOKYO_2147", "route_id": "R_05335D5F", "route_name": null, "route_color": "#2F4CA0", "route_text_color": null, "line_name": "横須賀線", "operator_id": "jr_east", "representation": "service_path", "min_zoom": 0, "max_zoom": 24, "offset_rank": 0}}, {"type": "Feature", "bbox": [139.56007, 35.30636, 139.56764, 35.30998], "geometry": {"type": "LineString", "coordinates": [[139.56007, 35.30998], [139.56102, 35.30981], [139.56174, 35.30967], [139.56236, 35.30953], [139.56289, 35.30934], [139.56323, 35.30913], [139.56344, 35.309], [139.56359, 35.30889], [139.56386, 35.30872], [139.56431, 35.30844], [139.5647, 35.30819], [139.56474, 35.30816], [139.56553, 35.30764], [139.56602, 35.30736], [139.56621, 35.30725], [139.56669, 35.30695], [139.56739, 35.30653], [139.56764, 35.30636]]}, "properties": {"id": "GEOM_TOKYO_2148", "route_id": "R_05335D5F", "route_name": null, "route_color": "#2F4CA0", "route_text_color": null, "line_name": "横須賀線", "operator_id": "jr_east", "representation": "service_path", "min_zoom": 0, "max_zoom": 24, "offset_rank": 0}}, {"type": "Feature", "bbox": [139.55038, 35.31826, 139.55051, 35.32036], "geometry": {"type": "LineString", "coordinates": [[139.55039, 35.31826], [139.55038, 35.31843], [139.5504, 35.31887], [139.55041, 35.31933], [139.55044, 35.31969], [139.55046, 35.31996], [139.55051, 35.32036]]}, "properties": {"id": "GEOM_TOKYO_2149", "route_id": "R_05335D5F", "route_name": null, "route_color": "#2F4CA0", "route_text_color": null, "line_name": "横須賀線", "operator_id": "jr_east", "representation": "service_path", "min_zoom": 0, "max_zoom": 24, "offset_rank": 0}}, {"type": "Feature", "bbox": [139.54903, 35.3676, 139.5512, 35.36811], "geometry": {"type": "LineString", "coordinates": [[139.5512, 35.36811], [139.54903, 35.3676]]}, "properties": {"id": "GEOM_TOKYO_2327", "route_id": "R_135208E9", "route_name": null, "route_color": "#00BCD4", "route_text_color": null, "line_name": "根岸線", "operator_id": "jr_east", "representation": "service_path", "min_zoom": 0, "max_zoom": 24, "offset_rank": 0}}, {"type": "Feature", "bbox": [139.53102, 35.3526, 139.532, 35.35561], "geometry": {"type": "LineString", "coordinates": [[139.532, 35.35561], [139.53155, 35.3542], [139.531245, 35.353231], [139.53102, 35.3526]]}, "properties": {"id": "GEOM_TOKYO_2328", "route_id": "R_135208E9", "route_name": null, "route_color": "#00BCD4", "route_text_color": null, "line_name": "根岸線", "operator_id": "jr_east", "representation": "service_path", "min_zoom": 0, "max_zoom": 24, "offset_rank": 0}}, {"type": "Feature", "bbox": [139.52942, 35.35561, 139.54903, 35.36888], "geometry": {"type": "LineString", "coordinates": [[139.54903, 35.3676], [139.54895, 35.36759], [139.54851, 35.36749], [139.54842, 35.36747], [139.54801, 35.36738], [139.54792, 35.36736], [139.54754, 35.36728], [139.54672, 35.36711], [139.54621, 35.36707], [139.54568, 35.36704], [139.54532, 35.36704], [139.54473, 35.36712], [139.5445, 35.36716], [139.54419, 35.36723], [139.54385, 35.36731], [139.54327, 35.36747], [139.54316, 35.36749], [139.54279, 35.36759], [139.54073, 35.36808], [139.53969, 35.36837], [139.53898, 35.36857], [139.53887, 35.3686], [139.53811, 35.36875], [139.53748, 35.36884], [139.53661, 35.36888], [139.53592, 35.36888], [139.53538, 35.36884], [139.53497, 35.36877], [139.53468, 35.36871], [139.53441, 35.36863], [139.53407, 35.36852], [139.5336, 35.36832], [139.5331, 35.36807], [139.53264, 35.3678], [139.53219, 35.36744], [139.53173, 35.36698], [139.53141, 35.36657], [139.53105, 35.36602], [139.53092, 35.36578], [139.53062, 35.36521], [139.5303, 35.36449], [139.53014, 35.36417], [139.53009, 35.36403], [139.52977, 35.36327], [139.52961, 35.36274], [139.5295, 35.3622], [139.52942, 35.36145], [139.52945, 35.36098], [139.52953, 35.3606], [139.52968, 35.36022], [139.52997, 35.35971], [139.53043, 35.35908], [139.53131, 35.35796], [139.53168, 35.35746], [139.53188, 35.35702], [139.53205, 35.3564], [139.53207, 35.35598], [139.532, 35.35561]]}, "properties": {"id": "GEOM_TOKYO_2329", "route_id": "R_135208E9", "route_name": null, "route_color": "#00BCD4", "route_text_color": null, "line_name": "根岸線", "operator_id": "jr_east", "representation": "service_path", "min_zoom": 0, "max_zoom": 24, "offset_rank": 0}}, {"type": "Feature", "bbox": [139.5512, 35.36811, 139.57538, 35.37497], "geometry": {"type": "LineString", "coordinates": [[139.57538, 35.37497], [139.57343, 35.37452], [139.57213, 35.37428], [139.56773, 35.3734], [139.56548, 35.37285], [139.56286, 35.3722], [139.5628, 35.37215], [139.5612, 35.37104], [139.56061, 35.37068], [139.56034, 35.37054], [139.56018, 35.37046], [139.55994, 35.37035], [139.55973, 35.37025], [139.55949, 35.37016], [139.55926, 35.37008], [139.55882, 35.36994], [139.55849, 35.36985], [139.55751, 35.36958], [139.55475, 35.36894], [139.55404, 35.36878], [139.55393, 35.36876], [139.55326, 35.3686], [139.55262, 35.36846], [139.55191, 35.36829], [139.5516, 35.36821], [139.55131, 35.36814], [139.5512, 35.36811]]}, "properties": {"id": "GEOM_TOKYO_2330", "route_id": "R_135208E9", "route_name": null, "route_color": "#00BCD4", "route_text_color": null, "line_name": "根岸線", "operator_id": "jr_east", "representation": "service_path", "min_zoom": 0, "max_zoom": 24, "offset_rank": 0}}, {"type": "Feature", "bbox": [139.53392, 35.39917, 139.5347, 35.4017], "geometry": {"type": "LineString", "coordinates": [[139.53392, 35.4017], [139.5342, 35.40076], [139.53433, 35.40034], [139.53448, 35.3999], [139.53458, 35.39956], [139.53468, 35.39926], [139.5347, 35.39917]]}, "properties": {"id": "GEOM_TOKYO_3256", "route_id": "R_09EB5226", "route_name": null, "route_color": "#F28E1C", "route_text_color": null, "line_name": "東海道線", "operator_id": "jr_east", "representation": "service_path", "min_zoom": 0, "max_zoom": 24, "offset_rank": 0}}, {"type": "Feature", "bbox": [139.52918, 35.35542, 139.53574, 35.39917], "geometry": {"type": "LineString", "coordinates": [[139.5347, 35.39917], [139.53473, 35.39908], [139.53511, 35.39793], [139.53536, 35.3971], [139.53552, 35.39659], [139.53567, 35.39597], [139.53572, 35.39519], [139.53574, 35.39447], [139.53564, 35.39349], [139.53548, 35.39179], [139.53545, 35.39148], [139.53524, 35.38921], [139.535, 35.38661], [139.53476, 35.38394], [139.53463, 35.3828], [139.53458, 35.38238], [139.53444, 35.38134], [139.53433, 35.3808], [139.5342, 35.38026], [139.53406, 35.37982], [139.53362, 35.37875], [139.53296, 35.37736], [139.5321, 35.3758], [139.53199, 35.3756], [139.53176, 35.37521], [139.5316, 35.37492], [139.5313, 35.37438], [139.53113, 35.37405], [139.53083, 35.37354], [139.5306, 35.37313], [139.52997, 35.37173], [139.52971, 35.37118], [139.52956, 35.37072], [139.52952, 35.37034], [139.52957, 35.36993], [139.52971, 35.36915], [139.53001, 35.3679], [139.53025, 35.36704], [139.5304, 35.3665], [139.53045, 35.3662], [139.53045, 35.36602], [139.53043, 35.36576], [139.53039, 35.36545], [139.53021, 35.36478], [139.53007, 35.36445], [139.52995, 35.36415], [139.52984, 35.36386], [139.52959, 35.36325], [139.52936, 35.36266], [139.52923, 35.362], [139.52918, 35.36156], [139.52922, 35.36091], [139.52938, 35.36036], [139.52965, 35.35979], [139.53002, 35.35926], [139.53077, 35.35829], [139.53133, 35.35755], [139.53156, 35.3571], [139.5317, 35.35671], [139.53175, 35.35627], [139.53173, 35.35591], [139.53164, 35.35542]]}, "properties": {"id": "GEOM_TOKYO_3257", "route_id": "R_09EB5226", "route_name": null, "route_color": "#F28E1C", "route_text_color": null, "line_name": "東海道線", "operator_id": "jr_east", "representation": "service_path", "min_zoom": 0, "max_zoom": 24, "offset_rank": 0}}, {"type": "Feature", "bbox": [139.44401, 35.33674, 139.44778, 35.33695], "geometry": {"type": "LineString", "coordinates": [[139.44401, 35.33674], [139.44778, 35.33695]]}, "properties": {"id": "GEOM_TOKYO_3258", "route_id": "R_09EB5226", "route_name": null, "route_color": "#F28E1C", "route_text_color": null, "line_name": "東海道線", "operator_id": "jr_east", "representation": "service_path", "min_zoom": 0, "max_zoom": 24, "offset_rank": 0}}, {"type": "Feature", "bbox": [139.4064, 35.33007, 139.4096, 35.33122], "geometry": {"type": "LineString", "coordinates": [[139.4096, 35.33122], [139.40696, 35.33026], [139.40657, 35.33013], [139.4064, 35.33007]]}, "properties": {"id": "GEOM_TOKYO_3259", "route_id": "R_09EB5226", "route_name": null, "route_color": "#F28E1C", "route_text_color": null, "line_name": "東海道線", "operator_id": "jr_east", "representation": "service_path", "min_zoom": 0, "max_zoom": 24, "offset_rank": 0}}, {"type": "Feature", "bbox": [139.44778, 35.33695, 139.48473, 35.33876], "geometry": {"type": "LineString", "coordinates": [[139.44778, 35.33695], [139.44906, 35.33699], [139.45202, 35.33712], [139.45519, 35.33729], [139.45769, 35.33741], [139.45789, 35.33742], [139.46055, 35.33755], [139.46335, 35.3377], [139.46614, 35.33784], [139.46895, 35.33798], [139.46967, 35.33801], [139.4729, 35.33817], [139.47367, 35.33821], [139.47692, 35.33838], [139.48087, 35.33855], [139.48319, 35.33869], [139.48473, 35.33876]]}, "properties": {"id": "GEOM_TOKYO_3260", "route_id": "R_09EB5226", "route_name": null, "route_color": "#F28E1C", "route_text_color": null, "line_name": "東海道線", "operator_id": "jr_east", "representation": "service_path", "min_zoom": 0, "max_zoom": 24, "offset_rank": 0}}, {"type": "Feature", "bbox": [139.53605, 35.41219, 139.55652, 35.42876], "geometry": {"type": "LineString", "coordinates": [[139.53605, 35.41219], [139.53663, 35.41287], [139.53735, 35.41347], [139.5379, 35.41386], [139.53835, 35.41414], [139.53892, 35.41445], [139.53977, 35.41492], [139.54168, 35.41596], [139.54319, 35.41674], [139.5451, 35.41773], [139.54675, 35.41862], [139.54762, 35.41908], [139.54922, 35.41994], [139.55065, 35.42063], [139.55143, 35.42106], [139.55183, 35.42128], [139.55292, 35.422], [139.55357, 35.42258], [139.55409, 35.42317], [139.5545, 35.4237], [139.55493, 35.42438], [139.55527, 35.42514], [139.55595, 35.42676], [139.55633, 35.42775], [139.55642, 35.42805], [139.55652, 35.42876]]}, "properties": {"id": "GEOM_TOKYO_3261", "route_id": "R_09EB5226", "route_name": null, "route_color": "#F28E1C", "route_text_color": null, "line_name": "東海道線", "operator_id": "jr_east", "representation": "service_path", "min_zoom": 0, "max_zoom": 24, "offset_rank": 0}}, {"type": "Feature", "bbox": [139.48473, 35.33876, 139.48811, 35.3389], "geometry": {"type": "LineString", "coordinates": [[139.48473, 35.33876], [139.48604, 35.33882], [139.4878, 35.33889], [139.48811, 35.3389]]}, "properties": {"id": "GEOM_TOKYO_3263", "route_id": "R_09EB5226", "route_name": null, "route_color": "#F28E1C", "route_text_color": null, "line_name": "東海道線", "operator_id": "jr_east", "representation": "service_path", "min_zoom": 0, "max_zoom": 24, "offset_rank": 0}}, {"type": "Feature", "bbox": [139.53372, 35.4017, 139.53605, 35.41219], "geometry": {"type": "LineString", "coordinates": [[139.53392, 35.4017], [139.53379, 35.40252], [139.53372, 35.40344], [139.53373, 35.40375], [139.53383, 35.40452], [139.5341, 35.40639], [139.53433, 35.40812], [139.5345, 35.40907], [139.53459, 35.40956], [139.53477, 35.41002], [139.53499, 35.41048], [139.53506, 35.41059], [139.53534, 35.4111], [139.53568, 35.41168], [139.53605, 35.41219]]}, "properties": {"id": "GEOM_TOKYO_3264", "route_id": "R_09EB5226", "route_name": null, "route_color": "#F28E1C", "route_text_color": null, "line_name": "東海道線", "operator_id": "jr_east", "representation": "service_path", "min_zoom": 0, "max_zoom": 24, "offset_rank": 0}}, {"type": "Feature", "bbox": [139.48811, 35.33587, 139.53069, 35.35289], "geometry": {"type": "LineString", "coordinates": [[139.53069, 35.35289], [139.5306, 35.35267], [139.53023, 35.35183], [139.52967, 35.35081], [139.52925, 35.35026], [139.52896, 35.34999], [139.52847, 35.34964], [139.52773, 35.34916], [139.52685, 35.34864], [139.52597, 35.34816], [139.52541, 35.34786], [139.5217, 35.34587], [139.51978, 35.34483], [139.51972, 35.3448], [139.51948, 35.34468], [139.51922, 35.34454], [139.51871, 35.34427], [139.51647, 35.34305], [139.5162, 35.34291], [139.51367, 35.34155], [139.51283, 35.3411], [139.50922, 35.33915], [139.50631, 35.33759], [139.50537, 35.33708], [139.5044, 35.33661], [139.50425, 35.33655], [139.50406, 35.33645], [139.5037, 35.33632], [139.5033, 35.33616], [139.50282, 35.33606], [139.50232, 35.33596], [139.50186, 35.33591], [139.50136, 35.33587], [139.50121, 35.33588], [139.50008, 35.33599], [139.49908, 35.3362], [139.49829, 35.33638], [139.49775, 35.33654], [139.49756, 35.33661], [139.49714, 35.33673], [139.4968, 35.33682], [139.49534, 35.33722], [139.49438, 35.33746], [139.49392, 35.33759], [139.49277, 35.33789], [139.49165, 35.33819], [139.49066, 35.33845], [139.49023, 35.33856], [139.48933, 35.3388], [139.4892, 35.33882], [139.48881, 35.33886], [139.48811, 35.3389]]}, "properties": {"id": "GEOM_TOKYO_3265", "route_id": "R_09EB5226", "route_name": null, "route_color": "#F28E1C", "route_text_color": null, "line_name": "東海道線", "operator_id": "jr_east", "representation": "service_path", "min_zoom": 0, "max_zoom": 24, "offset_rank": 0}}, {"type": "Feature", "bbox": [139.4096, 35.33122, 139.44401, 35.33674], "geometry": {"type": "LineString", "coordinates": [[139.4096, 35.33122], [139.4113, 35.33182], [139.41344, 35.33263], [139.41634, 35.3337], [139.41878, 35.3346], [139.41969, 35.33493], [139.42061, 35.33527], [139.42138, 35.33544], [139.4227, 35.3356], [139.42461, 35.33571], [139.42673, 35.33582], [139.42883, 35.33593], [139.43063, 35.33602], [139.4311, 35.33605], [139.43354, 35.33616], [139.43621, 35.33631], [139.43816, 35.33642], [139.43946, 35.33647], [139.44114, 35.33657], [139.44162, 35.33661], [139.44247, 35.33665], [139.44332, 35.3367], [139.44357, 35.33672], [139.44401, 35.33674]]}, "properties": {"id": "GEOM_TOKYO_3266", "route_id": "R_09EB5226", "route_name": null, "route_color": "#F28E1C", "route_text_color": null, "line_name": "東海道線", "operator_id": "jr_east", "representation": "service_path", "min_zoom": 0, "max_zoom": 24, "offset_rank": 0}}, {"type": "Feature", "bbox": [139.53605, 35.41219, 139.57961, 35.44699], "geometry": {"type": "LineString", "coordinates": [[139.53605, 35.41219], [139.53631, 35.4124], [139.53684, 35.41284], [139.53764, 35.41339], [139.53807, 35.41366], [139.53981, 35.41476], [139.54026, 35.415], [139.54331, 35.41662], [139.54736, 35.41875], [139.54953, 35.41994], [139.5508, 35.42055], [139.55186, 35.42116], [139.55199, 35.42123], [139.55262, 35.42162], [139.55309, 35.42193], [139.55369, 35.42246], [139.55407, 35.42283], [139.55441, 35.42323], [139.55485, 35.42384], [139.55507, 35.42425], [139.55531, 35.42482], [139.55621, 35.42668], [139.55665, 35.42762], [139.55684, 35.4284], [139.55686, 35.42859], [139.55687, 35.42874], [139.55688, 35.4289], [139.55688, 35.42926], [139.55689, 35.42942], [139.5569, 35.4302], [139.5569, 35.43039], [139.55689, 35.43049], [139.5569, 35.43158], [139.55708, 35.43256], [139.55741, 35.4335], [139.55786, 35.43431], [139.55821, 35.43477], [139.55943, 35.43612], [139.5598, 35.43659], [139.56012, 35.43693], [139.56128, 35.4382], [139.56187, 35.43878], [139.56211, 35.43901], [139.56242, 35.43921], [139.56587, 35.44101], [139.5693, 35.44266], [139.56987, 35.44295], [139.57451, 35.44528], [139.57557, 35.44582], [139.57668, 35.4464], [139.57746, 35.44673], [139.57852, 35.44695], [139.57961, 35.44699]]}, "properties": {"id": "GEOM_TOKYO_3267", "route_id": "R_09EB5226", "route_name": null, "route_color": "#F28E1C", "route_text_color": null, "line_name": "東海道線", "operator_id": "jr_east", "representation": "service_path", "min_zoom": 0, "max_zoom": 24, "offset_rank": 0}}, {"type": "Feature", "bbox": [139.37642, 35.32722, 139.4064, 35.33127], "geometry": {"type": "LineString", "coordinates": [[139.4064, 35.33007], [139.40588, 35.32989], [139.40418, 35.3293], [139.40288, 35.32885], [139.40165, 35.32841], [139.40074, 35.32806], [139.39972, 35.32774], [139.39839, 35.32743], [139.3977, 35.32732], [139.39702, 35.32724], [139.39642, 35.32722], [139.39597, 35.32726], [139.39447, 35.32745], [139.39271, 35.32769], [139.39124, 35.32786], [139.38893, 35.32815], [139.38848, 35.32822], [139.38839, 35.32823], [139.38744, 35.32834], [139.38644, 35.32846], [139.38585, 35.32854], [139.38527, 35.32863], [139.38467, 35.32874], [139.38369, 35.32902], [139.38269, 35.32932], [139.38211, 35.32949], [139.38166, 35.32961], [139.38045, 35.32999], [139.37952, 35.33028], [139.37831, 35.33065], [139.37738, 35.33097], [139.37694, 35.33112], [139.37678, 35.33117], [139.37642, 35.33127]]}, "properties": {"id": "GEOM_TOKYO_3269", "route_id": "R_09EB5226", "route_name": null, "route_color": "#F28E1C", "route_text_color": null, "line_name": "東海道線", "operator_id": "jr_east", "representation": "service_path", "min_zoom": 0, "max_zoom": 24, "offset_rank": 0}}, {"type": "Feature", "bbox": [139.53069, 35.35289, 139.53164, 35.35542], "geometry": {"type": "LineString", "coordinates": [[139.53164, 35.35542], [139.53115, 35.35412], [139.53069, 35.35289]]}, "properties": {"id": "GEOM_TOKYO_3270", "route_id": "R_09EB5226", "route_name": null, "route_color": "#F28E1C", "route_text_color": null, "line_name": "東海道線", "operator_id": "jr_east", "representation": "service_path", "min_zoom": 0, "max_zoom": 24, "offset_rank": 0}}, {"type": "Feature", "bbox": [139.34718, 35.32734, 139.35082, 35.32798], "geometry": {"type": "LineString", "coordinates": [[139.35082, 35.32798], [139.35037, 35.32791], [139.34718, 35.32734]]}, "properties": {"id": "GEOM_TOKYO_3274", "route_id": "R_09EB5226", "route_name": null, "route_color": "#F28E1C", "route_text_color": null, "line_name": "東海道線", "operator_id": "jr_east", "representation": "service_path", "min_zoom": 0, "max_zoom": 24, "offset_rank": 0}}, {"type": "Feature", "bbox": [139.31184, 35.31055, 139.31471, 35.31237], "geometry": {"type": "LineString", "coordinates": [[139.31471, 35.31237], [139.31347, 35.31158], [139.31184, 35.31055]]}, "properties": {"id": "GEOM_TOKYO_3275", "route_id": "R_09EB5226", "route_name": null, "route_color": "#F28E1C", "route_text_color": null, "line_name": "東海道線", "operator_id": "jr_east", "representation": "service_path", "min_zoom": 0, "max_zoom": 24, "offset_rank": 0}}, {"type": "Feature", "bbox": [139.31471, 35.31237, 139.34058, 35.32591], "geometry": {"type": "LineString", "coordinates": [[139.31471, 35.31237], [139.31644, 35.31351], [139.31779, 35.31438], [139.31866, 35.31494], [139.31949, 35.31548], [139.32066, 35.31624], [139.32161, 35.31685], [139.32248, 35.3174], [139.32294, 35.31769], [139.32407, 35.31848], [139.32523, 35.31926], [139.32594, 35.31974], [139.32663, 35.3202], [139.32683, 35.32031], [139.3275, 35.32063], [139.32962, 35.32154], [139.33008, 35.32174], [139.33084, 35.32205], [139.33225, 35.32264], [139.33399, 35.32336], [139.33414, 35.32342], [139.33463, 35.32362], [139.33528, 35.32389], [139.33744, 35.32479], [139.33854, 35.32526], [139.33919, 35.32553], [139.3396, 35.32566], [139.34058, 35.32591]]}, "properties": {"id": "GEOM_TOKYO_3276", "route_id": "R_09EB5226", "route_name": null, "route_color": "#F28E1C", "route_text_color": null, "line_name": "東海道線", "operator_id": "jr_east", "representation": "service_path", "min_zoom": 0, "max_zoom": 24, "offset_rank": 0}}, {"type": "Feature", "bbox": [139.34724, 35.32713, 139.35076, 35.32775], "geometry": {"type": "LineString", "coordinates": [[139.35076, 35.32775], [139.35043, 35.32769], [139.34724, 35.32713]]}, "properties": {"id": "GEOM_TOKYO_3277", "route_id": "R_09EB5226", "route_name": null, "route_color": "#F28E1C", "route_text_color": null, "line_name": "東海道線", "operator_id": "jr_east", "representation": "service_path", "min_zoom": 0, "max_zoom": 24, "offset_rank": 0}}, {"type": "Feature", "bbox": [139.34058, 35.32591, 139.34724, 35.32713], "geometry": {"type": "LineString", "coordinates": [[139.34724, 35.32713], [139.34611, 35.32691], [139.34599, 35.32689], [139.34387, 35.32649], [139.3424, 35.32622], [139.34125, 35.32601], [139.34058, 35.32591]]}, "properties": {"id": "GEOM_TOKYO_3278", "route_id": "R_09EB5226", "route_name": null, "route_color": "#F28E1C", "route_text_color": null, "line_name": "東海道線", "operator_id": "jr_east", "representation": "service_path", "min_zoom": 0, "max_zoom": 24, "offset_rank": 0}}, {"type": "Feature", "bbox": [139.35076, 35.32775, 139.37642, 35.33162], "geometry": {"type": "LineString", "coordinates": [[139.35076, 35.32775], [139.35199, 35.32798], [139.35337, 35.32824], [139.35402, 35.32841], [139.35462, 35.32856], [139.35489, 35.32862], [139.35588, 35.32883], [139.35714, 35.32905], [139.35849, 35.32927], [139.35925, 35.32941], [139.35983, 35.32951], [139.36021, 35.32958], [139.3616, 35.32979], [139.36332, 35.33005], [139.36387, 35.33015], [139.3656, 35.33045], [139.36747, 35.33078], [139.36928, 35.33109], [139.37085, 35.33138], [139.37095, 35.33139], [139.37152, 35.33147], [139.37154, 35.33147], [139.37181, 35.3315], [139.37193, 35.33152], [139.37231, 35.33156], [139.37251, 35.33158], [139.37272, 35.3316], [139.37296, 35.33161], [139.37314, 35.33162], [139.37341, 35.33162], [139.37371, 35.3316], [139.37394, 35.33159], [139.37436, 35.33157], [139.37464, 35.33155], [139.37489, 35.33151], [139.37512, 35.33149], [139.37533, 35.33145], [139.37574, 35.33138], [139.37614, 35.33131], [139.37642, 35.33127]]}, "properties": {"id": "GEOM_TOKYO_3279", "route_id": "R_09EB5226", "route_name": null, "route_color": "#F28E1C", "route_text_color": null, "line_name": "東海道線", "operator_id": "jr_east", "representation": "service_path", "min_zoom": 0, "max_zoom": 24, "offset_rank": 0}}, {"type": "Feature", "bbox": [139.258, 35.29917, 139.31184, 35.31055], "geometry": {"type": "LineString", "coordinates": [[139.31184, 35.31055], [139.31131, 35.31025], [139.31104, 35.31013], [139.31057, 35.30992], [139.31014, 35.30977], [139.30964, 35.30961], [139.30915, 35.30949], [139.30872, 35.30942], [139.30785, 35.30932], [139.30612, 35.30909], [139.30379, 35.30878], [139.30158, 35.3085], [139.30023, 35.30833], [139.29936, 35.30823], [139.29729, 35.30797], [139.29502, 35.3077], [139.29327, 35.30748], [139.2918, 35.30731], [139.28927, 35.30699], [139.28869, 35.30692], [139.28845, 35.30689], [139.28824, 35.30687], [139.28657, 35.30666], [139.28459, 35.30642], [139.2843, 35.30638], [139.28273, 35.30619], [139.28129, 35.30601], [139.2811, 35.30598], [139.27959, 35.30578], [139.27863, 35.30566], [139.27765, 35.30554], [139.27674, 35.30542], [139.27549, 35.30527], [139.27439, 35.30512], [139.27337, 35.30497], [139.27259, 35.3048], [139.27207, 35.30467], [139.27144, 35.30447], [139.27093, 35.30428], [139.26954, 35.30377], [139.26806, 35.30318], [139.26733, 35.30288], [139.26546, 35.30214], [139.26288, 35.30111], [139.2617, 35.30065], [139.26065, 35.30024], [139.26026, 35.30007], [139.25979, 35.29989], [139.25964, 35.29983], [139.25948, 35.29977], [139.258, 35.29917]]}, "properties": {"id": "GEOM_TOKYO_3282", "route_id": "R_09EB5226", "route_name": null, "route_color": "#F28E1C", "route_text_color": null, "line_name": "東海道線", "operator_id": "jr_east", "representation": "service_path", "min_zoom": 0, "max_zoom": 24, "offset_rank": 0}}, {"type": "Feature", "bbox": [139.34058, 35.32591, 139.34718, 35.32734], "geometry": {"type": "LineString", "coordinates": [[139.34718, 35.32734], [139.34574, 35.32706], [139.34437, 35.3268], [139.3431, 35.32655], [139.34152, 35.32622], [139.34097, 35.32607], [139.34058, 35.32591]]}, "properties": {"id": "GEOM_TOKYO_3283", "route_id": "R_09EB5226", "route_name": null, "route_color": "#F28E1C", "route_text_color": null, "line_name": "東海道線", "operator_id": "jr_east", "representation": "service_path", "min_zoom": 0, "max_zoom": 24, "offset_rank": 0}}, {"type": "Feature", "bbox": [139.35082, 35.32798, 139.37642, 35.33197], "geometry": {"type": "LineString", "coordinates": [[139.35082, 35.32798], [139.35248, 35.32827], [139.35416, 35.32865], [139.35559, 35.32895], [139.35674, 35.32915], [139.35881, 35.32951], [139.35922, 35.32958], [139.3598, 35.32968], [139.36027, 35.32976], [139.36187, 35.33006], [139.3622, 35.33014], [139.36263, 35.33026], [139.36381, 35.33048], [139.36718, 35.33111], [139.36932, 35.33149], [139.37077, 35.33176], [139.37129, 35.33184], [139.37146, 35.33186], [139.37162, 35.33187], [139.37181, 35.33188], [139.37224, 35.33191], [139.37266, 35.33194], [139.373, 35.33196], [139.3732, 35.33196], [139.37346, 35.33197], [139.37372, 35.33196], [139.37395, 35.33194], [139.37423, 35.33191], [139.37444, 35.33188], [139.37467, 35.33184], [139.37494, 35.33177], [139.37531, 35.33168], [139.37579, 35.33151], [139.3761, 35.3314], [139.37642, 35.33127]]}, "properties": {"id": "GEOM_TOKYO_3285", "route_id": "R_09EB5226", "route_name": null, "route_color": "#F28E1C", "route_text_color": null, "line_name": "東海道線", "operator_id": "jr_east", "representation": "service_path", "min_zoom": 0, "max_zoom": 24, "offset_rank": 0}}]}