{"type": "FeatureCollection", "features": [{"type": "Feature", "bbox": [130.31263, 31.58398, 130.53948, 31.81268], "geometry": {"type": "LineString", "coordinates": [[130.53948, 31.58398], [130.5352, 31.58461], [130.53426, 31.58473], [130.53286, 31.58497], [130.53188, 31.58513], [130.53112, 31.58526], [130.52972, 31.58553], [130.52843, 31.58585], [130.52689, 31.58626], [130.52531, 31.58678], [130.5243, 31.5872], [130.52171, 31.58842], [130.51725, 31.59069], [130.51026, 31.59461], [130.50537, 31.59718], [130.50496, 31.59738], [130.50183, 31.59885], [130.49939, 31.59976], [130.49735, 31.60044], [130.49582, 31.6009], [130.4884, 31.60277], [130.48633, 31.60327], [130.48235, 31.60433], [130.48081, 31.6048], [130.4798, 31.60514], [130.47813, 31.60576], [130.47582, 31.60669], [130.47376, 31.60758], [130.47208, 31.60844], [130.46411, 31.61312], [130.45535, 31.61826], [130.45491, 31.61854], [130.45455, 31.61878], [130.45066, 31.62095], [130.44989, 31.62144], [130.44747, 31.62299], [130.43982, 31.62744], [130.43972, 31.62751], [130.43869, 31.62815], [130.43709, 31.62914], [130.43649, 31.62951], [130.43625, 31.62966], [130.43327, 31.63158], [130.43222, 31.63222], [130.43095, 31.63298], [130.42987, 31.63364], [130.42289, 31.6398], [130.42278, 31.63987], [130.4218, 31.64077], [130.4214, 31.64114], [130.41928, 31.64309], [130.4183, 31.64399], [130.4168, 31.64536], [130.41597, 31.64612], [130.41465, 31.64733], [130.41445, 31.64752], [130.40773, 31.65369], [130.40593, 31.65532], [130.40423, 31.65685], [130.40339, 31.65761], [130.39955, 31.66115], [130.39747, 31.66306], [130.39669, 31.66378], [130.39642, 31.66403], [130.39489, 31.6654], [130.39397, 31.66629], [130.39364, 31.6666], [130.3926, 31.66752], [130.39179, 31.66823], [130.38998, 31.66993], [130.38972, 31.67014], [130.3894, 31.67043], [130.38881, 31.67097], [130.38777, 31.67193], [130.3877, 31.67199], [130.38701, 31.67257], [130.38488, 31.67444], [130.38263, 31.67657], [130.38009, 31.67906], [130.37702, 31.68209], [130.37311, 31.68649], [130.37121, 31.68906], [130.36968, 31.69131], [130.36822, 31.69386], [130.36691, 31.69654], [130.3628, 31.70531], [130.35736, 31.71768], [130.35136, 31.73126], [130.34822, 31.73798], [130.34715, 31.74057], [130.34107, 31.75414], [130.33659, 31.76436], [130.33512, 31.7677], [130.33279, 31.77276], [130.32907, 31.7812], [130.32741, 31.78449], [130.32695, 31.78524], [130.32651, 31.78593], [130.32588, 31.78695], [130.32545, 31.78769], [130.32486, 31.78851], [130.32362, 31.79031], [130.32343, 31.79058], [130.32281, 31.79136], [130.32273, 31.79146], [130.32171, 31.79276], [130.32074, 31.79402], [130.31984, 31.7951], [130.31944, 31.79559], [130.31914, 31.79601], [130.3178, 31.79793], [130.31701, 31.7992], [130.31629, 31.80077], [130.31564, 31.80238], [130.31393, 31.80756], [130.31317, 31.81033], [130.31263, 31.81268]]}, "properties": {"id": "TRACK_TOKYO_0451", "line_name": "九州新幹線", "station_group_ids": [], "mode": "shinkansen", "operator_id": "jr_kyushu", "line_color": "#DE4B39", "tags": ["tokyo", "track_centerline"]}}, {"type": "Feature", "bbox": [130.53948, 31.58357, 130.54258, 31.58398], "geometry": {"type": "LineString", "coordinates": [[130.53948, 31.58398], [130.54258, 31.58357]]}, "properties": {"id": "TRACK_TOKYO_0454", "line_name": "九州新幹線", "station_group_ids": [], "mode": "shinkansen", "operator_id": "jr_kyushu", "line_color": "#DE4B39", "tags": ["tokyo", "track_centerline"]}}]}