{"type": "FeatureCollection", "features": [{"type": "Feature", "bbox": [138.19025, 36.64375, 138.3740657, 36.8439844], "geometry": {"type": "LineString", "coordinates": [[138.19025, 36.64375], [138.19073342, 36.64407387], [138.19241094, 36.6454718], [138.19318724, 36.6461321], [138.19368395, 36.64650984], [138.19572957, 36.64784091], [138.19621926, 36.64817737], [138.19697439, 36.6487526], [138.19827714, 36.64978172], [138.19856178, 36.6499926], [138.1993946, 36.65056367], [138.20057957, 36.65131082], [138.20326931, 36.65310779], [138.20472554, 36.65411668], [138.20658152, 36.65531593], [138.21396213, 36.66004582], [138.22300329, 36.66568911], [138.23042721, 36.67049562], [138.23492439, 36.67332242], [138.23777974, 36.67504991], [138.24525482, 36.67940536], [138.24733685, 36.68078545], [138.24851468, 36.68163016], [138.25010892, 36.68286748], [138.25282151, 36.68524694], [138.26143991, 36.69309916], [138.26762651, 36.69863855], [138.26871155, 36.6995713], [138.27095776, 36.70126547], [138.27312783, 36.70265508], [138.28053271, 36.70731882], [138.29456201, 36.71617042], [138.29789326, 36.71824531], [138.30107222, 36.72014888], [138.30390853, 36.72167173], [138.30571692, 36.7225093], [138.31036163, 36.72452708], [138.31822337, 36.72801061], [138.32100258, 36.72955251], [138.32319169, 36.73103729], [138.326028, 36.73307411], [138.32901661, 36.73585332], [138.33086307, 36.73769978], [138.33312831, 36.74063128], [138.33444178, 36.74266809], [138.33615499, 36.74588513], [138.33691642, 36.74763641], [138.33773495, 36.75001587], [138.33826795, 36.75201462], [138.33859156, 36.75370879], [138.33899131, 36.7569639], [138.33958141, 36.76195125], [138.34001923, 36.76438781], [138.3405332, 36.76657692], [138.34114234, 36.76851856], [138.34201798, 36.77078381], [138.34340759, 36.77356302], [138.34487333, 36.77599958], [138.34668287, 36.77835411], [138.34821048, 36.7801387], [138.34996652, 36.78198041], [138.35199382, 36.78377928], [138.35393546, 36.78532117], [138.35807573, 36.78847634], [138.36080259, 36.79056074], [138.36210177, 36.79166005], [138.36335813, 36.79278792], [138.36482864, 36.79424415], [138.36634197, 36.79591453], [138.36742701, 36.79731365], [138.3684121, 36.79866995], [138.37002538, 36.80116838], [138.37078205, 36.80265316], [138.37172431, 36.80469474], [138.37273796, 36.8074216], [138.37336614, 36.80977727], [138.37378017, 36.81214721], [138.3740086, 36.81431728], [138.3740657, 36.81643024], [138.37392294, 36.81885729], [138.37375161, 36.82042774], [138.37338042, 36.82246932], [138.37285218, 36.82441096], [138.3724096, 36.82588146], [138.37165293, 36.82790876], [138.37008249, 36.83106393], [138.36886896, 36.83296274], [138.36819795, 36.83400494], [138.36568524, 36.83723149], [138.36181624, 36.84181433], [138.35998167, 36.8439844]]}, "properties": {"id": "GEOM_TOKYO_4079", "route_id": "R_F3B5B6DF", "route_name": null, "route_color": "#2C62C9", "route_text_color": null, "line_name": "北陸新幹線", "operator_id": "jr_east", "representation": "service_path", "min_zoom": 0, "max_zoom": 24, "offset_rank": 0}}, {"type": "Feature", "bbox": [138.35804003, 36.8439844, 138.35998167, 36.846302], "geometry": {"type": "LineString", "coordinates": [[138.35998167, 36.8439844], [138.35804003, 36.846302]]}, "properties": {"id": "GEOM_TOKYO_4080", "route_id": "R_F3B5B6DF", "route_name": null, "route_color": "#2C62C9", "route_text_color": null, "line_name": "北陸新幹線", "operator_id": "jr_east", "representation": "service_path", "min_zoom": 0, "max_zoom": 24, "offset_rank": 0}}, {"type": "Feature", "bbox": [138.24960275, 36.846302, 138.35804003, 37.08026308], "geometry": {"type": "LineString", "coordinates": [[138.35804003, 36.846302], [138.35162471, 36.85394869], [138.3448718, 36.86201507], [138.3398321, 36.86801131], [138.33096623, 36.87854756], [138.32381357, 36.88705651], [138.31499053, 36.89756421], [138.30710975, 36.9069726], [138.30562497, 36.9088143], [138.30375471, 36.91145551], [138.30172741, 36.91499614], [138.30067093, 36.9172376], [138.29947168, 36.92027855], [138.29874357, 36.92259138], [138.29824388, 36.92470434], [138.29768709, 36.92833064], [138.29745866, 36.93178562], [138.29713029, 36.93918099], [138.29671627, 36.94808969], [138.29625941, 36.95839751], [138.2961452, 36.96099588], [138.29613092, 36.96380841], [138.29625941, 36.96616407], [138.29655922, 36.96883383], [138.2978013, 36.97658611], [138.29947168, 36.98712237], [138.30168458, 37.00101366], [138.30328358, 37.01127865], [138.30348345, 37.01277771], [138.30354056, 37.01494778], [138.30348345, 37.01760326], [138.30314081, 37.02031585], [138.3024127, 37.02341391], [138.30164175, 37.02572674], [138.30035684, 37.02869631], [138.29865791, 37.03169443], [138.29601671, 37.03539211], [138.29056298, 37.0429588], [138.28606398, 37.04919505], [138.28397005, 37.05180056], [138.28166197, 37.05437038], [138.27913974, 37.05676173], [138.27553486, 37.05972416], [138.27026064, 37.06328413], [138.26330845, 37.0677947], [138.26146198, 37.06918431], [138.25896831, 37.0713163], [138.25559899, 37.07453333], [138.24960275, 37.08026308]]}, "properties": {"id": "GEOM_TOKYO_4081", "route_id": "R_F3B5B6DF", "route_name": null, "route_color": "#2C62C9", "route_text_color": null, "line_name": "北陸新幹線", "operator_id": "jr_east", "representation": "service_path", "min_zoom": 0, "max_zoom": 24, "offset_rank": 0}}, {"type": "Feature", "bbox": [138.24733988, 37.08026308, 138.24960275, 37.08247122], "geometry": {"type": "LineString", "coordinates": [[138.24960275, 37.08026308], [138.24733988, 37.08247122]]}, "properties": {"id": "GEOM_TOKYO_4082", "route_id": "R_F3B5B6DF", "route_name": null, "route_color": "#2C62C9", "route_text_color": null, "line_name": "北陸新幹線", "operator_id": "jr_east", "representation": "service_path", "min_zoom": 0, "max_zoom": 24, "offset_rank": 0}}, {"type": "Feature", "bbox": [137.86292785, 37.04357131, 138.24733988, 37.111691], "geometry": {"type": "LineString", "coordinates": [[138.24733988, 37.08247122], [138.24303008, 37.08659244], [138.24125025, 37.08824855], [138.23807129, 37.09084692], [138.23510172, 37.09303602], [138.22969559, 37.0968622], [138.22421331, 37.10076451], [138.22111049, 37.10270615], [138.21798864, 37.10447647], [138.21458125, 37.10607547], [138.21090736, 37.10756025], [138.2068718, 37.10889275], [138.20300755, 37.10990164], [138.19821056, 37.11087246], [138.19501256, 37.11127221], [138.18861657, 37.111691], [138.18494268, 37.11159582], [138.18227769, 37.11146257], [138.17843248, 37.11108185], [138.17202459, 37.11006107], [138.16374406, 37.10861435], [138.15491151, 37.10707246], [138.13695609, 37.10396917], [138.11475572, 37.10022152], [138.10212078, 37.09882953], [138.08398929, 37.09565295], [138.0667144, 37.09269052], [138.06007571, 37.09151269], [138.05707759, 37.091013], [138.03387784, 37.08865734], [138.00157666, 37.08540937], [137.9925466, 37.08451708], [137.98426608, 37.08358909], [137.97259482, 37.08144757], [137.96270816, 37.07969867], [137.95956727, 37.07902052], [137.9550344, 37.07787838], [137.95067999, 37.07612948], [137.94639696, 37.07398796], [137.94000811, 37.06981201], [137.93051406, 37.06328039], [137.92715902, 37.0610318], [137.92341136, 37.05871182], [137.91905695, 37.05649892], [137.9162016, 37.05532109], [137.91281087, 37.05421464], [137.90727862, 37.05282266], [137.90210329, 37.05214451], [137.89318031, 37.05100237], [137.88796929, 37.05032422], [137.88437155, 37.04958183], [137.88171607, 37.0489251], [137.86952371, 37.04545584], [137.86292785, 37.04357131]]}, "properties": {"id": "GEOM_TOKYO_4083", "route_id": "R_CC6EF6BA", "route_name": null, "route_color": "#2C62C9", "route_text_color": null, "line_name": "北陸新幹線", "operator_id": "西日本旅客鉄道", "representation": "service_path", "min_zoom": 0, "max_zoom": 24, "offset_rank": 0}}, {"type": "Feature", "bbox": [137.85965847, 37.0426576, 137.86292785, 37.04357131], "geometry": {"type": "LineString", "coordinates": [[137.86292785, 37.04357131], [137.85965847, 37.0426576]]}, "properties": {"id": "GEOM_TOKYO_4084", "route_id": "R_CC6EF6BA", "route_name": null, "route_color": "#2C62C9", "route_text_color": null, "line_name": "北陸新幹線", "operator_id": "西日本旅客鉄道", "representation": "service_path", "min_zoom": 0, "max_zoom": 24, "offset_rank": 0}}, {"type": "Feature", "bbox": [137.48227208, 36.8751489, 137.85965847, 37.0426576], "geometry": {"type": "LineString", "coordinates": [[137.85965847, 37.0426576], [137.85689591, 37.04187], [137.85249391, 37.04060888], [137.84991219, 37.03979987], [137.84704494, 37.03878859], [137.8398905, 37.03602455], [137.82791229, 37.03121328], [137.82243001, 37.02902894], [137.82008862, 37.02798673], [137.81149401, 37.02373226], [137.80806759, 37.02209043], [137.80665419, 37.02149081], [137.80498381, 37.02086263], [137.8025282, 37.0200203], [137.7991339, 37.01908041], [137.79523158, 37.01829995], [137.77880379, 37.01510195], [137.77421619, 37.01420727], [137.77128469, 37.01344585], [137.76791537, 37.01236081], [137.76258538, 37.01022882], [137.74332126, 37.00291911], [137.73789609, 37.00084422], [137.73587831, 37.00017797], [137.72902546, 36.99802694], [137.72483761, 36.99678962], [137.71461545, 36.99366777], [137.70713442, 36.99134541], [137.69849222, 36.98854717], [137.69044012, 36.98618674], [137.68309235, 36.98401667], [137.67372679, 36.98127553], [137.66491326, 36.9785915], [137.65948809, 36.97695443], [137.65431039, 36.9753364], [137.65006543, 36.97381354], [137.64580143, 36.97206226], [137.6300732, 36.96425049], [137.60849149, 36.95347153], [137.59057414, 36.94445338], [137.57168122, 36.9350783], [137.55133683, 36.924918], [137.52927923, 36.91382971], [137.51764366, 36.90804762], [137.51565681, 36.90695307], [137.51346771, 36.90557298], [137.51131787, 36.90407868], [137.50866239, 36.90196572], [137.50662081, 36.90002408], [137.50397961, 36.89714017], [137.49708393, 36.88934506], [137.49512117, 36.88719849], [137.49297966, 36.88502842], [137.48488473, 36.87750456], [137.48227208, 36.8751489]]}, "properties": {"id": "GEOM_TOKYO_4085", "route_id": "R_CC6EF6BA", "route_name": null, "route_color": "#2C62C9", "route_text_color": null, "line_name": "北陸新幹線", "operator_id": "西日本旅客鉄道", "representation": "service_path", "min_zoom": 0, "max_zoom": 24, "offset_rank": 0}}, {"type": "Feature", "bbox": [138.24733988, 37.08026308, 138.24960275, 37.08247122], "geometry": {"type": "LineString", "coordinates": [[138.24960275, 37.08026308], [138.24733988, 37.08247122]]}, "properties": {"id": "GEOM_TOKYO_4094", "route_id": "R_CC6EF6BA", "route_name": null, "route_color": "#2C62C9", "route_text_color": null, "line_name": "北陸新幹線", "operator_id": "西日本旅客鉄道", "representation": "service_path", "min_zoom": 0, "max_zoom": 24, "offset_rank": 0}}]}