{"type": "FeatureCollection", "features": [{"type": "Feature", "bbox": [136.64900591, 36.57917742, 137.01015277, 36.72708779], "geometry": {"type": "LineString", "coordinates": [[137.01015277, 36.72705924], [137.00846811, 36.72708779], [137.00598395, 36.72705924], [137.00230055, 36.72680226], [137.00010192, 36.726531], [136.99711808, 36.72598848], [136.99436266, 36.72537458], [136.99177857, 36.72460364], [136.98871858, 36.72357095], [136.98203706, 36.72117245], [136.96777278, 36.71601904], [136.96555988, 36.71518623], [136.96330416, 36.71424396], [136.96134824, 36.71323031], [136.95934949, 36.71218811], [136.95600873, 36.71026074], [136.94317391, 36.70276544], [136.92992508, 36.69508573], [136.92737905, 36.69356287], [136.92059759, 36.68897051], [136.91783741, 36.68697177], [136.91617179, 36.68580583], [136.90439346, 36.67752531], [136.90191882, 36.67588348], [136.90006284, 36.67488411], [136.89742164, 36.67352781], [136.89478044, 36.67243326], [136.89328138, 36.6718146], [136.88959321, 36.67069625], [136.88626197, 36.66986344], [136.88340661, 36.66933996], [136.87983742, 36.66891166], [136.87662515, 36.6687451], [136.87274663, 36.6687213], [136.86863016, 36.66907822], [136.86644106, 36.66938755], [136.86356191, 36.66988724], [136.85808915, 36.67124353], [136.83717369, 36.67681147], [136.82853624, 36.67916714], [136.82546674, 36.67983338], [136.82258759, 36.68040445], [136.8194467, 36.68097553], [136.80683556, 36.68256976], [136.79991133, 36.68337878], [136.79550932, 36.68375949], [136.79201152, 36.68371191], [136.78896581, 36.68361673], [136.78577733, 36.68321222], [136.78258885, 36.68280771], [136.77918622, 36.68190352], [136.77687814, 36.68123727], [136.77426074, 36.68030928], [136.771334, 36.67911955], [136.7669082, 36.67683526], [136.7646953, 36.67538379], [136.7616258, 36.67317089], [136.75938911, 36.67114835], [136.75705723, 36.66884027], [136.75443983, 36.66558041], [136.75201278, 36.66201122], [136.74937157, 36.65865618], [136.7466114, 36.65561047], [136.74282806, 36.65220784], [136.73409544, 36.6448791], [136.72869406, 36.64028674], [136.72462518, 36.63709826], [136.72155568, 36.63500434], [136.70932525, 36.62741386], [136.7029007, 36.62339257], [136.70075919, 36.6219173], [136.69957897, 36.62100359], [136.69067027, 36.6130086], [136.68041955, 36.60358594], [136.67945349, 36.60266746], [136.67699789, 36.60024993], [136.67559877, 36.59861286], [136.67360954, 36.59602401], [136.67057334, 36.59184568], [136.6696406, 36.59094148], [136.66840328, 36.59000873], [136.66719451, 36.58932345], [136.66440578, 36.58797191], [136.65741017, 36.58473585], [136.65514492, 36.58371744], [136.6531081, 36.58286083], [136.65193741, 36.58222313], [136.6509761, 36.5814046], [136.6501766, 36.58071932], [136.64900591, 36.57917742]]}, "properties": {"id": "GEOM_TOKYO_4539", "route_id": "R_CC6EF6BA", "route_name": null, "route_color": "#2C62C9", "route_text_color": null, "line_name": "北陸新幹線", "operator_id": "西日本旅客鉄道", "representation": "service_path", "min_zoom": 0, "max_zoom": 24, "offset_rank": 0}}]}