{"type": "FeatureCollection", "features": [{"type": "Feature", "bbox": [137.28289999999998, 34.815745, 137.28289999999998, 34.815745], "geometry": {"type": "Point", "coordinates": [137.28289999999998, 34.815745]}, "properties": {"id": "PS_6E3B1086F432", "station_group_id": "SG_4AB5B0308DE7", "operator_id": "jr_central", "operator_ids": "jr_central", "name_en": "三河大塚", "name_ja": "三河大塚", "label_rank": 72, "tags": ["tokyo", "v3"]}}, {"type": "Feature", "bbox": [137.43887, 34.725795000000005, 137.43887, 34.725795000000005], "geometry": {"type": "Point", "coordinates": [137.43887, 34.725795000000005]}, "properties": {"id": "PS_1F189D978587", "station_group_id": "SG_97A5DBD60D5C", "operator_id": "jr_central", "operator_ids": "jr_central", "name_en": "二川", "name_ja": "二川", "label_rank": 72, "tags": ["tokyo", "v3"]}}, {"type": "Feature", "bbox": [138.20358, 34.836405, 138.20358, 34.836405], "geometry": {"type": "Point", "coordinates": [138.20358, 34.836405]}, "properties": {"id": "PS_712E2F8B367A", "station_group_id": "SG_628F18925EB7", "operator_id": "jr_central", "operator_ids": "jr_central", "name_en": "六合", "name_ja": "六合", "label_rank": 72, "tags": ["tokyo", "v3"]}}, {"type": "Feature", "bbox": [137.779405, 34.717065, 137.779405, 34.717065], "geometry": {"type": "Point", "coordinates": [137.779405, 34.717065]}, "properties": {"id": "PS_C0E3C97D2280", "station_group_id": "SG_20EDFCE95D4F", "operator_id": "jr_central", "operator_ids": "jr_central", "name_en": "天竜川", "name_ja": "天竜川", "label_rank": 72, "tags": ["tokyo", "v3"]}}, {"type": "Feature", "bbox": [138.36408999999998, 34.940960000000004, 138.36408999999998, 34.940960000000004], "geometry": {"type": "Point", "coordinates": [138.36408999999998, 34.940960000000004]}, "properties": {"id": "PS_B7672BA71E01", "station_group_id": "SG_D0D845443635", "operator_id": "jr_central", "operator_ids": "jr_central", "name_en": "安倍川", "name_ja": "安倍川", "label_rank": 72, "tags": ["tokyo", "v3"]}}, {"type": "Feature", "bbox": [138.173425, 34.83015, 138.173425, 34.83015], "geometry": {"type": "Point", "coordinates": [138.173425, 34.83015]}, "properties": {"id": "PS_E6D96BE0D0D4", "station_group_id": "SG_504B323C6A03", "operator_id": "jr_central", "operator_ids": "jr_central", "name_en": "島田", "name_ja": "島田", "label_rank": 72, "tags": ["tokyo", "v3"]}}, {"type": "Feature", "bbox": [137.60309, 34.690145, 137.60309, 34.690145], "geometry": {"type": "Point", "coordinates": [137.60309, 34.690145]}, "properties": {"id": "PS_FA945C172117", "station_group_id": "SG_A4EB759164EE", "operator_id": "jr_central", "operator_ids": "jr_central", "name_en": "弁天島", "name_ja": "弁天島", "label_rank": 72, "tags": ["tokyo", "v3"]}}, {"type": "Feature", "bbox": [137.8856316207142, 34.71865916919583, 137.8856316207142, 34.71865916919583], "geometry": {"type": "Point", "coordinates": [137.8856316207142, 34.71865916919583]}, "properties": {"id": "PS_BBAA05231ADB", "station_group_id": "SG_285CF451F3C3", "operator_id": "jr_central", "operator_ids": "jr_central", "name_en": "御厨", "name_ja": "御厨", "label_rank": 72, "tags": ["tokyo", "v3"]}}, {"type": "Feature", "bbox": [137.31658499999998, 34.812585, 137.31658499999998, 34.812585], "geometry": {"type": "Point", "coordinates": [137.31658499999998, 34.812585]}, "properties": {"id": "PS_166D66A68816", "station_group_id": "SG_230D096BDBF5", "operator_id": "jr_central", "operator_ids": "jr_central", "name_en": "愛知御津", "name_ja": "愛知御津", "label_rank": 72, "tags": ["tokyo", "v3"]}}, {"type": "Feature", "bbox": [137.96184499999998, 34.752455, 137.96184499999998, 34.752455], "geometry": {"type": "Point", "coordinates": [137.96184499999998, 34.752455]}, "properties": {"id": "PS_7666C2E33039", "station_group_id": "SG_7DEBB5FF5634", "operator_id": "jr_central", "operator_ids": "jr_central", "name_en": "愛野", "name_ja": "愛野", "label_rank": 72, "tags": ["tokyo", "v3"]}}, {"type": "Feature", "bbox": [138.01514, 34.769149999999996, 138.01514, 34.769149999999996], "geometry": {"type": "Point", "coordinates": [138.01514, 34.769149999999996]}, "properties": {"id": "PS_EE83212E0D35", "station_group_id": "SG_730E2B5D2F29", "operator_id": "jr_central", "operator_ids": "jr_central", "name_en": "掛川", "name_ja": "掛川", "label_rank": 72, "tags": ["tokyo", "v3"]}}, {"type": "Feature", "bbox": [138.014565, 34.769405, 138.014565, 34.769405], "geometry": {"type": "Point", "coordinates": [138.014565, 34.769405]}, "properties": {"id": "PS_A4B8A5855619", "station_group_id": "SG_730E2B5D2F29", "operator_id": "jr_central", "operator_ids": "jr_central", "name_en": "掛川", "name_ja": "掛川", "label_rank": 72, "tags": ["tokyo", "v3"]}}, {"type": "Feature", "bbox": [137.568985, 34.694275000000005, 137.568985, 34.694275000000005], "geometry": {"type": "Point", "coordinates": [137.568985, 34.694275000000005]}, "properties": {"id": "PS_0ECBBC26D2FE", "station_group_id": "SG_B75AD794D18A", "operator_id": "jr_central", "operator_ids": "jr_central", "name_en": "新居町", "name_ja": "新居町", "label_rank": 72, "tags": ["tokyo", "v3"]}}, {"type": "Feature", "bbox": [137.484455, 34.723259999999996, 137.484455, 34.723259999999996], "geometry": {"type": "Point", "coordinates": [137.484455, 34.723259999999996]}, "properties": {"id": "PS_47E067852F80", "station_group_id": "SG_D5ACCD32BF3B", "operator_id": "jr_central", "operator_ids": "jr_central", "name_en": "新所原", "name_ja": "新所原", "label_rank": 72, "tags": ["tokyo", "v3"]}}, {"type": "Feature", "bbox": [137.73559, 34.703825, 137.73559, 34.703825], "geometry": {"type": "Point", "coordinates": [137.73559, 34.703825]}, "properties": {"id": "PS_0F4BD3D4CCC2", "station_group_id": "SG_A744F35C60FF", "operator_id": "jr_central", "operator_ids": "jr_central", "name_en": "浜松", "name_ja": "浜松", "label_rank": 72, "tags": ["tokyo", "v3"]}}, {"type": "Feature", "bbox": [137.735045, 34.70397, 137.735045, 34.70397], "geometry": {"type": "Point", "coordinates": [137.735045, 34.70397]}, "properties": {"id": "PS_9D19CFF1C518", "station_group_id": "SG_A744F35C60FF", "operator_id": "jr_central", "operator_ids": "jr_central", "name_en": "浜松", "name_ja": "浜松", "label_rank": 72, "tags": ["tokyo", "v3"]}}, {"type": "Feature", "bbox": [138.31848, 34.872285000000005, 138.31848, 34.872285000000005], "geometry": {"type": "Point", "coordinates": [138.31848, 34.872285000000005]}, "properties": {"id": "PS_FEE69B133B03", "station_group_id": "SG_4E007D7FCA86", "operator_id": "jr_central", "operator_ids": "jr_central", "name_en": "焼津", "name_ja": "焼津", "label_rank": 72, "tags": ["tokyo", "v3"]}}, {"type": "Feature", "bbox": [138.35932000000003, 34.921875, 138.35932000000003, 34.921875], "geometry": {"type": "Point", "coordinates": [138.35932000000003, 34.921875]}, "properties": {"id": "PS_25583A7135C1", "station_group_id": "SG_F7AD21392902", "operator_id": "jr_central", "operator_ids": "jr_central", "name_en": "用宗", "name_ja": "用宗", "label_rank": 72, "tags": ["tokyo", "v3"]}}, {"type": "Feature", "bbox": [137.85227, 34.710215, 137.85227, 34.710215], "geometry": {"type": "Point", "coordinates": [137.85227, 34.710215]}, "properties": {"id": "PS_4A0658221B9E", "station_group_id": "SG_FD02BFDC35B4", "operator_id": "jr_central", "operator_ids": "jr_central", "name_en": "磐田", "name_ja": "磐田", "label_rank": 72, "tags": ["tokyo", "v3"]}}, {"type": "Feature", "bbox": [137.62633, 34.68569, 137.62633, 34.68569], "geometry": {"type": "Point", "coordinates": [137.62633, 34.68569]}, "properties": {"id": "PS_55DDDD371342", "station_group_id": "SG_F95DE0C6C372", "operator_id": "jr_central", "operator_ids": "jr_central", "name_en": "舞阪", "name_ja": "舞阪", "label_rank": 72, "tags": ["tokyo", "v3"]}}, {"type": "Feature", "bbox": [138.08567, 34.761775, 138.08567, 34.761775], "geometry": {"type": "Point", "coordinates": [138.08567, 34.761775]}, "properties": {"id": "PS_72BCFF94F12E", "station_group_id": "SG_1D678B18EEC3", "operator_id": "jr_central", "operator_ids": "jr_central", "name_en": "菊川", "name_ja": "菊川", "label_rank": 72, "tags": ["tokyo", "v3"]}}, {"type": "Feature", "bbox": [138.25286999999997, 34.84957, 138.25286999999997, 34.84957], "geometry": {"type": "Point", "coordinates": [138.25286999999997, 34.84957]}, "properties": {"id": "PS_BFACFEBD692D", "station_group_id": "SG_043A178C4574", "operator_id": "jr_central", "operator_ids": "jr_central", "name_en": "藤枝", "name_ja": "藤枝", "label_rank": 72, "tags": ["tokyo", "v3"]}}, {"type": "Feature", "bbox": [137.925995, 34.741434999999996, 137.925995, 34.741434999999996], "geometry": {"type": "Point", "coordinates": [137.925995, 34.741434999999996]}, "properties": {"id": "PS_1EF742EE6D76", "station_group_id": "SG_D8F170F955F1", "operator_id": "jr_central", "operator_ids": "jr_central", "name_en": "袋井", "name_ja": "袋井", "label_rank": 72, "tags": ["tokyo", "v3"]}}, {"type": "Feature", "bbox": [137.352685, 34.797025000000005, 137.352685, 34.797025000000005], "geometry": {"type": "Point", "coordinates": [137.352685, 34.797025000000005]}, "properties": {"id": "PS_260B561B00F2", "station_group_id": "SG_AC1682A156B6", "operator_id": "jr_central", "operator_ids": "jr_central", "name_en": "西小坂井", "name_ja": "西小坂井", "label_rank": 72, "tags": ["tokyo", "v3"]}}, {"type": "Feature", "bbox": [138.285595, 34.859804999999994, 138.285595, 34.859804999999994], "geometry": {"type": "Point", "coordinates": [138.285595, 34.859804999999994]}, "properties": {"id": "PS_D4B05503B50B", "station_group_id": "SG_983D068529E7", "operator_id": "jr_central", "operator_ids": "jr_central", "name_en": "西焼津", "name_ja": "西焼津", "label_rank": 72, "tags": ["tokyo", "v3"]}}, {"type": "Feature", "bbox": [137.38115, 34.76289, 137.38115, 34.76289], "geometry": {"type": "Point", "coordinates": [137.38115, 34.76289]}, "properties": {"id": "PS_5B7FCBE16BB1", "station_group_id": "SG_D326CA497DB4", "operator_id": "jr_central", "operator_ids": "jr_central", "name_en": "豊橋", "name_ja": "豊橋", "label_rank": 72, "tags": ["tokyo", "v3"]}}, {"type": "Feature", "bbox": [137.38254, 34.762275, 137.38254, 34.762275], "geometry": {"type": "Point", "coordinates": [137.38254, 34.762275]}, "properties": {"id": "PS_01A0DB5168F3", "station_group_id": "SG_D326CA497DB4", "operator_id": "jr_central", "operator_ids": "jr_central", "name_en": "豊橋", "name_ja": "豊橋", "label_rank": 72, "tags": ["tokyo", "v3"]}}, {"type": "Feature", "bbox": [137.8198, 34.712085, 137.8198, 34.712085], "geometry": {"type": "Point", "coordinates": [137.8198, 34.712085]}, "properties": {"id": "PS_40994378BA5D", "station_group_id": "SG_F5BDA6032607", "operator_id": "jr_central", "operator_ids": "jr_central", "name_en": "豊田町", "name_ja": "豊田町", "label_rank": 72, "tags": ["tokyo", "v3"]}}, {"type": "Feature", "bbox": [138.12582500000002, 34.819235000000006, 138.12582500000002, 34.819235000000006], "geometry": {"type": "Point", "coordinates": [138.12582500000002, 34.819235000000006]}, "properties": {"id": "PS_BE6ED289E230", "station_group_id": "SG_256A76D85E7D", "operator_id": "jr_central", "operator_ids": "jr_central", "name_en": "金谷", "name_ja": "金谷", "label_rank": 72, "tags": ["tokyo", "v3"]}}, {"type": "Feature", "bbox": [138.38960500000002, 34.971695, 138.38960500000002, 34.971695], "geometry": {"type": "Point", "coordinates": [138.38960500000002, 34.971695]}, "properties": {"id": "PS_7D5F1E37BC45", "station_group_id": "SG_C5D344AD7025", "operator_id": "jr_central", "operator_ids": "jr_central", "name_en": "静岡", "name_ja": "静岡", "label_rank": 72, "tags": ["tokyo", "v3"]}}, {"type": "Feature", "bbox": [138.388915, 34.971795, 138.388915, 34.971795], "geometry": {"type": "Point", "coordinates": [138.388915, 34.971795]}, "properties": {"id": "PS_E3ED8B8327A0", "station_group_id": "SG_C5D344AD7025", "operator_id": "jr_central", "operator_ids": "jr_central", "name_en": "静岡", "name_ja": "静岡", "label_rank": 72, "tags": ["tokyo", "v3"]}}, {"type": "Feature", "bbox": [137.68134500000002, 34.690425000000005, 137.68134500000002, 34.690425000000005], "geometry": {"type": "Point", "coordinates": [137.68134500000002, 34.690425000000005]}, "properties": {"id": "PS_C55446A6BF4E", "station_group_id": "SG_43E11407893B", "operator_id": "jr_central", "operator_ids": "jr_central", "name_en": "高塚", "name_ja": "高塚", "label_rank": 72, "tags": ["tokyo", "v3"]}}, {"type": "Feature", "bbox": [137.54619, 34.71677, 137.54619, 34.71677], "geometry": {"type": "Point", "coordinates": [137.54619, 34.71677]}, "properties": {"id": "PS_515F030B9466", "station_group_id": "SG_43C9037E9CB2", "operator_id": "jr_central", "operator_ids": "jr_central", "name_en": "鷲津", "name_ja": "鷲津", "label_rank": 72, "tags": ["tokyo", "v3"]}}]}