{"type": "FeatureCollection", "features": [{"type": "Feature", "bbox": [138.25023, 36.39614, 138.25023, 36.39614], "geometry": {"type": "Point", "coordinates": [138.25023, 36.39614]}, "properties": {"id": "PS_7E37FA28FB0F", "station_group_id": "SG_C68E064E61BF", "operator_id": "jr_east", "operator_ids": "jr_east", "name_en": "上田", "name_ja": "上田", "label_rank": 72, "tags": ["tokyo", "v3"]}}, {"type": "Feature", "bbox": [138.24847131500002, 37.081367150000005, 138.24847131500002, 37.081367150000005], "geometry": {"type": "Point", "coordinates": [138.24847131500002, 37.081367150000005]}, "properties": {"id": "PS_86F854C07A8D", "station_group_id": "SG_526C00D69A9C", "operator_id": "jr_east", "operator_ids": "jr_east", "name_en": "上越妙高", "name_ja": "上越妙高", "label_rank": 72, "tags": ["tokyo", "v3"]}}, {"type": "Feature", "bbox": [138.24847131500002, 37.081367150000005, 138.24847131500002, 37.081367150000005], "geometry": {"type": "Point", "coordinates": [138.24847131500002, 37.081367150000005]}, "properties": {"id": "PS_6031CBEDF4AD", "station_group_id": "SG_526C00D69A9C", "operator_id": "jr_west", "operator_ids": "jr_west", "name_en": "上越妙高", "name_ja": "上越妙高", "label_rank": 72, "tags": ["tokyo", "v3"]}}, {"type": "Feature", "bbox": [138.28026499999999, 36.659285, 138.28026499999999, 36.659285], "geometry": {"type": "Point", "coordinates": [138.28026499999999, 36.659285]}, "properties": {"id": "PS_6649C593AED6", "station_group_id": "SG_884227D5452F", "operator_id": "長野電鉄", "operator_ids": "長野電鉄", "name_en": "村山", "name_ja": "村山", "label_rank": 72, "tags": ["tokyo", "v3"]}}, {"type": "Feature", "bbox": [137.86129316, 37.043114454999994, 137.86129316, 37.043114454999994], "geometry": {"type": "Point", "coordinates": [137.86129316, 37.043114454999994]}, "properties": {"id": "PS_CA76BA61548D", "station_group_id": "SG_892CFBA59350", "operator_id": "jr_west", "operator_ids": "jr_west", "name_en": "糸魚川", "name_ja": "糸魚川", "label_rank": 72, "tags": ["tokyo", "v3"]}}, {"type": "Feature", "bbox": [138.18887, 36.642815, 138.18887, 36.642815], "geometry": {"type": "Point", "coordinates": [138.18887, 36.642815]}, "properties": {"id": "PS_7557D77C4A74", "station_group_id": "SG_7F8996CBE2C7", "operator_id": "jr_east", "operator_ids": "jr_east", "name_en": "長野", "name_ja": "長野", "label_rank": 72, "tags": ["tokyo", "v3"]}}, {"type": "Feature", "bbox": [138.35901085, 36.845143199999995, 138.35901085, 36.845143199999995], "geometry": {"type": "Point", "coordinates": [138.35901085, 36.845143199999995]}, "properties": {"id": "PS_0BC6D589CB4B", "station_group_id": "SG_899A50574418", "operator_id": "jr_east", "operator_ids": "jr_east", "name_en": "飯山", "name_ja": "飯山", "label_rank": 72, "tags": ["tokyo", "v3"]}}, {"type": "Feature", "bbox": [137.481125775, 36.87406446, 137.481125775, 36.87406446], "geometry": {"type": "Point", "coordinates": [137.481125775, 36.87406446]}, "properties": {"id": "PS_69F81C0D09CF", "station_group_id": "SG_1C421B54FBFE", "operator_id": "jr_west", "operator_ids": "jr_west", "name_en": "黒部宇奈月温泉", "name_ja": "黒部宇奈月温泉", "label_rank": 72, "tags": ["tokyo", "v3"]}}]}