{"type": "FeatureCollection", "features": [{"type": "Feature", "bbox": [133.67836, 34.565079999999995, 133.67836, 34.565079999999995], "geometry": {"type": "Point", "coordinates": [133.67836, 34.565079999999995]}, "properties": {"id": "PS_C9A650FC6611", "station_group_id": "SG_10EA2F07CBE6", "operator_id": "jr_west", "operator_ids": "jr_west", "name_en": "新倉敷", "name_ja": "新倉敷", "label_rank": 72, "tags": ["tokyo", "v3"]}}, {"type": "Feature", "bbox": [133.36135000000002, 34.489270000000005, 133.36135000000002, 34.489270000000005], "geometry": {"type": "Point", "coordinates": [133.36135000000002, 34.489270000000005]}, "properties": {"id": "PS_64D8C73E8338", "station_group_id": "SG_D12850522A72", "operator_id": "jr_west", "operator_ids": "jr_west", "name_en": "福山", "name_ja": "福山", "label_rank": 72, "tags": ["tokyo", "v3"]}}]}