{"type": "FeatureCollection", "features": [{"type": "Feature", "bbox": [139.80525, 36.31159, 139.80746, 36.3155], "geometry": {"type": "LineString", "coordinates": [[139.80525, 36.31159], [139.80746, 36.3155]]}, "properties": {"id": "TRACK_TOKYO_2999", "line_name": "東北新幹線", "station_group_ids": [], "mode": "shinkansen", "operator_id": "jr_east", "tags": ["tokyo", "track_centerline"]}}, {"type": "Feature", "bbox": [139.80746, 36.3155, 139.89761, 36.55688], "geometry": {"type": "LineString", "coordinates": [[139.80746, 36.3155], [139.80838, 36.31707], [139.80849, 36.31725], [139.81094, 36.32143], [139.81117, 36.32184], [139.81197, 36.32324], [139.81341, 36.32564], [139.81416, 36.32693], [139.81504, 36.32851], [139.81671, 36.33139], [139.81966, 36.33649], [139.81968, 36.33653], [139.82142, 36.33954], [139.82309, 36.3424], [139.82441, 36.34468], [139.82453, 36.34488], [139.82554, 36.34662], [139.82917, 36.35282], [139.82974, 36.35379], [139.83197, 36.35757], [139.83395, 36.36095], [139.83405, 36.36112], [139.83561, 36.36381], [139.8375, 36.36703], [139.83872, 36.36909], [139.83924, 36.36997], [139.84071, 36.37247], [139.84157, 36.37393], [139.84264, 36.37571], [139.84276, 36.37593], [139.84351, 36.37722], [139.84456, 36.379], [139.84509, 36.37991], [139.84643, 36.38224], [139.8475, 36.38408], [139.84764, 36.38433], [139.84946, 36.38742], [139.85061, 36.3894], [139.85227, 36.39221], [139.85239, 36.39241], [139.85396, 36.39509], [139.8549, 36.39671], [139.85665, 36.39969], [139.85704, 36.40035], [139.85772, 36.40149], [139.85774, 36.40154], [139.85842, 36.40272], [139.85912, 36.40407], [139.86023, 36.40625], [139.86077, 36.40741], [139.86108, 36.40817], [139.86125, 36.40862], [139.86171, 36.40989], [139.86193, 36.4105], [139.86222, 36.41142], [139.8625, 36.4125], [139.86339, 36.41696], [139.86374, 36.41874], [139.86387, 36.41938], [139.86396, 36.41982], [139.86396, 36.41983], [139.86408, 36.42055], [139.86413, 36.4209], [139.86418, 36.4212], [139.86427, 36.42171], [139.86439, 36.42229], [139.86477, 36.4245], [139.86479, 36.42457], [139.86563, 36.42921], [139.86568, 36.42947], [139.86577, 36.42993], [139.86599, 36.43118], [139.8673, 36.43839], [139.86747, 36.43937], [139.86748, 36.4394], [139.86751, 36.4396], [139.86755, 36.43979], [139.86762, 36.4402], [139.86797, 36.44207], [139.86843, 36.4446], [139.86909, 36.44829], [139.86945, 36.45028], [139.86957, 36.45096], [139.86977, 36.45205], [139.8698, 36.45223], [139.86984, 36.45243], [139.87007, 36.4537], [139.87017, 36.45423], [139.87025, 36.45469], [139.87045, 36.45576], [139.87055, 36.45633], [139.87083, 36.4579], [139.87155, 36.46186], [139.8716, 36.46214], [139.87173, 36.46288], [139.87183, 36.46342], [139.8719, 36.46385], [139.87196, 36.46413], [139.87203, 36.46455], [139.87229, 36.46609], [139.87258, 36.4677], [139.8729, 36.46952], [139.87313, 36.47084], [139.87376, 36.47429], [139.87423, 36.47678], [139.87433, 36.4773], [139.87497, 36.48071], [139.87547, 36.48338], [139.87591, 36.48569], [139.87596, 36.48593], [139.87642, 36.48844], [139.87652, 36.48897], [139.87666, 36.48965], [139.87672, 36.48993], [139.87679, 36.49018], [139.87703, 36.49105], [139.8771, 36.49134], [139.87738, 36.49222], [139.87758, 36.49282], [139.87763, 36.49298], [139.87768, 36.49313], [139.87819, 36.4945], [139.87829, 36.49474], [139.8791, 36.49689], [139.87988, 36.49904], [139.88056, 36.50098], [139.88101, 36.50224], [139.88134, 36.50314], [139.8817, 36.50405], [139.88191, 36.50459], [139.88255, 36.50639], [139.88414, 36.51072], [139.88488, 36.51268], [139.88522, 36.51358], [139.88639, 36.51678], [139.8872, 36.51893], [139.88808, 36.52131], [139.8882, 36.52164], [139.88945, 36.52508], [139.89031, 36.52739], [139.89086, 36.52897], [139.89108, 36.52967], [139.89116, 36.52997], [139.89165, 36.53183], [139.8925, 36.53514], [139.89334, 36.53881], [139.89356, 36.53977], [139.8945, 36.54374], [139.89543, 36.54767], [139.89574, 36.549], [139.89651, 36.55218], [139.89753, 36.55652], [139.89761, 36.55688]]}, "properties": {"id": "TRACK_TOKYO_3000", "line_name": "東北新幹線", "station_group_ids": [], "mode": "shinkansen", "operator_id": "jr_east", "tags": ["tokyo", "track_centerline"]}}, {"type": "Feature", "bbox": [139.62452, 35.97526, 139.80525, 36.31159], "geometry": {"type": "LineString", "coordinates": [[139.62452, 35.97526], [139.62465, 35.97583], [139.62478, 35.97648], [139.62488, 35.97692], [139.62518, 35.97807], [139.62545, 35.97902], [139.62572, 35.97989], [139.62628, 35.98146], [139.62657, 35.98222], [139.62682, 35.98277], [139.62724, 35.98357], [139.62763, 35.98433], [139.62812, 35.98527], [139.62825, 35.98548], [139.62854, 35.98596], [139.62919, 35.98697], [139.62966, 35.98765], [139.63024, 35.98846], [139.63076, 35.98914], [139.63151, 35.99016], [139.63224, 35.99119], [139.63273, 35.99185], [139.63344, 35.99276], [139.63383, 35.99326], [139.63409, 35.99359], [139.63503, 35.9948], [139.6357, 35.99568], [139.6365, 35.99671], [139.63724, 35.99765], [139.6374, 35.99787], [139.63776, 35.99834], [139.63863, 35.99942], [139.63931, 36.00029], [139.6401, 36.00127], [139.64109, 36.00255], [139.6416, 36.00319], [139.64202, 36.00385], [139.64285, 36.00495], [139.6434, 36.00568], [139.64361, 36.00595], [139.64369, 36.00606], [139.6443, 36.0069], [139.6457, 36.00872], [139.64626, 36.00948], [139.64666, 36.00999], [139.64737, 36.01088], [139.64951, 36.01358], [139.64978, 36.01393], [139.65137, 36.0159], [139.65268, 36.01757], [139.65301, 36.01801], [139.65346, 36.01862], [139.65418, 36.01966], [139.6548, 36.02062], [139.65492, 36.02081], [139.65591, 36.02234], [139.6563, 36.02294], [139.65658, 36.02343], [139.65688, 36.02395], [139.65729, 36.02479], [139.65929, 36.02885], [139.65949, 36.02925], [139.66104, 36.03222], [139.66203, 36.03429], [139.6627, 36.03562], [139.66335, 36.0369], [139.66349, 36.03719], [139.66402, 36.03823], [139.66466, 36.03955], [139.66536, 36.04099], [139.66576, 36.04175], [139.66616, 36.0425], [139.66702, 36.04428], [139.66758, 36.0454], [139.66765, 36.04554], [139.6681, 36.04642], [139.66852, 36.04724], [139.66917, 36.04853], [139.66945, 36.04912], [139.66994, 36.05008], [139.67068, 36.05157], [139.67096, 36.05209], [139.67099, 36.05216], [139.67118, 36.05257], [139.67177, 36.05377], [139.67254, 36.05529], [139.67321, 36.05666], [139.67346, 36.05714], [139.67358, 36.05737], [139.67386, 36.0579], [139.67441, 36.05897], [139.67494, 36.06009], [139.67512, 36.06044], [139.67549, 36.06115], [139.67604, 36.06217], [139.67631, 36.06261], [139.67646, 36.06288], [139.67681, 36.06347], [139.67706, 36.06392], [139.67843, 36.06642], [139.67888, 36.06724], [139.67971, 36.06865], [139.67992, 36.06902], [139.68015, 36.06939], [139.6807, 36.07027], [139.68092, 36.07062], [139.68202, 36.07236], [139.68273, 36.07352], [139.68301, 36.07406], [139.68391, 36.07557], [139.68464, 36.07672], [139.68471, 36.07682], [139.685, 36.07728], [139.68575, 36.07847], [139.68578, 36.07853], [139.68876, 36.08334], [139.69075, 36.08652], [139.69316, 36.09031], [139.69325, 36.09046], [139.69363, 36.09107], [139.69497, 36.09322], [139.69725, 36.0968], [139.69868, 36.09907], [139.69916, 36.09984], [139.70135, 36.10328], [139.7034, 36.10651], [139.70377, 36.10708], [139.70565, 36.11006], [139.70798, 36.11377], [139.70883, 36.11511], [139.71003, 36.117], [139.71198, 36.12012], [139.7139, 36.12312], [139.71396, 36.12323], [139.71457, 36.12423], [139.71493, 36.12487], [139.71549, 36.12587], [139.71654, 36.12787], [139.71704, 36.12903], [139.71761, 36.13035], [139.71805, 36.13135], [139.71869, 36.1328], [139.71961, 36.13489], [139.72122, 36.13855], [139.72279, 36.14212], [139.72412, 36.14517], [139.72539, 36.14811], [139.72654, 36.15071], [139.72725, 36.15235], [139.72788, 36.15381], [139.72943, 36.15737], [139.73107, 36.16112], [139.73308, 36.16573], [139.73484, 36.16984], [139.73495, 36.17012], [139.73511, 36.17049], [139.73528, 36.17089], [139.73613, 36.17283], [139.73687, 36.1745], [139.73724, 36.17531], [139.73789, 36.17678], [139.73856, 36.17832], [139.73948, 36.1804], [139.73973, 36.18101], [139.73975, 36.18102], [139.74036, 36.18261], [139.74047, 36.18288], [139.7407, 36.18348], [139.74093, 36.18405], [139.74108, 36.18444], [139.74135, 36.1851], [139.74157, 36.18566], [139.74191, 36.18653], [139.74199, 36.18674], [139.7425, 36.18804], [139.74286, 36.18895], [139.74301, 36.18934], [139.74348, 36.19054], [139.74393, 36.19169], [139.74419, 36.19234], [139.74447, 36.19306], [139.74458, 36.19334], [139.74491, 36.19419], [139.74522, 36.19496], [139.74604, 36.19704], [139.74642, 36.19802], [139.74644, 36.19803], [139.74666, 36.19861], [139.74675, 36.19882], [139.74703, 36.19951], [139.7473, 36.20021], [139.74753, 36.20084], [139.74782, 36.20156], [139.74805, 36.20212], [139.74841, 36.20302], [139.74903, 36.2046], [139.74927, 36.20514], [139.7496, 36.20604], [139.7501, 36.20721], [139.75056, 36.20843], [139.75119, 36.2101], [139.75196, 36.21205], [139.75262, 36.21373], [139.75286, 36.21435], [139.75357, 36.21615], [139.75425, 36.21795], [139.75511, 36.22013], [139.75566, 36.22152], [139.75596, 36.22232], [139.75615, 36.2228], [139.7567, 36.2242], [139.75774, 36.22692], [139.75831, 36.22836], [139.75904, 36.23028], [139.75929, 36.23092], [139.75971, 36.23198], [139.76055, 36.23418], [139.76106, 36.23553], [139.76154, 36.23681], [139.76229, 36.23872], [139.7626, 36.23953], [139.76325, 36.2412], [139.76375, 36.24242], [139.76402, 36.24311], [139.76433, 36.2439], [139.76472, 36.24486], [139.76505, 36.24568], [139.76571, 36.24742], [139.76619, 36.24864], [139.76661, 36.24973], [139.76697, 36.25064], [139.76751, 36.25189], [139.76785, 36.2527], [139.76793, 36.25292], [139.768, 36.25317], [139.76842, 36.25425], [139.77036, 36.25929], [139.77176, 36.26285], [139.77512, 36.27144], [139.77529, 36.27189], [139.77627, 36.274], [139.7774, 36.27619], [139.77833, 36.27775], [139.77943, 36.27943], [139.77962, 36.27966], [139.78116, 36.28161], [139.78588, 36.2871], [139.79223, 36.29449], [139.79858, 36.30188], [139.79875, 36.30208], [139.80123, 36.30496], [139.80175, 36.30571], [139.80371, 36.309], [139.80377, 36.3091], [139.80525, 36.31159]]}, "properties": {"id": "TRACK_TOKYO_3002", "line_name": "東北新幹線", "station_group_ids": [], "mode": "shinkansen", "operator_id": "jr_east", "tags": ["tokyo", "track_centerline"]}}, {"type": "Feature", "bbox": [139.8431, 36.3759, 139.85373, 36.39404], "geometry": {"type": "LineString", "coordinates": [[139.8431, 36.3759], [139.84353, 36.37659], [139.84395, 36.37732], [139.8442, 36.37775], [139.84422, 36.37777], [139.84522, 36.37953], [139.84667, 36.38198], [139.84822, 36.38462], [139.84896, 36.3859], [139.84987, 36.38745], [139.85151, 36.39028], [139.85373, 36.39404]]}, "properties": {"id": "TRACK_TOKYO_3241", "line_name": "東北線", "station_group_ids": [], "mode": "rail", "operator_id": "jr_east", "tags": ["tokyo", "track_centerline"]}}, {"type": "Feature", "bbox": [139.84146, 36.37307, 139.8431, 36.3759], "geometry": {"type": "LineString", "coordinates": [[139.84146, 36.37307], [139.8431, 36.3759]]}, "properties": {"id": "TRACK_TOKYO_3249", "line_name": "東北線", "station_group_ids": [], "mode": "rail", "operator_id": "jr_east", "tags": ["tokyo", "track_centerline"]}}, {"type": "Feature", "bbox": [139.8055, 36.31149, 139.80776, 36.31539], "geometry": {"type": "LineString", "coordinates": [[139.80776, 36.31539], [139.8055, 36.31149]]}, "properties": {"id": "TRACK_TOKYO_3261", "line_name": "東北線", "station_group_ids": [], "mode": "rail", "operator_id": "jr_east", "tags": ["tokyo", "track_centerline"]}}, {"type": "Feature", "bbox": [139.76012, 36.2567, 139.76208, 36.25909], "geometry": {"type": "LineString", "coordinates": [[139.76208, 36.25909], [139.76119, 36.258], [139.76107, 36.25785], [139.76012, 36.2567]]}, "properties": {"id": "TRACK_TOKYO_3262", "line_name": "東北線", "station_group_ids": [], "mode": "rail", "operator_id": "jr_east", "tags": ["tokyo", "track_centerline"]}}, {"type": "Feature", "bbox": [139.8103, 36.31972, 139.84146, 36.37307], "geometry": {"type": "LineString", "coordinates": [[139.8103, 36.31972], [139.81081, 36.32053], [139.81127, 36.32139], [139.81393, 36.32601], [139.81529, 36.32834], [139.81637, 36.33018], [139.81803, 36.33307], [139.82004, 36.33649], [139.82158, 36.33917], [139.82318, 36.34189], [139.82473, 36.34455], [139.82495, 36.34493], [139.82642, 36.34744], [139.82816, 36.35041], [139.8295, 36.35269], [139.82989, 36.35335], [139.83119, 36.35557], [139.83281, 36.35831], [139.83408, 36.3605], [139.83427, 36.36082], [139.83574, 36.36335], [139.83739, 36.36614], [139.83882, 36.3686], [139.83904, 36.36896], [139.84146, 36.37307]]}, "properties": {"id": "TRACK_TOKYO_3263", "line_name": "東北線", "station_group_ids": [], "mode": "rail", "operator_id": "jr_east", "tags": ["tokyo", "track_centerline"]}}, {"type": "Feature", "bbox": [139.70936, 36.19327, 139.71007, 36.19556], "geometry": {"type": "LineString", "coordinates": [[139.70936, 36.19556], [139.71007, 36.19327]]}, "properties": {"id": "TRACK_TOKYO_3264", "line_name": "東北線", "station_group_ids": [], "mode": "rail", "operator_id": "jr_east", "tags": ["tokyo", "track_centerline"]}}, {"type": "Feature", "bbox": [139.80776, 36.31539, 139.8084, 36.3165], "geometry": {"type": "LineString", "coordinates": [[139.8084, 36.3165], [139.80776, 36.31539]]}, "properties": {"id": "TRACK_TOKYO_3269", "line_name": "東北線", "station_group_ids": [], "mode": "rail", "operator_id": "jr_east", "tags": ["tokyo", "track_centerline"]}}, {"type": "Feature", "bbox": [139.76208, 36.25909, 139.8055, 36.31149], "geometry": {"type": "LineString", "coordinates": [[139.8055, 36.31149], [139.80541, 36.31133], [139.8047, 36.31012], [139.80386, 36.30868], [139.80208, 36.3056], [139.80164, 36.30498], [139.80026, 36.30338], [139.79935, 36.30232], [139.79391, 36.29599], [139.79061, 36.29215], [139.788, 36.28917], [139.78753, 36.28862], [139.78121, 36.28121], [139.78031, 36.28016], [139.77742, 36.27684], [139.77482, 36.27384], [139.77183, 36.27038], [139.76844, 36.26647], [139.76507, 36.2626], [139.76208, 36.25909]]}, "properties": {"id": "TRACK_TOKYO_3272", "line_name": "東北線", "station_group_ids": [], "mode": "rail", "operator_id": "jr_east", "tags": ["tokyo", "track_centerline"]}}, {"type": "Feature", "bbox": [139.73372, 36.22873, 139.73587, 36.23108], "geometry": {"type": "LineString", "coordinates": [[139.73587, 36.23108], [139.73372, 36.22873]]}, "properties": {"id": "TRACK_TOKYO_3274", "line_name": "東北線", "station_group_ids": [], "mode": "rail", "operator_id": "jr_east", "tags": ["tokyo", "track_centerline"]}}, {"type": "Feature", "bbox": [139.69431, 36.13721, 139.71864, 36.19327], "geometry": {"type": "LineString", "coordinates": [[139.71007, 36.19327], [139.71018, 36.19286], [139.71083, 36.19061], [139.71098, 36.19007], [139.71117, 36.18948], [139.7118, 36.18732], [139.71193, 36.1869], [139.7124, 36.18524], [139.71262, 36.18448], [139.71293, 36.18338], [139.7134, 36.18177], [139.7137, 36.18078], [139.71386, 36.1802], [139.7139, 36.18004], [139.71396, 36.17982], [139.71408, 36.17935], [139.71418, 36.17897], [139.71447, 36.17799], [139.71452, 36.17787], [139.71452, 36.17779], [139.71453, 36.17778], [139.71454, 36.17776], [139.71472, 36.17716], [139.71479, 36.17694], [139.71495, 36.17635], [139.71501, 36.17618], [139.71527, 36.1753], [139.71528, 36.17529], [139.7153, 36.17521], [139.71568, 36.17391], [139.716, 36.17283], [139.71658, 36.17087], [139.71668, 36.17053], [139.71688, 36.16984], [139.71696, 36.1696], [139.71753, 36.16785], [139.71794, 36.16595], [139.71801, 36.16559], [139.71845, 36.16358], [139.71859, 36.16288], [139.71864, 36.16233], [139.71864, 36.16197], [139.71857, 36.16161], [139.71843, 36.16119], [139.71831, 36.16094], [139.71808, 36.16058], [139.71781, 36.16023], [139.71717, 36.15956], [139.71626, 36.1588], [139.71503, 36.15783], [139.71375, 36.15677], [139.71222, 36.15548], [139.71099, 36.15438], [139.70957, 36.15306], [139.70918, 36.15272], [139.70842, 36.15207], [139.7077, 36.15156], [139.70709, 36.15121], [139.70553, 36.15037], [139.70509, 36.15013], [139.70418, 36.14963], [139.70108, 36.14796], [139.70088, 36.14785], [139.69843, 36.14652], [139.69808, 36.14632], [139.69753, 36.14601], [139.69726, 36.14585], [139.6968, 36.14549], [139.69645, 36.14515], [139.69609, 36.14475], [139.69585, 36.14448], [139.69567, 36.14418], [139.69563, 36.1441], [139.69553, 36.14383], [139.69538, 36.14329], [139.69523, 36.14242], [139.69519, 36.14222], [139.69475, 36.13982], [139.69431, 36.13721]]}, "properties": {"id": "TRACK_TOKYO_3276", "line_name": "東北線", "station_group_ids": [], "mode": "rail", "operator_id": "jr_east", "tags": ["tokyo", "track_centerline"]}}, {"type": "Feature", "bbox": [139.70837, 36.19556, 139.73372, 36.22873], "geometry": {"type": "LineString", "coordinates": [[139.70936, 36.19556], [139.70933, 36.19565], [139.70902, 36.19661], [139.7089, 36.19698], [139.70855, 36.19803], [139.70843, 36.19856], [139.70838, 36.19884], [139.70837, 36.19935], [139.70843, 36.19998], [139.70853, 36.20048], [139.70861, 36.20075], [139.70869, 36.20094], [139.70878, 36.20117], [139.70895, 36.20147], [139.70932, 36.20197], [139.70983, 36.20259], [139.70987, 36.20262], [139.71092, 36.20377], [139.71094, 36.20381], [139.71095, 36.20381], [139.71268, 36.20569], [139.71409, 36.20722], [139.71428, 36.20744], [139.71481, 36.20802], [139.71513, 36.20837], [139.71562, 36.20891], [139.71568, 36.20896], [139.71634, 36.20969], [139.71655, 36.20991], [139.71697, 36.21037], [139.71795, 36.21145], [139.719, 36.2126], [139.72022, 36.21391], [139.72052, 36.21424], [139.72191, 36.21574], [139.72433, 36.21839], [139.72517, 36.21931], [139.72555, 36.21973], [139.72564, 36.21982], [139.72665, 36.22093], [139.72694, 36.22125], [139.72714, 36.22148], [139.72736, 36.22173], [139.72813, 36.22259], [139.72823, 36.22268], [139.72899, 36.22353], [139.72968, 36.22429], [139.73042, 36.22509], [139.73085, 36.22557], [139.73089, 36.2256], [139.73135, 36.22611], [139.7319, 36.2267], [139.73191, 36.22672], [139.73252, 36.2274], [139.73263, 36.22752], [139.73292, 36.22783], [139.73332, 36.22829], [139.73337, 36.22834], [139.73372, 36.22873]]}, "properties": {"id": "TRACK_TOKYO_3278", "line_name": "東北線", "station_group_ids": [], "mode": "rail", "operator_id": "jr_east", "tags": ["tokyo", "track_centerline"]}}, {"type": "Feature", "bbox": [139.73587, 36.23108, 139.76012, 36.2567], "geometry": {"type": "LineString", "coordinates": [[139.76012, 36.2567], [139.7571, 36.25317], [139.75705, 36.25306], [139.75657, 36.25249], [139.75635, 36.25223], [139.75454, 36.25016], [139.75249, 36.24777], [139.7518, 36.24697], [139.75091, 36.24594], [139.75021, 36.24512], [139.7502, 36.24512], [139.74948, 36.24427], [139.7491, 36.24386], [139.7478, 36.2426], [139.74686, 36.2417], [139.74675, 36.24159], [139.74392, 36.23894], [139.74294, 36.23802], [139.74236, 36.23748], [139.7413, 36.23648], [139.74094, 36.23615], [139.74064, 36.23587], [139.73992, 36.23517], [139.73881, 36.23411], [139.73838, 36.2337], [139.73792, 36.23325], [139.73747, 36.2328], [139.73708, 36.23239], [139.73615, 36.23139], [139.73587, 36.23108]]}, "properties": {"id": "TRACK_TOKYO_3279", "line_name": "東北線", "station_group_ids": [], "mode": "rail", "operator_id": "jr_east", "tags": ["tokyo", "track_centerline"]}}, {"type": "Feature", "bbox": [139.8084, 36.3165, 139.8103, 36.31972], "geometry": {"type": "LineString", "coordinates": [[139.8084, 36.3165], [139.8103, 36.31972]]}, "properties": {"id": "TRACK_TOKYO_3283", "line_name": "東北線", "station_group_ids": [], "mode": "rail", "operator_id": "jr_east", "tags": ["tokyo", "track_centerline"]}}, {"type": "Feature", "bbox": [139.80533, 36.4229, 139.82337, 36.4507], "geometry": {"type": "LineString", "coordinates": [[139.80533, 36.4229], [139.80543, 36.42306], [139.80559, 36.42331], [139.80566, 36.42339], [139.8063, 36.42438], [139.80667, 36.42494], [139.80671, 36.42499], [139.80678, 36.42511], [139.80706, 36.42553], [139.80714, 36.42566], [139.80763, 36.42643], [139.80805, 36.42708], [139.80851, 36.42779], [139.8089, 36.42839], [139.80998, 36.43008], [139.81014, 36.43032], [139.81045, 36.43082], [139.81054, 36.43095], [139.81066, 36.43114], [139.8108, 36.43136], [139.81081, 36.43138], [139.81091, 36.43151], [139.81103, 36.43172], [139.81118, 36.43195], [139.81121, 36.43198], [139.8117, 36.43275], [139.81221, 36.43354], [139.81228, 36.43366], [139.8125, 36.43398], [139.81318, 36.43504], [139.8132, 36.43507], [139.81328, 36.43519], [139.81371, 36.43586], [139.81373, 36.43588], [139.81425, 36.4367], [139.81531, 36.43835], [139.81617, 36.43968], [139.81619, 36.4397], [139.8163, 36.43986], [139.81633, 36.43993], [139.81654, 36.44023], [139.81691, 36.44079], [139.81691, 36.44081], [139.81695, 36.44084], [139.8173, 36.44141], [139.81746, 36.44163], [139.81782, 36.44221], [139.81831, 36.44297], [139.81833, 36.443], [139.81895, 36.44398], [139.81901, 36.44407], [139.81902, 36.44407], [139.81902, 36.4441], [139.81933, 36.44458], [139.81943, 36.44473], [139.81945, 36.44475], [139.81987, 36.44538], [139.82012, 36.44577], [139.82086, 36.44692], [139.82097, 36.44708], [139.82131, 36.44761], [139.82135, 36.44766], [139.8214, 36.44772], [139.82172, 36.44821], [139.82186, 36.44843], [139.82191, 36.44848], [139.82217, 36.44888], [139.82243, 36.44928], [139.82248, 36.44935], [139.82253, 36.44943], [139.82322, 36.45047], [139.82337, 36.4507]]}, "properties": {"id": "TRACK_TOKYO_3582", "line_name": "宇都宮線", "station_group_ids": [], "mode": "private", "operator_id": "tobu", "tags": ["tokyo", "track_centerline"]}}, {"type": "Feature", "bbox": [139.75337, 36.40143, 139.75419, 36.40169], "geometry": {"type": "LineString", "coordinates": [[139.75337, 36.40143], [139.75419, 36.40169]]}, "properties": {"id": "TRACK_TOKYO_3583", "line_name": "宇都宮線", "station_group_ids": [], "mode": "private", "operator_id": "tobu", "tags": ["tokyo", "track_centerline"]}}, {"type": "Feature", "bbox": [139.77303, 36.40897, 139.80469, 36.42197], "geometry": {"type": "LineString", "coordinates": [[139.77303, 36.40897], [139.7759, 36.41025], [139.77621, 36.41038], [139.77841, 36.41134], [139.78202, 36.41289], [139.78441, 36.41394], [139.78607, 36.41448], [139.78659, 36.41467], [139.78719, 36.41486], [139.79107, 36.41614], [139.79131, 36.41623], [139.79178, 36.41639], [139.792, 36.41647], [139.79312, 36.41683], [139.79338, 36.41691], [139.79362, 36.417], [139.79388, 36.41709], [139.79448, 36.41729], [139.80037, 36.41926], [139.8021, 36.41981], [139.80243, 36.41994], [139.80245, 36.41995], [139.80252, 36.41999], [139.80262, 36.42003], [139.80278, 36.4201], [139.80294, 36.42018], [139.80321, 36.42034], [139.80337, 36.42045], [139.80373, 36.42074], [139.80393, 36.42095], [139.80407, 36.4211], [139.80423, 36.4213], [139.80456, 36.42177], [139.80461, 36.42185], [139.80469, 36.42197]]}, "properties": {"id": "TRACK_TOKYO_3586", "line_name": "宇都宮線", "station_group_ids": [], "mode": "private", "operator_id": "tobu", "tags": ["tokyo", "track_centerline"]}}, {"type": "Feature", "bbox": [139.74105, 36.39471, 139.75337, 36.40143], "geometry": {"type": "LineString", "coordinates": [[139.74105, 36.39471], [139.74113, 36.39519], [139.74123, 36.39561], [139.74129, 36.39579], [139.74132, 36.39587], [139.74136, 36.39599], [139.74145, 36.39622], [139.74149, 36.39628], [139.74162, 36.39657], [139.74166, 36.39664], [139.74192, 36.39702], [139.74216, 36.39731], [139.74249, 36.39762], [139.74287, 36.39789], [139.74319, 36.39807], [139.74324, 36.39808], [139.74345, 36.39817], [139.74358, 36.39822], [139.74362, 36.39823], [139.74371, 36.39827], [139.74393, 36.39834], [139.74483, 36.39864], [139.74505, 36.39872], [139.7452, 36.39876], [139.74533, 36.3988], [139.74534, 36.3988], [139.74549, 36.39885], [139.74561, 36.3989], [139.74591, 36.39901], [139.74599, 36.39903], [139.74613, 36.39908], [139.74674, 36.39929], [139.75337, 36.40143]]}, "properties": {"id": "TRACK_TOKYO_3594", "line_name": "宇都宮線", "station_group_ids": [], "mode": "private", "operator_id": "tobu", "tags": ["tokyo", "track_centerline"]}}, {"type": "Feature", "bbox": [139.74105, 36.39065, 139.74217, 36.39471], "geometry": {"type": "LineString", "coordinates": [[139.74217, 36.39065], [139.74216, 36.3907], [139.74214, 36.39079], [139.7421, 36.39092], [139.74195, 36.39144], [139.74192, 36.39155], [139.74188, 36.39168], [139.74182, 36.39187], [139.7417, 36.39232], [139.74145, 36.39309], [139.74145, 36.39312], [139.74136, 36.39345], [139.74131, 36.39365], [139.74129, 36.39368], [139.74124, 36.39388], [139.74121, 36.39396], [139.7412, 36.39403], [139.74118, 36.39411], [139.74116, 36.39417], [139.74113, 36.39435], [139.74106, 36.39458], [139.74105, 36.39471]]}, "properties": {"id": "TRACK_TOKYO_3595", "line_name": "宇都宮線", "station_group_ids": [], "mode": "private", "operator_id": "tobu", "tags": ["tokyo", "track_centerline"]}}, {"type": "Feature", "bbox": [139.77216, 36.40858, 139.77303, 36.40897], "geometry": {"type": "LineString", "coordinates": [[139.77216, 36.40858], [139.77303, 36.40897]]}, "properties": {"id": "TRACK_TOKYO_3596", "line_name": "宇都宮線", "station_group_ids": [], "mode": "private", "operator_id": "tobu", "tags": ["tokyo", "track_centerline"]}}, {"type": "Feature", "bbox": [139.80469, 36.42197, 139.80533, 36.4229], "geometry": {"type": "LineString", "coordinates": [[139.80469, 36.42197], [139.80533, 36.4229]]}, "properties": {"id": "TRACK_TOKYO_3598", "line_name": "宇都宮線", "station_group_ids": [], "mode": "private", "operator_id": "tobu", "tags": ["tokyo", "track_centerline"]}}, {"type": "Feature", "bbox": [139.75419, 36.40169, 139.77216, 36.40858], "geometry": {"type": "LineString", "coordinates": [[139.75419, 36.40169], [139.75955, 36.40349], [139.76094, 36.40395], [139.76202, 36.4043], [139.76234, 36.40441], [139.76352, 36.4048], [139.76804, 36.40676], [139.77216, 36.40858]]}, "properties": {"id": "TRACK_TOKYO_3599", "line_name": "宇都宮線", "station_group_ids": [], "mode": "private", "operator_id": "tobu", "tags": ["tokyo", "track_centerline"]}}, {"type": "Feature", "bbox": [139.74217, 36.38947, 139.74253, 36.39065], "geometry": {"type": "LineString", "coordinates": [[139.74253, 36.38947], [139.74217, 36.39065]]}, "properties": {"id": "TRACK_TOKYO_3601", "line_name": "宇都宮線", "station_group_ids": [], "mode": "private", "operator_id": "tobu", "tags": ["tokyo", "track_centerline"]}}, {"type": "Feature", "bbox": [139.5817, 36.36673, 139.58212, 36.36741], "geometry": {"type": "LineString", "coordinates": [[139.58212, 36.36741], [139.5817, 36.36673]]}, "properties": {"id": "TRACK_TOKYO_3659", "line_name": "佐野線", "station_group_ids": [], "mode": "private", "operator_id": "tobu", "tags": ["tokyo", "track_centerline"]}}, {"type": "Feature", "bbox": [139.5926, 36.3775, 139.59332, 36.37865], "geometry": {"type": "LineString", "coordinates": [[139.59332, 36.37865], [139.5926, 36.3775]]}, "properties": {"id": "TRACK_TOKYO_3660", "line_name": "佐野線", "station_group_ids": [], "mode": "private", "operator_id": "tobu", "tags": ["tokyo", "track_centerline"]}}, {"type": "Feature", "bbox": [139.60873, 36.39776, 139.60984, 36.39801], "geometry": {"type": "LineString", "coordinates": [[139.60984, 36.39801], [139.60873, 36.39776]]}, "properties": {"id": "TRACK_TOKYO_3661", "line_name": "佐野線", "station_group_ids": [], "mode": "private", "operator_id": "tobu", "tags": ["tokyo", "track_centerline"]}}, {"type": "Feature", "bbox": [139.58212, 36.36741, 139.5926, 36.3775], "geometry": {"type": "LineString", "coordinates": [[139.58212, 36.36741], [139.58239, 36.36782], [139.58251, 36.36802], [139.58258, 36.36812], [139.58288, 36.36858], [139.58288, 36.36861], [139.583, 36.36879], [139.58308, 36.36888], [139.58327, 36.36905], [139.58374, 36.3694], [139.5839, 36.36951], [139.58393, 36.36953], [139.58459, 36.37001], [139.58464, 36.37003], [139.58535, 36.37054], [139.58544, 36.37061], [139.58556, 36.37069], [139.58578, 36.37084], [139.58582, 36.37088], [139.5871, 36.37178], [139.58725, 36.37189], [139.5873, 36.37193], [139.58739, 36.37198], [139.58743, 36.37202], [139.58793, 36.37238], [139.58796, 36.3724], [139.58875, 36.37297], [139.58952, 36.37354], [139.58956, 36.37358], [139.58965, 36.37364], [139.59013, 36.37414], [139.59086, 36.37496], [139.59131, 36.37558], [139.59177, 36.37621], [139.59231, 36.37705], [139.5926, 36.3775]]}, "properties": {"id": "TRACK_TOKYO_3662", "line_name": "佐野線", "station_group_ids": [], "mode": "private", "operator_id": "tobu", "tags": ["tokyo", "track_centerline"]}}, {"type": "Feature", "bbox": [139.59332, 36.37865, 139.60873, 36.39776], "geometry": {"type": "LineString", "coordinates": [[139.60873, 36.39776], [139.60853, 36.39771], [139.60833, 36.39767], [139.60817, 36.39763], [139.60804, 36.39762], [139.60778, 36.39755], [139.6074, 36.39748], [139.60709, 36.39744], [139.60641, 36.39734], [139.60571, 36.39723], [139.60567, 36.39723], [139.6051, 36.39706], [139.60499, 36.39701], [139.60476, 36.3969], [139.60435, 36.39663], [139.60414, 36.39645], [139.60396, 36.39625], [139.60382, 36.39608], [139.60361, 36.39574], [139.60355, 36.39559], [139.60351, 36.39547], [139.60346, 36.39523], [139.60341, 36.39436], [139.60341, 36.39405], [139.60346, 36.39359], [139.60345, 36.39316], [139.60336, 36.39245], [139.60331, 36.3922], [139.60329, 36.39203], [139.60304, 36.3909], [139.60292, 36.39044], [139.60288, 36.39032], [139.60278, 36.39001], [139.60261, 36.38961], [139.60243, 36.38923], [139.60215, 36.38876], [139.60214, 36.38875], [139.60213, 36.38872], [139.60203, 36.38858], [139.60196, 36.38845], [139.60176, 36.38811], [139.60162, 36.38794], [139.6016, 36.38794], [139.60158, 36.38791], [139.60123, 36.38753], [139.60094, 36.38724], [139.60091, 36.38723], [139.60091, 36.38721], [139.60063, 36.38694], [139.59967, 36.38598], [139.59956, 36.38586], [139.59954, 36.38585], [139.59953, 36.38582], [139.59951, 36.38582], [139.59917, 36.38547], [139.59896, 36.38526], [139.59879, 36.38507], [139.59848, 36.38477], [139.59828, 36.38456], [139.5971, 36.38336], [139.59603, 36.38226], [139.59498, 36.38119], [139.59472, 36.38086], [139.5944, 36.38035], [139.59406, 36.37985], [139.59378, 36.37939], [139.59376, 36.37937], [139.59332, 36.37866], [139.59332, 36.37865]]}, "properties": {"id": "TRACK_TOKYO_3663", "line_name": "佐野線", "station_group_ids": [], "mode": "private", "operator_id": "tobu", "tags": ["tokyo", "track_centerline"]}}, {"type": "Feature", "bbox": [139.57465, 36.32886, 139.58024, 36.3453], "geometry": {"type": "LineString", "coordinates": [[139.5792, 36.3453], [139.57911, 36.34504], [139.57894, 36.34464], [139.57888, 36.34451], [139.57886, 36.34445], [139.57879, 36.34428], [139.57877, 36.34421], [139.57846, 36.34344], [139.57845, 36.34337], [139.57818, 36.34271], [139.57815, 36.34263], [139.5778, 36.34173], [139.57765, 36.34132], [139.57744, 36.34081], [139.5773, 36.34043], [139.57711, 36.33996], [139.57699, 36.3396], [139.57687, 36.33936], [139.57683, 36.33923], [139.57675, 36.33903], [139.57658, 36.3387], [139.57623, 36.33815], [139.57597, 36.33788], [139.57544, 36.33734], [139.57532, 36.3372], [139.5752, 36.337], [139.57518, 36.33698], [139.57508, 36.33678], [139.57497, 36.33649], [139.57481, 36.33612], [139.57469, 36.33567], [139.57465, 36.33535], [139.57468, 36.33504], [139.57473, 36.33474], [139.5748, 36.33445], [139.57499, 36.33404], [139.57515, 36.33377], [139.57537, 36.33353], [139.57549, 36.33341], [139.57573, 36.33321], [139.57599, 36.33302], [139.57603, 36.33301], [139.57636, 36.3328], [139.57662, 36.33267], [139.57716, 36.3324], [139.57745, 36.33229], [139.57786, 36.33211], [139.57818, 36.33196], [139.57853, 36.33176], [139.57878, 36.33157], [139.57901, 36.33136], [139.57924, 36.33112], [139.57944, 36.33087], [139.57965, 36.33061], [139.57981, 36.33035], [139.57993, 36.33016], [139.58001, 36.32989], [139.5801, 36.32958], [139.58015, 36.32928], [139.58024, 36.32886]]}, "properties": {"id": "TRACK_TOKYO_3666", "line_name": "佐野線", "station_group_ids": [], "mode": "private", "operator_id": "tobu", "tags": ["tokyo", "track_centerline"]}}, {"type": "Feature", "bbox": [139.58024, 36.32802, 139.58042, 36.32886], "geometry": {"type": "LineString", "coordinates": [[139.58024, 36.32886], [139.58042, 36.32802]]}, "properties": {"id": "TRACK_TOKYO_3670", "line_name": "佐野線", "station_group_ids": [], "mode": "private", "operator_id": "tobu", "tags": ["tokyo", "track_centerline"]}}, {"type": "Feature", "bbox": [139.57524, 36.30585, 139.57656, 36.30663], "geometry": {"type": "LineString", "coordinates": [[139.57656, 36.30663], [139.57524, 36.30585]]}, "properties": {"id": "TRACK_TOKYO_3671", "line_name": "佐野線", "station_group_ids": [], "mode": "private", "operator_id": "tobu", "tags": ["tokyo", "track_centerline"]}}, {"type": "Feature", "bbox": [139.57596, 36.31683, 139.58047, 36.32802], "geometry": {"type": "LineString", "coordinates": [[139.58042, 36.32802], [139.58046, 36.32771], [139.58047, 36.32737], [139.58047, 36.32707], [139.58041, 36.32678], [139.58034, 36.32655], [139.5802, 36.3262], [139.58002, 36.32587], [139.57954, 36.32503], [139.57907, 36.32425], [139.57862, 36.32345], [139.57838, 36.3231], [139.5782, 36.32283], [139.57801, 36.3226], [139.57757, 36.32203], [139.57708, 36.32142], [139.5768, 36.32104], [139.57658, 36.32076], [139.57639, 36.32048], [139.57625, 36.32027], [139.57612, 36.31999], [139.57604, 36.31974], [139.57599, 36.31944], [139.57596, 36.31908], [139.57597, 36.31879], [139.57605, 36.31849], [139.57615, 36.31825], [139.57631, 36.31798], [139.57652, 36.31772], [139.57673, 36.31747], [139.57698, 36.31726], [139.57715, 36.31713], [139.5774, 36.31702], [139.57762, 36.31694], [139.57793, 36.31687], [139.57825, 36.31683]]}, "properties": {"id": "TRACK_TOKYO_3672", "line_name": "佐野線", "station_group_ids": [], "mode": "private", "operator_id": "tobu", "tags": ["tokyo", "track_centerline"]}}, {"type": "Feature", "bbox": [139.56469, 36.28985, 139.56512, 36.2906], "geometry": {"type": "LineString", "coordinates": [[139.56512, 36.2906], [139.56469, 36.28985]]}, "properties": {"id": "TRACK_TOKYO_3673", "line_name": "佐野線", "station_group_ids": [], "mode": "private", "operator_id": "tobu", "tags": ["tokyo", "track_centerline"]}}, {"type": "Feature", "bbox": [139.56512, 36.2906, 139.57524, 36.30585], "geometry": {"type": "LineString", "coordinates": [[139.57524, 36.30585], [139.57467, 36.30549], [139.5741, 36.30514], [139.57388, 36.30494], [139.57366, 36.3047], [139.57363, 36.30466], [139.57353, 36.30448], [139.57343, 36.30429], [139.5732, 36.30378], [139.5731, 36.30336], [139.57302, 36.30307], [139.57292, 36.30255], [139.57288, 36.30236], [139.57281, 36.30208], [139.57272, 36.3017], [139.5726, 36.30129], [139.57235, 36.30066], [139.57206, 36.30003], [139.57181, 36.29952], [139.57158, 36.29907], [139.57126, 36.29851], [139.57105, 36.29816], [139.57076, 36.29775], [139.57046, 36.29736], [139.56984, 36.29661], [139.56966, 36.29638], [139.56944, 36.29611], [139.56903, 36.29562], [139.56855, 36.29505], [139.56783, 36.29417], [139.56729, 36.29352], [139.56675, 36.29286], [139.56625, 36.29226], [139.56592, 36.29183], [139.56564, 36.29144], [139.5653, 36.29087], [139.56512, 36.2906]]}, "properties": {"id": "TRACK_TOKYO_3674", "line_name": "佐野線", "station_group_ids": [], "mode": "private", "operator_id": "tobu", "tags": ["tokyo", "track_centerline"]}}, {"type": "Feature", "bbox": [139.53802, 36.26203, 139.56469, 36.28985], "geometry": {"type": "LineString", "coordinates": [[139.56469, 36.28985], [139.56425, 36.28907], [139.56384, 36.28833], [139.56364, 36.28793], [139.56348, 36.28756], [139.56325, 36.28717], [139.56288, 36.28653], [139.56246, 36.2858], [139.56198, 36.28501], [139.56156, 36.28428], [139.56107, 36.28346], [139.56072, 36.28287], [139.56038, 36.2823], [139.56014, 36.28192], [139.55991, 36.28151], [139.55948, 36.2808], [139.55918, 36.2803], [139.55884, 36.27975], [139.55842, 36.27907], [139.55813, 36.2786], [139.55777, 36.27799], [139.55755, 36.27762], [139.55732, 36.27716], [139.55723, 36.27693], [139.55719, 36.27672], [139.55719, 36.27652], [139.5572, 36.27626], [139.55724, 36.27602], [139.5573, 36.27566], [139.55734, 36.2753], [139.55737, 36.27497], [139.55739, 36.27465], [139.55737, 36.27437], [139.55732, 36.27415], [139.55723, 36.27391], [139.55709, 36.27363], [139.5569, 36.27331], [139.55677, 36.27315], [139.55651, 36.27285], [139.55607, 36.27234], [139.55573, 36.27195], [139.5557, 36.27192], [139.55515, 36.27128], [139.55462, 36.27068], [139.55399, 36.26997], [139.55393, 36.2699], [139.55375, 36.26969], [139.55344, 36.26933], [139.5529, 36.26875], [139.55274, 36.26857], [139.55231, 36.26813], [139.55171, 36.26759], [139.55151, 36.26745], [139.55105, 36.26709], [139.54994, 36.2664], [139.54864, 36.26579], [139.54748, 36.26531], [139.54552, 36.26462], [139.54405, 36.2641], [139.54367, 36.26396], [139.54244, 36.26355], [139.54103, 36.26306], [139.53985, 36.26267], [139.53853, 36.26222], [139.53802, 36.26203]]}, "properties": {"id": "TRACK_TOKYO_3675", "line_name": "佐野線", "station_group_ids": [], "mode": "private", "operator_id": "tobu", "tags": ["tokyo", "track_centerline"]}}, {"type": "Feature", "bbox": [139.57825, 36.31683, 139.58002, 36.31686], "geometry": {"type": "LineString", "coordinates": [[139.57825, 36.31683], [139.58002, 36.31686]]}, "properties": {"id": "TRACK_TOKYO_3676", "line_name": "佐野線", "station_group_ids": [], "mode": "private", "operator_id": "tobu", "tags": ["tokyo", "track_centerline"]}}, {"type": "Feature", "bbox": [139.5792, 36.3453, 139.5795, 36.34595], "geometry": {"type": "LineString", "coordinates": [[139.5795, 36.34595], [139.5792, 36.3453]]}, "properties": {"id": "TRACK_TOKYO_3677", "line_name": "佐野線", "station_group_ids": [], "mode": "private", "operator_id": "tobu", "tags": ["tokyo", "track_centerline"]}}, {"type": "Feature", "bbox": [139.57656, 36.30663, 139.58763, 36.31775], "geometry": {"type": "LineString", "coordinates": [[139.58002, 36.31686], [139.58082, 36.3169], [139.58138, 36.31692], [139.58158, 36.31696], [139.58169, 36.317], [139.58183, 36.31706], [139.58204, 36.31715], [139.58231, 36.31726], [139.58266, 36.31739], [139.58294, 36.3175], [139.58318, 36.31757], [139.5834, 36.31762], [139.58364, 36.31768], [139.58369, 36.31769], [139.58405, 36.31773], [139.58427, 36.31775], [139.58462, 36.31775], [139.58495, 36.31773], [139.58518, 36.31769], [139.58547, 36.31761], [139.58571, 36.31752], [139.58594, 36.31741], [139.58627, 36.31722], [139.5865, 36.31705], [139.58671, 36.31689], [139.58687, 36.31675], [139.58697, 36.31664], [139.58715, 36.31641], [139.58729, 36.3162], [139.58739, 36.31603], [139.5875, 36.31575], [139.58758, 36.31545], [139.58762, 36.31507], [139.58763, 36.31477], [139.58761, 36.31444], [139.58755, 36.3142], [139.58745, 36.3139], [139.58734, 36.31363], [139.58725, 36.31343], [139.5872, 36.31331], [139.58705, 36.31298], [139.587, 36.31286], [139.58681, 36.31242], [139.58659, 36.31197], [139.58637, 36.31158], [139.58617, 36.31129], [139.58603, 36.31113], [139.58592, 36.311], [139.58565, 36.31075], [139.58533, 36.3105], [139.58496, 36.31029], [139.58456, 36.31008], [139.5843, 36.30998], [139.58391, 36.30985], [139.58264, 36.30945], [139.58088, 36.30889], [139.58021, 36.30866], [139.57971, 36.30845], [139.57954, 36.30835], [139.57907, 36.30809], [139.5782, 36.30759], [139.57749, 36.30718], [139.57656, 36.30663]]}, "properties": {"id": "TRACK_TOKYO_3678", "line_name": "佐野線", "station_group_ids": [], "mode": "private", "operator_id": "tobu", "tags": ["tokyo", "track_centerline"]}}, {"type": "Feature", "bbox": [139.5795, 36.34595, 139.5817, 36.36673], "geometry": {"type": "LineString", "coordinates": [[139.5817, 36.36673], [139.58156, 36.36652], [139.58131, 36.36619], [139.58124, 36.36609], [139.58122, 36.36605], [139.5812, 36.36603], [139.58109, 36.36582], [139.58103, 36.36562], [139.58094, 36.36473], [139.58092, 36.36468], [139.58092, 36.36448], [139.58089, 36.36428], [139.58089, 36.3639], [139.58086, 36.36219], [139.58086, 36.36213], [139.58086, 36.36162], [139.58084, 36.36012], [139.58083, 36.35992], [139.58082, 36.35967], [139.58081, 36.35939], [139.58082, 36.35921], [139.5808, 36.35846], [139.58079, 36.35824], [139.58076, 36.35719], [139.58076, 36.35667], [139.58074, 36.35604], [139.58071, 36.35484], [139.5807, 36.35453], [139.58069, 36.35335], [139.58067, 36.35194], [139.58064, 36.35033], [139.58063, 36.35021], [139.58063, 36.3501], [139.58062, 36.34998], [139.58057, 36.34908], [139.58044, 36.34846], [139.58018, 36.34779], [139.58015, 36.3477], [139.57974, 36.3466], [139.57951, 36.34601], [139.5795, 36.34595]]}, "properties": {"id": "TRACK_TOKYO_3679", "line_name": "佐野線", "station_group_ids": [], "mode": "private", "operator_id": "tobu", "tags": ["tokyo", "track_centerline"]}}, {"type": "Feature", "bbox": [139.74105, 36.39065, 139.74217, 36.39471], "geometry": {"type": "LineString", "coordinates": [[139.74217, 36.39065], [139.74216, 36.3907], [139.74214, 36.39079], [139.7421, 36.39092], [139.74195, 36.39144], [139.74192, 36.39155], [139.74188, 36.39168], [139.74182, 36.39187], [139.7417, 36.39232], [139.74145, 36.39309], [139.74145, 36.39312], [139.74136, 36.39345], [139.74131, 36.39365], [139.74129, 36.39368], [139.74124, 36.39388], [139.74121, 36.39396], [139.7412, 36.39403], [139.74118, 36.39411], [139.74116, 36.39417], [139.74113, 36.39435], [139.74106, 36.39458], [139.74105, 36.39471]]}, "properties": {"id": "TRACK_TOKYO_3785", "line_name": "日光線", "station_group_ids": [], "mode": "private", "operator_id": "tobu", "tags": ["tokyo", "track_centerline"]}}, {"type": "Feature", "bbox": [139.74217, 36.38947, 139.74253, 36.39065], "geometry": {"type": "LineString", "coordinates": [[139.74253, 36.38947], [139.74217, 36.39065]]}, "properties": {"id": "TRACK_TOKYO_3786", "line_name": "日光線", "station_group_ids": [], "mode": "private", "operator_id": "tobu", "tags": ["tokyo", "track_centerline"]}}, {"type": "Feature", "bbox": [139.73217, 36.37186, 139.7462, 36.38947], "geometry": {"type": "LineString", "coordinates": [[139.73217, 36.37186], [139.73254, 36.37195], [139.73286, 36.37204], [139.73322, 36.37211], [139.73354, 36.37216], [139.7338, 36.37218], [139.73439, 36.37221], [139.73483, 36.37222], [139.73601, 36.37224], [139.73635, 36.37226], [139.73675, 36.37227], [139.7371, 36.37228], [139.73829, 36.37236], [139.74082, 36.37254], [139.74134, 36.37258], [139.74174, 36.37264], [139.74235, 36.37277], [139.74267, 36.37286], [139.74325, 36.37306], [139.74381, 36.3733], [139.74412, 36.37347], [139.74455, 36.37377], [139.74483, 36.37401], [139.74506, 36.37423], [139.74524, 36.37443], [139.7455, 36.37477], [139.74577, 36.3752], [139.7459, 36.37546], [139.74605, 36.37579], [139.74613, 36.37601], [139.74617, 36.37619], [139.74619, 36.37638], [139.7462, 36.37665], [139.7462, 36.37709], [139.74615, 36.37743], [139.74598, 36.37805], [139.74587, 36.3784], [139.74581, 36.37859], [139.74572, 36.37884], [139.74556, 36.37938], [139.74531, 36.3802], [139.7453, 36.38023], [139.74529, 36.38028], [139.74516, 36.38073], [139.74513, 36.38082], [139.74504, 36.38111], [139.74503, 36.38113], [139.74478, 36.38196], [139.74472, 36.38217], [139.74467, 36.38229], [139.74444, 36.38306], [139.7443, 36.38352], [139.74423, 36.38375], [139.7441, 36.38414], [139.74407, 36.3843], [139.74395, 36.38471], [139.74393, 36.38474], [139.74391, 36.38481], [139.74382, 36.38511], [139.74373, 36.38538], [139.74363, 36.38572], [139.74357, 36.38591], [139.74345, 36.38631], [139.74334, 36.38669], [139.74306, 36.38762], [139.74299, 36.38789], [139.74297, 36.38796], [139.74296, 36.388], [139.74293, 36.38808], [139.74285, 36.38829], [139.74281, 36.38847], [139.74279, 36.38854], [139.74263, 36.38907], [139.74253, 36.3894], [139.74253, 36.38947]]}, "properties": {"id": "TRACK_TOKYO_3790", "line_name": "日光線", "station_group_ids": [], "mode": "private", "operator_id": "tobu", "tags": ["tokyo", "track_centerline"]}}, {"type": "Feature", "bbox": [139.74752, 36.43037, 139.75119, 36.4655], "geometry": {"type": "LineString", "coordinates": [[139.74752, 36.43037], [139.74756, 36.43074], [139.74757, 36.43079], [139.74759, 36.43089], [139.7476, 36.43099], [139.74773, 36.43208], [139.74774, 36.43215], [139.74776, 36.43231], [139.74785, 36.43316], [139.74788, 36.43332], [139.74804, 36.43461], [139.74806, 36.4348], [139.74808, 36.43492], [139.74817, 36.43566], [139.7482, 36.43587], [139.7482, 36.43592], [139.74831, 36.43679], [139.74834, 36.43707], [139.74835, 36.43715], [139.74842, 36.43768], [139.74842, 36.43774], [139.74843, 36.43779], [139.74865, 36.43952], [139.7487, 36.44001], [139.74878, 36.44064], [139.74887, 36.44132], [139.74896, 36.44201], [139.74896, 36.44213], [139.74897, 36.44217], [139.749, 36.44232], [139.74904, 36.44274], [139.74914, 36.44355], [139.74915, 36.44368], [139.74916, 36.44371], [139.74917, 36.44376], [139.74917, 36.44381], [139.74921, 36.44411], [139.7493, 36.44486], [139.7494, 36.44564], [139.74949, 36.44643], [139.74953, 36.44684], [139.74958, 36.44723], [139.74973, 36.44842], [139.74974, 36.44853], [139.74975, 36.44858], [139.74987, 36.4496], [139.7499, 36.4498], [139.74998, 36.45056], [139.74999, 36.45067], [139.75001, 36.45074], [139.75007, 36.45127], [139.75012, 36.45169], [139.75013, 36.45173], [139.75018, 36.45213], [139.75031, 36.45309], [139.75038, 36.45375], [139.7504, 36.45389], [139.75043, 36.45405], [139.75044, 36.45414], [139.75045, 36.45423], [139.75046, 36.45429], [139.75046, 36.45433], [139.75069, 36.45628], [139.75069, 36.45633], [139.75072, 36.45649], [139.75099, 36.45879], [139.751, 36.45884], [139.75101, 36.45895], [139.75104, 36.45921], [139.7511, 36.45971], [139.75116, 36.46011], [139.75116, 36.46018], [139.75119, 36.46054], [139.75119, 36.46124], [139.75113, 36.46209], [139.75103, 36.46256], [139.75093, 36.46287], [139.7509, 36.46295], [139.75087, 36.46304], [139.75045, 36.46405], [139.75022, 36.4646], [139.7502, 36.46467], [139.74985, 36.4655]]}, "properties": {"id": "TRACK_TOKYO_3798", "line_name": "日光線", "station_group_ids": [], "mode": "private", "operator_id": "tobu", "tags": ["tokyo", "track_centerline"]}}, {"type": "Feature", "bbox": [139.74738, 36.42921, 139.74752, 36.43037], "geometry": {"type": "LineString", "coordinates": [[139.74738, 36.42921], [139.74752, 36.43037]]}, "properties": {"id": "TRACK_TOKYO_3805", "line_name": "日光線", "station_group_ids": [], "mode": "private", "operator_id": "tobu", "tags": ["tokyo", "track_centerline"]}}, {"type": "Feature", "bbox": [139.74127, 36.40809, 139.74738, 36.42921], "geometry": {"type": "LineString", "coordinates": [[139.74127, 36.40809], [139.74131, 36.40815], [139.74136, 36.40825], [139.74141, 36.40832], [139.74142, 36.40838], [139.74162, 36.40873], [139.74163, 36.40875], [139.74165, 36.4088], [139.74168, 36.40886], [139.7417, 36.40889], [139.74173, 36.40896], [139.74198, 36.40944], [139.742, 36.40945], [139.74201, 36.40951], [139.74205, 36.40957], [139.74208, 36.40966], [139.74209, 36.40967], [139.74219, 36.40987], [139.74244, 36.41034], [139.74246, 36.41039], [139.74258, 36.4106], [139.7426, 36.41066], [139.74276, 36.41095], [139.74281, 36.41104], [139.74287, 36.41118], [139.74293, 36.41128], [139.74297, 36.41136], [139.74304, 36.4115], [139.74321, 36.41184], [139.74327, 36.41193], [139.74331, 36.41203], [139.74337, 36.41213], [139.74366, 36.4127], [139.74368, 36.41271], [139.74368, 36.41274], [139.74394, 36.41325], [139.74402, 36.4134], [139.74407, 36.41349], [139.74407, 36.41351], [139.7441, 36.41355], [139.74427, 36.41389], [139.74444, 36.41424], [139.7445, 36.41434], [139.74485, 36.41504], [139.74491, 36.41513], [139.74491, 36.41516], [139.74492, 36.41518], [139.74534, 36.41599], [139.74549, 36.41634], [139.74551, 36.41642], [139.74552, 36.41648], [139.74553, 36.41649], [139.74556, 36.41655], [139.74559, 36.41667], [139.74562, 36.41681], [139.74566, 36.41699], [139.74569, 36.41711], [139.74574, 36.41744], [139.74577, 36.41753], [139.74586, 36.41798], [139.74586, 36.41799], [139.74588, 36.41806], [139.74589, 36.41816], [139.74594, 36.41838], [139.74599, 36.41863], [139.74601, 36.41867], [139.74601, 36.41874], [139.74606, 36.41903], [139.74618, 36.41981], [139.7463, 36.42078], [139.7464, 36.42155], [139.74659, 36.42305], [139.74674, 36.42405], [139.74679, 36.42455], [139.74686, 36.42497], [139.74702, 36.42631], [139.74703, 36.42635], [139.74716, 36.42747], [139.74718, 36.42756], [139.74719, 36.4276], [139.74719, 36.42768], [139.74719, 36.42769], [139.74721, 36.42782], [139.74723, 36.4281], [139.74727, 36.42828], [139.74738, 36.42921]]}, "properties": {"id": "TRACK_TOKYO_3806", "line_name": "日光線", "station_group_ids": [], "mode": "private", "operator_id": "tobu", "tags": ["tokyo", "track_centerline"]}}, {"type": "Feature", "bbox": [139.73081, 36.37148, 139.73217, 36.37186], "geometry": {"type": "LineString", "coordinates": [[139.73081, 36.37148], [139.73217, 36.37186]]}, "properties": {"id": "TRACK_TOKYO_3809", "line_name": "日光線", "station_group_ids": [], "mode": "private", "operator_id": "tobu", "tags": ["tokyo", "track_centerline"]}}, {"type": "Feature", "bbox": [139.73897, 36.39471, 139.74105, 36.40708], "geometry": {"type": "LineString", "coordinates": [[139.74105, 36.39471], [139.74098, 36.39486], [139.74083, 36.39533], [139.74069, 36.39576], [139.74061, 36.39601], [139.74059, 36.3961], [139.74056, 36.3962], [139.74053, 36.39629], [139.7405, 36.39637], [139.74046, 36.39657], [139.74037, 36.39679], [139.74037, 36.39683], [139.74035, 36.39687], [139.74017, 36.39744], [139.73989, 36.39835], [139.73975, 36.39876], [139.73962, 36.3992], [139.73945, 36.39974], [139.73934, 36.40008], [139.73925, 36.40038], [139.73915, 36.40062], [139.73904, 36.40108], [139.73903, 36.40122], [139.73898, 36.40165], [139.73897, 36.40211], [139.73897, 36.40265], [139.73902, 36.40313], [139.73907, 36.40339], [139.73907, 36.40344], [139.73914, 36.40372], [139.73915, 36.40377], [139.7393, 36.40417], [139.73932, 36.40418], [139.73934, 36.40426], [139.73939, 36.40434], [139.7394, 36.40438], [139.73948, 36.40457], [139.73961, 36.40484], [139.73963, 36.4049], [139.73966, 36.40496], [139.73972, 36.40508], [139.73976, 36.40514], [139.7398, 36.40525], [139.73989, 36.40542], [139.74005, 36.40575], [139.74012, 36.40586], [139.74016, 36.40594], [139.74028, 36.40613], [139.74032, 36.40623], [139.74035, 36.40628], [139.74037, 36.40629], [139.74037, 36.40634], [139.74061, 36.40675], [139.74061, 36.40678], [139.74064, 36.40682], [139.74069, 36.40692], [139.74074, 36.40701], [139.74077, 36.40708]]}, "properties": {"id": "TRACK_TOKYO_3810", "line_name": "日光線", "station_group_ids": [], "mode": "private", "operator_id": "tobu", "tags": ["tokyo", "track_centerline"]}}, {"type": "Feature", "bbox": [139.74077, 36.40708, 139.74127, 36.40809], "geometry": {"type": "LineString", "coordinates": [[139.74127, 36.40809], [139.74077, 36.40708]]}, "properties": {"id": "TRACK_TOKYO_3814", "line_name": "日光線", "station_group_ids": [], "mode": "private", "operator_id": "tobu", "tags": ["tokyo", "track_centerline"]}}, {"type": "Feature", "bbox": [139.66045, 36.19313, 139.68657, 36.20628], "geometry": {"type": "LineString", "coordinates": [[139.68657, 36.19313], [139.68617, 36.19354], [139.68559, 36.19411], [139.68532, 36.19436], [139.684, 36.19566], [139.68367, 36.19595], [139.68338, 36.19619], [139.68335, 36.19622], [139.6829, 36.19654], [139.68282, 36.19659], [139.68237, 36.19684], [139.68195, 36.19704], [139.68159, 36.19719], [139.6815, 36.19722], [139.6799, 36.19781], [139.67518, 36.19958], [139.66982, 36.20156], [139.66927, 36.20177], [139.66865, 36.202], [139.6684, 36.20208], [139.66826, 36.20214], [139.66817, 36.20217], [139.66763, 36.20237], [139.66745, 36.20244], [139.6674, 36.20245], [139.66731, 36.20249], [139.66726, 36.2025], [139.66724, 36.20252], [139.66679, 36.20268], [139.66642, 36.20285], [139.6663, 36.20291], [139.66626, 36.20291], [139.66593, 36.20307], [139.66535, 36.20338], [139.66533, 36.20338], [139.66451, 36.20384], [139.66049, 36.20628], [139.66045, 36.20628]]}, "properties": {"id": "TRACK_TOKYO_3821", "line_name": "日光線", "station_group_ids": [], "mode": "private", "operator_id": "tobu", "tags": ["tokyo", "track_centerline"]}}, {"type": "Feature", "bbox": [139.68539, 36.31696, 139.70152, 36.33832], "geometry": {"type": "LineString", "coordinates": [[139.68539, 36.31696], [139.6862, 36.31777], [139.68735, 36.31895], [139.6885, 36.32009], [139.68893, 36.32051], [139.68968, 36.32126], [139.69035, 36.32194], [139.69126, 36.32287], [139.69269, 36.32428], [139.69397, 36.32557], [139.69485, 36.32645], [139.69556, 36.32718], [139.69588, 36.32754], [139.69589, 36.32755], [139.696, 36.3277], [139.69635, 36.32827], [139.6968, 36.32912], [139.69755, 36.33056], [139.69764, 36.33074], [139.69833, 36.33214], [139.69892, 36.3333], [139.6995, 36.3344], [139.69973, 36.33486], [139.70061, 36.33649], [139.70082, 36.33688], [139.70084, 36.33691], [139.70098, 36.33721], [139.70102, 36.33728], [139.70124, 36.33773], [139.70125, 36.33774], [139.70132, 36.33789], [139.70152, 36.33832]]}, "properties": {"id": "TRACK_TOKYO_3822", "line_name": "日光線", "station_group_ids": [], "mode": "private", "operator_id": "tobu", "tags": ["tokyo", "track_centerline"]}}, {"type": "Feature", "bbox": [139.70152, 36.33832, 139.70221, 36.33962], "geometry": {"type": "LineString", "coordinates": [[139.70152, 36.33832], [139.70221, 36.33962]]}, "properties": {"id": "TRACK_TOKYO_3825", "line_name": "日光線", "station_group_ids": [], "mode": "private", "operator_id": "tobu", "tags": ["tokyo", "track_centerline"]}}, {"type": "Feature", "bbox": [139.68657, 36.19227, 139.68746, 36.19313], "geometry": {"type": "LineString", "coordinates": [[139.68746, 36.19227], [139.68657, 36.19313]]}, "properties": {"id": "TRACK_TOKYO_3826", "line_name": "日光線", "station_group_ids": [], "mode": "private", "operator_id": "tobu", "tags": ["tokyo", "track_centerline"]}}, {"type": "Feature", "bbox": [139.70221, 36.33962, 139.73081, 36.37148], "geometry": {"type": "LineString", "coordinates": [[139.73081, 36.37148], [139.73046, 36.37138], [139.72965, 36.37112], [139.72923, 36.37097], [139.72888, 36.37083], [139.72863, 36.37071], [139.72848, 36.37064], [139.72812, 36.37042], [139.72773, 36.37015], [139.72732, 36.36983], [139.7269, 36.36945], [139.72613, 36.3687], [139.72577, 36.36831], [139.72554, 36.36802], [139.72524, 36.36752], [139.72509, 36.36724], [139.72487, 36.36668], [139.72486, 36.36666], [139.72439, 36.36535], [139.72391, 36.3639], [139.72362, 36.36308], [139.72355, 36.36284], [139.72342, 36.36252], [139.72338, 36.36243], [139.72326, 36.3621], [139.72323, 36.36207], [139.72322, 36.36202], [139.72307, 36.36161], [139.72298, 36.36144], [139.72291, 36.36133], [139.72285, 36.36123], [139.7228, 36.36116], [139.72279, 36.36115], [139.72275, 36.36107], [139.7227, 36.361], [139.72267, 36.36095], [139.72255, 36.36082], [139.72216, 36.36044], [139.72135, 36.3597], [139.72012, 36.35858], [139.72005, 36.35851], [139.71991, 36.3584], [139.71962, 36.35812], [139.71959, 36.35809], [139.7193, 36.35783], [139.71891, 36.35747], [139.71855, 36.35715], [139.71851, 36.3571], [139.7181, 36.35673], [139.71741, 36.35609], [139.71733, 36.35603], [139.71693, 36.35568], [139.71685, 36.35561], [139.71656, 36.35535], [139.71521, 36.35415], [139.71379, 36.35289], [139.71369, 36.35279], [139.7136, 36.35271], [139.71343, 36.35257], [139.71276, 36.35196], [139.71261, 36.35182], [139.71244, 36.35167], [139.71217, 36.35142], [139.71208, 36.35134], [139.71197, 36.35123], [139.71176, 36.35105], [139.71122, 36.35056], [139.71121, 36.35056], [139.71118, 36.35053], [139.7106, 36.34999], [139.7105, 36.34991], [139.7098, 36.34929], [139.70939, 36.34887], [139.70936, 36.34883], [139.70932, 36.3488], [139.7093, 36.34877], [139.70795, 36.34723], [139.70786, 36.34712], [139.7076, 36.34683], [139.70739, 36.34661], [139.70738, 36.34658], [139.70683, 36.34595], [139.70681, 36.34593], [139.70666, 36.34576], [139.70628, 36.34533], [139.70628, 36.34531], [139.70626, 36.3453], [139.70605, 36.34508], [139.70599, 36.34501], [139.70562, 36.34459], [139.70504, 36.34392], [139.70416, 36.34291], [139.70403, 36.34275], [139.70397, 36.34269], [139.70357, 36.34222], [139.70355, 36.3422], [139.7035, 36.34212], [139.70318, 36.3415], [139.70316, 36.34148], [139.70315, 36.34145], [139.70313, 36.34142], [139.70313, 36.34138], [139.70308, 36.34132], [139.70281, 36.34079], [139.70279, 36.34076], [139.70279, 36.34075], [139.70275, 36.34069], [139.70272, 36.34061], [139.70267, 36.34053], [139.70242, 36.34004], [139.7024, 36.34002], [139.7024, 36.34], [139.70237, 36.33996], [139.70235, 36.33991], [139.70221, 36.33962]]}, "properties": {"id": "TRACK_TOKYO_3829", "line_name": "日光線", "station_group_ids": [], "mode": "private", "operator_id": "tobu", "tags": ["tokyo", "track_centerline"]}}, {"type": "Feature", "bbox": [139.67912, 36.13842, 139.69436, 36.19227], "geometry": {"type": "LineString", "coordinates": [[139.68746, 36.19227], [139.68764, 36.19205], [139.68793, 36.19171], [139.68806, 36.19151], [139.68808, 36.19147], [139.68817, 36.19132], [139.68819, 36.19125], [139.68821, 36.19122], [139.68833, 36.19098], [139.68841, 36.19078], [139.68849, 36.19052], [139.68853, 36.19019], [139.68853, 36.18989], [139.6885, 36.18958], [139.68849, 36.18954], [139.68847, 36.1894], [139.68824, 36.18776], [139.68825, 36.18774], [139.68823, 36.18768], [139.68814, 36.18707], [139.68813, 36.18694], [139.68812, 36.18692], [139.68799, 36.18593], [139.68797, 36.18589], [139.68794, 36.18563], [139.68792, 36.18553], [139.68789, 36.18529], [139.68783, 36.18491], [139.68764, 36.18351], [139.68638, 36.17455], [139.68628, 36.17383], [139.68602, 36.17186], [139.68598, 36.17153], [139.68581, 36.17018], [139.68577, 36.16993], [139.68576, 36.16984], [139.68569, 36.16928], [139.68559, 36.16873], [139.68554, 36.16852], [139.68547, 36.16825], [139.68537, 36.16791], [139.68523, 36.16758], [139.68506, 36.1672], [139.68495, 36.16701], [139.68468, 36.16655], [139.68433, 36.166], [139.68412, 36.16567], [139.6835, 36.16471], [139.68185, 36.16214], [139.68143, 36.16149], [139.68032, 36.15983], [139.68008, 36.15948], [139.67949, 36.15854], [139.67936, 36.15829], [139.67927, 36.15802], [139.67921, 36.15783], [139.67919, 36.15764], [139.67913, 36.15739], [139.67913, 36.15715], [139.67912, 36.15691], [139.67913, 36.15676], [139.67915, 36.15661], [139.67928, 36.15622], [139.67943, 36.15586], [139.67958, 36.15557], [139.6798, 36.15528], [139.68008, 36.15492], [139.68043, 36.15457], [139.68072, 36.15432], [139.6826, 36.15267], [139.68428, 36.15125], [139.68644, 36.1494], [139.6873, 36.14867], [139.68912, 36.14713], [139.69068, 36.14583], [139.691, 36.14552], [139.69135, 36.14514], [139.69207, 36.14425], [139.69299, 36.14317], [139.69356, 36.14241], [139.6939, 36.14183], [139.69402, 36.14158], [139.6942, 36.14118], [139.69429, 36.14086], [139.69434, 36.1406], [139.69436, 36.14024], [139.69433, 36.13981], [139.69425, 36.13915], [139.69413, 36.13842]]}, "properties": {"id": "TRACK_TOKYO_3830", "line_name": "日光線", "station_group_ids": [], "mode": "private", "operator_id": "tobu", "tags": ["tokyo", "track_centerline"]}}, {"type": "Feature", "bbox": [139.68447, 36.3161, 139.68539, 36.31696], "geometry": {"type": "LineString", "coordinates": [[139.68447, 36.3161], [139.68539, 36.31696]]}, "properties": {"id": "TRACK_TOKYO_3833", "line_name": "日光線", "station_group_ids": [], "mode": "private", "operator_id": "tobu", "tags": ["tokyo", "track_centerline"]}}, {"type": "Feature", "bbox": [139.65946, 36.20628, 139.66045, 36.2069], "geometry": {"type": "LineString", "coordinates": [[139.66045, 36.20628], [139.65946, 36.2069]]}, "properties": {"id": "TRACK_TOKYO_3835", "line_name": "日光線", "station_group_ids": [], "mode": "private", "operator_id": "tobu", "tags": ["tokyo", "track_centerline"]}}, {"type": "Feature", "bbox": [139.64573, 36.2561, 139.68447, 36.3161], "geometry": {"type": "LineString", "coordinates": [[139.64573, 36.2561], [139.64575, 36.25625], [139.64589, 36.2569], [139.64598, 36.25729], [139.646, 36.25742], [139.6461, 36.25787], [139.64612, 36.25797], [139.64614, 36.25808], [139.64623, 36.25849], [139.6463, 36.25884], [139.64631, 36.25888], [139.64633, 36.25893], [139.64637, 36.25911], [139.64647, 36.25958], [139.64651, 36.25978], [139.64652, 36.25986], [139.64655, 36.25996], [139.64657, 36.26005], [139.64664, 36.26041], [139.64671, 36.2607], [139.64687, 36.26146], [139.64692, 36.26181], [139.64696, 36.26214], [139.64697, 36.26243], [139.64698, 36.26281], [139.64699, 36.26357], [139.64702, 36.26534], [139.64701, 36.26585], [139.64702, 36.2661], [139.64702, 36.26627], [139.64703, 36.26666], [139.64703, 36.26707], [139.64705, 36.26752], [139.64707, 36.26777], [139.64714, 36.26807], [139.64717, 36.26821], [139.64732, 36.26857], [139.64739, 36.26872], [139.6475, 36.26889], [139.64758, 36.26903], [139.64766, 36.26914], [139.64773, 36.26922], [139.64796, 36.26951], [139.64826, 36.2698], [139.64865, 36.27017], [139.64888, 36.27041], [139.64994, 36.27143], [139.65039, 36.27187], [139.65055, 36.27201], [139.65073, 36.27219], [139.65148, 36.2729], [139.65275, 36.27416], [139.65297, 36.27437], [139.65475, 36.27608], [139.65548, 36.27679], [139.65667, 36.27794], [139.65771, 36.27893], [139.65845, 36.27964], [139.6587, 36.27989], [139.65934, 36.28052], [139.65958, 36.28081], [139.65975, 36.28105], [139.66019, 36.28179], [139.66124, 36.28371], [139.66193, 36.28499], [139.66243, 36.28592], [139.66271, 36.28644], [139.66352, 36.28798], [139.6642, 36.28928], [139.66496, 36.29067], [139.66577, 36.29217], [139.66622, 36.29302], [139.66674, 36.294], [139.66684, 36.29419], [139.66695, 36.29439], [139.66721, 36.29488], [139.66783, 36.29605], [139.66863, 36.29754], [139.66906, 36.29835], [139.66949, 36.29915], [139.67017, 36.30041], [139.67095, 36.30185], [139.67096, 36.30186], [139.67135, 36.30258], [139.67162, 36.30303], [139.67187, 36.30336], [139.67218, 36.30375], [139.67286, 36.30447], [139.67423, 36.30586], [139.6757, 36.30735], [139.67691, 36.30856], [139.67747, 36.30911], [139.67817, 36.30982], [139.67925, 36.3109], [139.67992, 36.31156], [139.68119, 36.31284], [139.68265, 36.31429], [139.68364, 36.3153], [139.68447, 36.3161]]}, "properties": {"id": "TRACK_TOKYO_3837", "line_name": "日光線", "station_group_ids": [], "mode": "private", "operator_id": "tobu", "tags": ["tokyo", "track_centerline"]}}, {"type": "Feature", "bbox": [139.64547, 36.25507, 139.64573, 36.2561], "geometry": {"type": "LineString", "coordinates": [[139.64573, 36.2561], [139.64547, 36.25507]]}, "properties": {"id": "TRACK_TOKYO_3838", "line_name": "日光線", "station_group_ids": [], "mode": "private", "operator_id": "tobu", "tags": ["tokyo", "track_centerline"]}}, {"type": "Feature", "bbox": [139.64852, 36.22166, 139.64873, 36.22275], "geometry": {"type": "LineString", "coordinates": [[139.64873, 36.22166], [139.64852, 36.22275]]}, "properties": {"id": "TRACK_TOKYO_3839", "line_name": "日光線", "station_group_ids": [], "mode": "private", "operator_id": "tobu", "tags": ["tokyo", "track_centerline"]}}, {"type": "Feature", "bbox": [139.64412, 36.22275, 139.64852, 36.25507], "geometry": {"type": "LineString", "coordinates": [[139.64852, 36.22275], [139.64832, 36.2238], [139.64831, 36.22383], [139.64815, 36.22474], [139.64813, 36.22483], [139.64799, 36.2256], [139.64795, 36.22574], [139.64782, 36.2265], [139.6478, 36.22654], [139.64779, 36.22668], [139.6477, 36.2271], [139.64769, 36.22712], [139.64768, 36.22722], [139.64764, 36.22737], [139.64758, 36.22765], [139.64747, 36.22826], [139.64738, 36.22876], [139.64734, 36.22903], [139.64712, 36.23026], [139.64689, 36.23152], [139.64683, 36.23188], [139.64676, 36.23221], [139.64651, 36.23367], [139.64649, 36.23369], [139.64637, 36.2344], [139.64632, 36.23468], [139.64615, 36.23556], [139.64601, 36.23635], [139.64591, 36.23686], [139.64589, 36.23702], [139.64583, 36.23729], [139.64579, 36.23755], [139.64576, 36.23763], [139.64547, 36.23925], [139.64545, 36.23934], [139.64541, 36.23961], [139.64528, 36.24026], [139.64526, 36.24043], [139.64522, 36.24062], [139.64519, 36.24078], [139.64504, 36.24155], [139.64494, 36.24212], [139.64476, 36.24301], [139.64472, 36.24325], [139.64459, 36.24399], [139.64454, 36.24425], [139.64444, 36.24485], [139.64428, 36.24577], [139.64418, 36.24634], [139.64415, 36.24657], [139.64412, 36.24745], [139.64414, 36.24808], [139.64417, 36.24843], [139.64425, 36.24887], [139.64444, 36.2498], [139.64444, 36.24986], [139.64448, 36.24996], [139.64449, 36.25004], [139.64449, 36.25012], [139.64452, 36.25015], [139.64463, 36.25068], [139.64462, 36.2507], [139.64478, 36.25144], [139.64481, 36.25156], [139.64496, 36.25234], [139.64502, 36.25257], [139.64508, 36.25288], [139.6451, 36.25293], [139.64514, 36.25316], [139.64515, 36.25328], [139.64518, 36.25342], [139.64527, 36.25383], [139.64533, 36.25422], [139.64538, 36.25445], [139.6454, 36.25462], [139.64546, 36.25502], [139.64547, 36.25507]]}, "properties": {"id": "TRACK_TOKYO_3840", "line_name": "日光線", "station_group_ids": [], "mode": "private", "operator_id": "tobu", "tags": ["tokyo", "track_centerline"]}}, {"type": "Feature", "bbox": [139.64873, 36.2069, 139.65946, 36.22166], "geometry": {"type": "LineString", "coordinates": [[139.65946, 36.2069], [139.65944, 36.20692], [139.65805, 36.2078], [139.65768, 36.20803], [139.65745, 36.20817], [139.65658, 36.20872], [139.65474, 36.20988], [139.6546, 36.20998], [139.65442, 36.21008], [139.65394, 36.21043], [139.65358, 36.21071], [139.65276, 36.21143], [139.65225, 36.21192], [139.65172, 36.21247], [139.65144, 36.21274], [139.65126, 36.21293], [139.65098, 36.21323], [139.65087, 36.21334], [139.6506, 36.21365], [139.65037, 36.21397], [139.65035, 36.21403], [139.65031, 36.21408], [139.65015, 36.21441], [139.65003, 36.21477], [139.64987, 36.21536], [139.6498, 36.21576], [139.64971, 36.21622], [139.64969, 36.21624], [139.64969, 36.21626], [139.6497, 36.21631], [139.64963, 36.21676], [139.64962, 36.21678], [139.64946, 36.21761], [139.64945, 36.21773], [139.64943, 36.21779], [139.64932, 36.21843], [139.6493, 36.21854], [139.64929, 36.21857], [139.64928, 36.21862], [139.64917, 36.21921], [139.64916, 36.21929], [139.64915, 36.21932], [139.64914, 36.21946], [139.64912, 36.21947], [139.64908, 36.2197], [139.64905, 36.21984], [139.64883, 36.22107], [139.64873, 36.22166]]}, "properties": {"id": "TRACK_TOKYO_3841", "line_name": "日光線", "station_group_ids": [], "mode": "private", "operator_id": "tobu", "tags": ["tokyo", "track_centerline"]}}]}