{"type": "FeatureCollection", "features": [{"type": "Feature", "bbox": [139.68639, 35.23214, 139.70281, 35.24838], "geometry": {"type": "LineString", "coordinates": [[139.70233, 35.23214], [139.70249, 35.23308], [139.70261, 35.23369], [139.70272, 35.23432], [139.70275, 35.2345], [139.70278, 35.23477], [139.70279, 35.2349], [139.70281, 35.23505], [139.70279, 35.2353], [139.70276, 35.23557], [139.70266, 35.23612], [139.70258, 35.23642], [139.70245, 35.2367], [139.70232, 35.23692], [139.70209, 35.23722], [139.70195, 35.2374], [139.70157, 35.23778], [139.70109, 35.23824], [139.70051, 35.23872], [139.7003, 35.23888], [139.69889, 35.23989], [139.69862, 35.24005], [139.69754, 35.24075], [139.69654, 35.24142], [139.69566, 35.24202], [139.69531, 35.24222], [139.69488, 35.24243], [139.69449, 35.24258], [139.69399, 35.24277], [139.69278, 35.24316], [139.69224, 35.24331], [139.6921, 35.24335], [139.69179, 35.24344], [139.6912, 35.24362], [139.69024, 35.24389], [139.68959, 35.24411], [139.68905, 35.24428], [139.68864, 35.24446], [139.68834, 35.24461], [139.68802, 35.24481], [139.68782, 35.24495], [139.68772, 35.24503], [139.68761, 35.24514], [139.68745, 35.24531], [139.68733, 35.24549], [139.68725, 35.24563], [139.68709, 35.24596], [139.68681, 35.24656], [139.68665, 35.24705], [139.68652, 35.24765], [139.68639, 35.24838]]}, "properties": {"id": "TRACK_TOKYO_0296", "line_name": "久里浜線", "station_group_ids": [], "mode": "private", "operator_id": "keikyu", "line_color": "#D63339", "tags": ["tokyo", "track_centerline"]}}, {"type": "Feature", "bbox": [139.65401, 35.18877, 139.66428, 35.19767], "geometry": {"type": "LineString", "coordinates": [[139.65401, 35.18877], [139.65413, 35.18886], [139.65464, 35.18927], [139.65527, 35.18981], [139.65545, 35.18995], [139.6566, 35.19089], [139.65679, 35.19105], [139.6572, 35.19139], [139.65765, 35.19176], [139.65813, 35.19221], [139.65824, 35.19232], [139.6585, 35.19261], [139.6587, 35.19281], [139.65936, 35.19353], [139.65961, 35.19378], [139.65997, 35.19419], [139.66034, 35.19458], [139.66081, 35.19508], [139.66173, 35.19585], [139.66192, 35.19599], [139.66195, 35.19601], [139.66287, 35.19669], [139.66428, 35.19767]]}, "properties": {"id": "TRACK_TOKYO_0297", "line_name": "久里浜線", "station_group_ids": [], "mode": "private", "operator_id": "keikyu", "line_color": "#D63339", "tags": ["tokyo", "track_centerline"]}}, {"type": "Feature", "bbox": [139.7021, 35.2308, 139.70233, 35.23214], "geometry": {"type": "LineString", "coordinates": [[139.7021, 35.2308], [139.70233, 35.23214]]}, "properties": {"id": "TRACK_TOKYO_0298", "line_name": "久里浜線", "station_group_ids": [], "mode": "private", "operator_id": "keikyu", "line_color": "#D63339", "tags": ["tokyo", "track_centerline"]}}, {"type": "Feature", "bbox": [139.68635, 35.26279, 139.68772, 35.26351], "geometry": {"type": "LineString", "coordinates": [[139.68635, 35.26351], [139.68772, 35.26279]]}, "properties": {"id": "TRACK_TOKYO_0299", "line_name": "久里浜線", "station_group_ids": [], "mode": "private", "operator_id": "keikyu", "line_color": "#D63339", "tags": ["tokyo", "track_centerline"]}}, {"type": "Feature", "bbox": [139.65274, 35.1878, 139.65401, 35.18877], "geometry": {"type": "LineString", "coordinates": [[139.65274, 35.1878], [139.65401, 35.18877]]}, "properties": {"id": "TRACK_TOKYO_0300", "line_name": "久里浜線", "station_group_ids": [], "mode": "private", "operator_id": "keikyu", "line_color": "#D63339", "tags": ["tokyo", "track_centerline"]}}, {"type": "Feature", "bbox": [139.67352, 35.20524, 139.67473, 35.20565], "geometry": {"type": "LineString", "coordinates": [[139.67352, 35.20524], [139.67473, 35.20565]]}, "properties": {"id": "TRACK_TOKYO_0301", "line_name": "久里浜線", "station_group_ids": [], "mode": "private", "operator_id": "keikyu", "line_color": "#D63339", "tags": ["tokyo", "track_centerline"]}}, {"type": "Feature", "bbox": [139.68564, 35.21319, 139.7021, 35.2308], "geometry": {"type": "LineString", "coordinates": [[139.68564, 35.21319], [139.68604, 35.21384], [139.68656, 35.21469], [139.68687, 35.2152], [139.68713, 35.21561], [139.68734, 35.21594], [139.68754, 35.21628], [139.68763, 35.21641], [139.68774, 35.21654], [139.68786, 35.2167], [139.68801, 35.21683], [139.68817, 35.21698], [139.68844, 35.21718], [139.68869, 35.21734], [139.68887, 35.21743], [139.68936, 35.21763], [139.69026, 35.21798], [139.69062, 35.21814], [139.69089, 35.21832], [139.69154, 35.21875], [139.69198, 35.21906], [139.69306, 35.2198], [139.69413, 35.22054], [139.69593, 35.22175], [139.6962, 35.22191], [139.69647, 35.22212], [139.69692, 35.22249], [139.6971, 35.22264], [139.69728, 35.22282], [139.69745, 35.223], [139.69764, 35.22326], [139.69795, 35.22366], [139.69842, 35.2243], [139.69903, 35.22514], [139.69946, 35.22569], [139.69969, 35.22593], [139.70017, 35.22645], [139.70058, 35.2269], [139.70075, 35.2271], [139.70101, 35.22743], [139.7013, 35.22785], [139.70147, 35.22814], [139.70166, 35.22868], [139.70171, 35.22886], [139.70175, 35.229], [139.70194, 35.22985], [139.7021, 35.23074], [139.7021, 35.2308]]}, "properties": {"id": "TRACK_TOKYO_0302", "line_name": "久里浜線", "station_group_ids": [], "mode": "private", "operator_id": "keikyu", "line_color": "#D63339", "tags": ["tokyo", "track_centerline"]}}, {"type": "Feature", "bbox": [139.6878, 35.25755, 139.69049, 35.26276], "geometry": {"type": "LineString", "coordinates": [[139.6878, 35.26276], [139.68804, 35.26256], [139.68838, 35.26231], [139.6887, 35.2621], [139.68902, 35.26186], [139.68914, 35.26176], [139.6893, 35.26166], [139.68957, 35.2614], [139.68968, 35.26128], [139.68977, 35.26116], [139.68987, 35.26103], [139.68998, 35.26086], [139.69007, 35.26071], [139.69011, 35.26062], [139.69019, 35.26046], [139.69025, 35.26026], [139.69036, 35.25991], [139.6904, 35.25971], [139.69045, 35.25947], [139.69047, 35.25927], [139.69048, 35.25883], [139.69049, 35.25858], [139.69049, 35.25844], [139.69049, 35.25813], [139.69046, 35.25785], [139.69044, 35.2577], [139.6904, 35.25755]]}, "properties": {"id": "TRACK_TOKYO_0303", "line_name": "久里浜線", "station_group_ids": [], "mode": "private", "operator_id": "keikyu", "line_color": "#D63339", "tags": ["tokyo", "track_centerline"]}}, {"type": "Feature", "bbox": [139.68772, 35.26276, 139.6878, 35.26279], "geometry": {"type": "LineString", "coordinates": [[139.68772, 35.26279], [139.6878, 35.26276]]}, "properties": {"id": "TRACK_TOKYO_0304", "line_name": "久里浜線", "station_group_ids": [], "mode": "private", "operator_id": "keikyu", "line_color": "#D63339", "tags": ["tokyo", "track_centerline"]}}, {"type": "Feature", "bbox": [139.68647, 35.2498, 139.68994, 35.25623], "geometry": {"type": "LineString", "coordinates": [[139.68647, 35.2498], [139.68649, 35.24998], [139.68655, 35.2502], [139.68663, 35.25043], [139.6867, 35.25059], [139.68676, 35.25069], [139.68687, 35.25086], [139.68699, 35.25102], [139.68712, 35.25116], [139.68793, 35.25206], [139.68851, 35.25273], [139.68867, 35.25296], [139.68883, 35.25329], [139.68916, 35.254], [139.68943, 35.25478], [139.68969, 35.25548], [139.68994, 35.25623]]}, "properties": {"id": "TRACK_TOKYO_0305", "line_name": "久里浜線", "station_group_ids": [], "mode": "private", "operator_id": "keikyu", "line_color": "#D63339", "tags": ["tokyo", "track_centerline"]}}, {"type": "Feature", "bbox": [139.67473, 35.20565, 139.68487, 35.21195], "geometry": {"type": "LineString", "coordinates": [[139.67473, 35.20565], [139.67501, 35.20575], [139.67552, 35.20594], [139.67637, 35.20621], [139.67799, 35.20694], [139.67819, 35.20704], [139.67974, 35.20779], [139.67997, 35.20795], [139.68123, 35.20856], [139.68149, 35.20864], [139.68193, 35.20889], [139.68237, 35.20914], [139.68268, 35.20937], [139.68289, 35.20954], [139.68326, 35.20985], [139.68344, 35.21002], [139.68355, 35.21013], [139.68362, 35.2102], [139.68373, 35.21034], [139.68385, 35.21048], [139.68423, 35.21101], [139.68454, 35.21148], [139.68478, 35.2118], [139.68487, 35.21195]]}, "properties": {"id": "TRACK_TOKYO_0306", "line_name": "久里浜線", "station_group_ids": [], "mode": "private", "operator_id": "keikyu", "line_color": "#D63339", "tags": ["tokyo", "track_centerline"]}}, {"type": "Feature", "bbox": [139.66428, 35.19767, 139.66542, 35.19857], "geometry": {"type": "LineString", "coordinates": [[139.66428, 35.19767], [139.66542, 35.19857]]}, "properties": {"id": "TRACK_TOKYO_0307", "line_name": "久里浜線", "station_group_ids": [], "mode": "private", "operator_id": "keikyu", "line_color": "#D63339", "tags": ["tokyo", "track_centerline"]}}, {"type": "Feature", "bbox": [139.68994, 35.25623, 139.6904, 35.25755], "geometry": {"type": "LineString", "coordinates": [[139.6904, 35.25755], [139.69025, 35.25713], [139.68994, 35.25623]]}, "properties": {"id": "TRACK_TOKYO_0308", "line_name": "久里浜線", "station_group_ids": [], "mode": "private", "operator_id": "keikyu", "line_color": "#D63339", "tags": ["tokyo", "track_centerline"]}}, {"type": "Feature", "bbox": [139.68487, 35.21195, 139.68564, 35.21319], "geometry": {"type": "LineString", "coordinates": [[139.68487, 35.21195], [139.68564, 35.21319]]}, "properties": {"id": "TRACK_TOKYO_0309", "line_name": "久里浜線", "station_group_ids": [], "mode": "private", "operator_id": "keikyu", "line_color": "#D63339", "tags": ["tokyo", "track_centerline"]}}, {"type": "Feature", "bbox": [139.68634, 35.24838, 139.68647, 35.2498], "geometry": {"type": "LineString", "coordinates": [[139.68639, 35.24838], [139.68634, 35.24905], [139.68636, 35.24918], [139.68639, 35.2494], [139.68647, 35.2498]]}, "properties": {"id": "TRACK_TOKYO_0310", "line_name": "久里浜線", "station_group_ids": [], "mode": "private", "operator_id": "keikyu", "line_color": "#D63339", "tags": ["tokyo", "track_centerline"]}}, {"type": "Feature", "bbox": [139.66542, 35.19857, 139.67352, 35.20524], "geometry": {"type": "LineString", "coordinates": [[139.66542, 35.19857], [139.66551, 35.19865], [139.66602, 35.1991], [139.66694, 35.19992], [139.66759, 35.20051], [139.66779, 35.20069], [139.66859, 35.20142], [139.66919, 35.20197], [139.66975, 35.20246], [139.66992, 35.2026], [139.67059, 35.20321], [139.67096, 35.20355], [139.67117, 35.20373], [139.67163, 35.2041], [139.67207, 35.20448], [139.67216, 35.20455], [139.67292, 35.20499], [139.67352, 35.20524]]}, "properties": {"id": "TRACK_TOKYO_0311", "line_name": "久里浜線", "station_group_ids": [], "mode": "private", "operator_id": "keikyu", "line_color": "#D63339", "tags": ["tokyo", "track_centerline"]}}, {"type": "Feature", "bbox": [139.63385, 35.17871, 139.65274, 35.1878], "geometry": {"type": "LineString", "coordinates": [[139.63385, 35.17871], [139.63436, 35.17916], [139.63463, 35.17937], [139.63492, 35.17959], [139.63551, 35.17999], [139.63593, 35.18026], [139.63629, 35.18049], [139.63636, 35.18054], [139.63676, 35.18078], [139.63701, 35.18092], [139.63762, 35.18124], [139.63791, 35.18139], [139.63805, 35.18144], [139.6384, 35.18161], [139.63886, 35.1818], [139.63948, 35.18204], [139.63982, 35.18217], [139.64036, 35.18238], [139.64067, 35.18249], [139.64156, 35.18281], [139.64279, 35.18323], [139.64335, 35.18344], [139.64374, 35.18358], [139.64434, 35.18379], [139.64573, 35.18431], [139.64618, 35.18447], [139.64712, 35.18482], [139.64813, 35.18519], [139.64848, 35.18532], [139.64873, 35.1854], [139.64906, 35.18555], [139.64938, 35.18568], [139.64966, 35.18581], [139.65011, 35.18603], [139.65045, 35.18621], [139.65073, 35.18636], [139.65099, 35.18652], [139.65121, 35.18666], [139.65141, 35.18679], [139.65158, 35.18692], [139.65177, 35.18705], [139.65266, 35.18775], [139.65274, 35.1878]]}, "properties": {"id": "TRACK_TOKYO_0312", "line_name": "久里浜線", "station_group_ids": [], "mode": "private", "operator_id": "keikyu", "line_color": "#D63339", "tags": ["tokyo", "track_centerline"]}}, {"type": "Feature", "bbox": [139.63286, 35.17768, 139.63385, 35.17871], "geometry": {"type": "LineString", "coordinates": [[139.63286, 35.17768], [139.63311, 35.17795], [139.63338, 35.17827], [139.63359, 35.17848], [139.63385, 35.17871]]}, "properties": {"id": "TRACK_TOKYO_0313", "line_name": "久里浜線", "station_group_ids": [], "mode": "private", "operator_id": "keikyu", "line_color": "#D63339", "tags": ["tokyo", "track_centerline"]}}, {"type": "Feature", "bbox": [139.58036, 35.29364, 139.58077, 35.29491], "geometry": {"type": "LineString", "coordinates": [[139.58036, 35.29364], [139.58037, 35.2937], [139.5804, 35.29383], [139.58044, 35.29398], [139.58048, 35.29414], [139.58051, 35.29427], [139.58057, 35.29443], [139.58062, 35.29459], [139.5807, 35.29476], [139.58077, 35.29491]]}, "properties": {"id": "TRACK_TOKYO_0324", "line_name": "逗子線", "station_group_ids": [], "mode": "private", "operator_id": "keikyu", "line_color": "#D63339", "tags": ["tokyo", "track_centerline"]}}, {"type": "Feature", "bbox": [139.62011, 35.33047, 139.62014, 35.33179], "geometry": {"type": "LineString", "coordinates": [[139.62014, 35.33047], [139.62011, 35.33179]]}, "properties": {"id": "TRACK_TOKYO_0325", "line_name": "逗子線", "station_group_ids": [], "mode": "private", "operator_id": "keikyu", "line_color": "#D63339", "tags": ["tokyo", "track_centerline"]}}, {"type": "Feature", "bbox": [139.58077, 35.29491, 139.5926, 35.30601], "geometry": {"type": "LineString", "coordinates": [[139.58077, 35.29491], [139.58095, 35.29527], [139.58119, 35.29562], [139.58137, 35.29586], [139.58151, 35.29603], [139.5817, 35.29621], [139.58195, 35.29641], [139.58224, 35.2966], [139.58249, 35.29676], [139.58275, 35.29692], [139.58306, 35.29708], [139.58335, 35.29721], [139.58362, 35.29733], [139.58388, 35.29741], [139.58403, 35.29746], [139.58484, 35.29771], [139.58525, 35.29784], [139.58564, 35.29795], [139.58598, 35.29809], [139.58617, 35.29817], [139.58651, 35.29834], [139.58673, 35.29847], [139.58701, 35.29866], [139.58712, 35.29874], [139.58723, 35.29886], [139.58749, 35.29915], [139.58777, 35.29948], [139.58796, 35.29977], [139.58825, 35.30016], [139.58855, 35.30057], [139.58887, 35.30101], [139.58923, 35.3015], [139.58971, 35.30217], [139.58998, 35.30254], [139.59019, 35.30281], [139.59041, 35.30313], [139.59065, 35.30346], [139.59074, 35.30362], [139.59095, 35.30387], [139.59109, 35.30408], [139.59128, 35.30433], [139.59147, 35.30463], [139.5917, 35.30495], [139.5919, 35.30522], [139.59214, 35.3055], [139.59235, 35.30574], [139.5926, 35.30601]]}, "properties": {"id": "TRACK_TOKYO_0326", "line_name": "逗子線", "station_group_ids": [], "mode": "private", "operator_id": "keikyu", "line_color": "#D63339", "tags": ["tokyo", "track_centerline"]}}, {"type": "Feature", "bbox": [139.61978, 35.32749, 139.62014, 35.33047], "geometry": {"type": "LineString", "coordinates": [[139.61978, 35.32749], [139.61981, 35.32759], [139.61988, 35.32788], [139.61993, 35.32809], [139.62001, 35.3285], [139.62007, 35.32895], [139.6201, 35.32928], [139.62013, 35.32979], [139.62014, 35.33047]]}, "properties": {"id": "TRACK_TOKYO_0327", "line_name": "逗子線", "station_group_ids": [], "mode": "private", "operator_id": "keikyu", "line_color": "#D63339", "tags": ["tokyo", "track_centerline"]}}, {"type": "Feature", "bbox": [139.61184, 35.3229, 139.61978, 35.32749], "geometry": {"type": "LineString", "coordinates": [[139.61184, 35.3229], [139.61256, 35.32322], [139.6128, 35.32333], [139.61308, 35.32345], [139.61384, 35.32383], [139.61474, 35.32426], [139.61525, 35.3245], [139.61605, 35.32488], [139.61633, 35.32503], [139.61713, 35.32542], [139.61749, 35.32559], [139.61788, 35.32579], [139.61814, 35.32592], [139.61842, 35.32612], [139.61862, 35.32625], [139.61879, 35.32639], [139.6189, 35.32649], [139.61902, 35.3266], [139.61913, 35.32672], [139.61935, 35.32694], [139.6195, 35.32711], [139.61961, 35.32722], [139.61978, 35.32749]]}, "properties": {"id": "TRACK_TOKYO_0328", "line_name": "逗子線", "station_group_ids": [], "mode": "private", "operator_id": "keikyu", "line_color": "#D63339", "tags": ["tokyo", "track_centerline"]}}, {"type": "Feature", "bbox": [139.61114, 35.32255, 139.61184, 35.3229], "geometry": {"type": "LineString", "coordinates": [[139.61114, 35.32255], [139.61184, 35.3229]]}, "properties": {"id": "TRACK_TOKYO_0329", "line_name": "逗子線", "station_group_ids": [], "mode": "private", "operator_id": "keikyu", "line_color": "#D63339", "tags": ["tokyo", "track_centerline"]}}, {"type": "Feature", "bbox": [139.59318, 35.30655, 139.61114, 35.32255], "geometry": {"type": "LineString", "coordinates": [[139.59318, 35.30655], [139.59342, 35.30679], [139.59354, 35.30689], [139.59372, 35.30703], [139.59402, 35.30726], [139.59421, 35.30737], [139.59489, 35.3078], [139.59521, 35.30798], [139.59646, 35.30866], [139.59697, 35.30892], [139.59759, 35.30925], [139.59813, 35.30955], [139.59842, 35.30972], [139.59859, 35.30985], [139.59886, 35.31006], [139.599, 35.31019], [139.5992, 35.31038], [139.59935, 35.31053], [139.59953, 35.31075], [139.5997, 35.31098], [139.59982, 35.31116], [139.59993, 35.3114], [139.60003, 35.31165], [139.60015, 35.31199], [139.6002, 35.31226], [139.60025, 35.3125], [139.60027, 35.31284], [139.60025, 35.3132], [139.60022, 35.31344], [139.60017, 35.31371], [139.60009, 35.31391], [139.60006, 35.31403], [139.59999, 35.31426], [139.59995, 35.31439], [139.59982, 35.31466], [139.59973, 35.31485], [139.59958, 35.3152], [139.59947, 35.31547], [139.59941, 35.3157], [139.59938, 35.31589], [139.59937, 35.31595], [139.59939, 35.31606], [139.5994, 35.31618], [139.59943, 35.31635], [139.59948, 35.31656], [139.59956, 35.31681], [139.59966, 35.31701], [139.59972, 35.31713], [139.5998, 35.31727], [139.59995, 35.31749], [139.60015, 35.31774], [139.60029, 35.31795], [139.60047, 35.31819], [139.60062, 35.31834], [139.60082, 35.31854], [139.60099, 35.31866], [139.60132, 35.31887], [139.60168, 35.31907], [139.60201, 35.31925], [139.60227, 35.31937], [139.60302, 35.31972], [139.60346, 35.31992], [139.60412, 35.32022], [139.60445, 35.32037], [139.60478, 35.32053], [139.60555, 35.32082], [139.60601, 35.32099], [139.60626, 35.32107], [139.60664, 35.32116], [139.60691, 35.32122], [139.60776, 35.32143], [139.60845, 35.32158], [139.60914, 35.32175], [139.60945, 35.32186], [139.60963, 35.32191], [139.61, 35.32203], [139.61024, 35.32214], [139.61075, 35.32236], [139.61114, 35.32255]]}, "properties": {"id": "TRACK_TOKYO_0330", "line_name": "逗子線", "station_group_ids": [], "mode": "private", "operator_id": "keikyu", "line_color": "#D63339", "tags": ["tokyo", "track_centerline"]}}, {"type": "Feature", "bbox": [139.5926, 35.30601, 139.59318, 35.30655], "geometry": {"type": "LineString", "coordinates": [[139.5926, 35.30601], [139.59318, 35.30655]]}, "properties": {"id": "TRACK_TOKYO_0331", "line_name": "逗子線", "station_group_ids": [], "mode": "private", "operator_id": "keikyu", "line_color": "#D63339", "tags": ["tokyo", "track_centerline"]}}, {"type": "Feature", "bbox": [139.68635, 35.26279, 139.68772, 35.26351], "geometry": {"type": "LineString", "coordinates": [[139.68635, 35.26351], [139.68772, 35.26279]]}, "properties": {"id": "TRACK_TOKYO_0372", "line_name": "本線", "station_group_ids": [], "mode": "private", "operator_id": "keikyu", "line_color": "#D63339", "tags": ["tokyo", "track_centerline"]}}, {"type": "Feature", "bbox": [139.68772, 35.26276, 139.6878, 35.26279], "geometry": {"type": "LineString", "coordinates": [[139.68772, 35.26279], [139.6878, 35.26276]]}, "properties": {"id": "TRACK_TOKYO_0373", "line_name": "本線", "station_group_ids": [], "mode": "private", "operator_id": "keikyu", "line_color": "#D63339", "tags": ["tokyo", "track_centerline"]}}, {"type": "Feature", "bbox": [139.64238, 35.2866, 139.64338, 35.28673], "geometry": {"type": "LineString", "coordinates": [[139.64238, 35.28673], [139.64261, 35.28671], [139.64271, 35.28671], [139.64303, 35.28666], [139.64338, 35.2866]]}, "properties": {"id": "TRACK_TOKYO_0375", "line_name": "本線", "station_group_ids": [], "mode": "private", "operator_id": "keikyu", "line_color": "#D63339", "tags": ["tokyo", "track_centerline"]}}, {"type": "Feature", "bbox": [139.6946, 35.26068, 139.69614, 35.26133], "geometry": {"type": "LineString", "coordinates": [[139.6946, 35.26133], [139.69614, 35.26068]]}, "properties": {"id": "TRACK_TOKYO_0376", "line_name": "本線", "station_group_ids": [], "mode": "private", "operator_id": "keikyu", "line_color": "#D63339", "tags": ["tokyo", "track_centerline"]}}, {"type": "Feature", "bbox": [139.67611, 35.26947, 139.67748, 35.27041], "geometry": {"type": "LineString", "coordinates": [[139.67611, 35.27041], [139.67668, 35.27001], [139.67708, 35.26974], [139.67719, 35.26967], [139.67728, 35.2696], [139.67748, 35.26947]]}, "properties": {"id": "TRACK_TOKYO_0377", "line_name": "本線", "station_group_ids": [], "mode": "private", "operator_id": "keikyu", "line_color": "#D63339", "tags": ["tokyo", "track_centerline"]}}, {"type": "Feature", "bbox": [139.69614, 35.2591, 139.70699, 35.26068], "geometry": {"type": "LineString", "coordinates": [[139.69614, 35.26068], [139.69671, 35.26044], [139.69771, 35.26003], [139.69842, 35.25975], [139.69893, 35.25956], [139.6993, 35.25942], [139.69997, 35.25922], [139.70023, 35.25917], [139.70061, 35.25913], [139.70127, 35.2591], [139.70214, 35.25913], [139.70273, 35.25919], [139.70324, 35.25927], [139.70359, 35.25932], [139.70422, 35.25942], [139.70437, 35.25945], [139.70461, 35.25948], [139.7048, 35.25952], [139.7052, 35.25957], [139.70525, 35.25958], [139.70546, 35.2596], [139.70561, 35.2596], [139.70578, 35.2596], [139.70603, 35.25959], [139.70699, 35.25958]]}, "properties": {"id": "TRACK_TOKYO_0381", "line_name": "本線", "station_group_ids": [], "mode": "private", "operator_id": "keikyu", "line_color": "#D63339", "tags": ["tokyo", "track_centerline"]}}, {"type": "Feature", "bbox": [139.70884, 35.25261, 139.715, 35.25954], "geometry": {"type": "LineString", "coordinates": [[139.715, 35.25261], [139.71495, 35.25286], [139.71488, 35.25306], [139.71479, 35.25329], [139.71429, 35.25429], [139.71389, 35.25511], [139.71354, 35.25603], [139.7133, 35.25662], [139.71282, 35.25744], [139.71253, 35.25781], [139.71235, 35.25797], [139.71198, 35.25828], [139.71186, 35.25837], [139.71124, 35.25881], [139.71078, 35.25907], [139.71049, 35.25921], [139.71007, 35.25934], [139.70962, 35.25943], [139.70918, 35.2595], [139.70884, 35.25954]]}, "properties": {"id": "TRACK_TOKYO_0382", "line_name": "本線", "station_group_ids": [], "mode": "private", "operator_id": "keikyu", "line_color": "#D63339", "tags": ["tokyo", "track_centerline"]}}, {"type": "Feature", "bbox": [139.66319, 35.27902, 139.66937, 35.28035], "geometry": {"type": "LineString", "coordinates": [[139.66319, 35.28034], [139.66338, 35.28035], [139.66346, 35.28035], [139.66454, 35.28023], [139.66563, 35.28014], [139.66672, 35.27994], [139.66781, 35.27959], [139.66878, 35.27922], [139.6691, 35.27911], [139.66937, 35.27902]]}, "properties": {"id": "TRACK_TOKYO_0384", "line_name": "本線", "station_group_ids": [], "mode": "private", "operator_id": "keikyu", "line_color": "#D63339", "tags": ["tokyo", "track_centerline"]}}, {"type": "Feature", "bbox": [139.64338, 35.28092, 139.652, 35.2866], "geometry": {"type": "LineString", "coordinates": [[139.64338, 35.2866], [139.64362, 35.28653], [139.64373, 35.28649], [139.64393, 35.28642], [139.64417, 35.28633], [139.64439, 35.28623], [139.64461, 35.28609], [139.64514, 35.28575], [139.64535, 35.28559], [139.6459, 35.28519], [139.6461, 35.28503], [139.64644, 35.2848], [139.64668, 35.28461], [139.64755, 35.28397], [139.64813, 35.28357], [139.64856, 35.28332], [139.64883, 35.28303], [139.64995, 35.28222], [139.65012, 35.2821], [139.65069, 35.28172], [139.65095, 35.28154], [139.65143, 35.28122], [139.65148, 35.2812], [139.65151, 35.28118], [139.65154, 35.28117], [139.65173, 35.28105], [139.652, 35.28092]]}, "properties": {"id": "TRACK_TOKYO_0385", "line_name": "本線", "station_group_ids": [], "mode": "private", "operator_id": "keikyu", "line_color": "#D63339", "tags": ["tokyo", "track_centerline"]}}, {"type": "Feature", "bbox": [139.715, 35.25112, 139.71507, 35.25261], "geometry": {"type": "LineString", "coordinates": [[139.71502, 35.25112], [139.71506, 35.25156], [139.71507, 35.2519], [139.71505, 35.25219], [139.715, 35.25261]]}, "properties": {"id": "TRACK_TOKYO_0386", "line_name": "本線", "station_group_ids": [], "mode": "private", "operator_id": "keikyu", "line_color": "#D63339", "tags": ["tokyo", "track_centerline"]}}, {"type": "Feature", "bbox": [139.67748, 35.26351, 139.68635, 35.26947], "geometry": {"type": "LineString", "coordinates": [[139.67748, 35.26947], [139.67786, 35.26926], [139.6781, 35.26912], [139.67835, 35.26899], [139.67886, 35.26869], [139.67911, 35.26855], [139.67917, 35.26852], [139.68005, 35.26803], [139.68092, 35.26756], [139.68185, 35.26705], [139.68216, 35.26687], [139.68242, 35.26671], [139.68249, 35.26665], [139.68265, 35.26651], [139.68318, 35.26595], [139.68371, 35.26545], [139.68418, 35.265], [139.68464, 35.26458], [139.68474, 35.26449], [139.68487, 35.2644], [139.68498, 35.26432], [139.68503, 35.26429], [139.68508, 35.26425], [139.68542, 35.26402], [139.68635, 35.26351]]}, "properties": {"id": "TRACK_TOKYO_0387", "line_name": "本線", "station_group_ids": [], "mode": "private", "operator_id": "keikyu", "line_color": "#D63339", "tags": ["tokyo", "track_centerline"]}}, {"type": "Feature", "bbox": [139.70699, 35.25954, 139.70884, 35.25958], "geometry": {"type": "LineString", "coordinates": [[139.70699, 35.25958], [139.70884, 35.25954]]}, "properties": {"id": "TRACK_TOKYO_0388", "line_name": "本線", "station_group_ids": [], "mode": "private", "operator_id": "keikyu", "line_color": "#D63339", "tags": ["tokyo", "track_centerline"]}}, {"type": "Feature", "bbox": [139.67072, 35.27041, 139.67611, 35.27837], "geometry": {"type": "LineString", "coordinates": [[139.67072, 35.27837], [139.6708, 35.27832], [139.67095, 35.27824], [139.67106, 35.27817], [139.67128, 35.27805], [139.672, 35.27757], [139.67246, 35.27724], [139.67282, 35.27684], [139.67303, 35.27663], [139.67329, 35.27627], [139.6736, 35.2759], [139.67397, 35.27539], [139.67428, 35.27492], [139.67435, 35.27464], [139.67443, 35.2744], [139.67446, 35.27416], [139.67447, 35.2739], [139.67447, 35.27338], [139.67448, 35.27316], [139.6745, 35.27293], [139.67454, 35.27262], [139.67458, 35.27246], [139.67464, 35.27227], [139.67469, 35.27215], [139.67478, 35.27197], [139.67485, 35.27182], [139.67493, 35.27168], [139.67511, 35.27142], [139.67525, 35.27124], [139.67538, 35.27109], [139.67551, 35.27096], [139.67576, 35.27069], [139.6759, 35.27058], [139.67611, 35.27041]]}, "properties": {"id": "TRACK_TOKYO_0389", "line_name": "本線", "station_group_ids": [], "mode": "private", "operator_id": "keikyu", "line_color": "#D63339", "tags": ["tokyo", "track_centerline"]}}, {"type": "Feature", "bbox": [139.65306, 35.28019, 139.66184, 35.28041], "geometry": {"type": "LineString", "coordinates": [[139.65306, 35.28041], [139.65326, 35.28036], [139.65348, 35.28032], [139.65369, 35.28029], [139.65387, 35.28027], [139.65573, 35.28024], [139.65834, 35.28019], [139.65899, 35.2802], [139.66133, 35.28025], [139.66184, 35.28029]]}, "properties": {"id": "TRACK_TOKYO_0390", "line_name": "本線", "station_group_ids": [], "mode": "private", "operator_id": "keikyu", "line_color": "#D63339", "tags": ["tokyo", "track_centerline"]}}, {"type": "Feature", "bbox": [139.66937, 35.27837, 139.67072, 35.27902], "geometry": {"type": "LineString", "coordinates": [[139.66937, 35.27902], [139.66947, 35.27899], [139.66959, 35.27894], [139.66966, 35.27891], [139.66976, 35.27886], [139.66995, 35.27877], [139.67072, 35.27837]]}, "properties": {"id": "TRACK_TOKYO_0392", "line_name": "本線", "station_group_ids": [], "mode": "private", "operator_id": "keikyu", "line_color": "#D63339", "tags": ["tokyo", "track_centerline"]}}, {"type": "Feature", "bbox": [139.652, 35.28041, 139.65306, 35.28092], "geometry": {"type": "LineString", "coordinates": [[139.652, 35.28092], [139.65253, 35.28065], [139.65284, 35.28051], [139.65306, 35.28041]]}, "properties": {"id": "TRACK_TOKYO_0401", "line_name": "本線", "station_group_ids": [], "mode": "private", "operator_id": "keikyu", "line_color": "#D63339", "tags": ["tokyo", "track_centerline"]}}, {"type": "Feature", "bbox": [139.66184, 35.28029, 139.66319, 35.28034], "geometry": {"type": "LineString", "coordinates": [[139.66184, 35.28029], [139.66319, 35.28034]]}, "properties": {"id": "TRACK_TOKYO_0402", "line_name": "本線", "station_group_ids": [], "mode": "private", "operator_id": "keikyu", "line_color": "#D63339", "tags": ["tokyo", "track_centerline"]}}, {"type": "Feature", "bbox": [139.6878, 35.26133, 139.6946, 35.26276], "geometry": {"type": "LineString", "coordinates": [[139.6878, 35.26276], [139.6879, 35.26271], [139.68812, 35.26261], [139.68883, 35.26235], [139.6892, 35.26223], [139.68942, 35.26217], [139.68964, 35.26214], [139.69026, 35.2621], [139.69088, 35.26207], [139.69149, 35.26203], [139.69187, 35.26201], [139.69218, 35.26198], [139.69236, 35.26197], [139.69283, 35.26192], [139.6932, 35.2619], [139.6933, 35.26188], [139.6934, 35.26185], [139.69347, 35.26182], [139.69357, 35.26179], [139.6946, 35.26133]]}, "properties": {"id": "TRACK_TOKYO_0403", "line_name": "本線", "station_group_ids": [], "mode": "private", "operator_id": "keikyu", "line_color": "#D63339", "tags": ["tokyo", "track_centerline"]}}, {"type": "Feature", "bbox": [139.62011, 35.33047, 139.62014, 35.33179], "geometry": {"type": "LineString", "coordinates": [[139.62014, 35.33047], [139.62011, 35.33179]]}, "properties": {"id": "TRACK_TOKYO_0406", "line_name": "本線", "station_group_ids": [], "mode": "private", "operator_id": "keikyu", "line_color": "#D63339", "tags": ["tokyo", "track_centerline"]}}, {"type": "Feature", "bbox": [139.61978, 35.32749, 139.62014, 35.33047], "geometry": {"type": "LineString", "coordinates": [[139.61978, 35.32749], [139.61981, 35.32759], [139.61988, 35.32788], [139.61993, 35.32809], [139.62001, 35.3285], [139.62007, 35.32895], [139.6201, 35.32928], [139.62013, 35.32979], [139.62014, 35.33047]]}, "properties": {"id": "TRACK_TOKYO_0407", "line_name": "本線", "station_group_ids": [], "mode": "private", "operator_id": "keikyu", "line_color": "#D63339", "tags": ["tokyo", "track_centerline"]}}, {"type": "Feature", "bbox": [139.59654, 35.41026, 139.59781, 35.42371], "geometry": {"type": "LineString", "coordinates": [[139.59703, 35.42371], [139.59731, 35.42278], [139.59752, 35.42201], [139.59776, 35.42088], [139.59781, 35.42058], [139.59774, 35.41994], [139.59771, 35.41958], [139.59766, 35.41912], [139.5976, 35.41863], [139.59744, 35.41787], [139.59703, 35.41623], [139.597, 35.41609], [139.59672, 35.41488], [139.59662, 35.41431], [139.59658, 35.41394], [139.59654, 35.41345], [139.59655, 35.41269], [139.59654, 35.41244], [139.59655, 35.41225], [139.59655, 35.41188], [139.59657, 35.41118], [139.59658, 35.41026]]}, "properties": {"id": "TRACK_TOKYO_0408", "line_name": "本線", "station_group_ids": [], "mode": "private", "operator_id": "keikyu", "line_color": "#D63339", "tags": ["tokyo", "track_centerline"]}}, {"type": "Feature", "bbox": [139.62011, 35.33179, 139.62165, 35.34277], "geometry": {"type": "LineString", "coordinates": [[139.62165, 35.34277], [139.6213, 35.34158], [139.62082, 35.33974], [139.62078, 35.3396], [139.62066, 35.33915], [139.6206, 35.33895], [139.62043, 35.33834], [139.62027, 35.33773], [139.62017, 35.33731], [139.62014, 35.33702], [139.62014, 35.33661], [139.62014, 35.33625], [139.62013, 35.3341], [139.62012, 35.33283], [139.62011, 35.33179]]}, "properties": {"id": "TRACK_TOKYO_0409", "line_name": "本線", "station_group_ids": [], "mode": "private", "operator_id": "keikyu", "line_color": "#D63339", "tags": ["tokyo", "track_centerline"]}}, {"type": "Feature", "bbox": [139.62482, 35.30059, 139.62557, 35.30146], "geometry": {"type": "LineString", "coordinates": [[139.62482, 35.30146], [139.62525, 35.30094], [139.62557, 35.30059]]}, "properties": {"id": "TRACK_TOKYO_0413", "line_name": "本線", "station_group_ids": [], "mode": "private", "operator_id": "keikyu", "line_color": "#D63339", "tags": ["tokyo", "track_centerline"]}}, {"type": "Feature", "bbox": [139.62969, 35.36619, 139.62983, 35.36723], "geometry": {"type": "LineString", "coordinates": [[139.62983, 35.36619], [139.62969, 35.36723]]}, "properties": {"id": "TRACK_TOKYO_0414", "line_name": "本線", "station_group_ids": [], "mode": "private", "operator_id": "keikyu", "line_color": "#D63339", "tags": ["tokyo", "track_centerline"]}}, {"type": "Feature", "bbox": [139.62557, 35.28621, 139.64238, 35.30059], "geometry": {"type": "LineString", "coordinates": [[139.62557, 35.30059], [139.62567, 35.30045], [139.62577, 35.30031], [139.62597, 35.30002], [139.62612, 35.29974], [139.62624, 35.29946], [139.62647, 35.2988], [139.62657, 35.29829], [139.62667, 35.29768], [139.62684, 35.29652], [139.62692, 35.29605], [139.62699, 35.2956], [139.62708, 35.29511], [139.62716, 35.29462], [139.62721, 35.29422], [139.62728, 35.29388], [139.62744, 35.29336], [139.62755, 35.29311], [139.62761, 35.29295], [139.62772, 35.29272], [139.62794, 35.29227], [139.628, 35.29214], [139.62846, 35.29151], [139.6288, 35.29108], [139.62932, 35.29063], [139.62954, 35.29047], [139.62964, 35.29039], [139.62978, 35.29029], [139.63015, 35.29001], [139.63138, 35.28907], [139.63169, 35.28885], [139.63178, 35.28878], [139.63202, 35.28862], [139.63261, 35.28817], [139.63313, 35.28781], [139.63358, 35.28748], [139.63388, 35.28727], [139.63423, 35.28707], [139.63452, 35.28693], [139.63474, 35.28685], [139.63495, 35.28676], [139.63597, 35.28656], [139.63684, 35.2864], [139.63735, 35.28632], [139.63802, 35.28625], [139.63863, 35.28621], [139.63889, 35.28623], [139.63915, 35.28628], [139.63964, 35.28637], [139.64035, 35.28652], [139.64076, 35.28659], [139.64103, 35.28663], [139.64126, 35.28667], [139.64175, 35.28671], [139.64238, 35.28673]]}, "properties": {"id": "TRACK_TOKYO_0415", "line_name": "本線", "station_group_ids": [], "mode": "private", "operator_id": "keikyu", "line_color": "#D63339", "tags": ["tokyo", "track_centerline"]}}, {"type": "Feature", "bbox": [139.60997, 35.39368, 139.61091, 35.39458], "geometry": {"type": "LineString", "coordinates": [[139.60997, 35.39458], [139.61091, 35.39368]]}, "properties": {"id": "TRACK_TOKYO_0418", "line_name": "本線", "station_group_ids": [], "mode": "private", "operator_id": "keikyu", "line_color": "#D63339", "tags": ["tokyo", "track_centerline"]}}, {"type": "Feature", "bbox": [139.62189, 35.34372, 139.62891, 35.35988], "geometry": {"type": "LineString", "coordinates": [[139.62891, 35.35988], [139.62827, 35.35858], [139.62806, 35.35818], [139.62793, 35.35764], [139.62794, 35.35684], [139.62797, 35.35542], [139.62801, 35.35428], [139.62799, 35.354], [139.62786, 35.35337], [139.6277, 35.35281], [139.62749, 35.35225], [139.62711, 35.35158], [139.62707, 35.35152], [139.62692, 35.3513], [139.62625, 35.35069], [139.62541, 35.35], [139.6251, 35.34973], [139.62485, 35.34943], [139.62426, 35.34844], [139.62336, 35.34699], [139.62314, 35.34664], [139.62251, 35.34576], [139.62233, 35.34547], [139.62214, 35.34478], [139.62189, 35.34372]]}, "properties": {"id": "TRACK_TOKYO_0426", "line_name": "本線", "station_group_ids": [], "mode": "private", "operator_id": "keikyu", "line_color": "#D63339", "tags": ["tokyo", "track_centerline"]}}, {"type": "Feature", "bbox": [139.59664, 35.39458, 139.60997, 35.40843], "geometry": {"type": "LineString", "coordinates": [[139.59664, 35.40843], [139.59668, 35.40702], [139.59677, 35.40629], [139.59689, 35.40584], [139.59713, 35.4051], [139.59758, 35.40416], [139.59822, 35.40296], [139.59856, 35.40234], [139.59889, 35.40187], [139.599, 35.40173], [139.59909, 35.4016], [139.59946, 35.40128], [139.6002, 35.40072], [139.60085, 35.40021], [139.60104, 35.40004], [139.60128, 35.39983], [139.60169, 35.39932], [139.6023, 35.39847], [139.60251, 35.39817], [139.60255, 35.3981], [139.60302, 35.39763], [139.60337, 35.39738], [139.60373, 35.3972], [139.60415, 35.39706], [139.60484, 35.39692], [139.60675, 35.39649], [139.60689, 35.39645], [139.6075, 35.39629], [139.60811, 35.39607], [139.6085, 35.39583], [139.60872, 35.39566], [139.60909, 35.39538], [139.60954, 35.39498], [139.60973, 35.3948], [139.60992, 35.39462], [139.60997, 35.39458]]}, "properties": {"id": "TRACK_TOKYO_0430", "line_name": "本線", "station_group_ids": [], "mode": "private", "operator_id": "keikyu", "line_color": "#D63339", "tags": ["tokyo", "track_centerline"]}}, {"type": "Feature", "bbox": [139.62165, 35.34277, 139.62189, 35.34372], "geometry": {"type": "LineString", "coordinates": [[139.62189, 35.34372], [139.62179, 35.3433], [139.62165, 35.34277]]}, "properties": {"id": "TRACK_TOKYO_0431", "line_name": "本線", "station_group_ids": [], "mode": "private", "operator_id": "keikyu", "line_color": "#D63339", "tags": ["tokyo", "track_centerline"]}}, {"type": "Feature", "bbox": [139.61882, 35.31632, 139.62459, 35.32749], "geometry": {"type": "LineString", "coordinates": [[139.61978, 35.32749], [139.61973, 35.32719], [139.61967, 35.32696], [139.61957, 35.32665], [139.61946, 35.32633], [139.61934, 35.32601], [139.61919, 35.32554], [139.61913, 35.32531], [139.61906, 35.32506], [139.61897, 35.32478], [139.61893, 35.32458], [139.61888, 35.32438], [139.61885, 35.32413], [139.61882, 35.32389], [139.61884, 35.32361], [139.61885, 35.32343], [139.61894, 35.32301], [139.61898, 35.32285], [139.61908, 35.32254], [139.61922, 35.32221], [139.6195, 35.32175], [139.61984, 35.32117], [139.62021, 35.32054], [139.62037, 35.32027], [139.62054, 35.32], [139.62076, 35.31964], [139.62088, 35.31946], [139.621, 35.31932], [139.62123, 35.31905], [139.62144, 35.31884], [139.62164, 35.31866], [139.62172, 35.31858], [139.62179, 35.31853], [139.62222, 35.31826], [139.62238, 35.31814], [139.62251, 35.31805], [139.62302, 35.31771], [139.62352, 35.31738], [139.62385, 35.31713], [139.62414, 35.31686], [139.62431, 35.31664], [139.62459, 35.31632]]}, "properties": {"id": "TRACK_TOKYO_0432", "line_name": "本線", "station_group_ids": [], "mode": "private", "operator_id": "keikyu", "line_color": "#D63339", "tags": ["tokyo", "track_centerline"]}}, {"type": "Feature", "bbox": [139.59658, 35.40843, 139.59664, 35.41026], "geometry": {"type": "LineString", "coordinates": [[139.59658, 35.41026], [139.59664, 35.40843]]}, "properties": {"id": "TRACK_TOKYO_0433", "line_name": "本線", "station_group_ids": [], "mode": "private", "operator_id": "keikyu", "line_color": "#D63339", "tags": ["tokyo", "track_centerline"]}}, {"type": "Feature", "bbox": [139.61581, 35.36723, 139.62969, 35.38354], "geometry": {"type": "LineString", "coordinates": [[139.61581, 35.38354], [139.61617, 35.38284], [139.61798, 35.37937], [139.61837, 35.37861], [139.61851, 35.37837], [139.61887, 35.37778], [139.61911, 35.37741], [139.61946, 35.37706], [139.62003, 35.3766], [139.6205, 35.37625], [139.62073, 35.37611], [139.62111, 35.37588], [139.62122, 35.37582], [139.62143, 35.37569], [139.62179, 35.37548], [139.62263, 35.37497], [139.624, 35.3743], [139.62435, 35.3742], [139.62506, 35.37405], [139.6257, 35.37389], [139.62612, 35.37379], [139.62645, 35.37367], [139.62701, 35.3733], [139.62814, 35.37236], [139.62859, 35.37194], [139.62875, 35.37166], [139.62891, 35.37128], [139.62909, 35.37062], [139.62919, 35.3701], [139.62944, 35.36879], [139.6296, 35.36774], [139.62964, 35.36751], [139.62969, 35.36723]]}, "properties": {"id": "TRACK_TOKYO_0434", "line_name": "本線", "station_group_ids": [], "mode": "private", "operator_id": "keikyu", "line_color": "#D63339", "tags": ["tokyo", "track_centerline"]}}, {"type": "Feature", "bbox": [139.62891, 35.35988, 139.62947, 35.36119], "geometry": {"type": "LineString", "coordinates": [[139.62947, 35.36119], [139.62936, 35.36075], [139.62918, 35.36041], [139.62891, 35.35988]]}, "properties": {"id": "TRACK_TOKYO_0435", "line_name": "本線", "station_group_ids": [], "mode": "private", "operator_id": "keikyu", "line_color": "#D63339", "tags": ["tokyo", "track_centerline"]}}, {"type": "Feature", "bbox": [139.62947, 35.36119, 139.62991, 35.36619], "geometry": {"type": "LineString", "coordinates": [[139.62947, 35.36119], [139.62962, 35.36244], [139.62986, 35.36506], [139.62991, 35.36543], [139.62983, 35.36619]]}, "properties": {"id": "TRACK_TOKYO_0436", "line_name": "本線", "station_group_ids": [], "mode": "private", "operator_id": "keikyu", "line_color": "#D63339", "tags": ["tokyo", "track_centerline"]}}, {"type": "Feature", "bbox": [139.62459, 35.31493, 139.6251, 35.31632], "geometry": {"type": "LineString", "coordinates": [[139.62459, 35.31632], [139.62473, 35.31617], [139.62489, 35.31585], [139.62495, 35.31561], [139.62504, 35.31527], [139.6251, 35.31493]]}, "properties": {"id": "TRACK_TOKYO_0438", "line_name": "本線", "station_group_ids": [], "mode": "private", "operator_id": "keikyu", "line_color": "#D63339", "tags": ["tokyo", "track_centerline"]}}, {"type": "Feature", "bbox": [139.62351, 35.30146, 139.6251, 35.31493], "geometry": {"type": "LineString", "coordinates": [[139.6251, 35.31493], [139.62508, 35.31456], [139.62508, 35.31453], [139.62505, 35.31433], [139.62492, 35.3139], [139.62462, 35.31304], [139.6244, 35.31226], [139.62413, 35.31146], [139.62393, 35.31069], [139.62391, 35.31044], [139.62394, 35.30872], [139.62398, 35.30786], [139.62401, 35.30719], [139.62399, 35.30693], [139.62397, 35.30667], [139.62386, 35.30627], [139.62367, 35.30566], [139.62359, 35.30538], [139.62353, 35.30489], [139.62351, 35.30438], [139.62353, 35.30415], [139.62365, 35.30367], [139.62375, 35.30338], [139.62391, 35.30293], [139.62405, 35.3026], [139.62417, 35.30237], [139.62433, 35.3021], [139.62454, 35.3018], [139.62469, 35.30162], [139.62482, 35.30146]]}, "properties": {"id": "TRACK_TOKYO_0441", "line_name": "本線", "station_group_ids": [], "mode": "private", "operator_id": "keikyu", "line_color": "#D63339", "tags": ["tokyo", "track_centerline"]}}, {"type": "Feature", "bbox": [139.61091, 35.38427, 139.61541, 35.39368], "geometry": {"type": "LineString", "coordinates": [[139.61091, 35.39368], [139.61143, 35.39315], [139.61161, 35.39296], [139.61188, 35.39264], [139.61215, 35.39231], [139.6124, 35.39193], [139.61258, 35.39161], [139.61275, 35.3913], [139.61297, 35.39076], [139.61322, 35.39], [139.61347, 35.38894], [139.61366, 35.38808], [139.61388, 35.38741], [139.61407, 35.38688], [139.61442, 35.38617], [139.61491, 35.38523], [139.61503, 35.38501], [139.61541, 35.38427]]}, "properties": {"id": "TRACK_TOKYO_0442", "line_name": "本線", "station_group_ids": [], "mode": "private", "operator_id": "keikyu", "line_color": "#D63339", "tags": ["tokyo", "track_centerline"]}}, {"type": "Feature", "bbox": [139.61541, 35.38354, 139.61581, 35.38427], "geometry": {"type": "LineString", "coordinates": [[139.61541, 35.38427], [139.61581, 35.38354]]}, "properties": {"id": "TRACK_TOKYO_0445", "line_name": "本線", "station_group_ids": [], "mode": "private", "operator_id": "keikyu", "line_color": "#D63339", "tags": ["tokyo", "track_centerline"]}}, {"type": "Feature", "bbox": [139.15582, 35.25741, 139.59111, 35.48638], "geometry": {"type": "LineString", "coordinates": [[139.15582, 35.25741], [139.15594, 35.25752], [139.16043, 35.26191], [139.16057, 35.26205], [139.1608, 35.26227], [139.16119, 35.26265], [139.16123, 35.26269], [139.16157, 35.26302], [139.16268, 35.26411], [139.16291, 35.26433], [139.1658, 35.26716], [139.16615, 35.2675], [139.16642, 35.26776], [139.16782, 35.26913], [139.17077, 35.272], [139.17232, 35.27352], [139.1732, 35.27431], [139.17399, 35.27499], [139.17413, 35.2751], [139.17476, 35.27562], [139.17489, 35.27573], [139.17511, 35.27591], [139.17527, 35.27604], [139.17536, 35.27611], [139.17595, 35.27653], [139.17608, 35.27662], [139.17675, 35.2771], [139.17916, 35.27864], [139.18203, 35.28019], [139.1826, 35.28047], [139.18883, 35.28337], [139.18949, 35.28367], [139.18961, 35.28372], [139.1897, 35.28377], [139.19055, 35.28416], [139.1912, 35.28446], [139.19142, 35.28456], [139.19148, 35.28459], [139.19184, 35.28475], [139.19213, 35.28489], [139.19313, 35.28534], [139.19636, 35.28683], [139.19667, 35.28697], [139.19836, 35.28778], [139.1999, 35.28849], [139.20357, 35.29016], [139.20401, 35.29036], [139.20512, 35.29088], [139.21261, 35.29431], [139.21476, 35.29532], [139.21687, 35.29631], [139.21743, 35.29655], [139.21757, 35.29661], [139.2188, 35.29718], [139.21941, 35.29746], [139.21976, 35.29762], [139.22111, 35.29825], [139.22125, 35.29831], [139.22133, 35.29835], [139.22144, 35.2984], [139.22265, 35.29896], [139.22277, 35.29901], [139.22322, 35.29922], [139.22345, 35.29933], [139.22368, 35.29943], [139.22389, 35.29953], [139.22395, 35.29956], [139.22517, 35.30009], [139.2253, 35.30014], [139.22619, 35.3005], [139.22631, 35.30054], [139.22752, 35.30102], [139.22925, 35.30165], [139.23048, 35.30206], [139.2322, 35.30253], [139.23346, 35.30288], [139.23456, 35.3032], [139.23535, 35.30342], [139.23557, 35.30348], [139.23674, 35.3038], [139.23691, 35.30385], [139.23771, 35.30408], [139.23832, 35.30425], [139.2431, 35.30562], [139.24682, 35.3067], [139.24687, 35.30677], [139.24716, 35.30687], [139.24725, 35.30691], [139.2477, 35.30704], [139.24795, 35.30712], [139.24839, 35.30725], [139.24857, 35.3073], [139.24908, 35.30746], [139.24915, 35.30748], [139.25056, 35.30789], [139.25197, 35.30831], [139.25325, 35.30868], [139.25426, 35.30898], [139.25494, 35.30918], [139.255, 35.3092], [139.25545, 35.30934], [139.25557, 35.30937], [139.2563, 35.30958], [139.25639, 35.3096], [139.2572, 35.30983], [139.25729, 35.30985], [139.2575, 35.30992], [139.25793, 35.31004], [139.25798, 35.31005], [139.25836, 35.31016], [139.25843, 35.31018], [139.25905, 35.31037], [139.2603, 35.31072], [139.26066, 35.31082], [139.26101, 35.31092], [139.26112, 35.31095], [139.26157, 35.3111], [139.26166, 35.31112], [139.26256, 35.31138], [139.26442, 35.31189], [139.26488, 35.31201], [139.26602, 35.31231], [139.26668, 35.31252], [139.26761, 35.31282], [139.26785, 35.31291], [139.27007, 35.31376], [139.27121, 35.31428], [139.27225, 35.31478], [139.27272, 35.31504], [139.27337, 35.31543], [139.27471, 35.31619], [139.276, 35.31693], [139.27675, 35.31738], [139.2775, 35.31782], [139.278, 35.31811], [139.27975, 35.31913], [139.28082, 35.31976], [139.28225, 35.32059], [139.28377, 35.32148], [139.28532, 35.3224], [139.28652, 35.32306], [139.28731, 35.32354], [139.28831, 35.32418], [139.2889, 35.32462], [139.28944, 35.32509], [139.28993, 35.32552], [139.29089, 35.32638], [139.29167, 35.32711], [139.29285, 35.3282], [139.29306, 35.3284], [139.29328, 35.32861], [139.29477, 35.32995], [139.29567, 35.33076], [139.29589, 35.33095], [139.29684, 35.33178], [139.29721, 35.33215], [139.2978, 35.33269], [139.29853, 35.33335], [139.29902, 35.3338], [139.29925, 35.33401], [139.30023, 35.33489], [139.30081, 35.33539], [139.301, 35.33556], [139.30126, 35.3358], [139.30187, 35.33631], [139.3022, 35.33661], [139.30247, 35.33685], [139.30302, 35.33745], [139.30407, 35.33857], [139.30507, 35.33965], [139.30633, 35.341], [139.30661, 35.3413], [139.30725, 35.34199], [139.30758, 35.34235], [139.30886, 35.3437], [139.30909, 35.34395], [139.30913, 35.344], [139.30947, 35.34437], [139.31056, 35.34554], [139.31075, 35.34574], [139.31103, 35.34605], [139.31116, 35.34619], [139.31199, 35.34707], [139.3122, 35.34731], [139.31277, 35.34792], [139.31296, 35.34815], [139.314, 35.34923], [139.31528, 35.35058], [139.31626, 35.3516], [139.31649, 35.35183], [139.3173, 35.35268], [139.31738, 35.35277], [139.3189, 35.35436], [139.31961, 35.35501], [139.31996, 35.35532], [139.32022, 35.35553], [139.3214, 35.35642], [139.32223, 35.35701], [139.32321, 35.3577], [139.32521, 35.35913], [139.32595, 35.35965], [139.327, 35.36042], [139.32733, 35.36066], [139.32858, 35.36156], [139.32997, 35.36256], [139.3302, 35.36273], [139.33412, 35.36555], [139.33439, 35.36573], [139.33623, 35.36707], [139.3365, 35.36726], [139.3381, 35.36841], [139.33868, 35.36884], [139.34055, 35.37018], [139.34172, 35.37102], [139.3425, 35.37157], [139.3429, 35.37187], [139.3439, 35.37259], [139.34509, 35.37345], [139.34541, 35.37369], [139.34651, 35.37447], [139.3473, 35.37504], [139.34785, 35.37544], [139.34847, 35.37589], [139.34902, 35.37628], [139.34932, 35.37652], [139.35091, 35.37766], [139.35117, 35.37785], [139.35229, 35.37864], [139.35272, 35.37896], [139.35284, 35.37904], [139.35306, 35.37921], [139.3548, 35.38046], [139.35505, 35.38064], [139.35525, 35.38079], [139.35539, 35.38089], [139.3555, 35.38098], [139.356, 35.38134], [139.35615, 35.38145], [139.35624, 35.38152], [139.35742, 35.38237], [139.35772, 35.38258], [139.35935, 35.38376], [139.36037, 35.3845], [139.36145, 35.38525], [139.36151, 35.3853], [139.36171, 35.38542], [139.36194, 35.38556], [139.36203, 35.38562], [139.3623, 35.38579], [139.36362, 35.38661], [139.36462, 35.38718], [139.36506, 35.38739], [139.36553, 35.38763], [139.36611, 35.3879], [139.36667, 35.38818], [139.36808, 35.38882], [139.36927, 35.38937], [139.36979, 35.3896], [139.37024, 35.38981], [139.3714, 35.39034], [139.3718, 35.39053], [139.37397, 35.39145], [139.374, 35.39146], [139.37573, 35.39223], [139.37805, 35.39323], [139.37843, 35.39341], [139.37963, 35.39394], [139.38162, 35.39481], [139.38216, 35.39505], [139.38239, 35.39516], [139.38262, 35.39526], [139.38378, 35.39577], [139.38404, 35.39588], [139.38435, 35.39602], [139.38469, 35.39616], [139.38515, 35.39636], [139.38674, 35.39706], [139.3876, 35.39744], [139.3884, 35.39779], [139.38934, 35.39821], [139.38986, 35.39844], [139.39136, 35.3991], [139.39182, 35.3993], [139.39277, 35.39973], [139.39423, 35.40035], [139.39533, 35.40084], [139.39666, 35.40142], [139.39689, 35.40152], [139.3995, 35.40267], [139.39974, 35.40278], [139.40106, 35.40335], [139.40382, 35.40455], [139.40527, 35.4052], [139.40643, 35.40571], [139.40796, 35.40638], [139.41148, 35.40793], [139.4121, 35.4082], [139.41234, 35.4083], [139.41462, 35.40933], [139.41508, 35.40952], [139.41868, 35.41114], [139.42113, 35.41224], [139.42307, 35.41308], [139.42479, 35.41386], [139.42638, 35.41458], [139.42861, 35.41562], [139.42898, 35.41579], [139.43033, 35.41641], [139.43088, 35.41666], [139.4311, 35.41676], [139.43321, 35.41774], [139.43436, 35.41826], [139.43586, 35.41894], [139.43754, 35.4197], [139.43785, 35.41984], [139.43805, 35.41993], [139.43957, 35.42062], [139.44045, 35.42101], [139.44099, 35.42126], [139.44102, 35.42127], [139.44228, 35.42184], [139.44262, 35.42199], [139.44294, 35.42213], [139.44343, 35.42236], [139.44374, 35.4225], [139.4449, 35.42302], [139.44506, 35.42309], [139.44583, 35.42344], [139.44693, 35.42394], [139.44785, 35.42436], [139.44832, 35.42457], [139.45085, 35.42573], [139.45102, 35.4258], [139.45107, 35.42583], [139.45259, 35.42652], [139.4533, 35.42685], [139.45342, 35.4269], [139.45524, 35.42769], [139.45541, 35.42776], [139.45697, 35.42844], [139.45761, 35.42874], [139.45795, 35.42889], [139.45889, 35.42933], [139.45912, 35.42943], [139.45981, 35.42974], [139.45992, 35.42979], [139.46018, 35.42991], [139.46086, 35.43022], [139.46107, 35.43031], [139.46113, 35.43033], [139.46139, 35.43045], [139.46187, 35.43065], [139.46207, 35.43073], [139.46211, 35.43075], [139.46303, 35.43113], [139.46358, 35.43135], [139.46374, 35.43141], [139.46382, 35.43144], [139.46393, 35.43149], [139.46408, 35.43154], [139.46441, 35.43167], [139.46626, 35.4324], [139.46726, 35.43274], [139.4679, 35.43297], [139.46912, 35.4334], [139.47025, 35.43381], [139.47062, 35.43395], [139.47291, 35.43481], [139.47321, 35.43492], [139.47356, 35.43505], [139.47397, 35.43519], [139.47429, 35.4353], [139.47587, 35.43587], [139.47741, 35.43644], [139.47747, 35.43646], [139.47772, 35.43656], [139.47778, 35.43658], [139.47823, 35.43675], [139.47829, 35.43677], [139.47846, 35.43683], [139.47854, 35.43686], [139.47893, 35.43701], [139.47986, 35.43736], [139.48004, 35.43742], [139.48177, 35.43808], [139.48185, 35.43811], [139.48193, 35.43814], [139.48201, 35.43817], [139.48226, 35.43826], [139.48258, 35.43838], [139.48329, 35.43864], [139.48339, 35.43868], [139.48362, 35.43876], [139.48419, 35.43896], [139.48431, 35.439], [139.48454, 35.43907], [139.48466, 35.43912], [139.4853, 35.43935], [139.48538, 35.43938], [139.48548, 35.43942], [139.48554, 35.43944], [139.48705, 35.44001], [139.48713, 35.44004], [139.4885, 35.44054], [139.48894, 35.44069], [139.48926, 35.44081], [139.49138, 35.44158], [139.49167, 35.44168], [139.49217, 35.44186], [139.49383, 35.44246], [139.49401, 35.44253], [139.49404, 35.44253], [139.49523, 35.44299], [139.49571, 35.44316], [139.49594, 35.44324], [139.4968, 35.4435], [139.49855, 35.44415], [139.50027, 35.44479], [139.50249, 35.44562], [139.5042, 35.44627], [139.50492, 35.44653], [139.50649, 35.44704], [139.50939, 35.4479], [139.50986, 35.44804], [139.51347, 35.4491], [139.51615, 35.44996], [139.51626, 35.44999], [139.51872, 35.45104], [139.52105, 35.45223], [139.52268, 35.45313], [139.52548, 35.45479], [139.52569, 35.45492], [139.52718, 35.4558], [139.52737, 35.45591], [139.53057, 35.45782], [139.53146, 35.45837], [139.53247, 35.45893], [139.53461, 35.46023], [139.53629, 35.46122], [139.53903, 35.46284], [139.5415, 35.46432], [139.54216, 35.46469], [139.54233, 35.4648], [139.54251, 35.46491], [139.54346, 35.46547], [139.54474, 35.46625], [139.54654, 35.4673], [139.54751, 35.46786], [139.54783, 35.46805], [139.54791, 35.46809], [139.5502, 35.46949], [139.55044, 35.46963], [139.55053, 35.46968], [139.55066, 35.46976], [139.55126, 35.47012], [139.55244, 35.47082], [139.5535, 35.47145], [139.55366, 35.47155], [139.55405, 35.47177], [139.55524, 35.47248], [139.55619, 35.47303], [139.55771, 35.47393], [139.5586, 35.47449], [139.56025, 35.47544], [139.5611, 35.47594], [139.56133, 35.47608], [139.56229, 35.47665], [139.5629, 35.477], [139.56368, 35.47743], [139.56386, 35.47753], [139.56473, 35.47796], [139.56532, 35.47828], [139.56582, 35.47853], [139.56651, 35.47885], [139.56687, 35.479], [139.56941, 35.47996], [139.57003, 35.48018], [139.57048, 35.48032], [139.57156, 35.48064], [139.57202, 35.48078], [139.57253, 35.48091], [139.57409, 35.48128], [139.57544, 35.48162], [139.57662, 35.48192], [139.57718, 35.48205], [139.58086, 35.48293], [139.58127, 35.48303], [139.58172, 35.48314], [139.58294, 35.48344], [139.58528, 35.48409], [139.5854, 35.48413], [139.58569, 35.48421], [139.58577, 35.48423], [139.588, 35.485], [139.58914, 35.48547], [139.58987, 35.48578], [139.59002, 35.48585], [139.5907, 35.48617], [139.59083, 35.48624], [139.59111, 35.48638]]}, "properties": {"id": "TRACK_TOKYO_0966", "line_name": "東海道新幹線", "station_group_ids": [], "mode": "shinkansen", "operator_id": "jr_central", "line_color": "#1F78FF", "tags": ["tokyo", "track_centerline"]}}, {"type": "Feature", "bbox": [139.65974, 35.25672, 139.66224, 35.2575], "geometry": {"type": "LineString", "coordinates": [[139.65974, 35.2575], [139.66224, 35.25672]]}, "properties": {"id": "TRACK_TOKYO_2127", "line_name": "横須賀線", "station_group_ids": [], "mode": "rail", "operator_id": "jr_east", "line_color": "#2F4CA0", "tags": ["tokyo", "track_centerline"]}}, {"type": "Feature", "bbox": [139.70046, 35.23215, 139.70134, 35.23421], "geometry": {"type": "LineString", "coordinates": [[139.70134, 35.23215], [139.70108, 35.23284], [139.70046, 35.23421]]}, "properties": {"id": "TRACK_TOKYO_2128", "line_name": "横須賀線", "station_group_ids": [], "mode": "rail", "operator_id": "jr_east", "line_color": "#2F4CA0", "tags": ["tokyo", "track_centerline"]}}, {"type": "Feature", "bbox": [139.65382, 35.28397, 139.65599, 35.28448], "geometry": {"type": "LineString", "coordinates": [[139.65382, 35.28448], [139.65463, 35.28427], [139.65599, 35.28397]]}, "properties": {"id": "TRACK_TOKYO_2129", "line_name": "横須賀線", "station_group_ids": [], "mode": "rail", "operator_id": "jr_east", "line_color": "#2F4CA0", "tags": ["tokyo", "track_centerline"]}}, {"type": "Feature", "bbox": [139.65471, 35.2575, 139.65974, 35.28397], "geometry": {"type": "LineString", "coordinates": [[139.65599, 35.28397], [139.65634, 35.28385], [139.6567, 35.28367], [139.65706, 35.28349], [139.65734, 35.28328], [139.65766, 35.28303], [139.65777, 35.2829], [139.65786, 35.28262], [139.65789, 35.28242], [139.6579, 35.28238], [139.6579, 35.28221], [139.65789, 35.28193], [139.65787, 35.28163], [139.65779, 35.2812], [139.65754, 35.27997], [139.65734, 35.27844], [139.65707, 35.27656], [139.65688, 35.2757], [139.65674, 35.2751], [139.65664, 35.27468], [139.65655, 35.27412], [139.65644, 35.27349], [139.6564, 35.27324], [139.65612, 35.27152], [139.65575, 35.26983], [139.65551, 35.2685], [139.65535, 35.26747], [139.65519, 35.26652], [139.65515, 35.26615], [139.65504, 35.2656], [139.65487, 35.26457], [139.65483, 35.26426], [139.65478, 35.26377], [139.65471, 35.26315], [139.65472, 35.26287], [139.65476, 35.26255], [139.6548, 35.26228], [139.65482, 35.2621], [139.65488, 35.26186], [139.65497, 35.26155], [139.65507, 35.26109], [139.65511, 35.26099], [139.65522, 35.26072], [139.65534, 35.26046], [139.65542, 35.26028], [139.65555, 35.26006], [139.65596, 35.25955], [139.65608, 35.25941], [139.65622, 35.25927], [139.65644, 35.25908], [139.6567, 35.25886], [139.65691, 35.25872], [139.65717, 35.25855], [139.65743, 35.25839], [139.65755, 35.25832], [139.65774, 35.25822], [139.65831, 35.25799], [139.65851, 35.25791], [139.65859, 35.25788], [139.65974, 35.2575]]}, "properties": {"id": "TRACK_TOKYO_2130", "line_name": "横須賀線", "station_group_ids": [], "mode": "rail", "operator_id": "jr_east", "line_color": "#2F4CA0", "tags": ["tokyo", "track_centerline"]}}, {"type": "Feature", "bbox": [139.66224, 35.23421, 139.70046, 35.25672], "geometry": {"type": "LineString", "coordinates": [[139.70046, 35.23421], [139.70004, 35.23489], [139.69987, 35.23515], [139.69965, 35.23541], [139.69905, 35.23597], [139.69855, 35.23644], [139.69757, 35.23733], [139.69704, 35.23784], [139.6966, 35.23823], [139.69618, 35.23861], [139.69589, 35.23886], [139.69558, 35.23911], [139.69528, 35.23932], [139.69457, 35.23977], [139.69433, 35.23992], [139.69362, 35.24033], [139.69259, 35.24089], [139.69215, 35.24113], [139.69132, 35.24161], [139.69103, 35.24178], [139.69039, 35.24214], [139.68945, 35.24267], [139.68903, 35.2429], [139.68832, 35.24332], [139.68776, 35.24366], [139.68668, 35.24445], [139.68619, 35.24481], [139.68573, 35.24518], [139.68528, 35.24555], [139.68493, 35.24584], [139.68446, 35.24623], [139.68341, 35.24706], [139.68248, 35.24782], [139.68187, 35.24831], [139.68093, 35.24909], [139.68028, 35.24961], [139.67931, 35.25038], [139.67888, 35.25074], [139.67839, 35.25114], [139.67815, 35.25134], [139.67786, 35.25153], [139.67755, 35.25173], [139.67676, 35.25221], [139.67636, 35.25243], [139.67579, 35.25265], [139.67472, 35.25298], [139.67419, 35.25315], [139.67369, 35.25329], [139.67333, 35.25343], [139.67252, 35.25368], [139.67132, 35.25402], [139.66984, 35.25443], [139.66875, 35.25475], [139.66849, 35.25483], [139.66808, 35.25495], [139.66551, 35.2557], [139.66506, 35.25582], [139.66351, 35.2563], [139.66224, 35.25672]]}, "properties": {"id": "TRACK_TOKYO_2131", "line_name": "横須賀線", "station_group_ids": [], "mode": "rail", "operator_id": "jr_east", "line_color": "#2F4CA0", "tags": ["tokyo", "track_centerline"]}}, {"type": "Feature", "bbox": [139.60243, 35.29263, 139.63689, 35.29869], "geometry": {"type": "LineString", "coordinates": [[139.60243, 35.29869], [139.60326, 35.29861], [139.60385, 35.29855], [139.6042, 35.2985], [139.6056, 35.29835], [139.60669, 35.29824], [139.60806, 35.29808], [139.609, 35.29797], [139.60941, 35.29793], [139.60973, 35.2979], [139.61088, 35.29775], [139.61124, 35.29769], [139.61145, 35.29766], [139.61164, 35.29761], [139.61205, 35.29753], [139.6128, 35.29734], [139.61352, 35.29714], [139.61415, 35.29694], [139.61474, 35.29673], [139.61536, 35.29646], [139.61627, 35.29597], [139.61676, 35.29568], [139.61743, 35.29527], [139.61874, 35.2945], [139.62, 35.29391], [139.62021, 35.29383], [139.62088, 35.29357], [139.62126, 35.29342], [139.62151, 35.29333], [139.6217, 35.29327], [139.62179, 35.29327], [139.62187, 35.29327], [139.62251, 35.29313], [139.62289, 35.29304], [139.62372, 35.29284], [139.62421, 35.29273], [139.62428, 35.29272], [139.6248, 35.29267], [139.6254, 35.29263], [139.62576, 35.29265], [139.62687, 35.29275], [139.6284, 35.29294], [139.6302, 35.29316], [139.63174, 35.29332], [139.6319, 35.29333], [139.63224, 35.29336], [139.63242, 35.29337], [139.63295, 35.29338], [139.63359, 35.29333], [139.63401, 35.29328], [139.63441, 35.29323], [139.63498, 35.29315], [139.63542, 35.2931], [139.63657, 35.29296], [139.63689, 35.29292]]}, "properties": {"id": "TRACK_TOKYO_2132", "line_name": "横須賀線", "station_group_ids": [], "mode": "rail", "operator_id": "jr_east", "line_color": "#2F4CA0", "tags": ["tokyo", "track_centerline"]}}, {"type": "Feature", "bbox": [139.57965, 35.29759, 139.60121, 35.29973], "geometry": {"type": "LineString", "coordinates": [[139.60121, 35.29884], [139.60048, 35.29891], [139.59988, 35.29897], [139.59958, 35.299], [139.59899, 35.29906], [139.59807, 35.29915], [139.59669, 35.2993], [139.59538, 35.29941], [139.59405, 35.29957], [139.59301, 35.29966], [139.59187, 35.29973], [139.59139, 35.2997], [139.5911, 35.29968], [139.59079, 35.29963], [139.59031, 35.29954], [139.58861, 35.29924], [139.58836, 35.29921], [139.5873, 35.29903], [139.58645, 35.29887], [139.58492, 35.29858], [139.58316, 35.29825], [139.58266, 35.29816], [139.58209, 35.29805], [139.58088, 35.29784], [139.57965, 35.29759]]}, "properties": {"id": "TRACK_TOKYO_2133", "line_name": "横須賀線", "station_group_ids": [], "mode": "rail", "operator_id": "jr_east", "line_color": "#2F4CA0", "tags": ["tokyo", "track_centerline"]}}, {"type": "Feature", "bbox": [139.63816, 35.28448, 139.65382, 35.29276], "geometry": {"type": "LineString", "coordinates": [[139.63816, 35.29276], [139.63863, 35.29269], [139.63893, 35.29266], [139.63947, 35.29259], [139.63973, 35.29254], [139.64004, 35.29246], [139.64024, 35.29241], [139.64037, 35.29238], [139.64051, 35.29235], [139.64071, 35.29229], [139.64086, 35.29223], [139.64115, 35.2921], [139.64157, 35.29191], [139.6419, 35.29176], [139.64355, 35.291], [139.6446, 35.29049], [139.64524, 35.29019], [139.6457, 35.28996], [139.64662, 35.28951], [139.64712, 35.28929], [139.64739, 35.28916], [139.6477, 35.28901], [139.64797, 35.28886], [139.64824, 35.28873], [139.64855, 35.28854], [139.64903, 35.28825], [139.64942, 35.28798], [139.64954, 35.28787], [139.64976, 35.2877], [139.65012, 35.28742], [139.65064, 35.28695], [139.65129, 35.28634], [139.65173, 35.28585], [139.65181, 35.28578], [139.65206, 35.28555], [139.65239, 35.2853], [139.65252, 35.2852], [139.65286, 35.28497], [139.65321, 35.28478], [139.65355, 35.28459], [139.65382, 35.28448]]}, "properties": {"id": "TRACK_TOKYO_2134", "line_name": "横須賀線", "station_group_ids": [], "mode": "rail", "operator_id": "jr_east", "line_color": "#2F4CA0", "tags": ["tokyo", "track_centerline"]}}, {"type": "Feature", "bbox": [139.63689, 35.29276, 139.63816, 35.29292], "geometry": {"type": "LineString", "coordinates": [[139.63816, 35.29276], [139.63689, 35.29292]]}, "properties": {"id": "TRACK_TOKYO_2135", "line_name": "横須賀線", "station_group_ids": [], "mode": "rail", "operator_id": "jr_east", "line_color": "#2F4CA0", "tags": ["tokyo", "track_centerline"]}}, {"type": "Feature", "bbox": [139.60121, 35.29869, 139.60243, 35.29884], "geometry": {"type": "LineString", "coordinates": [[139.60243, 35.29869], [139.60121, 35.29884]]}, "properties": {"id": "TRACK_TOKYO_2136", "line_name": "横須賀線", "station_group_ids": [], "mode": "rail", "operator_id": "jr_east", "line_color": "#2F4CA0", "tags": ["tokyo", "track_centerline"]}}, {"type": "Feature", "bbox": [139.57708, 35.29729, 139.57965, 35.29759], "geometry": {"type": "LineString", "coordinates": [[139.57965, 35.29759], [139.5795, 35.29756], [139.57894, 35.29747], [139.57836, 35.29739], [139.57813, 35.29735], [139.5777, 35.29731], [139.57747, 35.29729], [139.57708, 35.29729]]}, "properties": {"id": "TRACK_TOKYO_2137", "line_name": "横須賀線", "station_group_ids": [], "mode": "rail", "operator_id": "jr_east", "line_color": "#2F4CA0", "tags": ["tokyo", "track_centerline"]}}, {"type": "Feature", "bbox": [139.56007, 35.30636, 139.56764, 35.30998], "geometry": {"type": "LineString", "coordinates": [[139.56007, 35.30998], [139.56064, 35.3098], [139.561, 35.30965], [139.56156, 35.30939], [139.56179, 35.30927], [139.56216, 35.30909], [139.56253, 35.30889], [139.56309, 35.30859], [139.56342, 35.30843], [139.56358, 35.30834], [139.56402, 35.3081], [139.56484, 35.30767], [139.56543, 35.30738], [139.56593, 35.30711], [139.56622, 35.30696], [139.56643, 35.30688], [139.5667, 35.30673], [139.56719, 35.30654], [139.56764, 35.30636]]}, "properties": {"id": "TRACK_TOKYO_2142", "line_name": "横須賀線", "station_group_ids": [], "mode": "rail", "operator_id": "jr_east", "line_color": "#2F4CA0", "tags": ["tokyo", "track_centerline"]}}, {"type": "Feature", "bbox": [139.56764, 35.29729, 139.57708, 35.30636], "geometry": {"type": "LineString", "coordinates": [[139.57708, 35.29729], [139.57693, 35.29729], [139.57661, 35.2973], [139.57621, 35.29733], [139.57561, 35.29743], [139.57515, 35.29753], [139.57483, 35.29761], [139.57455, 35.2977], [139.57436, 35.29778], [139.57407, 35.2979], [139.57382, 35.29803], [139.57356, 35.29817], [139.5733, 35.29834], [139.57291, 35.29864], [139.57286, 35.29869], [139.57252, 35.29894], [139.57214, 35.29926], [139.57195, 35.29942], [139.57174, 35.2997], [139.57148, 35.30005], [139.57133, 35.30029], [139.57116, 35.30058], [139.57095, 35.30096], [139.57082, 35.30123], [139.57054, 35.30198], [139.57034, 35.30248], [139.57011, 35.30306], [139.56995, 35.30348], [139.56976, 35.30394], [139.56964, 35.30425], [139.56951, 35.30452], [139.56929, 35.30492], [139.56901, 35.30527], [139.56881, 35.30549], [139.56857, 35.30569], [139.56831, 35.3059], [139.56813, 35.30602], [139.56786, 35.3062], [139.56764, 35.30636]]}, "properties": {"id": "TRACK_TOKYO_2143", "line_name": "横須賀線", "station_group_ids": [], "mode": "rail", "operator_id": "jr_east", "line_color": "#2F4CA0", "tags": ["tokyo", "track_centerline"]}}, {"type": "Feature", "bbox": [139.56007, 35.30636, 139.56764, 35.30998], "geometry": {"type": "LineString", "coordinates": [[139.56007, 35.30998], [139.56102, 35.30981], [139.56174, 35.30967], [139.56236, 35.30953], [139.56289, 35.30934], [139.56323, 35.30913], [139.56344, 35.309], [139.56359, 35.30889], [139.56386, 35.30872], [139.56431, 35.30844], [139.5647, 35.30819], [139.56474, 35.30816], [139.56553, 35.30764], [139.56602, 35.30736], [139.56621, 35.30725], [139.56669, 35.30695], [139.56739, 35.30653], [139.56764, 35.30636]]}, "properties": {"id": "TRACK_TOKYO_2148", "line_name": "横須賀線", "station_group_ids": [], "mode": "rail", "operator_id": "jr_east", "line_color": "#2F4CA0", "tags": ["tokyo", "track_centerline"]}}, {"type": "Feature", "bbox": [139.59747, 35.37761, 139.62075, 35.38606], "geometry": {"type": "LineString", "coordinates": [[139.62003, 35.38606], [139.62012, 35.38589], [139.62033, 35.38542], [139.62045, 35.38508], [139.62061, 35.38457], [139.6207, 35.38409], [139.62074, 35.38359], [139.62075, 35.38314], [139.62069, 35.38267], [139.62056, 35.3822], [139.62036, 35.38165], [139.62019, 35.38126], [139.62005, 35.38096], [139.61983, 35.38068], [139.61952, 35.38032], [139.61942, 35.38022], [139.61903, 35.37986], [139.6187, 35.37957], [139.61836, 35.37933], [139.61794, 35.37907], [139.61767, 35.37891], [139.61731, 35.37874], [139.61689, 35.37858], [139.61654, 35.37846], [139.61579, 35.37827], [139.61448, 35.378], [139.61371, 35.37786], [139.61318, 35.37777], [139.61268, 35.3777], [139.61192, 35.37763], [139.61165, 35.37763], [139.61112, 35.37761], [139.61072, 35.37764], [139.60984, 35.37779], [139.60969, 35.37782], [139.6095, 35.37786], [139.60881, 35.37802], [139.60853, 35.3781], [139.60816, 35.37818], [139.60779, 35.37827], [139.60748, 35.37834], [139.60738, 35.37837], [139.60632, 35.37865], [139.60559, 35.37885], [139.60427, 35.37922], [139.6037, 35.37936], [139.60243, 35.37949], [139.60148, 35.37961], [139.60093, 35.37964], [139.60048, 35.37959], [139.5997, 35.37953], [139.599, 35.3794], [139.59833, 35.37924], [139.59747, 35.37897]]}, "properties": {"id": "TRACK_TOKYO_2312", "line_name": "根岸線", "station_group_ids": [], "mode": "rail", "operator_id": "jr_east", "line_color": "#00BCD4", "tags": ["tokyo", "track_centerline"]}}, {"type": "Feature", "bbox": [139.61576, 35.38754, 139.61884, 35.39966], "geometry": {"type": "LineString", "coordinates": [[139.61785, 35.39966], [139.61704, 35.39846], [139.61676, 35.39803], [139.61658, 35.39768], [139.61634, 35.39718], [139.61613, 35.39656], [139.61597, 35.39612], [139.61593, 35.39598], [139.61588, 35.39574], [139.61584, 35.39543], [139.61583, 35.3949], [139.61582, 35.39471], [139.6158, 35.39391], [139.61576, 35.39299], [139.61576, 35.39292], [139.61577, 35.39276], [139.61581, 35.39226], [139.61588, 35.39191], [139.61598, 35.39159], [139.61618, 35.39111], [139.6164, 35.39068], [139.61655, 35.39047], [139.61712, 35.38974], [139.61798, 35.38863], [139.61884, 35.38754]]}, "properties": {"id": "TRACK_TOKYO_2314", "line_name": "根岸線", "station_group_ids": [], "mode": "rail", "operator_id": "jr_east", "line_color": "#00BCD4", "tags": ["tokyo", "track_centerline"]}}, {"type": "Feature", "bbox": [139.61909, 35.40149, 139.63494, 35.41557], "geometry": {"type": "LineString", "coordinates": [[139.63494, 35.41557], [139.63454, 35.41549], [139.63398, 35.41529], [139.63341, 35.41505], [139.63139, 35.41403], [139.63112, 35.41389], [139.62985, 35.41324], [139.62747, 35.41206], [139.62623, 35.4114], [139.62577, 35.41109], [139.62536, 35.41064], [139.62368, 35.40835], [139.62289, 35.40721], [139.62179, 35.4056], [139.62111, 35.4046], [139.62091, 35.40429], [139.62022, 35.40323], [139.61909, 35.40149]]}, "properties": {"id": "TRACK_TOKYO_2316", "line_name": "根岸線", "station_group_ids": [], "mode": "rail", "operator_id": "jr_east", "line_color": "#00BCD4", "tags": ["tokyo", "track_centerline"]}}, {"type": "Feature", "bbox": [139.57538, 35.37497, 139.5771, 35.37534], "geometry": {"type": "LineString", "coordinates": [[139.5771, 35.37534], [139.57605, 35.37513], [139.57538, 35.37497]]}, "properties": {"id": "TRACK_TOKYO_2317", "line_name": "根岸線", "station_group_ids": [], "mode": "rail", "operator_id": "jr_east", "line_color": "#00BCD4", "tags": ["tokyo", "track_centerline"]}}, {"type": "Feature", "bbox": [139.5962, 35.37859, 139.59747, 35.37897], "geometry": {"type": "LineString", "coordinates": [[139.59747, 35.37897], [139.59714, 35.37887], [139.5962, 35.37859]]}, "properties": {"id": "TRACK_TOKYO_2318", "line_name": "根岸線", "station_group_ids": [], "mode": "rail", "operator_id": "jr_east", "line_color": "#00BCD4", "tags": ["tokyo", "track_centerline"]}}, {"type": "Feature", "bbox": [139.61884, 35.38606, 139.62003, 35.38754], "geometry": {"type": "LineString", "coordinates": [[139.61884, 35.38754], [139.62003, 35.38606]]}, "properties": {"id": "TRACK_TOKYO_2321", "line_name": "根岸線", "station_group_ids": [], "mode": "rail", "operator_id": "jr_east", "line_color": "#00BCD4", "tags": ["tokyo", "track_centerline"]}}, {"type": "Feature", "bbox": [139.5771, 35.37534, 139.5962, 35.37859], "geometry": {"type": "LineString", "coordinates": [[139.5962, 35.37859], [139.59601, 35.37854], [139.5957, 35.37844], [139.59445, 35.37809], [139.5937, 35.37789], [139.59352, 35.37784], [139.59301, 35.37767], [139.59242, 35.3774], [139.59166, 35.37706], [139.59088, 35.37676], [139.59063, 35.37668], [139.59021, 35.37654], [139.58942, 35.37633], [139.5892, 35.37627], [139.58896, 35.3762], [139.58841, 35.3761], [139.58822, 35.37606], [139.58789, 35.37599], [139.58747, 35.37594], [139.58744, 35.37593], [139.58688, 35.37588], [139.58607, 35.37586], [139.58563, 35.37588], [139.58389, 35.37606], [139.58315, 35.37612], [139.5818, 35.37612], [139.58112, 35.37611], [139.58075, 35.37609], [139.57991, 35.37602], [139.57983, 35.376], [139.57931, 35.37588], [139.57819, 35.37562], [139.5771, 35.37534]]}, "properties": {"id": "TRACK_TOKYO_2324", "line_name": "根岸線", "station_group_ids": [], "mode": "rail", "operator_id": "jr_east", "line_color": "#00BCD4", "tags": ["tokyo", "track_centerline"]}}, {"type": "Feature", "bbox": [139.61785, 35.39966, 139.61909, 35.40149], "geometry": {"type": "LineString", "coordinates": [[139.61909, 35.40149], [139.61785, 35.39966]]}, "properties": {"id": "TRACK_TOKYO_2325", "line_name": "根岸線", "station_group_ids": [], "mode": "rail", "operator_id": "jr_east", "line_color": "#00BCD4", "tags": ["tokyo", "track_centerline"]}}, {"type": "Feature", "bbox": [139.5512, 35.36811, 139.57538, 35.37497], "geometry": {"type": "LineString", "coordinates": [[139.57538, 35.37497], [139.57343, 35.37452], [139.57213, 35.37428], [139.56773, 35.3734], [139.56548, 35.37285], [139.56286, 35.3722], [139.5628, 35.37215], [139.5612, 35.37104], [139.56061, 35.37068], [139.56034, 35.37054], [139.56018, 35.37046], [139.55994, 35.37035], [139.55973, 35.37025], [139.55949, 35.37016], [139.55926, 35.37008], [139.55882, 35.36994], [139.55849, 35.36985], [139.55751, 35.36958], [139.55475, 35.36894], [139.55404, 35.36878], [139.55393, 35.36876], [139.55326, 35.3686], [139.55262, 35.36846], [139.55191, 35.36829], [139.5516, 35.36821], [139.55131, 35.36814], [139.5512, 35.36811]]}, "properties": {"id": "TRACK_TOKYO_2330", "line_name": "根岸線", "station_group_ids": [], "mode": "rail", "operator_id": "jr_east", "line_color": "#00BCD4", "tags": ["tokyo", "track_centerline"]}}, {"type": "Feature", "bbox": [139.53605, 35.41219, 139.57961, 35.44699], "geometry": {"type": "LineString", "coordinates": [[139.53605, 35.41219], [139.53631, 35.4124], [139.53684, 35.41284], [139.53764, 35.41339], [139.53807, 35.41366], [139.53981, 35.41476], [139.54026, 35.415], [139.54331, 35.41662], [139.54736, 35.41875], [139.54953, 35.41994], [139.5508, 35.42055], [139.55186, 35.42116], [139.55199, 35.42123], [139.55262, 35.42162], [139.55309, 35.42193], [139.55369, 35.42246], [139.55407, 35.42283], [139.55441, 35.42323], [139.55485, 35.42384], [139.55507, 35.42425], [139.55531, 35.42482], [139.55621, 35.42668], [139.55665, 35.42762], [139.55684, 35.4284], [139.55686, 35.42859], [139.55687, 35.42874], [139.55688, 35.4289], [139.55688, 35.42926], [139.55689, 35.42942], [139.5569, 35.4302], [139.5569, 35.43039], [139.55689, 35.43049], [139.5569, 35.43158], [139.55708, 35.43256], [139.55741, 35.4335], [139.55786, 35.43431], [139.55821, 35.43477], [139.55943, 35.43612], [139.5598, 35.43659], [139.56012, 35.43693], [139.56128, 35.4382], [139.56187, 35.43878], [139.56211, 35.43901], [139.56242, 35.43921], [139.56587, 35.44101], [139.5693, 35.44266], [139.56987, 35.44295], [139.57451, 35.44528], [139.57557, 35.44582], [139.57668, 35.4464], [139.57746, 35.44673], [139.57852, 35.44695], [139.57961, 35.44699]]}, "properties": {"id": "TRACK_TOKYO_3267", "line_name": "東海道線", "station_group_ids": [], "mode": "rail", "operator_id": "jr_east", "line_color": "#F28E1C", "tags": ["tokyo", "track_centerline"]}}, {"type": "Feature", "bbox": [139.83091, 35.1981, 139.87075, 35.22095], "geometry": {"type": "LineString", "coordinates": [[139.83091, 35.1981], [139.83148, 35.19843], [139.83178, 35.19861], [139.8325, 35.19909], [139.83266, 35.19918], [139.83366, 35.19999], [139.83422, 35.2004], [139.83445, 35.20057], [139.83479, 35.20079], [139.83501, 35.20094], [139.83537, 35.20122], [139.83585, 35.20166], [139.836, 35.20178], [139.83626, 35.20195], [139.83667, 35.20215], [139.83726, 35.20235], [139.83785, 35.20253], [139.83812, 35.20261], [139.83923, 35.20293], [139.84087, 35.20348], [139.84118, 35.20358], [139.84298, 35.20414], [139.84345, 35.20426], [139.8437, 35.20435], [139.84397, 35.20446], [139.84452, 35.2047], [139.84482, 35.20486], [139.84515, 35.20506], [139.84559, 35.20543], [139.84594, 35.20572], [139.84612, 35.20592], [139.84671, 35.20653], [139.84692, 35.20679], [139.84712, 35.20705], [139.8474, 35.2075], [139.84759, 35.20813], [139.84767, 35.20862], [139.84767, 35.20884], [139.84764, 35.20946], [139.84758, 35.21003], [139.84758, 35.21019], [139.84768, 35.21061], [139.84785, 35.21094], [139.84814, 35.21143], [139.84841, 35.21176], [139.8487, 35.21204], [139.8489, 35.2122], [139.84926, 35.21244], [139.8497, 35.21264], [139.85001, 35.21275], [139.85052, 35.21288], [139.8512, 35.21305], [139.85194, 35.21322], [139.85322, 35.21352], [139.85326, 35.21353], [139.85375, 35.21364], [139.8548, 35.21388], [139.85536, 35.21401], [139.85583, 35.21413], [139.85654, 35.21428], [139.85701, 35.21439], [139.85708, 35.21441], [139.85739, 35.21448], [139.85781, 35.21456], [139.85806, 35.21459], [139.85897, 35.21454], [139.85996, 35.21448], [139.86093, 35.21444], [139.86129, 35.21443], [139.86178, 35.21449], [139.86244, 35.21468], [139.86319, 35.21493], [139.86336, 35.21498], [139.86374, 35.21511], [139.86434, 35.21533], [139.86498, 35.21559], [139.86576, 35.21594], [139.86634, 35.21622], [139.86649, 35.2163], [139.86658, 35.21635], [139.86749, 35.21689], [139.86776, 35.21707], [139.86782, 35.21711], [139.86807, 35.21726], [139.86814, 35.2173], [139.86899, 35.21782], [139.86916, 35.21796], [139.86928, 35.21805], [139.8697, 35.2185], [139.87002, 35.21897], [139.87028, 35.21952], [139.87049, 35.22008], [139.87075, 35.22095]]}, "properties": {"id": "TRACK_TOKYO_3767", "line_name": "内房線", "station_group_ids": [], "mode": "rail", "operator_id": "jr_east", "line_color": "#00AFCC", "tags": ["tokyo", "track_centerline"]}}, {"type": "Feature", "bbox": [139.82331, 35.14207, 139.83773, 35.16766], "geometry": {"type": "LineString", "coordinates": [[139.82331, 35.16766], [139.82424, 35.16719], [139.82461, 35.167], [139.82492, 35.16684], [139.82517, 35.16672], [139.82581, 35.16641], [139.82631, 35.16608], [139.8264, 35.16597], [139.82667, 35.16569], [139.82677, 35.16556], [139.82711, 35.16505], [139.82733, 35.16455], [139.82748, 35.1641], [139.8275, 35.16392], [139.82814, 35.16004], [139.82842, 35.15835], [139.82844, 35.15827], [139.82859, 35.15741], [139.82887, 35.15574], [139.82934, 35.15262], [139.82967, 35.1517], [139.82992, 35.15119], [139.83006, 35.15087], [139.83019, 35.15067], [139.8306, 35.15007], [139.8309, 35.14969], [139.83146, 35.14902], [139.83205, 35.14836], [139.83253, 35.14783], [139.83296, 35.14735], [139.83333, 35.147], [139.83398, 35.14636], [139.83528, 35.14504], [139.83609, 35.14421], [139.83662, 35.14362], [139.83675, 35.14344], [139.83773, 35.14207]]}, "properties": {"id": "TRACK_TOKYO_3769", "line_name": "内房線", "station_group_ids": [], "mode": "rail", "operator_id": "jr_east", "line_color": "#00AFCC", "tags": ["tokyo", "track_centerline"]}}, {"type": "Feature", "bbox": [139.85041, 35.29249, 139.85809, 35.33008], "geometry": {"type": "LineString", "coordinates": [[139.85809, 35.33008], [139.85527, 35.32836], [139.85506, 35.32824], [139.85439, 35.32782], [139.85394, 35.32754], [139.85363, 35.32734], [139.8532, 35.32704], [139.85297, 35.32686], [139.85278, 35.32669], [139.85266, 35.32657], [139.85251, 35.32641], [139.85186, 35.32562], [139.85154, 35.32509], [139.85145, 35.32481], [139.8513, 35.32428], [139.85125, 35.324], [139.85116, 35.32337], [139.8511, 35.32286], [139.85089, 35.32067], [139.85084, 35.32014], [139.85062, 35.31767], [139.85058, 35.31732], [139.85047, 35.31616], [139.85043, 35.31593], [139.85041, 35.31549], [139.85041, 35.3151], [139.85046, 35.31467], [139.85051, 35.31438], [139.85067, 35.3135], [139.8511, 35.31137], [139.8512, 35.31087], [139.85159, 35.30891], [139.85164, 35.30872], [139.85173, 35.30829], [139.85203, 35.30679], [139.85208, 35.30652], [139.85248, 35.3046], [139.85292, 35.3026], [139.85303, 35.30209], [139.85319, 35.30127], [139.85326, 35.30095], [139.85335, 35.30052], [139.85352, 35.29974], [139.85371, 35.29877], [139.85382, 35.29824], [139.85426, 35.29657], [139.85437, 35.29617], [139.85481, 35.29456], [139.8549, 35.29424], [139.85538, 35.29249]]}, "properties": {"id": "TRACK_TOKYO_3795", "line_name": "内房線", "station_group_ids": [], "mode": "rail", "operator_id": "jr_east", "line_color": "#00AFCC", "tags": ["tokyo", "track_centerline"]}}, {"type": "Feature", "bbox": [139.82121, 35.16766, 139.82331, 35.16873], "geometry": {"type": "LineString", "coordinates": [[139.82331, 35.16766], [139.82121, 35.16873]]}, "properties": {"id": "TRACK_TOKYO_3798", "line_name": "内房線", "station_group_ids": [], "mode": "rail", "operator_id": "jr_east", "line_color": "#00AFCC", "tags": ["tokyo", "track_centerline"]}}, {"type": "Feature", "bbox": [139.82915, 35.19708, 139.83091, 35.1981], "geometry": {"type": "LineString", "coordinates": [[139.83091, 35.1981], [139.82915, 35.19708]]}, "properties": {"id": "TRACK_TOKYO_3801", "line_name": "内房線", "station_group_ids": [], "mode": "rail", "operator_id": "jr_east", "line_color": "#00AFCC", "tags": ["tokyo", "track_centerline"]}}, {"type": "Feature", "bbox": [139.81856, 35.16873, 139.82915, 35.19708], "geometry": {"type": "LineString", "coordinates": [[139.82121, 35.16873], [139.82088, 35.16888], [139.82053, 35.16909], [139.82033, 35.16925], [139.81983, 35.16972], [139.81969, 35.16998], [139.81948, 35.17067], [139.81936, 35.17119], [139.81924, 35.17163], [139.8192, 35.17194], [139.81921, 35.17226], [139.81938, 35.17321], [139.81941, 35.17345], [139.81945, 35.17374], [139.81944, 35.17417], [139.81938, 35.1745], [139.81908, 35.1753], [139.81903, 35.17541], [139.81868, 35.17616], [139.81864, 35.17634], [139.81861, 35.17657], [139.81859, 35.17688], [139.81856, 35.17728], [139.81857, 35.17758], [139.81863, 35.17779], [139.81881, 35.1782], [139.81922, 35.17908], [139.81933, 35.17933], [139.81938, 35.17953], [139.81945, 35.17974], [139.81947, 35.18022], [139.81953, 35.18084], [139.81945, 35.18146], [139.81931, 35.18199], [139.81927, 35.18211], [139.81922, 35.18226], [139.81885, 35.18311], [139.81881, 35.18337], [139.81888, 35.18413], [139.81897, 35.18469], [139.819, 35.18486], [139.81907, 35.18533], [139.81915, 35.18584], [139.81921, 35.18622], [139.81928, 35.1866], [139.81931, 35.18677], [139.81934, 35.18699], [139.81954, 35.18797], [139.81964, 35.18844], [139.81973, 35.18872], [139.8199, 35.18929], [139.81995, 35.18946], [139.82015, 35.18991], [139.82032, 35.19023], [139.82038, 35.19033], [139.82062, 35.19064], [139.82063, 35.19068], [139.82138, 35.19147], [139.82191, 35.19201], [139.82208, 35.19219], [139.82249, 35.19263], [139.82286, 35.193], [139.82309, 35.19319], [139.82345, 35.19339], [139.82402, 35.19365], [139.82415, 35.19369], [139.82435, 35.19376], [139.82534, 35.19414], [139.82588, 35.19439], [139.82695, 35.19509], [139.82718, 35.19526], [139.82743, 35.19542], [139.82773, 35.19566], [139.82789, 35.19583], [139.82804, 35.19604], [139.82807, 35.19605], [139.82837, 35.19644], [139.82864, 35.19673], [139.82879, 35.19685], [139.82893, 35.19694], [139.82898, 35.19698], [139.82915, 35.19708]]}, "properties": {"id": "TRACK_TOKYO_3805", "line_name": "内房線", "station_group_ids": [], "mode": "rail", "operator_id": "jr_east", "line_color": "#00AFCC", "tags": ["tokyo", "track_centerline"]}}]}