{"type": "FeatureCollection", "features": [{"type": "Feature", "bbox": [139.83801, 35.03, 139.85077, 35.0453], "geometry": {"type": "LineString", "coordinates": [[139.83801, 35.0453], [139.83844, 35.04369], [139.83872, 35.04257], [139.83877, 35.04242], [139.83887, 35.0422], [139.83901, 35.04192], [139.8392, 35.04158], [139.83939, 35.04131], [139.8396, 35.04106], [139.83991, 35.04072], [139.8402, 35.04048], [139.84149, 35.03943], [139.84216, 35.0389], [139.84334, 35.03797], [139.8443, 35.0372], [139.84558, 35.03618], [139.84603, 35.03583], [139.84655, 35.03541], [139.84702, 35.03504], [139.84718, 35.0349], [139.84746, 35.03464], [139.84762, 35.03449], [139.84806, 35.034], [139.84838, 35.03361], [139.84857, 35.03332], [139.84877, 35.03304], [139.84877, 35.03303], [139.84896, 35.03273], [139.84925, 35.03229], [139.84955, 35.03185], [139.84962, 35.03174], [139.84991, 35.03129], [139.85026, 35.03077], [139.85077, 35.03]]}, "properties": {"id": "TRACK_TOKYO_3765", "line_name": "内房線", "station_group_ids": [], "mode": "rail", "operator_id": "jr_east", "line_color": "#00AFCC", "tags": ["tokyo", "track_centerline"]}}, {"type": "Feature", "bbox": [139.82331, 35.14207, 139.83773, 35.16766], "geometry": {"type": "LineString", "coordinates": [[139.82331, 35.16766], [139.82424, 35.16719], [139.82461, 35.167], [139.82492, 35.16684], [139.82517, 35.16672], [139.82581, 35.16641], [139.82631, 35.16608], [139.8264, 35.16597], [139.82667, 35.16569], [139.82677, 35.16556], [139.82711, 35.16505], [139.82733, 35.16455], [139.82748, 35.1641], [139.8275, 35.16392], [139.82814, 35.16004], [139.82842, 35.15835], [139.82844, 35.15827], [139.82859, 35.15741], [139.82887, 35.15574], [139.82934, 35.15262], [139.82967, 35.1517], [139.82992, 35.15119], [139.83006, 35.15087], [139.83019, 35.15067], [139.8306, 35.15007], [139.8309, 35.14969], [139.83146, 35.14902], [139.83205, 35.14836], [139.83253, 35.14783], [139.83296, 35.14735], [139.83333, 35.147], [139.83398, 35.14636], [139.83528, 35.14504], [139.83609, 35.14421], [139.83662, 35.14362], [139.83675, 35.14344], [139.83773, 35.14207]]}, "properties": {"id": "TRACK_TOKYO_3769", "line_name": "内房線", "station_group_ids": [], "mode": "rail", "operator_id": "jr_east", "line_color": "#00AFCC", "tags": ["tokyo", "track_centerline"]}}, {"type": "Feature", "bbox": [139.84974, 35.09214, 139.85, 35.09396], "geometry": {"type": "LineString", "coordinates": [[139.85, 35.09214], [139.84974, 35.09396]]}, "properties": {"id": "TRACK_TOKYO_3770", "line_name": "内房線", "station_group_ids": [], "mode": "rail", "operator_id": "jr_east", "line_color": "#00AFCC", "tags": ["tokyo", "track_centerline"]}}, {"type": "Feature", "bbox": [139.83773, 35.14086, 139.83859, 35.14207], "geometry": {"type": "LineString", "coordinates": [[139.83859, 35.14086], [139.83773, 35.14207]]}, "properties": {"id": "TRACK_TOKYO_3777", "line_name": "内房線", "station_group_ids": [], "mode": "rail", "operator_id": "jr_east", "line_color": "#00AFCC", "tags": ["tokyo", "track_centerline"]}}, {"type": "Feature", "bbox": [139.8375, 35.0453, 139.83801, 35.04716], "geometry": {"type": "LineString", "coordinates": [[139.8375, 35.04716], [139.83801, 35.0453]]}, "properties": {"id": "TRACK_TOKYO_3791", "line_name": "内房線", "station_group_ids": [], "mode": "rail", "operator_id": "jr_east", "line_color": "#00AFCC", "tags": ["tokyo", "track_centerline"]}}, {"type": "Feature", "bbox": [139.83308, 35.11322, 139.83374, 35.11491], "geometry": {"type": "LineString", "coordinates": [[139.83374, 35.11322], [139.83308, 35.11491]]}, "properties": {"id": "TRACK_TOKYO_3793", "line_name": "内房線", "station_group_ids": [], "mode": "rail", "operator_id": "jr_east", "line_color": "#00AFCC", "tags": ["tokyo", "track_centerline"]}}, {"type": "Feature", "bbox": [139.83071, 35.04716, 139.85051, 35.09214], "geometry": {"type": "LineString", "coordinates": [[139.8375, 35.04716], [139.83738, 35.04762], [139.83729, 35.04794], [139.83715, 35.04843], [139.83709, 35.04865], [139.83699, 35.04906], [139.83668, 35.05021], [139.83644, 35.05113], [139.83637, 35.0514], [139.83631, 35.05163], [139.83624, 35.05178], [139.83611, 35.052], [139.83603, 35.05214], [139.83598, 35.05222], [139.83592, 35.05232], [139.83585, 35.05242], [139.83578, 35.05251], [139.83567, 35.05265], [139.8356, 35.05274], [139.83542, 35.05292], [139.83485, 35.05345], [139.83465, 35.05364], [139.83428, 35.05401], [139.83408, 35.05423], [139.83387, 35.05444], [139.83349, 35.05488], [139.83322, 35.05525], [139.83282, 35.05588], [139.83255, 35.05632], [139.83248, 35.05645], [139.83222, 35.05687], [139.83194, 35.05733], [139.83165, 35.05782], [139.83119, 35.05868], [139.83112, 35.05883], [139.83103, 35.05898], [139.83086, 35.05936], [139.83078, 35.05962], [139.83075, 35.05984], [139.83073, 35.06005], [139.83071, 35.06043], [139.83073, 35.06077], [139.83074, 35.06113], [139.83081, 35.06148], [139.83087, 35.06174], [139.83094, 35.06194], [139.83102, 35.06223], [139.83123, 35.06268], [139.83128, 35.06277], [139.83145, 35.0631], [139.83201, 35.06401], [139.83223, 35.06436], [139.83239, 35.06465], [139.83254, 35.06492], [139.83265, 35.06513], [139.83271, 35.06526], [139.83276, 35.06539], [139.83282, 35.0656], [139.83285, 35.06572], [139.83287, 35.06587], [139.83288, 35.06603], [139.83288, 35.06637], [139.83288, 35.06696], [139.83289, 35.0673], [139.83293, 35.06757], [139.83298, 35.06777], [139.83304, 35.06793], [139.83313, 35.06817], [139.8333, 35.06849], [139.8336, 35.06904], [139.83398, 35.06975], [139.83444, 35.07057], [139.83575, 35.07299], [139.83638, 35.07412], [139.83683, 35.07495], [139.83702, 35.07528], [139.83741, 35.07582], [139.8375, 35.07592], [139.83771, 35.07616], [139.83801, 35.07649], [139.83871, 35.07723], [139.83909, 35.07763], [139.83942, 35.07797], [139.84003, 35.07857], [139.84011, 35.07865], [139.84079, 35.07935], [139.84161, 35.08017], [139.84177, 35.08034], [139.84191, 35.08048], [139.84228, 35.08081], [139.84246, 35.08096], [139.8427, 35.08114], [139.84287, 35.08125], [139.8431, 35.08141], [139.84331, 35.08153], [139.8439, 35.08184], [139.84412, 35.08195], [139.84557, 35.08262], [139.84682, 35.08322], [139.84725, 35.08343], [139.8477, 35.08369], [139.84809, 35.08394], [139.84841, 35.08417], [139.8486, 35.08433], [139.84886, 35.08456], [139.8492, 35.08489], [139.84966, 35.08542], [139.84991, 35.08581], [139.85006, 35.08605], [139.85029, 35.08665], [139.85035, 35.08672], [139.85047, 35.08709], [139.85051, 35.08742], [139.85051, 35.08777], [139.85048, 35.08806], [139.85042, 35.08869], [139.85016, 35.09097], [139.85, 35.09214]]}, "properties": {"id": "TRACK_TOKYO_3797", "line_name": "内房線", "station_group_ids": [], "mode": "rail", "operator_id": "jr_east", "line_color": "#00AFCC", "tags": ["tokyo", "track_centerline"]}}, {"type": "Feature", "bbox": [139.83233, 35.11491, 139.84028, 35.14086], "geometry": {"type": "LineString", "coordinates": [[139.83859, 35.14086], [139.83981, 35.1391], [139.83995, 35.13885], [139.84007, 35.13857], [139.84021, 35.13824], [139.84026, 35.138], [139.84028, 35.13773], [139.84024, 35.13736], [139.84018, 35.13699], [139.84009, 35.13648], [139.83994, 35.13568], [139.83965, 35.13416], [139.83951, 35.13343], [139.83948, 35.13322], [139.83949, 35.13301], [139.83958, 35.13268], [139.83976, 35.13224], [139.83983, 35.13201], [139.83997, 35.13126], [139.84002, 35.13083], [139.84008, 35.13007], [139.84007, 35.12978], [139.84003, 35.12959], [139.83992, 35.12932], [139.83977, 35.12906], [139.83955, 35.12873], [139.83902, 35.12799], [139.83898, 35.12792], [139.83815, 35.12675], [139.83784, 35.12638], [139.83744, 35.12585], [139.83729, 35.12562], [139.83714, 35.12534], [139.8368, 35.12457], [139.83589, 35.12282], [139.8357, 35.12256], [139.83529, 35.12203], [139.83492, 35.12154], [139.83486, 35.12146], [139.8343, 35.12081], [139.83381, 35.12016], [139.83327, 35.11946], [139.83275, 35.1187], [139.83256, 35.11839], [139.83246, 35.11818], [139.83238, 35.11793], [139.83233, 35.11767], [139.83233, 35.11732], [139.83239, 35.117], [139.8327, 35.11601], [139.83308, 35.11491]]}, "properties": {"id": "TRACK_TOKYO_3800", "line_name": "内房線", "station_group_ids": [], "mode": "rail", "operator_id": "jr_east", "line_color": "#00AFCC", "tags": ["tokyo", "track_centerline"]}}, {"type": "Feature", "bbox": [139.85077, 35.02808, 139.85203, 35.03], "geometry": {"type": "LineString", "coordinates": [[139.85077, 35.03], [139.85203, 35.02808]]}, "properties": {"id": "TRACK_TOKYO_3807", "line_name": "内房線", "station_group_ids": [], "mode": "rail", "operator_id": "jr_east", "line_color": "#00AFCC", "tags": ["tokyo", "track_centerline"]}}, {"type": "Feature", "bbox": [139.83374, 35.09396, 139.84974, 35.11322], "geometry": {"type": "LineString", "coordinates": [[139.83374, 35.11322], [139.83415, 35.11209], [139.83418, 35.11202], [139.83427, 35.1118], [139.83434, 35.11161], [139.83465, 35.11087], [139.83471, 35.11076], [139.83483, 35.11056], [139.83519, 35.11019], [139.83531, 35.11009], [139.83622, 35.10941], [139.83836, 35.10793], [139.84083, 35.1062], [139.84166, 35.10563], [139.84339, 35.10442], [139.84633, 35.10234], [139.84732, 35.1016], [139.84759, 35.10134], [139.8479, 35.10104], [139.84842, 35.10052], [139.84881, 35.09981], [139.84898, 35.09932], [139.84929, 35.0973], [139.84942, 35.09642], [139.84955, 35.09544], [139.84958, 35.09519], [139.84974, 35.09396]]}, "properties": {"id": "TRACK_TOKYO_3811", "line_name": "内房線", "station_group_ids": [], "mode": "rail", "operator_id": "jr_east", "line_color": "#00AFCC", "tags": ["tokyo", "track_centerline"]}}]}