{"type": "FeatureCollection", "features": [{"type": "Feature", "bbox": [136.881105, 35.170514999999995, 136.881105, 35.170514999999995], "geometry": {"type": "Point", "coordinates": [136.881105, 35.170514999999995]}, "properties": {"id": "PS_68D6A2FB58ED", "station_group_id": "SG_FC499C231944", "name_en": "名古屋", "name_ja": "名古屋", "label_rank": 92, "tags": ["tokyo", "v3"]}}, {"type": "Feature", "bbox": [136.88173999999998, 35.171260000000004, 136.88173999999998, 35.171260000000004], "geometry": {"type": "Point", "coordinates": [136.88173999999998, 35.171260000000004]}, "properties": {"id": "PS_59E5FC2616DE", "station_group_id": "SG_FC499C231944", "name_en": "名古屋", "name_ja": "名古屋", "label_rank": 92, "tags": ["tokyo", "v3"]}}, {"type": "Feature", "bbox": [136.88137949999998, 35.171017, 136.88137949999998, 35.171017], "geometry": {"type": "Point", "coordinates": [136.88137949999998, 35.171017]}, "properties": {"id": "PS_787953F5664D", "station_group_id": "SG_FC499C231944", "name_en": "名古屋", "name_ja": "名古屋", "label_rank": 92, "tags": ["tokyo", "v3"]}}, {"type": "Feature", "bbox": [136.882195, 35.171310000000005, 136.882195, 35.171310000000005], "geometry": {"type": "Point", "coordinates": [136.882195, 35.171310000000005]}, "properties": {"id": "PS_9D349856F2A8", "station_group_id": "SG_FC499C231944", "name_en": "名古屋", "name_ja": "名古屋", "label_rank": 92, "tags": ["tokyo", "v3"]}}, {"type": "Feature", "bbox": [136.530955, 35.369585, 136.530955, 35.369585], "geometry": {"type": "Point", "coordinates": [136.530955, 35.369585]}, "properties": {"id": "PS_F3FE4DB509D5", "station_group_id": "SG_CE627C82C923", "name_en": "垂井", "name_ja": "垂井", "label_rank": 72, "tags": ["tokyo", "v3"]}}, {"type": "Feature", "bbox": [136.618265, 35.367104999999995, 136.618265, 35.367104999999995], "geometry": {"type": "Point", "coordinates": [136.618265, 35.367104999999995]}, "properties": {"id": "PS_BCCEB5BB2A8B", "station_group_id": "SG_3F823ED7169E", "name_en": "大垣", "name_ja": "大垣", "label_rank": 72, "tags": ["tokyo", "v3"]}}, {"type": "Feature", "bbox": [136.79737999999998, 35.302, 136.79737999999998, 35.302], "geometry": {"type": "Point", "coordinates": [136.79737999999998, 35.302]}, "properties": {"id": "PS_09EBAA190617", "station_group_id": "SG_B5FFCE266E59", "name_en": "尾張一宮", "name_ja": "尾張一宮", "label_rank": 72, "tags": ["tokyo", "v3"]}}, {"type": "Feature", "bbox": [136.756525, 35.409535, 136.756525, 35.409535], "geometry": {"type": "Point", "coordinates": [136.756525, 35.409535]}, "properties": {"id": "PS_65A57B1C1A3F", "station_group_id": "SG_F71F9C2C93C3", "name_en": "岐阜", "name_ja": "岐阜", "label_rank": 72, "tags": ["tokyo", "v3"]}}, {"type": "Feature", "bbox": [136.685755, 35.315740000000005, 136.685755, 35.315740000000005], "geometry": {"type": "Point", "coordinates": [136.685755, 35.315740000000005]}, "properties": {"id": "PS_D81791D5B7E7", "station_group_id": "SG_97FDC8E1993A", "name_en": "岐阜羽島", "name_ja": "岐阜羽島", "label_rank": 72, "tags": ["tokyo", "v3"]}}, {"type": "Feature", "bbox": [136.78113000000002, 35.348065000000005, 136.78113000000002, 35.348065000000005], "geometry": {"type": "Point", "coordinates": [136.78113000000002, 35.348065000000005]}, "properties": {"id": "PS_4BC627391D69", "station_group_id": "SG_D581BCD12F50", "name_en": "木曽川", "name_ja": "木曽川", "label_rank": 72, "tags": ["tokyo", "v3"]}}, {"type": "Feature", "bbox": [136.86133, 35.199635, 136.86133, 35.199635], "geometry": {"type": "Point", "coordinates": [136.86133, 35.199635]}, "properties": {"id": "PS_C0CE0A9307A9", "station_group_id": "SG_2B1EFC478E88", "name_en": "枇杷島", "name_ja": "枇杷島", "label_rank": 72, "tags": ["tokyo", "v3"]}}, {"type": "Feature", "bbox": [136.40232500000002, 35.344595, 136.40232500000002, 35.344595], "geometry": {"type": "Point", "coordinates": [136.40232500000002, 35.344595]}, "properties": {"id": "PS_A4D8E534BBA7", "station_group_id": "SG_273B8C3C9221", "name_en": "柏原", "name_ja": "柏原", "label_rank": 72, "tags": ["tokyo", "v3"]}}, {"type": "Feature", "bbox": [136.83455, 35.22544, 136.83455, 35.22544], "geometry": {"type": "Point", "coordinates": [136.83455, 35.22544]}, "properties": {"id": "PS_D659153A1D87", "station_group_id": "SG_48D5FF41F0A5", "name_en": "清洲", "name_ja": "清洲", "label_rank": 72, "tags": ["tokyo", "v3"]}}, {"type": "Feature", "bbox": [136.2233831229724, 36.061648599641074, 136.2233831229724, 36.061648599641074], "geometry": {"type": "Point", "coordinates": [136.2233831229724, 36.061648599641074]}, "properties": {"id": "PS_5C03644C534F", "station_group_id": "SG_55D9C55A7223", "name_en": "福井", "name_ja": "福井", "label_rank": 72, "tags": ["tokyo", "v3"]}}, {"type": "Feature", "bbox": [136.82096, 35.253035, 136.82096, 35.253035], "geometry": {"type": "Point", "coordinates": [136.82096, 35.253035]}, "properties": {"id": "PS_C22F1F3588CC", "station_group_id": "SG_FB975F8EC166", "name_en": "稲沢", "name_ja": "稲沢", "label_rank": 72, "tags": ["tokyo", "v3"]}}, {"type": "Feature", "bbox": [136.693635, 35.396265, 136.693635, 35.396265], "geometry": {"type": "Point", "coordinates": [136.693635, 35.396265]}, "properties": {"id": "PS_7DC9A38A0D2A", "station_group_id": "SG_6F14F8DDB436", "name_en": "穂積", "name_ja": "穂積", "label_rank": 72, "tags": ["tokyo", "v3"]}}, {"type": "Feature", "bbox": [136.28947, 35.314989999999995, 136.28947, 35.314989999999995], "geometry": {"type": "Point", "coordinates": [136.28947, 35.314989999999995]}, "properties": {"id": "PS_F288D050E915", "station_group_id": "SG_DB75301C6C2A", "name_en": "米原", "name_ja": "米原", "label_rank": 72, "tags": ["tokyo", "v3"]}}, {"type": "Feature", "bbox": [136.2902235, 35.3148405, 136.2902235, 35.3148405], "geometry": {"type": "Point", "coordinates": [136.2902235, 35.3148405]}, "properties": {"id": "PS_59231218530F", "station_group_id": "SG_DB75301C6C2A", "name_en": "米原", "name_ja": "米原", "label_rank": 72, "tags": ["tokyo", "v3"]}}, {"type": "Feature", "bbox": [136.28950500000002, 35.313869999999994, 136.28950500000002, 35.313869999999994], "geometry": {"type": "Point", "coordinates": [136.28950500000002, 35.313869999999994]}, "properties": {"id": "PS_7B677BDBC827", "station_group_id": "SG_DB75301C6C2A", "name_en": "米原", "name_ja": "米原", "label_rank": 72, "tags": ["tokyo", "v3"]}}, {"type": "Feature", "bbox": [136.582195, 35.386605, 136.582195, 35.386605], "geometry": {"type": "Point", "coordinates": [136.582195, 35.386605]}, "properties": {"id": "PS_2F6DB75F4981", "station_group_id": "SG_2E001FD4ED8B", "name_en": "美濃赤坂", "name_ja": "美濃赤坂", "label_rank": 72, "tags": ["tokyo", "v3"]}}, {"type": "Feature", "bbox": [136.58337, 35.37346, 136.58337, 35.37346], "geometry": {"type": "Point", "coordinates": [136.58337, 35.37346]}, "properties": {"id": "PS_1903BBC6700A", "station_group_id": "SG_734744E7EEEF", "name_en": "荒尾", "name_ja": "荒尾", "label_rank": 72, "tags": ["tokyo", "v3"]}}, {"type": "Feature", "bbox": [136.72325999999998, 35.404525, 136.72325999999998, 35.404525], "geometry": {"type": "Point", "coordinates": [136.72325999999998, 35.404525]}, "properties": {"id": "PS_8854EE7BB72D", "station_group_id": "SG_4B51F844D16D", "name_en": "西岐阜", "name_ja": "西岐阜", "label_rank": 72, "tags": ["tokyo", "v3"]}}, {"type": "Feature", "bbox": [136.19891480177415, 35.895667999680825, 136.19891480177415, 35.895667999680825], "geometry": {"type": "Point", "coordinates": [136.19891480177415, 35.895667999680825]}, "properties": {"id": "PS_C60CABC966ED", "station_group_id": "SG_756586A1EB2D", "name_en": "越前たけふ", "name_ja": "越前たけふ", "label_rank": 72, "tags": ["tokyo", "v3"]}}, {"type": "Feature", "bbox": [136.373985, 35.359030000000004, 136.373985, 35.359030000000004], "geometry": {"type": "Point", "coordinates": [136.373985, 35.359030000000004]}, "properties": {"id": "PS_58D5391A3EF2", "station_group_id": "SG_EB47685AFF93", "name_en": "近江長岡", "name_ja": "近江長岡", "label_rank": 72, "tags": ["tokyo", "v3"]}}, {"type": "Feature", "bbox": [136.34519, 35.327705, 136.34519, 35.327705], "geometry": {"type": "Point", "coordinates": [136.34519, 35.327705]}, "properties": {"id": "PS_9F4EE572E326", "station_group_id": "SG_03D25D8817A5", "name_en": "醒ヶ井", "name_ja": "醒ヶ井", "label_rank": 72, "tags": ["tokyo", "v3"]}}, {"type": "Feature", "bbox": [136.47052000000002, 35.363755, 136.47052000000002, 35.363755], "geometry": {"type": "Point", "coordinates": [136.47052000000002, 35.363755]}, "properties": {"id": "PS_D31549430045", "station_group_id": "SG_0F15F093C131", "name_en": "関ヶ原", "name_ja": "関ヶ原", "label_rank": 72, "tags": ["tokyo", "v3"]}}]}