{"type": "FeatureCollection", "features": [{"type": "Feature", "bbox": [137.17669, 34.836330000000004, 137.17669, 34.836330000000004], "geometry": {"type": "Point", "coordinates": [137.17669, 34.836330000000004]}, "properties": {"id": "PS_DDEE9938A239", "station_group_id": "SG_20F1F3C8AA60", "name_en": "三ヶ根", "name_ja": "三ヶ根", "label_rank": 72, "tags": ["tokyo", "v3"]}}, {"type": "Feature", "bbox": [137.248035, 34.81852, 137.248035, 34.81852], "geometry": {"type": "Point", "coordinates": [137.248035, 34.81852]}, "properties": {"id": "PS_AE8C3C4946AD", "station_group_id": "SG_D208101EFB01", "name_en": "三河三谷", "name_ja": "三河三谷", "label_rank": 72, "tags": ["tokyo", "v3"]}}, {"type": "Feature", "bbox": [137.201475, 34.825419999999994, 137.201475, 34.825419999999994], "geometry": {"type": "Point", "coordinates": [137.201475, 34.825419999999994]}, "properties": {"id": "PS_650689414D08", "station_group_id": "SG_A341F1E4EA73", "name_en": "三河塩津", "name_ja": "三河塩津", "label_rank": 72, "tags": ["tokyo", "v3"]}}, {"type": "Feature", "bbox": [137.060295, 34.969035, 137.060295, 34.969035], "geometry": {"type": "Point", "coordinates": [137.060295, 34.969035]}, "properties": {"id": "PS_06662300981C", "station_group_id": "SG_3A7B6E60EEA4", "name_en": "三河安城", "name_ja": "三河安城", "label_rank": 72, "tags": ["tokyo", "v3"]}}, {"type": "Feature", "bbox": [137.06142, 34.970290000000006, 137.06142, 34.970290000000006], "geometry": {"type": "Point", "coordinates": [137.06142, 34.970290000000006]}, "properties": {"id": "PS_9A435377F438", "station_group_id": "SG_3A7B6E60EEA4", "name_en": "三河安城", "name_ja": "三河安城", "label_rank": 72, "tags": ["tokyo", "v3"]}}, {"type": "Feature", "bbox": [136.95458, 35.035365, 136.95458, 35.035365], "geometry": {"type": "Point", "coordinates": [136.95458, 35.035365]}, "properties": {"id": "PS_90B848421670", "station_group_id": "SG_6250F659C14E", "name_en": "共和", "name_ja": "共和", "label_rank": 72, "tags": ["tokyo", "v3"]}}, {"type": "Feature", "bbox": [137.00970999999998, 34.990804999999995, 137.00970999999998, 34.990804999999995], "geometry": {"type": "Point", "coordinates": [137.00970999999998, 34.990804999999995]}, "properties": {"id": "PS_31C296BE06A1", "station_group_id": "SG_8DEC8D19068C", "name_en": "刈谷", "name_ja": "刈谷", "label_rank": 72, "tags": ["tokyo", "v3"]}}, {"type": "Feature", "bbox": [136.94871, 35.054457, 136.94871, 35.054457], "geometry": {"type": "Point", "coordinates": [136.94871, 35.054457]}, "properties": {"id": "PS_0E0C5EDD5DB8", "station_group_id": "SG_DB715F934509", "name_en": "南大高", "name_ja": "南大高", "label_rank": 72, "tags": ["tokyo", "v3"]}}, {"type": "Feature", "bbox": [136.961805, 35.008695, 136.961805, 35.008695], "geometry": {"type": "Point", "coordinates": [136.961805, 35.008695]}, "properties": {"id": "PS_84BC99093A95", "station_group_id": "SG_2F6912562DA6", "name_en": "大府", "name_ja": "大府", "label_rank": 72, "tags": ["tokyo", "v3"]}}, {"type": "Feature", "bbox": [136.94028, 35.0691, 136.94028, 35.0691], "geometry": {"type": "Point", "coordinates": [136.94028, 35.0691]}, "properties": {"id": "PS_7DDA0C767E25", "station_group_id": "SG_B5C8F311E1CF", "name_en": "大高", "name_ja": "大高", "label_rank": 72, "tags": ["tokyo", "v3"]}}, {"type": "Feature", "bbox": [137.086345, 34.960465, 137.086345, 34.960465], "geometry": {"type": "Point", "coordinates": [137.086345, 34.960465]}, "properties": {"id": "PS_9496C05C615E", "station_group_id": "SG_033D6172D13C", "name_en": "安城", "name_ja": "安城", "label_rank": 72, "tags": ["tokyo", "v3"]}}, {"type": "Feature", "bbox": [136.89103, 35.147085000000004, 136.89103, 35.147085000000004], "geometry": {"type": "Point", "coordinates": [136.89103, 35.147085000000004]}, "properties": {"id": "PS_E56DA6EED51A", "station_group_id": "SG_3A1333044831", "name_en": "尾頭橋", "name_ja": "尾頭橋", "label_rank": 72, "tags": ["tokyo", "v3"]}}, {"type": "Feature", "bbox": [137.15726999999998, 34.925345, 137.15726999999998, 34.925345], "geometry": {"type": "Point", "coordinates": [137.15726999999998, 34.925345]}, "properties": {"id": "PS_2240D4119302", "station_group_id": "SG_49D823DB7F0F", "name_en": "岡崎", "name_ja": "岡崎", "label_rank": 72, "tags": ["tokyo", "v3"]}}, {"type": "Feature", "bbox": [137.164455, 34.859665, 137.164455, 34.859665], "geometry": {"type": "Point", "coordinates": [137.164455, 34.859665]}, "properties": {"id": "PS_23AD8B86E724", "station_group_id": "SG_49537707F2EF", "name_en": "幸田", "name_ja": "幸田", "label_rank": 72, "tags": ["tokyo", "v3"]}}, {"type": "Feature", "bbox": [137.043635, 34.977355, 137.043635, 34.977355], "geometry": {"type": "Point", "coordinates": [137.043635, 34.977355]}, "properties": {"id": "PS_FDA644541B03", "station_group_id": "SG_6420D1B62D86", "name_en": "東刈谷", "name_ja": "東刈谷", "label_rank": 72, "tags": ["tokyo", "v3"]}}, {"type": "Feature", "bbox": [136.91063, 35.129909999999995, 136.91063, 35.129909999999995], "geometry": {"type": "Point", "coordinates": [136.91063, 35.129909999999995]}, "properties": {"id": "PS_0BDC01404653", "station_group_id": "SG_E3ACF78D07A2", "name_en": "熱田", "name_ja": "熱田", "label_rank": 72, "tags": ["tokyo", "v3"]}}, {"type": "Feature", "bbox": [137.160271, 34.8880425, 137.160271, 34.8880425], "geometry": {"type": "Point", "coordinates": [137.160271, 34.8880425]}, "properties": {"id": "PS_AF11EB1B997F", "station_group_id": "SG_0F10501A60FC", "name_en": "相見", "name_ja": "相見", "label_rank": 72, "tags": ["tokyo", "v3"]}}, {"type": "Feature", "bbox": [136.92634500000003, 35.095105000000004, 136.92634500000003, 35.095105000000004], "geometry": {"type": "Point", "coordinates": [136.92634500000003, 35.095105000000004]}, "properties": {"id": "PS_D981A9BB8FDF", "station_group_id": "SG_F752E5A458BC", "name_en": "笠寺", "name_ja": "笠寺", "label_rank": 72, "tags": ["tokyo", "v3"]}}, {"type": "Feature", "bbox": [137.227385, 34.822745, 137.227385, 34.822745], "geometry": {"type": "Point", "coordinates": [137.227385, 34.822745]}, "properties": {"id": "PS_E6E8BEE70FC0", "station_group_id": "SG_37AE77E0D748", "name_en": "蒲郡", "name_ja": "蒲郡", "label_rank": 72, "tags": ["tokyo", "v3"]}}, {"type": "Feature", "bbox": [137.123155, 34.946619999999996, 137.123155, 34.946619999999996], "geometry": {"type": "Point", "coordinates": [137.123155, 34.946619999999996]}, "properties": {"id": "PS_72334F1CC75A", "station_group_id": "SG_1090FAF87C66", "name_en": "西岡崎", "name_ja": "西岡崎", "label_rank": 72, "tags": ["tokyo", "v3"]}}, {"type": "Feature", "bbox": [136.99054, 34.998235, 136.99054, 34.998235], "geometry": {"type": "Point", "coordinates": [136.99054, 34.998235]}, "properties": {"id": "PS_F04A1296F152", "station_group_id": "SG_992315E0E154", "name_en": "逢妻", "name_ja": "逢妻", "label_rank": 72, "tags": ["tokyo", "v3"]}}, {"type": "Feature", "bbox": [137.02816, 34.983504999999994, 137.02816, 34.983504999999994], "geometry": {"type": "Point", "coordinates": [137.02816, 34.983504999999994]}, "properties": {"id": "PS_21B2E771F967", "station_group_id": "SG_E156DB396AAC", "name_en": "野田新町", "name_ja": "野田新町", "label_rank": 72, "tags": ["tokyo", "v3"]}}, {"type": "Feature", "bbox": [136.900735, 35.142835, 136.900735, 35.142835], "geometry": {"type": "Point", "coordinates": [136.900735, 35.142835]}, "properties": {"id": "PS_5E8A34C19D16", "station_group_id": "SG_02EDC379E702", "name_en": "金山", "name_ja": "金山", "label_rank": 72, "tags": ["tokyo", "v3"]}}]}