{"type": "FeatureCollection", "features": [{"type": "Feature", "bbox": [137.060295, 34.969035, 137.060295, 34.969035], "geometry": {"type": "Point", "coordinates": [137.060295, 34.969035]}, "properties": {"id": "PS_06662300981C", "station_group_id": "SG_3A7B6E60EEA4", "name_en": "三河安城", "name_ja": "三河安城", "label_rank": 72, "tags": ["tokyo", "v3"]}}, {"type": "Feature", "bbox": [137.06142, 34.970290000000006, 137.06142, 34.970290000000006], "geometry": {"type": "Point", "coordinates": [137.06142, 34.970290000000006]}, "properties": {"id": "PS_9A435377F438", "station_group_id": "SG_3A7B6E60EEA4", "name_en": "三河安城", "name_ja": "三河安城", "label_rank": 72, "tags": ["tokyo", "v3"]}}, {"type": "Feature", "bbox": [137.00970999999998, 34.990804999999995, 137.00970999999998, 34.990804999999995], "geometry": {"type": "Point", "coordinates": [137.00970999999998, 34.990804999999995]}, "properties": {"id": "PS_31C296BE06A1", "station_group_id": "SG_8DEC8D19068C", "name_en": "刈谷", "name_ja": "刈谷", "label_rank": 72, "tags": ["tokyo", "v3"]}}, {"type": "Feature", "bbox": [136.961805, 35.008695, 136.961805, 35.008695], "geometry": {"type": "Point", "coordinates": [136.961805, 35.008695]}, "properties": {"id": "PS_84BC99093A95", "station_group_id": "SG_2F6912562DA6", "name_en": "大府", "name_ja": "大府", "label_rank": 72, "tags": ["tokyo", "v3"]}}, {"type": "Feature", "bbox": [137.086345, 34.960465, 137.086345, 34.960465], "geometry": {"type": "Point", "coordinates": [137.086345, 34.960465]}, "properties": {"id": "PS_9496C05C615E", "station_group_id": "SG_033D6172D13C", "name_en": "安城", "name_ja": "安城", "label_rank": 72, "tags": ["tokyo", "v3"]}}, {"type": "Feature", "bbox": [137.15726999999998, 34.925345, 137.15726999999998, 34.925345], "geometry": {"type": "Point", "coordinates": [137.15726999999998, 34.925345]}, "properties": {"id": "PS_2240D4119302", "station_group_id": "SG_49D823DB7F0F", "name_en": "岡崎", "name_ja": "岡崎", "label_rank": 72, "tags": ["tokyo", "v3"]}}, {"type": "Feature", "bbox": [137.043635, 34.977355, 137.043635, 34.977355], "geometry": {"type": "Point", "coordinates": [137.043635, 34.977355]}, "properties": {"id": "PS_FDA644541B03", "station_group_id": "SG_6420D1B62D86", "name_en": "東刈谷", "name_ja": "東刈谷", "label_rank": 72, "tags": ["tokyo", "v3"]}}, {"type": "Feature", "bbox": [137.123155, 34.946619999999996, 137.123155, 34.946619999999996], "geometry": {"type": "Point", "coordinates": [137.123155, 34.946619999999996]}, "properties": {"id": "PS_72334F1CC75A", "station_group_id": "SG_1090FAF87C66", "name_en": "西岡崎", "name_ja": "西岡崎", "label_rank": 72, "tags": ["tokyo", "v3"]}}, {"type": "Feature", "bbox": [136.99054, 34.998235, 136.99054, 34.998235], "geometry": {"type": "Point", "coordinates": [136.99054, 34.998235]}, "properties": {"id": "PS_F04A1296F152", "station_group_id": "SG_992315E0E154", "name_en": "逢妻", "name_ja": "逢妻", "label_rank": 72, "tags": ["tokyo", "v3"]}}, {"type": "Feature", "bbox": [137.02816, 34.983504999999994, 137.02816, 34.983504999999994], "geometry": {"type": "Point", "coordinates": [137.02816, 34.983504999999994]}, "properties": {"id": "PS_21B2E771F967", "station_group_id": "SG_E156DB396AAC", "name_en": "野田新町", "name_ja": "野田新町", "label_rank": 72, "tags": ["tokyo", "v3"]}}]}