{"type": "FeatureCollection", "features": [{"type": "Feature", "bbox": [137.17669, 34.836330000000004, 137.17669, 34.836330000000004], "geometry": {"type": "Point", "coordinates": [137.17669, 34.836330000000004]}, "properties": {"id": "PS_DDEE9938A239", "station_group_id": "SG_20F1F3C8AA60", "operator_id": "jr_central", "operator_ids": "jr_central", "name_en": "三ヶ根", "name_ja": "三ヶ根", "label_rank": 72, "tags": ["tokyo", "v3"]}}, {"type": "Feature", "bbox": [137.248035, 34.81852, 137.248035, 34.81852], "geometry": {"type": "Point", "coordinates": [137.248035, 34.81852]}, "properties": {"id": "PS_AE8C3C4946AD", "station_group_id": "SG_D208101EFB01", "operator_id": "jr_central", "operator_ids": "jr_central", "name_en": "三河三谷", "name_ja": "三河三谷", "label_rank": 72, "tags": ["tokyo", "v3"]}}, {"type": "Feature", "bbox": [137.201475, 34.825419999999994, 137.201475, 34.825419999999994], "geometry": {"type": "Point", "coordinates": [137.201475, 34.825419999999994]}, "properties": {"id": "PS_650689414D08", "station_group_id": "SG_A341F1E4EA73", "operator_id": "jr_central", "operator_ids": "jr_central", "name_en": "三河塩津", "name_ja": "三河塩津", "label_rank": 72, "tags": ["tokyo", "v3"]}}, {"type": "Feature", "bbox": [137.164455, 34.859665, 137.164455, 34.859665], "geometry": {"type": "Point", "coordinates": [137.164455, 34.859665]}, "properties": {"id": "PS_23AD8B86E724", "station_group_id": "SG_49537707F2EF", "operator_id": "jr_central", "operator_ids": "jr_central", "name_en": "幸田", "name_ja": "幸田", "label_rank": 72, "tags": ["tokyo", "v3"]}}, {"type": "Feature", "bbox": [137.160271, 34.8880425, 137.160271, 34.8880425], "geometry": {"type": "Point", "coordinates": [137.160271, 34.8880425]}, "properties": {"id": "PS_AF11EB1B997F", "station_group_id": "SG_0F10501A60FC", "operator_id": "jr_central", "operator_ids": "jr_central", "name_en": "相見", "name_ja": "相見", "label_rank": 72, "tags": ["tokyo", "v3"]}}, {"type": "Feature", "bbox": [137.227385, 34.822745, 137.227385, 34.822745], "geometry": {"type": "Point", "coordinates": [137.227385, 34.822745]}, "properties": {"id": "PS_E6E8BEE70FC0", "station_group_id": "SG_37AE77E0D748", "operator_id": "jr_central", "operator_ids": "jr_central", "name_en": "蒲郡", "name_ja": "蒲郡", "label_rank": 72, "tags": ["tokyo", "v3"]}}]}