{"type": "FeatureCollection", "features": [{"type": "Feature", "bbox": [140.38076, 38.42861, 140.38076, 38.42861], "geometry": {"type": "Point", "coordinates": [140.38076, 38.42861]}, "properties": {"id": "PS_8834BB419674", "station_group_id": "SG_B31E5634B6D9", "name_en": "さくらんぼ東根", "name_ja": "さくらんぼ東根", "label_rank": 72, "tags": ["tokyo", "v3"]}}, {"type": "Feature", "bbox": [140.375385, 38.59582, 140.375385, 38.59582], "geometry": {"type": "Point", "coordinates": [140.375385, 38.59582]}, "properties": {"id": "PS_8E9DFD9A0A18", "station_group_id": "SG_C0F15E3A6852", "name_en": "大石田", "name_ja": "大石田", "label_rank": 72, "tags": ["tokyo", "v3"]}}, {"type": "Feature", "bbox": [140.36943, 38.36005666666667, 140.36943, 38.36005666666667], "geometry": {"type": "Point", "coordinates": [140.36943, 38.36005666666667]}, "properties": {"id": "PS_E1648FE02591", "station_group_id": "SG_5C8D6B322EE9", "name_en": "天童", "name_ja": "天童", "label_rank": 72, "tags": ["tokyo", "v3"]}}, {"type": "Feature", "bbox": [140.306105, 38.762515, 140.306105, 38.762515], "geometry": {"type": "Point", "coordinates": [140.306105, 38.762515]}, "properties": {"id": "PS_64495AFB190F", "station_group_id": "SG_D5BAA8712E45", "name_en": "新庄", "name_ja": "新庄", "label_rank": 72, "tags": ["tokyo", "v3"]}}, {"type": "Feature", "bbox": [140.306105, 38.762515, 140.306105, 38.762515], "geometry": {"type": "Point", "coordinates": [140.306105, 38.762515]}, "properties": {"id": "PS_7E3B156F27E8", "station_group_id": "SG_D5BAA8712E45", "name_en": "新庄", "name_ja": "新庄", "label_rank": 72, "tags": ["tokyo", "v3"]}}, {"type": "Feature", "bbox": [140.306105, 38.762515, 140.306105, 38.762515], "geometry": {"type": "Point", "coordinates": [140.306105, 38.762515]}, "properties": {"id": "PS_1D88D69573A3", "station_group_id": "SG_D5BAA8712E45", "name_en": "新庄", "name_ja": "新庄", "label_rank": 72, "tags": ["tokyo", "v3"]}}, {"type": "Feature", "bbox": [140.38642, 38.4771, 140.38642, 38.4771], "geometry": {"type": "Point", "coordinates": [140.38642, 38.4771]}, "properties": {"id": "PS_5BB40DC1F96F", "station_group_id": "SG_884227D5452F", "name_en": "村山", "name_ja": "村山", "label_rank": 72, "tags": ["tokyo", "v3"]}}]}