{"type": "FeatureCollection", "features": [{"type": "Feature", "bbox": [140.43552, 37.589465000000004, 140.43552, 37.589465000000004], "geometry": {"type": "Point", "coordinates": [140.43552, 37.589465000000004]}, "properties": {"id": "PS_2B99AC64B896", "station_group_id": "SG_1EB8D178FD8E", "name_en": "二本松", "name_ja": "二本松", "label_rank": 72, "tags": ["tokyo", "v3"]}}, {"type": "Feature", "bbox": [140.38774, 37.482445, 140.38774, 37.482445], "geometry": {"type": "Point", "coordinates": [140.38774, 37.482445]}, "properties": {"id": "PS_AE0AAB677446", "station_group_id": "SG_2FB3F70F9CC6", "name_en": "五百川", "name_ja": "五百川", "label_rank": 72, "tags": ["tokyo", "v3"]}}, {"type": "Feature", "bbox": [140.455835, 37.723815, 140.455835, 37.723815], "geometry": {"type": "Point", "coordinates": [140.455835, 37.723815]}, "properties": {"id": "PS_D638112BFDBF", "station_group_id": "SG_5364A47AE1F1", "name_en": "南福島", "name_ja": "南福島", "label_rank": 72, "tags": ["tokyo", "v3"]}}, {"type": "Feature", "bbox": [140.36882, 37.35659, 140.36882, 37.35659], "geometry": {"type": "Point", "coordinates": [140.36882, 37.35659]}, "properties": {"id": "PS_22C456ECD5DA", "station_group_id": "SG_41256A82C046", "name_en": "安積永盛", "name_ja": "安積永盛", "label_rank": 72, "tags": ["tokyo", "v3"]}}, {"type": "Feature", "bbox": [140.46668, 37.61264, 140.46668, 37.61264], "geometry": {"type": "Point", "coordinates": [140.46668, 37.61264]}, "properties": {"id": "PS_29203F7741A2", "station_group_id": "SG_53693474F0DF", "name_en": "安達", "name_ja": "安達", "label_rank": 72, "tags": ["tokyo", "v3"]}}, {"type": "Feature", "bbox": [140.38836500000002, 37.44596, 140.38836500000002, 37.44596], "geometry": {"type": "Point", "coordinates": [140.38836500000002, 37.44596]}, "properties": {"id": "PS_763E4A2B2AEA", "station_group_id": "SG_27FEFAD9B0F6", "name_en": "日和田", "name_ja": "日和田", "label_rank": 72, "tags": ["tokyo", "v3"]}}, {"type": "Feature", "bbox": [140.399335, 37.513735, 140.399335, 37.513735], "geometry": {"type": "Point", "coordinates": [140.399335, 37.513735]}, "properties": {"id": "PS_3BB74D04B148", "station_group_id": "SG_3CE6CC0C9672", "name_en": "本宮", "name_ja": "本宮", "label_rank": 72, "tags": ["tokyo", "v3"]}}, {"type": "Feature", "bbox": [140.41391, 37.563445, 140.41391, 37.563445], "geometry": {"type": "Point", "coordinates": [140.41391, 37.563445]}, "properties": {"id": "PS_C7A1B3E7DB4C", "station_group_id": "SG_8F168A4339A2", "name_en": "杉田", "name_ja": "杉田", "label_rank": 92, "tags": ["tokyo", "v3"]}}, {"type": "Feature", "bbox": [140.48416500000002, 37.653505, 140.48416500000002, 37.653505], "geometry": {"type": "Point", "coordinates": [140.48416500000002, 37.653505]}, "properties": {"id": "PS_51806C194C3C", "station_group_id": "SG_2432A6757735", "name_en": "松川", "name_ja": "松川", "label_rank": 72, "tags": ["tokyo", "v3"]}}, {"type": "Feature", "bbox": [140.38862, 37.39862, 140.38862, 37.39862], "geometry": {"type": "Point", "coordinates": [140.38862, 37.39862]}, "properties": {"id": "PS_C02A086496EF", "station_group_id": "SG_0F07E72AEE8E", "name_en": "郡山", "name_ja": "郡山", "label_rank": 72, "tags": ["tokyo", "v3"]}}, {"type": "Feature", "bbox": [140.388865, 37.398145, 140.388865, 37.398145], "geometry": {"type": "Point", "coordinates": [140.388865, 37.398145]}, "properties": {"id": "PS_88A1D58EB164", "station_group_id": "SG_0F07E72AEE8E", "name_en": "郡山", "name_ja": "郡山", "label_rank": 72, "tags": ["tokyo", "v3"]}}, {"type": "Feature", "bbox": [140.45200499999999, 37.680710000000005, 140.45200499999999, 37.680710000000005], "geometry": {"type": "Point", "coordinates": [140.45200499999999, 37.680710000000005]}, "properties": {"id": "PS_ADB3B90C698B", "station_group_id": "SG_5976C42DA4AD", "name_en": "金谷川", "name_ja": "金谷川", "label_rank": 72, "tags": ["tokyo", "v3"]}}, {"type": "Feature", "bbox": [140.34684, 37.250564999999995, 140.34684, 37.250564999999995], "geometry": {"type": "Point", "coordinates": [140.34684, 37.250564999999995]}, "properties": {"id": "PS_BE40079D42CC", "station_group_id": "SG_8D94BD2DAAC6", "name_en": "鏡石", "name_ja": "鏡石", "label_rank": 72, "tags": ["tokyo", "v3"]}}, {"type": "Feature", "bbox": [140.37157000000002, 37.300435, 140.37157000000002, 37.300435], "geometry": {"type": "Point", "coordinates": [140.37157000000002, 37.300435]}, "properties": {"id": "PS_3F2176DE8D62", "station_group_id": "SG_813F30314B80", "name_en": "須賀川", "name_ja": "須賀川", "label_rank": 72, "tags": ["tokyo", "v3"]}}]}