{"type": "FeatureCollection", "features": [{"type": "Feature", "bbox": [140.54050999999998, 36.43047, 140.54050999999998, 36.43047], "geometry": {"type": "Point", "coordinates": [140.54050999999998, 36.43047]}, "properties": {"id": "PS_E2378A8C67FD", "station_group_id": "SG_72073B67B5FB", "name_en": "佐和", "name_ja": "佐和", "label_rank": 72, "tags": ["tokyo", "v3"]}}, {"type": "Feature", "bbox": [140.45634, 36.37303, 140.45634, 36.37303], "geometry": {"type": "Point", "coordinates": [140.45634, 36.37303]}, "properties": {"id": "PS_73C26537DE40", "station_group_id": "SG_BF2AC143F445", "name_en": "偕楽園", "name_ja": "偕楽園", "label_rank": 72, "tags": ["tokyo", "v3"]}}, {"type": "Feature", "bbox": [140.35262999999998, 36.370045, 140.35262999999998, 36.370045], "geometry": {"type": "Point", "coordinates": [140.35262999999998, 36.370045]}, "properties": {"id": "PS_97E53F063BEC", "station_group_id": "SG_D6FD5A19BC2C", "name_en": "内原", "name_ja": "内原", "label_rank": 72, "tags": ["tokyo", "v3"]}}, {"type": "Feature", "bbox": [140.524215, 36.394075, 140.524215, 36.394075], "geometry": {"type": "Point", "coordinates": [140.524215, 36.394075]}, "properties": {"id": "PS_7E2900E8DDA1", "station_group_id": "SG_04E69BC062CD", "name_en": "勝田", "name_ja": "勝田", "label_rank": 72, "tags": ["tokyo", "v3"]}}, {"type": "Feature", "bbox": [140.685945, 36.67138, 140.685945, 36.67138], "geometry": {"type": "Point", "coordinates": [140.685945, 36.67138]}, "properties": {"id": "PS_4D0C8C6479E4", "station_group_id": "SG_883B42DF4469", "name_en": "十王", "name_ja": "十王", "label_rank": 72, "tags": ["tokyo", "v3"]}}, {"type": "Feature", "bbox": [140.30602499999998, 36.35046, 140.30602499999998, 36.35046], "geometry": {"type": "Point", "coordinates": [140.30602499999998, 36.35046]}, "properties": {"id": "PS_E6DAA9358588", "station_group_id": "SG_2EED928BCE97", "name_en": "友部", "name_ja": "友部", "label_rank": 72, "tags": ["tokyo", "v3"]}}, {"type": "Feature", "bbox": [140.619435, 36.512925, 140.619435, 36.512925], "geometry": {"type": "Point", "coordinates": [140.619435, 36.512925]}, "properties": {"id": "PS_F9782553A988", "station_group_id": "SG_A7AB79B75753", "name_en": "大甕", "name_ja": "大甕", "label_rank": 72, "tags": ["tokyo", "v3"]}}, {"type": "Feature", "bbox": [140.675295, 36.63664, 140.675295, 36.63664], "geometry": {"type": "Point", "coordinates": [140.675295, 36.63664]}, "properties": {"id": "PS_CD79FD9F4B16", "station_group_id": "SG_72C6DFC10334", "name_en": "小木津", "name_ja": "小木津", "label_rank": 72, "tags": ["tokyo", "v3"]}}, {"type": "Feature", "bbox": [140.27651500000002, 36.295424999999994, 140.27651500000002, 36.295424999999994], "geometry": {"type": "Point", "coordinates": [140.27651500000002, 36.295424999999994]}, "properties": {"id": "PS_17921333E68C", "station_group_id": "SG_7BB4136F279A", "name_en": "岩間", "name_ja": "岩間", "label_rank": 72, "tags": ["tokyo", "v3"]}}, {"type": "Feature", "bbox": [140.63272, 36.552115, 140.63272, 36.552115], "geometry": {"type": "Point", "coordinates": [140.63272, 36.552115]}, "properties": {"id": "PS_E1FC98C114E1", "station_group_id": "SG_96CA03569B6A", "name_en": "常陸多賀", "name_ja": "常陸多賀", "label_rank": 72, "tags": ["tokyo", "v3"]}}, {"type": "Feature", "bbox": [140.66180000000003, 36.590325, 140.66180000000003, 36.590325], "geometry": {"type": "Point", "coordinates": [140.66180000000003, 36.590325]}, "properties": {"id": "PS_9823B580D83B", "station_group_id": "SG_08C5BB646B28", "name_en": "日立", "name_ja": "日立", "label_rank": 72, "tags": ["tokyo", "v3"]}}, {"type": "Feature", "bbox": [140.566035, 36.4655, 140.566035, 36.4655], "geometry": {"type": "Point", "coordinates": [140.566035, 36.4655]}, "properties": {"id": "PS_D50862C6A2E6", "station_group_id": "SG_0D6A9734FFE6", "name_en": "東海", "name_ja": "東海", "label_rank": 72, "tags": ["tokyo", "v3"]}}, {"type": "Feature", "bbox": [140.47721, 36.370865, 140.47721, 36.370865], "geometry": {"type": "Point", "coordinates": [140.47721, 36.370865]}, "properties": {"id": "PS_7B07BA42EB7E", "station_group_id": "SG_5316F04894B6", "name_en": "水戸", "name_ja": "水戸", "label_rank": 72, "tags": ["tokyo", "v3"]}}, {"type": "Feature", "bbox": [140.279765, 36.191495, 140.279765, 36.191495], "geometry": {"type": "Point", "coordinates": [140.279765, 36.191495]}, "properties": {"id": "PS_652FEEAC5DE6", "station_group_id": "SG_87F2ACC7CDF3", "name_en": "石岡", "name_ja": "石岡", "label_rank": 72, "tags": ["tokyo", "v3"]}}, {"type": "Feature", "bbox": [140.28677499999998, 36.24754, 140.28677499999998, 36.24754], "geometry": {"type": "Point", "coordinates": [140.28677499999998, 36.24754]}, "properties": {"id": "PS_FEB29A705825", "station_group_id": "SG_A1F25DA5A066", "name_en": "羽鳥", "name_ja": "羽鳥", "label_rank": 72, "tags": ["tokyo", "v3"]}}, {"type": "Feature", "bbox": [140.41516000000001, 36.381755, 140.41516000000001, 36.381755], "geometry": {"type": "Point", "coordinates": [140.41516000000001, 36.381755]}, "properties": {"id": "PS_7E348C0263AA", "station_group_id": "SG_D4A6707E68D1", "name_en": "赤塚", "name_ja": "赤塚", "label_rank": 72, "tags": ["tokyo", "v3"]}}]}