{"type": "FeatureCollection", "features": [{"type": "Feature", "bbox": [140.158295, 36.007495, 140.158295, 36.007495], "geometry": {"type": "Point", "coordinates": [140.158295, 36.007495]}, "properties": {"id": "PS_4815E172781A", "station_group_id": "SG_732511FD3B31", "operator_id": "jr_east", "operator_ids": "jr_east", "name_en": "ひたち野うしく", "name_ja": "ひたち野うしく", "label_rank": 72, "tags": ["tokyo", "v3"]}}, {"type": "Feature", "bbox": [140.156165, 35.721775, 140.156165, 35.721775], "geometry": {"type": "Point", "coordinates": [140.156165, 35.721775]}, "properties": {"id": "PS_8C0BFA4ABFDF", "station_group_id": "SG_1513C4F22B06", "operator_id": "keisei", "operator_ids": "keisei", "name_en": "ユーカリが丘", "name_ja": "ユーカリが丘", "label_rank": 72, "tags": ["tokyo", "v3"]}}, {"type": "Feature", "bbox": [140.27755000000002, 35.807775, 140.27755000000002, 35.807775], "geometry": {"type": "Point", "coordinates": [140.27755000000002, 35.807775]}, "properties": {"id": "PS_9F02904E23E5", "station_group_id": "SG_238A33B28D44", "operator_id": "jr_east", "operator_ids": "jr_east", "name_en": "下総松崎", "name_ja": "下総松崎", "label_rank": 72, "tags": ["tokyo", "v3"]}}, {"type": "Feature", "bbox": [140.70215000000002, 35.818785, 140.70215000000002, 35.818785], "geometry": {"type": "Point", "coordinates": [140.70215000000002, 35.818785]}, "properties": {"id": "PS_84ECC766B0C0", "station_group_id": "SG_B6D685D2C4D5", "operator_id": "jr_east", "operator_ids": "jr_east", "name_en": "下総橘", "name_ja": "下総橘", "label_rank": 72, "tags": ["tokyo", "v3"]}}, {"type": "Feature", "bbox": [140.41066999999998, 35.894845000000004, 140.41066999999998, 35.894845000000004], "geometry": {"type": "Point", "coordinates": [140.41066999999998, 35.894845000000004]}, "properties": {"id": "PS_A370F4EEBD7C", "station_group_id": "SG_5D4AFF2CA938", "operator_id": "jr_east", "operator_ids": "jr_east", "name_en": "下総神崎", "name_ja": "下総神崎", "label_rank": 72, "tags": ["tokyo", "v3"]}}, {"type": "Feature", "bbox": [140.33887, 35.832184999999996, 140.33887, 35.832184999999996], "geometry": {"type": "Point", "coordinates": [140.33887, 35.832184999999996]}, "properties": {"id": "PS_2A68DB2A07F0", "station_group_id": "SG_0AEF1883B539", "operator_id": "jr_east", "operator_ids": "jr_east", "name_en": "久住", "name_ja": "久住", "label_rank": 72, "tags": ["tokyo", "v3"]}}, {"type": "Feature", "bbox": [140.229865, 35.725205, 140.229865, 35.725205], "geometry": {"type": "Point", "coordinates": [140.229865, 35.725205]}, "properties": {"id": "PS_234AEC52F2A1", "station_group_id": "SG_85701B33FD83", "operator_id": "keisei", "operator_ids": "keisei", "name_en": "京成佐倉", "name_ja": "京成佐倉", "label_rank": 72, "tags": ["tokyo", "v3"]}}, {"type": "Feature", "bbox": [140.31546500000002, 35.77627, 140.31546500000002, 35.77627], "geometry": {"type": "Point", "coordinates": [140.31546500000002, 35.77627]}, "properties": {"id": "PS_5ACA8F12A958", "station_group_id": "SG_E440430D3002", "operator_id": "keisei", "operator_ids": "keisei", "name_en": "京成成田", "name_ja": "京成成田", "label_rank": 92, "tags": ["tokyo", "v3"]}}, {"type": "Feature", "bbox": [140.31546500000002, 35.77627, 140.31546500000002, 35.77627], "geometry": {"type": "Point", "coordinates": [140.31546500000002, 35.77627]}, "properties": {"id": "PS_A72F0F5F25BB", "station_group_id": "SG_E440430D3002", "operator_id": "keisei", "operator_ids": "keisei", "name_en": "京成成田", "name_ja": "京成成田", "label_rank": 92, "tags": ["tokyo", "v3"]}}, {"type": "Feature", "bbox": [140.180805, 35.730025, 140.180805, 35.730025], "geometry": {"type": "Point", "coordinates": [140.180805, 35.730025]}, "properties": {"id": "PS_FEC7733EBC01", "station_group_id": "SG_D4BC935286C0", "operator_id": "keisei", "operator_ids": "keisei", "name_en": "京成臼井", "name_ja": "京成臼井", "label_rank": 72, "tags": ["tokyo", "v3"]}}, {"type": "Feature", "bbox": [140.270175, 35.736914999999996, 140.270175, 35.736914999999996], "geometry": {"type": "Point", "coordinates": [140.270175, 35.736914999999996]}, "properties": {"id": "PS_49AE39EEC3E4", "station_group_id": "SG_03297E22FEF2", "operator_id": "keisei", "operator_ids": "keisei", "name_en": "京成酒々井", "name_ja": "京成酒々井", "label_rank": 72, "tags": ["tokyo", "v3"]}}, {"type": "Feature", "bbox": [140.226785, 35.709745, 140.226785, 35.709745], "geometry": {"type": "Point", "coordinates": [140.226785, 35.709745]}, "properties": {"id": "PS_129F0D7B499B", "station_group_id": "SG_6DC134EFDB35", "operator_id": "jr_east", "operator_ids": "jr_east", "name_en": "佐倉", "name_ja": "佐倉", "label_rank": 72, "tags": ["tokyo", "v3"]}}, {"type": "Feature", "bbox": [140.226785, 35.709745, 140.226785, 35.709745], "geometry": {"type": "Point", "coordinates": [140.226785, 35.709745]}, "properties": {"id": "PS_DE909CCBA81C", "station_group_id": "SG_6DC134EFDB35", "operator_id": "jr_east", "operator_ids": "jr_east", "name_en": "佐倉", "name_ja": "佐倉", "label_rank": 72, "tags": ["tokyo", "v3"]}}, {"type": "Feature", "bbox": [140.49377, 35.89493, 140.49377, 35.89493], "geometry": {"type": "Point", "coordinates": [140.49377, 35.89493]}, "properties": {"id": "PS_25CAE99653D8", "station_group_id": "SG_757E7D41FC09", "operator_id": "jr_east", "operator_ids": "jr_east", "name_en": "佐原", "name_ja": "佐原", "label_rank": 72, "tags": ["tokyo", "v3"]}}, {"type": "Feature", "bbox": [140.71399000000002, 35.737755, 140.71399000000002, 35.737755], "geometry": {"type": "Point", "coordinates": [140.71399000000002, 35.737755]}, "properties": {"id": "PS_F7888D5916A6", "station_group_id": "SG_A36B2E6DA74D", "operator_id": "jr_east", "operator_ids": "jr_east", "name_en": "倉橋", "name_ja": "倉橋", "label_rank": 72, "tags": ["tokyo", "v3"]}}, {"type": "Feature", "bbox": [140.552395, 35.699295, 140.552395, 35.699295], "geometry": {"type": "Point", "coordinates": [140.552395, 35.699295]}, "properties": {"id": "PS_CCCEFB5F8D4F", "station_group_id": "SG_1E38F6F7B215", "operator_id": "jr_east", "operator_ids": "jr_east", "name_en": "八日市場", "name_ja": "八日市場", "label_rank": 72, "tags": ["tokyo", "v3"]}}, {"type": "Feature", "bbox": [140.294445, 35.76021, 140.294445, 35.76021], "geometry": {"type": "Point", "coordinates": [140.294445, 35.76021]}, "properties": {"id": "PS_FAA236A9E1BD", "station_group_id": "SG_1A4EC6AF0F75", "operator_id": "keisei", "operator_ids": "keisei", "name_en": "公津の杜", "name_ja": "公津の杜", "label_rank": 72, "tags": ["tokyo", "v3"]}}, {"type": "Feature", "bbox": [140.54583000000002, 35.91702, 140.54583000000002, 35.91702], "geometry": {"type": "Point", "coordinates": [140.54583000000002, 35.91702]}, "properties": {"id": "PS_7F8324876247", "station_group_id": "SG_D901B739FC70", "operator_id": "jr_east", "operator_ids": "jr_east", "name_en": "十二橋", "name_ja": "十二橋", "label_rank": 72, "tags": ["tokyo", "v3"]}}, {"type": "Feature", "bbox": [140.267935, 35.7043, 140.267935, 35.7043], "geometry": {"type": "Point", "coordinates": [140.267935, 35.7043]}, "properties": {"id": "PS_AA72466167F1", "station_group_id": "SG_0DDD6835F6F9", "operator_id": "jr_east", "operator_ids": "jr_east", "name_en": "南酒々井", "name_ja": "南酒々井", "label_rank": 72, "tags": ["tokyo", "v3"]}}, {"type": "Feature", "bbox": [140.20275900000001, 35.787815499999994, 140.20275900000001, 35.787815499999994], "geometry": {"type": "Point", "coordinates": [140.20275900000001, 35.787815499999994]}, "properties": {"id": "PS_D597F0939039", "station_group_id": "SG_51236DC1742C", "operator_id": "keisei", "operator_ids": "keisei", "name_en": "印旛日本医大", "name_ja": "印旛日本医大", "label_rank": 72, "tags": ["tokyo", "v3"]}}, {"type": "Feature", "bbox": [140.20623999999998, 36.078595, 140.20623999999998, 36.078595], "geometry": {"type": "Point", "coordinates": [140.20623999999998, 36.078595]}, "properties": {"id": "PS_F5FA2F2D0360", "station_group_id": "SG_4DB04A942A12", "operator_id": "jr_east", "operator_ids": "jr_east", "name_en": "土浦", "name_ja": "土浦", "label_rank": 72, "tags": ["tokyo", "v3"]}}, {"type": "Feature", "bbox": [140.25072, 35.729929999999996, 140.25072, 35.729929999999996], "geometry": {"type": "Point", "coordinates": [140.25072, 35.729929999999996]}, "properties": {"id": "PS_24DCF2C312DA", "station_group_id": "SG_02C8585B1E5F", "operator_id": "keisei", "operator_ids": "keisei", "name_en": "大佐倉", "name_ja": "大佐倉", "label_rank": 72, "tags": ["tokyo", "v3"]}}, {"type": "Feature", "bbox": [140.45773, 35.88993, 140.45773, 35.88993], "geometry": {"type": "Point", "coordinates": [140.45773, 35.88993]}, "properties": {"id": "PS_4BFE55EABA75", "station_group_id": "SG_A9C1C891B2B5", "operator_id": "jr_east", "operator_ids": "jr_east", "name_en": "大戸", "name_ja": "大戸", "label_rank": 72, "tags": ["tokyo", "v3"]}}, {"type": "Feature", "bbox": [140.242275, 35.835715, 140.242275, 35.835715], "geometry": {"type": "Point", "coordinates": [140.242275, 35.835715]}, "properties": {"id": "PS_8BB3832A3DA8", "station_group_id": "SG_8687844FA806", "operator_id": "jr_east", "operator_ids": "jr_east", "name_en": "安食", "name_ja": "安食", "label_rank": 72, "tags": ["tokyo", "v3"]}}, {"type": "Feature", "bbox": [140.280705, 35.75235, 140.280705, 35.75235], "geometry": {"type": "Point", "coordinates": [140.280705, 35.75235]}, "properties": {"id": "PS_4807721C90D8", "station_group_id": "SG_1FD1C414247B", "operator_id": "keisei", "operator_ids": "keisei", "name_en": "宗吾参道", "name_ja": "宗吾参道", "label_rank": 72, "tags": ["tokyo", "v3"]}}, {"type": "Feature", "bbox": [140.19310000000002, 35.83074, 140.19310000000002, 35.83074], "geometry": {"type": "Point", "coordinates": [140.19310000000002, 35.83074]}, "properties": {"id": "PS_45018C6F1613", "station_group_id": "SG_32522E1BA94F", "operator_id": "jr_east", "operator_ids": "jr_east", "name_en": "小林", "name_ja": "小林", "label_rank": 72, "tags": ["tokyo", "v3"]}}, {"type": "Feature", "bbox": [140.6046, 35.84998, 140.6046, 35.84998], "geometry": {"type": "Point", "coordinates": [140.6046, 35.84998]}, "properties": {"id": "PS_9A79E216BEEB", "station_group_id": "SG_CADDB5B06B59", "operator_id": "jr_east", "operator_ids": "jr_east", "name_en": "小見川", "name_ja": "小見川", "label_rank": 72, "tags": ["tokyo", "v3"]}}, {"type": "Feature", "bbox": [140.60331000000002, 35.718345, 140.60331000000002, 35.718345], "geometry": {"type": "Point", "coordinates": [140.60331000000002, 35.718345]}, "properties": {"id": "PS_F990EF1C220E", "station_group_id": "SG_C96198B189E7", "operator_id": "jr_east", "operator_ids": "jr_east", "name_en": "干潟", "name_ja": "干潟", "label_rank": 72, "tags": ["tokyo", "v3"]}}, {"type": "Feature", "bbox": [140.588805, 35.958095, 140.588805, 35.958095], "geometry": {"type": "Point", "coordinates": [140.588805, 35.958095]}, "properties": {"id": "PS_64CE45DEA97E", "station_group_id": "SG_4B08FCF3C064", "operator_id": "jr_east", "operator_ids": "jr_east", "name_en": "延方", "name_ja": "延方", "label_rank": 72, "tags": ["tokyo", "v3"]}}, {"type": "Feature", "bbox": [140.14493, 35.717405, 140.14493, 35.717405], "geometry": {"type": "Point", "coordinates": [140.14493, 35.717405]}, "properties": {"id": "PS_652F61EFCE78", "station_group_id": "SG_6A7D6A0E809B", "operator_id": "keisei", "operator_ids": "keisei", "name_en": "志津", "name_ja": "志津", "label_rank": 72, "tags": ["tokyo", "v3"]}}, {"type": "Feature", "bbox": [140.313535, 35.777255, 140.313535, 35.777255], "geometry": {"type": "Point", "coordinates": [140.313535, 35.777255]}, "properties": {"id": "PS_7B9ABB19F15A", "station_group_id": "SG_78F6FA077B8E", "operator_id": "jr_east", "operator_ids": "jr_east", "name_en": "成田", "name_ja": "成田", "label_rank": 72, "tags": ["tokyo", "v3"]}}, {"type": "Feature", "bbox": [140.2914805, 35.79956, 140.2914805, 35.79956], "geometry": {"type": "Point", "coordinates": [140.2914805, 35.79956]}, "properties": {"id": "PS_5B9064C875E8", "station_group_id": "SG_EA5AB7D48907", "operator_id": "keisei", "operator_ids": "keisei", "name_en": "成田湯川", "name_ja": "成田湯川", "label_rank": 72, "tags": ["tokyo", "v3"]}}, {"type": "Feature", "bbox": [140.386305, 35.765725, 140.386305, 35.765725], "geometry": {"type": "Point", "coordinates": [140.386305, 35.765725]}, "properties": {"id": "PS_14406E982D0E", "station_group_id": "SG_A2EE898BD344", "operator_id": "keisei", "operator_ids": "keisei", "name_en": "成田空港", "name_ja": "成田空港", "label_rank": 92, "tags": ["tokyo", "v3"]}}, {"type": "Feature", "bbox": [140.386305, 35.765725, 140.386305, 35.765725], "geometry": {"type": "Point", "coordinates": [140.386305, 35.765725]}, "properties": {"id": "PS_B36504FD6485", "station_group_id": "SG_A2EE898BD344", "operator_id": "jr_east", "operator_ids": "jr_east", "name_en": "成田空港", "name_ja": "成田空港", "label_rank": 92, "tags": ["tokyo", "v3"]}}, {"type": "Feature", "bbox": [140.386305, 35.765725, 140.386305, 35.765725], "geometry": {"type": "Point", "coordinates": [140.386305, 35.765725]}, "properties": {"id": "PS_40493B7ABDB0", "station_group_id": "SG_A2EE898BD344", "operator_id": "keisei", "operator_ids": "keisei", "name_en": "成田空港", "name_ja": "成田空港", "label_rank": 92, "tags": ["tokyo", "v3"]}}, {"type": "Feature", "bbox": [140.65469000000002, 35.721835, 140.65469000000002, 35.721835], "geometry": {"type": "Point", "coordinates": [140.65469000000002, 35.721835]}, "properties": {"id": "PS_8F4AA36EFB1D", "station_group_id": "SG_A89140F7F8E1", "operator_id": "jr_east", "operator_ids": "jr_east", "name_en": "旭", "name_ja": "旭", "label_rank": 72, "tags": ["tokyo", "v3"]}}, {"type": "Feature", "bbox": [140.14799, 35.83888, 140.14799, 35.83888], "geometry": {"type": "Point", "coordinates": [140.14799, 35.83888]}, "properties": {"id": "PS_1B5D7B227399", "station_group_id": "SG_5713B02CBE7A", "operator_id": "jr_east", "operator_ids": "jr_east", "name_en": "木下", "name_ja": "木下", "label_rank": 72, "tags": ["tokyo", "v3"]}}, {"type": "Feature", "bbox": [140.38725, 35.769684999999996, 140.38725, 35.769684999999996], "geometry": {"type": "Point", "coordinates": [140.38725, 35.769684999999996]}, "properties": {"id": "PS_E121EEFBD699", "station_group_id": "SG_F28B45F031A6", "operator_id": "keisei", "operator_ids": "keisei", "name_en": "東成田", "name_ja": "東成田", "label_rank": 72, "tags": ["tokyo", "v3"]}}, {"type": "Feature", "bbox": [140.288115, 35.684075, 140.288115, 35.684075], "geometry": {"type": "Point", "coordinates": [140.288115, 35.684075]}, "properties": {"id": "PS_A1C614A4703A", "station_group_id": "SG_C1F3C2AE745F", "operator_id": "jr_east", "operator_ids": "jr_east", "name_en": "榎戸", "name_ja": "榎戸", "label_rank": 72, "tags": ["tokyo", "v3"]}}, {"type": "Feature", "bbox": [140.570175, 35.885455, 140.570175, 35.885455], "geometry": {"type": "Point", "coordinates": [140.570175, 35.885455]}, "properties": {"id": "PS_3D174A29A35F", "station_group_id": "SG_D9D0FAB56D28", "operator_id": "jr_east", "operator_ids": "jr_east", "name_en": "水郷", "name_ja": "水郷", "label_rank": 72, "tags": ["tokyo", "v3"]}}, {"type": "Feature", "bbox": [140.347865, 35.87706, 140.347865, 35.87706], "geometry": {"type": "Point", "coordinates": [140.347865, 35.87706]}, "properties": {"id": "PS_D4B076AC75FC", "station_group_id": "SG_1087ADC7B228", "operator_id": "jr_east", "operator_ids": "jr_east", "name_en": "滑河", "name_ja": "滑河", "label_rank": 72, "tags": ["tokyo", "v3"]}}, {"type": "Feature", "bbox": [140.54969, 35.937455, 140.54969, 35.937455], "geometry": {"type": "Point", "coordinates": [140.54969, 35.937455]}, "properties": {"id": "PS_ECDE5EA8FAA3", "station_group_id": "SG_E5C6B30ADEBA", "operator_id": "jr_east", "operator_ids": "jr_east", "name_en": "潮来", "name_ja": "潮来", "label_rank": 72, "tags": ["tokyo", "v3"]}}, {"type": "Feature", "bbox": [140.14103, 35.97518, 140.14103, 35.97518], "geometry": {"type": "Point", "coordinates": [140.14103, 35.97518]}, "properties": {"id": "PS_275E07D01237", "station_group_id": "SG_D5B46D702E16", "operator_id": "jr_east", "operator_ids": "jr_east", "name_en": "牛久", "name_ja": "牛久", "label_rank": 72, "tags": ["tokyo", "v3"]}}, {"type": "Feature", "bbox": [140.200315, 35.685725, 140.200315, 35.685725], "geometry": {"type": "Point", "coordinates": [140.200315, 35.685725]}, "properties": {"id": "PS_504F2E669621", "station_group_id": "SG_B8D28D01AAF5", "operator_id": "jr_east", "operator_ids": "jr_east", "name_en": "物井", "name_ja": "物井", "label_rank": 72, "tags": ["tokyo", "v3"]}}, {"type": "Feature", "bbox": [140.24860999999999, 36.12043, 140.24860999999999, 36.12043], "geometry": {"type": "Point", "coordinates": [140.24860999999999, 36.12043]}, "properties": {"id": "PS_0B6E36682219", "station_group_id": "SG_F3ED49092008", "operator_id": "jr_east", "operator_ids": "jr_east", "name_en": "神立", "name_ja": "神立", "label_rank": 72, "tags": ["tokyo", "v3"]}}, {"type": "Feature", "bbox": [140.38761, 35.77296, 140.38761, 35.77296], "geometry": {"type": "Point", "coordinates": [140.38761, 35.77296]}, "properties": {"id": "PS_5A0EF9637FB4", "station_group_id": "SG_A7F5FFA9DB21", "operator_id": "keisei", "operator_ids": "keisei", "name_en": "空港第2ビル", "name_ja": "空港第2ビル", "label_rank": 92, "tags": ["tokyo", "v3"]}}, {"type": "Feature", "bbox": [140.38761, 35.77296, 140.38761, 35.77296], "geometry": {"type": "Point", "coordinates": [140.38761, 35.77296]}, "properties": {"id": "PS_746C1E089584", "station_group_id": "SG_A7F5FFA9DB21", "operator_id": "jr_east", "operator_ids": "jr_east", "name_en": "空港第2ビル", "name_ja": "空港第2ビル", "label_rank": 92, "tags": ["tokyo", "v3"]}}, {"type": "Feature", "bbox": [140.38761, 35.77296, 140.38761, 35.77296], "geometry": {"type": "Point", "coordinates": [140.38761, 35.77296]}, "properties": {"id": "PS_F04075FFF2E5", "station_group_id": "SG_A7F5FFA9DB21", "operator_id": "keisei", "operator_ids": "keisei", "name_en": "空港第2ビル", "name_ja": "空港第2ビル", "label_rank": 92, "tags": ["tokyo", "v3"]}}, {"type": "Feature", "bbox": [140.655825, 35.83943, 140.655825, 35.83943], "geometry": {"type": "Point", "coordinates": [140.655825, 35.83943]}, "properties": {"id": "PS_63E82899E75B", "station_group_id": "SG_95865A278F9F", "operator_id": "jr_east", "operator_ids": "jr_east", "name_en": "笹川", "name_ja": "笹川", "label_rank": 72, "tags": ["tokyo", "v3"]}}, {"type": "Feature", "bbox": [140.16598499999998, 36.030595000000005, 140.16598499999998, 36.030595000000005], "geometry": {"type": "Point", "coordinates": [140.16598499999998, 36.030595000000005]}, "properties": {"id": "PS_FE02DFF3FDA8", "station_group_id": "SG_9BDC06A0CD8F", "operator_id": "jr_east", "operator_ids": "jr_east", "name_en": "荒川沖", "name_ja": "荒川沖", "label_rank": 72, "tags": ["tokyo", "v3"]}}, {"type": "Feature", "bbox": [140.27540499999998, 35.731849999999994, 140.27540499999998, 35.731849999999994], "geometry": {"type": "Point", "coordinates": [140.27540499999998, 35.731849999999994]}, "properties": {"id": "PS_1A4FB81CCE30", "station_group_id": "SG_93F4577CD95C", "operator_id": "jr_east", "operator_ids": "jr_east", "name_en": "酒々井", "name_ja": "酒々井", "label_rank": 72, "tags": ["tokyo", "v3"]}}, {"type": "Feature", "bbox": [140.521415, 35.68509, 140.521415, 35.68509], "geometry": {"type": "Point", "coordinates": [140.521415, 35.68509]}, "properties": {"id": "PS_957EF4EB1F75", "station_group_id": "SG_1CDCF0C7CC8D", "operator_id": "jr_east", "operator_ids": "jr_east", "name_en": "飯倉", "name_ja": "飯倉", "label_rank": 72, "tags": ["tokyo", "v3"]}}, {"type": "Feature", "bbox": [140.68335, 35.72938, 140.68335, 35.72938], "geometry": {"type": "Point", "coordinates": [140.68335, 35.72938]}, "properties": {"id": "PS_D99B4272D859", "station_group_id": "SG_37D5E7344FF3", "operator_id": "jr_east", "operator_ids": "jr_east", "name_en": "飯岡", "name_ja": "飯岡", "label_rank": 72, "tags": ["tokyo", "v3"]}}, {"type": "Feature", "bbox": [140.53241, 35.897885, 140.53241, 35.897885], "geometry": {"type": "Point", "coordinates": [140.53241, 35.897885]}, "properties": {"id": "PS_29A7F65DAD69", "station_group_id": "SG_46B775C3D26C", "operator_id": "jr_east", "operator_ids": "jr_east", "name_en": "香取", "name_ja": "香取", "label_rank": 72, "tags": ["tokyo", "v3"]}}, {"type": "Feature", "bbox": [140.53241, 35.897885, 140.53241, 35.897885], "geometry": {"type": "Point", "coordinates": [140.53241, 35.897885]}, "properties": {"id": "PS_6047974E6561", "station_group_id": "SG_46B775C3D26C", "operator_id": "jr_east", "operator_ids": "jr_east", "name_en": "香取", "name_ja": "香取", "label_rank": 72, "tags": ["tokyo", "v3"]}}, {"type": "Feature", "bbox": [140.29448000000002, 36.163495, 140.29448000000002, 36.163495], "geometry": {"type": "Point", "coordinates": [140.29448000000002, 36.163495]}, "properties": {"id": "PS_CE4B4B6DEAB7", "station_group_id": "SG_756E26E927A7", "operator_id": "jr_east", "operator_ids": "jr_east", "name_en": "高浜", "name_ja": "高浜", "label_rank": 72, "tags": ["tokyo", "v3"]}}, {"type": "Feature", "bbox": [140.63591000000002, 35.993065, 140.63591000000002, 35.993065], "geometry": {"type": "Point", "coordinates": [140.63591000000002, 35.993065]}, "properties": {"id": "PS_FD6E54F08608", "station_group_id": "SG_DB998C9DEC56", "operator_id": "jr_east", "operator_ids": "jr_east", "name_en": "鹿島サッカースタジアム", "name_ja": "鹿島サッカースタジアム", "label_rank": 72, "tags": ["tokyo", "v3"]}}, {"type": "Feature", "bbox": [140.62593, 35.9707, 140.62593, 35.9707], "geometry": {"type": "Point", "coordinates": [140.62593, 35.9707]}, "properties": {"id": "PS_1587D2EF9DE2", "station_group_id": "SG_B955990A39AE", "operator_id": "jr_east", "operator_ids": "jr_east", "name_en": "鹿島神宮", "name_ja": "鹿島神宮", "label_rank": 72, "tags": ["tokyo", "v3"]}}]}