{"type": "FeatureCollection", "features": [{"type": "Feature", "bbox": [140.25047, 35.137215, 140.25047, 35.137215], "geometry": {"type": "Point", "coordinates": [140.25047, 35.137215]}, "properties": {"id": "PS_7E97B84C651C", "station_group_id": "SG_D19813015482", "name_en": "上総興津", "name_ja": "上総興津", "label_rank": 72, "tags": ["tokyo", "v3"]}}, {"type": "Feature", "bbox": [140.31197, 35.15262, 140.31197, 35.15262], "geometry": {"type": "Point", "coordinates": [140.31197, 35.15262]}, "properties": {"id": "PS_54330DFBB8A9", "station_group_id": "SG_4EC6CAF7BAF1", "name_en": "勝浦", "name_ja": "勝浦", "label_rank": 72, "tags": ["tokyo", "v3"]}}, {"type": "Feature", "bbox": [140.15474, 35.125789999999995, 140.15474, 35.125789999999995], "geometry": {"type": "Point", "coordinates": [140.15474, 35.125789999999995]}, "properties": {"id": "PS_FA9147EC4044", "station_group_id": "SG_A911C29F97B7", "name_en": "安房天津", "name_ja": "安房天津", "label_rank": 72, "tags": ["tokyo", "v3"]}}, {"type": "Feature", "bbox": [140.18977, 35.128635, 140.18977, 35.128635], "geometry": {"type": "Point", "coordinates": [140.18977, 35.128635]}, "properties": {"id": "PS_7755151BC36D", "station_group_id": "SG_A6B5F2D0E90B", "name_en": "安房小湊", "name_ja": "安房小湊", "label_rank": 72, "tags": ["tokyo", "v3"]}}, {"type": "Feature", "bbox": [140.22571, 35.118255, 140.22571, 35.118255], "geometry": {"type": "Point", "coordinates": [140.22571, 35.118255]}, "properties": {"id": "PS_33FDE2ACAA92", "station_group_id": "SG_B3EF8A4E5F17", "name_en": "行川アイランド", "name_ja": "行川アイランド", "label_rank": 72, "tags": ["tokyo", "v3"]}}, {"type": "Feature", "bbox": [140.278965, 35.14125, 140.278965, 35.14125], "geometry": {"type": "Point", "coordinates": [140.278965, 35.14125]}, "properties": {"id": "PS_AC86CADA09AA", "station_group_id": "SG_FFD41F911683", "name_en": "鵜原", "name_ja": "鵜原", "label_rank": 72, "tags": ["tokyo", "v3"]}}]}