{"type": "FeatureCollection", "features": [{"type": "Feature", "bbox": [132.1507, 34.16656, 132.47351, 34.41005], "geometry": {"type": "LineString", "coordinates": [[132.47351, 34.39948], [132.47309, 34.39974], [132.47298, 34.39981], [132.47286, 34.39989], [132.47248, 34.40014], [132.47161, 34.40072], [132.47128, 34.40096], [132.47098, 34.40119], [132.47084, 34.4013], [132.47011, 34.40192], [132.46968, 34.40232], [132.4692, 34.40281], [132.46901, 34.40305], [132.46838, 34.40385], [132.46811, 34.40417], [132.46804, 34.40425], [132.46745, 34.40489], [132.46721, 34.40513], [132.46688, 34.40542], [132.46639, 34.40581], [132.46603, 34.40606], [132.46558, 34.40635], [132.46538, 34.40646], [132.46506, 34.40664], [132.4645, 34.40692], [132.46403, 34.40712], [132.46337, 34.40738], [132.46306, 34.4075], [132.46274, 34.40763], [132.46268, 34.40765], [132.46257, 34.40769], [132.46216, 34.40784], [132.46147, 34.40808], [132.46097, 34.40826], [132.46039, 34.40847], [132.45982, 34.40869], [132.4591, 34.40896], [132.45895, 34.40901], [132.45844, 34.4092], [132.45828, 34.40927], [132.45772, 34.40947], [132.45728, 34.40961], [132.45692, 34.4097], [132.45653, 34.4098], [132.45589, 34.4099], [132.45559, 34.40993], [132.45529, 34.40997], [132.4547, 34.41001], [132.45394, 34.41005], [132.45256, 34.41], [132.45125, 34.40989], [132.45117, 34.40988], [132.44937, 34.40975], [132.44852, 34.40971], [132.44796, 34.40968], [132.44751, 34.40965], [132.4469, 34.40959], [132.44612, 34.40953], [132.44536, 34.40945], [132.44455, 34.40936], [132.44444, 34.40935], [132.44383, 34.40929], [132.44336, 34.40925], [132.44311, 34.40921], [132.44166, 34.40907], [132.44072, 34.40897], [132.44015, 34.40891], [132.43928, 34.40883], [132.43888, 34.40879], [132.43704, 34.40862], [132.43682, 34.4086], [132.43649, 34.40856], [132.43564, 34.40849], [132.43473, 34.40841], [132.43466, 34.40841], [132.42778, 34.40777], [132.42689, 34.40769], [132.42612, 34.40761], [132.42183, 34.40713], [132.42021, 34.407], [132.41589, 34.4066], [132.41203, 34.40625], [132.40897, 34.40593], [132.40719, 34.40573], [132.40488, 34.40552], [132.40399, 34.40544], [132.39946, 34.40496], [132.398, 34.40477], [132.39763, 34.40471], [132.3945, 34.40424], [132.39397, 34.40416], [132.39368, 34.40412], [132.39129, 34.40382], [132.3902, 34.40365], [132.38872, 34.40338], [132.3853, 34.40274], [132.38394, 34.40246], [132.38284, 34.40223], [132.37249, 34.40006], [132.37115, 34.39979], [132.36902, 34.39935], [132.36901, 34.39935], [132.36692, 34.39894], [132.36441, 34.39841], [132.362, 34.39787], [132.36111, 34.39765], [132.35987, 34.39729], [132.35837, 34.39686], [132.35808, 34.39678], [132.35572, 34.39596], [132.35488, 34.39564], [132.35417, 34.39534], [132.35337, 34.39498], [132.35333, 34.39496], [132.34727, 34.39203], [132.34654, 34.39164], [132.34559, 34.39111], [132.34453, 34.39046], [132.344, 34.39011], [132.34321, 34.38957], [132.34104, 34.388], [132.3403, 34.3874], [132.33783, 34.38536], [132.33679, 34.38449], [132.33637, 34.38412], [132.33607, 34.38382], [132.33517, 34.38292], [132.33404, 34.38162], [132.33367, 34.38119], [132.33274, 34.37999], [132.33207, 34.37908], [132.33136, 34.37813], [132.33071, 34.37716], [132.33011, 34.37624], [132.33001, 34.37609], [132.3299, 34.37591], [132.3294, 34.37513], [132.32703, 34.37093], [132.32531, 34.36792], [132.32375, 34.3652], [132.32231, 34.36265], [132.32098, 34.3603], [132.32065, 34.35974], [132.3199, 34.35845], [132.31909, 34.35702], [132.31787, 34.35487], [132.31713, 34.35366], [132.3159, 34.35164], [132.31588, 34.35161], [132.31564, 34.35121], [132.31525, 34.35062], [132.31472, 34.34982], [132.31436, 34.3493], [132.31372, 34.34841], [132.31208, 34.34611], [132.31169, 34.34558], [132.31123, 34.34496], [132.31076, 34.34431], [132.30992, 34.34315], [132.30886, 34.34168], [132.30792, 34.3404], [132.30526, 34.33658], [132.3048, 34.33584], [132.30398, 34.33455], [132.30263, 34.33242], [132.30167, 34.3309], [132.30019, 34.32856], [132.29887, 34.32648], [132.29814, 34.32531], [132.29625, 34.32237], [132.29558, 34.32128], [132.29439, 34.31936], [132.29435, 34.31928], [132.29391, 34.31861], [132.29323, 34.31755], [132.2928, 34.31687], [132.29244, 34.31632], [132.29202, 34.31571], [132.29143, 34.31489], [132.29017, 34.31309], [132.28919, 34.31175], [132.28883, 34.31125], [132.28837, 34.31063], [132.28759, 34.30964], [132.28732, 34.30931], [132.28708, 34.309], [132.28681, 34.3087], [132.28647, 34.3083], [132.28527, 34.30695], [132.28497, 34.30666], [132.28415, 34.30585], [132.28339, 34.3051], [132.2831, 34.30484], [132.28169, 34.30362], [132.28158, 34.30353], [132.28135, 34.30333], [132.28049, 34.30265], [132.27995, 34.30221], [132.27922, 34.30162], [132.2785, 34.30105], [132.27798, 34.30067], [132.27771, 34.30049], [132.2757, 34.29906], [132.27488, 34.29849], [132.2741, 34.29794], [132.2734, 34.29746], [132.27201, 34.2965], [132.27068, 34.29558], [132.27004, 34.29515], [132.26962, 34.29487], [132.26958, 34.29484], [132.2685, 34.29411], [132.26104, 34.2891], [132.25908, 34.28778], [132.25691, 34.28634], [132.25553, 34.28541], [132.25324, 34.28384], [132.25252, 34.28333], [132.25229, 34.28317], [132.25175, 34.28277], [132.25072, 34.28199], [132.25002, 34.28145], [132.24914, 34.28073], [132.24867, 34.28036], [132.24833, 34.28008], [132.2475, 34.27941], [132.24483, 34.27723], [132.24243, 34.2753], [132.23852, 34.27215], [132.23455, 34.26896], [132.23374, 34.26832], [132.22968, 34.26506], [132.22739, 34.26322], [132.22582, 34.26201], [132.22547, 34.26173], [132.22479, 34.26116], [132.22415, 34.26065], [132.22351, 34.26015], [132.22264, 34.25946], [132.21498, 34.25326], [132.21311, 34.25175], [132.20826, 34.24786], [132.2071, 34.24691], [132.20368, 34.24414], [132.19922, 34.24057], [132.19918, 34.24054], [132.19571, 34.23772], [132.19519, 34.23728], [132.19439, 34.23657], [132.19388, 34.23611], [132.19279, 34.2351], [132.19167, 34.23398], [132.19138, 34.2337], [132.19113, 34.23345], [132.19092, 34.23321], [132.18984, 34.23185], [132.18959, 34.23154], [132.18936, 34.23122], [132.1892, 34.231], [132.18902, 34.23073], [132.18745, 34.22812], [132.18706, 34.2275], [132.18662, 34.22679], [132.18179, 34.21867], [132.1802, 34.21601], [132.17926, 34.21438], [132.17833, 34.21279], [132.177, 34.21054], [132.17515, 34.20744], [132.17421, 34.20588], [132.1725, 34.20297], [132.17216, 34.20243], [132.17128, 34.20098], [132.17081, 34.20018], [132.17006, 34.19898], [132.16765, 34.195], [132.16726, 34.19434], [132.16697, 34.19385], [132.16396, 34.18874], [132.1624, 34.18624], [132.16179, 34.18525], [132.16102, 34.1839], [132.16013, 34.18242], [132.1581, 34.17908], [132.15618, 34.17579], [132.15507, 34.17388], [132.15272, 34.16993], [132.15188, 34.16854], [132.15074, 34.16661], [132.1507, 34.16656]]}, "properties": {"id": "GEOM_TOKYO_0687", "route_id": "R_A02272B9", "route_name": null, "route_color": "#1263D6", "route_text_color": null, "line_name": "山陽新幹線", "operator_id": "西日本旅客鉄道", "representation": "service_path", "min_zoom": 0, "max_zoom": 24, "offset_rank": 0}}]}