{"type": "FeatureCollection", "features": [{"type": "Feature", "bbox": [140.68664, 36.67223, 140.71683, 36.71319], "geometry": {"type": "LineString", "coordinates": [[140.68664, 36.67223], [140.68689, 36.67259], [140.68735, 36.67318], [140.68763, 36.67355], [140.68829, 36.67441], [140.68881, 36.6751], [140.68922, 36.67564], [140.69013, 36.67686], [140.69051, 36.67737], [140.69088, 36.67787], [140.69125, 36.67832], [140.69186, 36.67906], [140.69209, 36.67932], [140.69241, 36.67964], [140.69277, 36.67994], [140.69473, 36.68148], [140.69492, 36.68163], [140.69526, 36.68189], [140.69577, 36.68229], [140.69657, 36.6829], [140.69709, 36.68331], [140.69743, 36.68357], [140.69814, 36.68412], [140.69838, 36.6843], [140.69907, 36.68486], [140.69973, 36.68535], [140.70007, 36.68559], [140.70056, 36.68591], [140.70124, 36.68626], [140.70198, 36.68658], [140.70233, 36.68673], [140.70261, 36.68685], [140.7029, 36.68698], [140.70324, 36.68711], [140.70361, 36.68726], [140.7041, 36.68744], [140.70438, 36.68754], [140.70515, 36.68781], [140.70573, 36.68803], [140.70631, 36.68827], [140.70699, 36.68858], [140.70744, 36.68882], [140.70756, 36.68889], [140.70773, 36.689], [140.70807, 36.68925], [140.7085, 36.6896], [140.70941, 36.69036], [140.71099, 36.69162], [140.71126, 36.69185], [140.71297, 36.69326], [140.71328, 36.69356], [140.71354, 36.69383], [140.71395, 36.69432], [140.71407, 36.69449], [140.71422, 36.69476], [140.71423, 36.69479], [140.71454, 36.69541], [140.71471, 36.69582], [140.71487, 36.69636], [140.71499, 36.69686], [140.71505, 36.69728], [140.7151, 36.69784], [140.71515, 36.69821], [140.71521, 36.69875], [140.7153, 36.69961], [140.71542, 36.70064], [140.71554, 36.70173], [140.71565, 36.70275], [140.71586, 36.70453], [140.71596, 36.7054], [140.71618, 36.70732], [140.71629, 36.70827], [140.71631, 36.70846], [140.71655, 36.71058], [140.71659, 36.71089], [140.71675, 36.71249], [140.71683, 36.71319]]}, "properties": {"id": "GEOM_TOKYO_2405", "route_id": "R_06E4D384", "route_name": null, "route_color": "#22A6B3", "route_text_color": null, "line_name": "常磐線", "operator_id": "jr_east", "representation": "service_path", "min_zoom": 0, "max_zoom": 24, "offset_rank": 0}}, {"type": "Feature", "bbox": [140.71708, 36.71549, 140.72861, 36.75221], "geometry": {"type": "LineString", "coordinates": [[140.71708, 36.71549], [140.7172, 36.7168], [140.71732, 36.71795], [140.71757, 36.72032], [140.71784, 36.72265], [140.71817, 36.72499], [140.7183, 36.72606], [140.71848, 36.72747], [140.71857, 36.72827], [140.7188, 36.73021], [140.71884, 36.73046], [140.7191, 36.73265], [140.7192, 36.73338], [140.71937, 36.73489], [140.71946, 36.73573], [140.71958, 36.73659], [140.71969, 36.73746], [140.71974, 36.73781], [140.71979, 36.73822], [140.71989, 36.73877], [140.72003, 36.73929], [140.72024, 36.74002], [140.72038, 36.74038], [140.72052, 36.74072], [140.72068, 36.74101], [140.72098, 36.74143], [140.72172, 36.74234], [140.72364, 36.74451], [140.72451, 36.74552], [140.72556, 36.7467], [140.72577, 36.74691], [140.7265, 36.74774], [140.72687, 36.74823], [140.7272, 36.74873], [140.72743, 36.74913], [140.72763, 36.74947], [140.72783, 36.74998], [140.72798, 36.75039], [140.72819, 36.75099], [140.72861, 36.75221]]}, "properties": {"id": "GEOM_TOKYO_2426", "route_id": "R_06E4D384", "route_name": null, "route_color": "#22A6B3", "route_text_color": null, "line_name": "常磐線", "operator_id": "jr_east", "representation": "service_path", "min_zoom": 0, "max_zoom": 24, "offset_rank": 0}}, {"type": "Feature", "bbox": [140.71683, 36.71319, 140.71708, 36.71549], "geometry": {"type": "LineString", "coordinates": [[140.71683, 36.71319], [140.71708, 36.71549]]}, "properties": {"id": "GEOM_TOKYO_2432", "route_id": "R_06E4D384", "route_name": null, "route_color": "#22A6B3", "route_text_color": null, "line_name": "常磐線", "operator_id": "jr_east", "representation": "service_path", "min_zoom": 0, "max_zoom": 24, "offset_rank": 0}}, {"type": "Feature", "bbox": [140.18987, 37.12441, 140.3882, 37.39681], "geometry": {"type": "LineString", "coordinates": [[140.3882, 37.39681], [140.38766, 37.3945], [140.3876, 37.39425], [140.38755, 37.39402], [140.38696, 37.39158], [140.38639, 37.38919], [140.38561, 37.38599], [140.38543, 37.38521], [140.38461, 37.38154], [140.38447, 37.38093], [140.38424, 37.38002], [140.38402, 37.3793], [140.38375, 37.37847], [140.38334, 37.37742], [140.38301, 37.37665], [140.38291, 37.37645], [140.38277, 37.37617], [140.3822, 37.37496], [140.38155, 37.3735], [140.38119, 37.37266], [140.38073, 37.37164], [140.3802, 37.37043], [140.37979, 37.3695], [140.3793, 37.36839], [140.37911, 37.36798], [140.37857, 37.36675], [140.37844, 37.36648], [140.37754, 37.36443], [140.37674, 37.36261], [140.37538, 37.35949], [140.37527, 37.35922], [140.37331, 37.35482], [140.37165, 37.351], [140.37136, 37.35036], [140.37039, 37.34817], [140.3695, 37.34625], [140.36864, 37.34438], [140.36832, 37.34368], [140.36781, 37.34254], [140.36737, 37.34158], [140.36718, 37.34114], [140.36608, 37.33867], [140.36605, 37.33859], [140.36567, 37.33776], [140.36505, 37.33639], [140.36494, 37.33617], [140.36453, 37.33526], [140.36407, 37.33429], [140.36346, 37.33309], [140.36277, 37.33178], [140.36183, 37.33017], [140.36096, 37.32888], [140.36089, 37.32878], [140.36005, 37.32764], [140.35947, 37.32684], [140.35872, 37.32584], [140.35868, 37.32579], [140.3581, 37.32501], [140.35806, 37.32495], [140.35713, 37.3237], [140.35574, 37.32183], [140.35571, 37.32179], [140.35542, 37.32138], [140.35527, 37.32118], [140.3548, 37.32055], [140.35389, 37.31932], [140.3538, 37.31918], [140.35332, 37.31853], [140.35306, 37.31818], [140.35273, 37.31772], [140.35265, 37.31762], [140.35244, 37.31734], [140.35235, 37.31721], [140.3519, 37.3166], [140.35131, 37.31583], [140.35072, 37.31503], [140.34899, 37.3127], [140.34854, 37.3121], [140.34722, 37.31033], [140.3456, 37.30816], [140.3439, 37.3059], [140.34277, 37.3044], [140.34179, 37.30312], [140.34009, 37.30087], [140.33775, 37.2978], [140.33694, 37.29673], [140.33646, 37.2961], [140.33629, 37.29588], [140.33578, 37.29521], [140.33545, 37.29477], [140.33535, 37.29464], [140.33472, 37.29381], [140.33443, 37.29344], [140.33435, 37.29333], [140.33351, 37.29223], [140.33313, 37.29173], [140.33255, 37.29097], [140.33159, 37.2897], [140.33076, 37.28863], [140.33035, 37.28807], [140.33018, 37.28786], [140.32958, 37.28703], [140.32911, 37.2864], [140.32828, 37.28527], [140.32732, 37.28398], [140.3273, 37.28394], [140.32679, 37.28325], [140.32642, 37.28275], [140.32593, 37.2821], [140.32583, 37.28196], [140.32518, 37.28111], [140.32462, 37.2804], [140.32366, 37.27913], [140.32239, 37.27745], [140.32234, 37.27738], [140.32211, 37.27709], [140.32206, 37.27702], [140.32139, 37.27614], [140.31996, 37.27427], [140.31839, 37.27222], [140.3178, 37.27143], [140.3175, 37.27103], [140.31715, 37.27058], [140.31658, 37.26982], [140.31634, 37.2695], [140.3163, 37.26945], [140.31552, 37.26837], [140.31475, 37.26731], [140.31383, 37.26604], [140.31261, 37.26436], [140.31224, 37.26387], [140.31188, 37.26341], [140.31182, 37.26333], [140.31162, 37.26308], [140.31137, 37.26274], [140.31024, 37.26126], [140.30816, 37.25847], [140.30681, 37.2567], [140.30609, 37.25575], [140.30557, 37.25506], [140.30531, 37.25472], [140.30511, 37.25445], [140.30501, 37.2543], [140.3049, 37.25415], [140.30408, 37.25306], [140.30361, 37.25242], [140.30289, 37.25142], [140.3028, 37.25129], [140.3026, 37.251], [140.30253, 37.25091], [140.30162, 37.24971], [140.30076, 37.24855], [140.30074, 37.24852], [140.30071, 37.24848], [140.3006, 37.24834], [140.30003, 37.24759], [140.29972, 37.2472], [140.29944, 37.24684], [140.29912, 37.24641], [140.29904, 37.24631], [140.2987, 37.24586], [140.2983, 37.24532], [140.29772, 37.24454], [140.29722, 37.24387], [140.29719, 37.24383], [140.29671, 37.24319], [140.29661, 37.24305], [140.29629, 37.24262], [140.29624, 37.24255], [140.29621, 37.24252], [140.29586, 37.24205], [140.2955, 37.24157], [140.29516, 37.24112], [140.29478, 37.24061], [140.29444, 37.24017], [140.29406, 37.23966], [140.29371, 37.23919], [140.29331, 37.23866], [140.29295, 37.23819], [140.29257, 37.23768], [140.2918, 37.23668], [140.29108, 37.23572], [140.29043, 37.23483], [140.29035, 37.23472], [140.28959, 37.2337], [140.28924, 37.23323], [140.28886, 37.2327], [140.28848, 37.23221], [140.28842, 37.23213], [140.28833, 37.232], [140.28776, 37.23122], [140.28719, 37.23047], [140.28716, 37.23043], [140.28704, 37.23028], [140.28597, 37.22886], [140.28486, 37.2274], [140.28388, 37.22613], [140.28338, 37.22548], [140.28323, 37.22528], [140.28275, 37.22467], [140.2827, 37.22461], [140.28237, 37.22418], [140.28226, 37.22403], [140.2821, 37.22383], [140.28206, 37.22378], [140.28178, 37.2234], [140.28173, 37.22333], [140.2817, 37.2233], [140.28123, 37.22269], [140.28095, 37.22232], [140.28071, 37.22201], [140.28061, 37.22188], [140.28045, 37.22168], [140.28041, 37.22163], [140.27989, 37.22095], [140.27981, 37.22085], [140.27969, 37.22068], [140.27959, 37.22055], [140.27896, 37.21973], [140.27879, 37.21951], [140.27869, 37.21938], [140.27843, 37.21904], [140.27743, 37.21772], [140.27681, 37.2169], [140.27628, 37.21624], [140.27591, 37.21576], [140.27546, 37.2152], [140.27512, 37.21474], [140.27449, 37.21401], [140.27384, 37.21324], [140.27332, 37.21264], [140.2729, 37.21218], [140.27259, 37.21186], [140.27213, 37.21138], [140.27157, 37.2108], [140.27149, 37.21072], [140.27135, 37.21057], [140.27085, 37.21005], [140.27068, 37.20987], [140.26954, 37.20868], [140.26866, 37.20776], [140.26777, 37.20683], [140.26652, 37.20549], [140.26518, 37.20408], [140.26457, 37.20343], [140.26446, 37.20332], [140.26444, 37.2033], [140.26331, 37.20214], [140.26213, 37.2009], [140.26183, 37.20058], [140.26179, 37.20054], [140.26136, 37.2001], [140.26132, 37.20006], [140.26112, 37.19984], [140.26001, 37.19871], [140.25924, 37.19789], [140.2592, 37.19786], [140.25863, 37.19725], [140.25857, 37.19718], [140.25845, 37.19706], [140.25793, 37.19652], [140.25721, 37.19577], [140.2568, 37.19535], [140.25563, 37.19412], [140.25446, 37.19289], [140.25319, 37.19156], [140.25202, 37.19034], [140.25176, 37.19006], [140.2508, 37.18903], [140.24958, 37.18778], [140.24911, 37.18727], [140.24891, 37.18706], [140.24845, 37.18659], [140.24767, 37.18577], [140.24716, 37.18523], [140.24684, 37.18488], [140.24667, 37.18474], [140.24649, 37.18459], [140.24426, 37.18225], [140.24376, 37.1817], [140.24211, 37.17998], [140.24131, 37.17912], [140.2408, 37.17859], [140.24056, 37.17834], [140.23839, 37.17604], [140.23762, 37.17524], [140.23754, 37.17516], [140.23748, 37.1751], [140.23689, 37.17447], [140.23684, 37.17442], [140.2367, 37.17427], [140.23444, 37.17188], [140.23384, 37.17126], [140.23377, 37.17118], [140.23241, 37.16974], [140.23118, 37.16844], [140.23084, 37.16809], [140.23083, 37.16807], [140.23059, 37.16779], [140.22799, 37.16497], [140.22795, 37.16493], [140.2279, 37.16487], [140.22678, 37.16369], [140.22612, 37.16299], [140.2255, 37.16233], [140.22549, 37.16232], [140.22465, 37.16143], [140.22239, 37.159], [140.22126, 37.15779], [140.2212, 37.15773], [140.22116, 37.15768], [140.21963, 37.15605], [140.21956, 37.15598], [140.21951, 37.15593], [140.21862, 37.155], [140.21854, 37.15491], [140.2185, 37.15487], [140.21753, 37.15383], [140.2175, 37.15379], [140.21709, 37.15336], [140.21706, 37.15333], [140.21672, 37.15296], [140.2167, 37.15294], [140.21667, 37.1529], [140.2162, 37.15243], [140.21614, 37.15236], [140.2159, 37.1521], [140.21516, 37.15131], [140.21497, 37.15111], [140.2146, 37.15071], [140.21452, 37.15063], [140.21445, 37.15055], [140.21115, 37.14707], [140.21107, 37.14698], [140.21101, 37.14692], [140.20732, 37.14298], [140.20723, 37.14288], [140.20718, 37.14282], [140.2058, 37.14135], [140.20561, 37.14115], [140.20554, 37.14107], [140.20186, 37.13718], [140.20184, 37.13715], [140.20177, 37.13709], [140.19505, 37.12992], [140.18989, 37.12443], [140.18987, 37.12441]]}, "properties": {"id": "GEOM_TOKYO_3005", "route_id": "R_86450D72", "route_name": null, "route_color": "#2D9C5B", "route_text_color": null, "line_name": "東北新幹線", "operator_id": "jr_east", "representation": "service_path", "min_zoom": 0, "max_zoom": 24, "offset_rank": 0}}, {"type": "Feature", "bbox": [140.18778, 37.12221, 140.18987, 37.12441], "geometry": {"type": "LineString", "coordinates": [[140.18778, 37.12221], [140.18946, 37.12397], [140.18987, 37.12441]]}, "properties": {"id": "GEOM_TOKYO_3008", "route_id": "R_86450D72", "route_name": null, "route_color": "#2D9C5B", "route_text_color": null, "line_name": "東北新幹線", "operator_id": "jr_east", "representation": "service_path", "min_zoom": 0, "max_zoom": 24, "offset_rank": 0}}, {"type": "Feature", "bbox": [140.02177, 36.93278, 140.18778, 37.12221], "geometry": {"type": "LineString", "coordinates": [[140.02177, 36.93278], [140.02184, 36.93284], [140.02459, 36.93534], [140.02491, 36.93562], [140.02558, 36.93622], [140.02657, 36.93712], [140.02909, 36.93942], [140.03101, 36.94118], [140.03174, 36.94186], [140.03471, 36.94464], [140.03695, 36.94671], [140.03766, 36.94736], [140.0394, 36.94895], [140.04189, 36.95122], [140.04498, 36.95412], [140.04615, 36.95516], [140.04877, 36.9576], [140.05057, 36.95959], [140.05283, 36.9622], [140.05414, 36.9637], [140.05713, 36.96707], [140.05926, 36.96955], [140.06071, 36.97124], [140.06476, 36.97593], [140.06563, 36.97692], [140.06968, 36.98158], [140.07137, 36.98354], [140.07206, 36.98432], [140.07233, 36.98467], [140.07288, 36.98532], [140.07382, 36.98639], [140.07532, 36.98812], [140.07576, 36.98864], [140.07596, 36.98886], [140.07784, 36.99101], [140.08104, 36.99489], [140.08278, 36.99707], [140.08303, 36.99736], [140.084, 36.99858], [140.0851, 36.99999], [140.08616, 37.00137], [140.08636, 37.00167], [140.08747, 37.00309], [140.08798, 37.00375], [140.08853, 37.00449], [140.08913, 37.00529], [140.08954, 37.00587], [140.09003, 37.00653], [140.09069, 37.00742], [140.09137, 37.00836], [140.09255, 37.00996], [140.0936, 37.0114], [140.09617, 37.01495], [140.09941, 37.01942], [140.10175, 37.02267], [140.10179, 37.02272], [140.10362, 37.02524], [140.10745, 37.03047], [140.10908, 37.03273], [140.11116, 37.03554], [140.11347, 37.03874], [140.11473, 37.04048], [140.11565, 37.04177], [140.1194, 37.04682], [140.12043, 37.04821], [140.12143, 37.04954], [140.12168, 37.04991], [140.12448, 37.05383], [140.1247, 37.05408], [140.12579, 37.05546], [140.12661, 37.05645], [140.12732, 37.05735], [140.12921, 37.05959], [140.13019, 37.06065], [140.13149, 37.06203], [140.13311, 37.06376], [140.13984, 37.07092], [140.14152, 37.07272], [140.14347, 37.07486], [140.14405, 37.07552], [140.1465, 37.07813], [140.15324, 37.08529], [140.15329, 37.08535], [140.1536, 37.08567], [140.1543, 37.08641], [140.15458, 37.08672], [140.15574, 37.08798], [140.15581, 37.08805], [140.15723, 37.08957], [140.15786, 37.09025], [140.16156, 37.09421], [140.1663, 37.09929], [140.16994, 37.10319], [140.17039, 37.10365], [140.17155, 37.10489], [140.17157, 37.10491], [140.17179, 37.10513], [140.17588, 37.1095], [140.17663, 37.11029], [140.17761, 37.11135], [140.17778, 37.11155], [140.17849, 37.11231], [140.17864, 37.11248], [140.17874, 37.11259], [140.17879, 37.11265], [140.181, 37.11494], [140.18105, 37.115], [140.18126, 37.11522], [140.1816, 37.11559], [140.18411, 37.11827], [140.18772, 37.12215], [140.18778, 37.12221]]}, "properties": {"id": "GEOM_TOKYO_3012", "route_id": "R_86450D72", "route_name": null, "route_color": "#2D9C5B", "route_text_color": null, "line_name": "東北新幹線", "operator_id": "jr_east", "representation": "service_path", "min_zoom": 0, "max_zoom": 24, "offset_rank": 0}}, {"type": "Feature", "bbox": [140.27344, 37.14837, 140.29879, 37.15739], "geometry": {"type": "LineString", "coordinates": [[140.29879, 37.15739], [140.29872, 37.15719], [140.2986, 37.15689], [140.29833, 37.15636], [140.29792, 37.15569], [140.29754, 37.15515], [140.2971, 37.15464], [140.29666, 37.15419], [140.29617, 37.15373], [140.29567, 37.15331], [140.2951, 37.15292], [140.2948, 37.15273], [140.29454, 37.15258], [140.29392, 37.15225], [140.29332, 37.15197], [140.29264, 37.15168], [140.29197, 37.15147], [140.29125, 37.15129], [140.29092, 37.15122], [140.29068, 37.15117], [140.29008, 37.15108], [140.28946, 37.15098], [140.28806, 37.15075], [140.28697, 37.15058], [140.28629, 37.15046], [140.28555, 37.15034], [140.28485, 37.15023], [140.2843, 37.15014], [140.28345, 37.14999], [140.2827, 37.14988], [140.28059, 37.14953], [140.27774, 37.14907], [140.2763, 37.14884], [140.27488, 37.14858], [140.27354, 37.14839], [140.27344, 37.14837]]}, "properties": {"id": "GEOM_TOKYO_3187", "route_id": "R_20E64CE3", "route_name": null, "route_color": "#3AA76D", "route_text_color": null, "line_name": "東北線", "operator_id": "jr_east", "representation": "service_path", "min_zoom": 0, "max_zoom": 24, "offset_rank": 0}}, {"type": "Feature", "bbox": [140.21389, 37.12438, 140.25933, 37.137], "geometry": {"type": "LineString", "coordinates": [[140.25933, 37.137], [140.25873, 37.13664], [140.25833, 37.13641], [140.25782, 37.13611], [140.25756, 37.13596], [140.257, 37.13563], [140.25585, 37.13494], [140.25565, 37.13482], [140.25525, 37.13457], [140.25408, 37.13388], [140.25351, 37.13355], [140.25237, 37.13288], [140.25121, 37.13221], [140.25005, 37.13153], [140.24667, 37.12953], [140.24468, 37.12834], [140.24154, 37.12645], [140.23985, 37.12543], [140.23941, 37.12519], [140.23877, 37.12489], [140.23832, 37.12473], [140.23793, 37.12461], [140.23757, 37.12451], [140.23722, 37.12444], [140.23655, 37.12439], [140.23544, 37.12438], [140.23507, 37.12441], [140.23447, 37.12446], [140.23427, 37.12447], [140.23345, 37.12465], [140.23303, 37.12479], [140.23265, 37.12493], [140.23222, 37.12514], [140.23147, 37.1256], [140.23081, 37.12614], [140.22945, 37.12731], [140.22918, 37.1275], [140.22878, 37.12778], [140.22843, 37.12795], [140.22802, 37.12815], [140.22758, 37.12831], [140.22724, 37.12842], [140.22692, 37.1285], [140.22644, 37.12857], [140.22546, 37.12866], [140.22428, 37.12877], [140.22326, 37.12886], [140.22063, 37.12907], [140.22031, 37.12909], [140.22014, 37.12911], [140.21691, 37.12936], [140.2164, 37.12942], [140.21631, 37.12944], [140.21389, 37.12992]]}, "properties": {"id": "GEOM_TOKYO_3190", "route_id": "R_20E64CE3", "route_name": null, "route_color": "#3AA76D", "route_text_color": null, "line_name": "東北線", "operator_id": "jr_east", "representation": "service_path", "min_zoom": 0, "max_zoom": 24, "offset_rank": 0}}, {"type": "Feature", "bbox": [140.26104, 37.13805, 140.26783, 37.1445], "geometry": {"type": "LineString", "coordinates": [[140.26104, 37.13805], [140.2618, 37.1385], [140.26207, 37.13867], [140.26268, 37.13903], [140.26325, 37.13937], [140.26385, 37.13973], [140.26444, 37.14008], [140.26501, 37.14042], [140.26555, 37.14081], [140.26579, 37.14103], [140.26595, 37.14121], [140.26616, 37.14149], [140.26633, 37.14174], [140.26647, 37.14196], [140.26656, 37.14211], [140.26666, 37.1423], [140.26682, 37.14256], [140.26698, 37.14284], [140.26719, 37.14322], [140.2673, 37.14341], [140.26735, 37.14353], [140.26752, 37.14387], [140.26783, 37.1445]]}, "properties": {"id": "GEOM_TOKYO_3192", "route_id": "R_20E64CE3", "route_name": null, "route_color": "#3AA76D", "route_text_color": null, "line_name": "東北線", "operator_id": "jr_east", "representation": "service_path", "min_zoom": 0, "max_zoom": 24, "offset_rank": 0}}, {"type": "Feature", "bbox": [140.26783, 37.1445, 140.27344, 37.14837], "geometry": {"type": "LineString", "coordinates": [[140.26783, 37.1445], [140.26789, 37.14458], [140.26801, 37.14475], [140.26828, 37.14511], [140.2683, 37.14516], [140.2684, 37.14531], [140.26859, 37.14562], [140.26872, 37.1458], [140.26878, 37.14587], [140.26887, 37.14598], [140.26901, 37.14616], [140.26911, 37.1463], [140.26933, 37.14658], [140.2694, 37.14666], [140.26954, 37.14677], [140.26975, 37.14693], [140.26992, 37.14704], [140.27012, 37.14716], [140.27022, 37.14722], [140.27045, 37.14734], [140.27057, 37.14741], [140.27078, 37.14752], [140.27098, 37.14762], [140.27112, 37.14768], [140.2712, 37.14772], [140.27148, 37.14783], [140.2718, 37.14795], [140.272, 37.14801], [140.27214, 37.14805], [140.27283, 37.14821], [140.27306, 37.14827], [140.27344, 37.14837]]}, "properties": {"id": "GEOM_TOKYO_3196", "route_id": "R_20E64CE3", "route_name": null, "route_color": "#3AA76D", "route_text_color": null, "line_name": "東北線", "operator_id": "jr_east", "representation": "service_path", "min_zoom": 0, "max_zoom": 24, "offset_rank": 0}}, {"type": "Feature", "bbox": [140.3281, 37.20477, 140.32845, 37.20673], "geometry": {"type": "LineString", "coordinates": [[140.3281, 37.20477], [140.32812, 37.2049], [140.32831, 37.20585], [140.32845, 37.20673]]}, "properties": {"id": "GEOM_TOKYO_3201", "route_id": "R_20E64CE3", "route_name": null, "route_color": "#3AA76D", "route_text_color": null, "line_name": "東北線", "operator_id": "jr_east", "representation": "service_path", "min_zoom": 0, "max_zoom": 24, "offset_rank": 0}}, {"type": "Feature", "bbox": [140.18433, 37.09453, 140.18508, 37.09602], "geometry": {"type": "LineString", "coordinates": [[140.18508, 37.09602], [140.18433, 37.09453]]}, "properties": {"id": "GEOM_TOKYO_3202", "route_id": "R_20E64CE3", "route_name": null, "route_color": "#3AA76D", "route_text_color": null, "line_name": "東北線", "operator_id": "jr_east", "representation": "service_path", "min_zoom": 0, "max_zoom": 24, "offset_rank": 0}}, {"type": "Feature", "bbox": [140.26783, 37.1445, 140.27344, 37.14837], "geometry": {"type": "LineString", "coordinates": [[140.26783, 37.1445], [140.26787, 37.14473], [140.2679, 37.14499], [140.2679, 37.14505], [140.26792, 37.14512], [140.26794, 37.14517], [140.26799, 37.14523], [140.26802, 37.14526], [140.26817, 37.14543], [140.26822, 37.14551], [140.26835, 37.14575], [140.26849, 37.14595], [140.26862, 37.14615], [140.26878, 37.14634], [140.26899, 37.14658], [140.2691, 37.1467], [140.26955, 37.14707], [140.26963, 37.14713], [140.26973, 37.14722], [140.26975, 37.14724], [140.26987, 37.14732], [140.26996, 37.14737], [140.27014, 37.14747], [140.27041, 37.14762], [140.2706, 37.14771], [140.27089, 37.14784], [140.27096, 37.14787], [140.27101, 37.14788], [140.27115, 37.14793], [140.27164, 37.14807], [140.27202, 37.14816], [140.27288, 37.14831], [140.27303, 37.14832], [140.27344, 37.14837]]}, "properties": {"id": "GEOM_TOKYO_3203", "route_id": "R_20E64CE3", "route_name": null, "route_color": "#3AA76D", "route_text_color": null, "line_name": "東北線", "operator_id": "jr_east", "representation": "service_path", "min_zoom": 0, "max_zoom": 24, "offset_rank": 0}}, {"type": "Feature", "bbox": [140.29879, 37.15739, 140.29933, 37.15908], "geometry": {"type": "LineString", "coordinates": [[140.29933, 37.15908], [140.29921, 37.15868], [140.2991, 37.15828], [140.29901, 37.158], [140.29879, 37.15739]]}, "properties": {"id": "GEOM_TOKYO_3207", "route_id": "R_20E64CE3", "route_name": null, "route_color": "#3AA76D", "route_text_color": null, "line_name": "東北線", "operator_id": "jr_east", "representation": "service_path", "min_zoom": 0, "max_zoom": 24, "offset_rank": 0}}, {"type": "Feature", "bbox": [140.21096, 37.12992, 140.21389, 37.13052], "geometry": {"type": "LineString", "coordinates": [[140.21389, 37.12992], [140.21096, 37.13052]]}, "properties": {"id": "GEOM_TOKYO_3208", "route_id": "R_20E64CE3", "route_name": null, "route_color": "#3AA76D", "route_text_color": null, "line_name": "東北線", "operator_id": "jr_east", "representation": "service_path", "min_zoom": 0, "max_zoom": 24, "offset_rank": 0}}, {"type": "Feature", "bbox": [140.18371, 37.09602, 140.1881, 37.12183], "geometry": {"type": "LineString", "coordinates": [[140.18684, 37.12183], [140.18565, 37.12055], [140.18505, 37.11989], [140.1846, 37.11936], [140.18429, 37.1188], [140.18421, 37.11863], [140.18389, 37.11773], [140.18377, 37.11721], [140.18372, 37.11678], [140.18371, 37.11639], [140.18372, 37.11604], [140.18373, 37.11569], [140.18404, 37.11346], [140.18414, 37.11283], [140.18446, 37.1107], [140.1846, 37.11008], [140.18486, 37.10941], [140.18517, 37.10891], [140.1854, 37.10858], [140.18583, 37.10815], [140.18641, 37.1076], [140.18681, 37.10713], [140.18707, 37.10667], [140.18742, 37.1061], [140.18773, 37.10536], [140.18789, 37.10479], [140.18794, 37.10456], [140.18801, 37.10425], [140.18808, 37.10365], [140.1881, 37.10305], [140.18802, 37.10215], [140.18791, 37.10163], [140.18769, 37.10091], [140.18731, 37.1001], [140.187, 37.09953], [140.18607, 37.09786], [140.18539, 37.09663], [140.18508, 37.09602]]}, "properties": {"id": "GEOM_TOKYO_3215", "route_id": "R_20E64CE3", "route_name": null, "route_color": "#3AA76D", "route_text_color": null, "line_name": "東北線", "operator_id": "jr_east", "representation": "service_path", "min_zoom": 0, "max_zoom": 24, "offset_rank": 0}}, {"type": "Feature", "bbox": [140.18684, 37.12183, 140.18823, 37.12325], "geometry": {"type": "LineString", "coordinates": [[140.18823, 37.12325], [140.18684, 37.12183]]}, "properties": {"id": "GEOM_TOKYO_3219", "route_id": "R_20E64CE3", "route_name": null, "route_color": "#3AA76D", "route_text_color": null, "line_name": "東北線", "operator_id": "jr_east", "representation": "service_path", "min_zoom": 0, "max_zoom": 24, "offset_rank": 0}}, {"type": "Feature", "bbox": [140.1727, 37.08104, 140.18433, 37.09453], "geometry": {"type": "LineString", "coordinates": [[140.1727, 37.08104], [140.17309, 37.08168], [140.1733, 37.08212], [140.17343, 37.08257], [140.17357, 37.08336], [140.17383, 37.08521], [140.17396, 37.08608], [140.174, 37.08641], [140.17402, 37.08667], [140.17408, 37.08702], [140.17418, 37.08741], [140.17433, 37.08771], [140.17463, 37.08817], [140.17506, 37.08867], [140.17517, 37.08877], [140.17541, 37.08898], [140.17569, 37.08923], [140.17586, 37.08935], [140.17611, 37.08952], [140.17637, 37.08969], [140.17673, 37.0899], [140.17775, 37.09029], [140.17886, 37.09066], [140.18092, 37.09133], [140.1813, 37.0915], [140.18161, 37.09165], [140.18191, 37.09188], [140.18278, 37.09269], [140.18318, 37.09314], [140.18408, 37.09419], [140.18433, 37.09453]]}, "properties": {"id": "GEOM_TOKYO_3220", "route_id": "R_20E64CE3", "route_name": null, "route_color": "#3AA76D", "route_text_color": null, "line_name": "東北線", "operator_id": "jr_east", "representation": "service_path", "min_zoom": 0, "max_zoom": 24, "offset_rank": 0}}, {"type": "Feature", "bbox": [140.1727, 37.08104, 140.18433, 37.09453], "geometry": {"type": "LineString", "coordinates": [[140.18433, 37.09453], [140.18375, 37.09351], [140.18274, 37.09163], [140.18249, 37.0911], [140.18073, 37.0871], [140.18053, 37.08666], [140.18053, 37.08664], [140.18049, 37.08649], [140.18046, 37.08641], [140.1802, 37.08585], [140.18008, 37.08561], [140.17996, 37.08543], [140.17974, 37.08522], [140.17896, 37.08452], [140.17851, 37.08419], [140.17799, 37.08388], [140.17547, 37.08259], [140.17453, 37.0821], [140.17363, 37.08162], [140.17304, 37.0813], [140.1727, 37.08104]]}, "properties": {"id": "GEOM_TOKYO_3221", "route_id": "R_20E64CE3", "route_name": null, "route_color": "#3AA76D", "route_text_color": null, "line_name": "東北線", "operator_id": "jr_east", "representation": "service_path", "min_zoom": 0, "max_zoom": 24, "offset_rank": 0}}, {"type": "Feature", "bbox": [140.29933, 37.15908, 140.3281, 37.20477], "geometry": {"type": "LineString", "coordinates": [[140.29933, 37.15908], [140.29943, 37.1594], [140.29952, 37.15968], [140.2996, 37.15997], [140.29969, 37.16027], [140.29984, 37.1608], [140.29985, 37.16083], [140.2999, 37.161], [140.29993, 37.16112], [140.29995, 37.1612], [140.3001, 37.1617], [140.30029, 37.16222], [140.30047, 37.1628], [140.30064, 37.16335], [140.30082, 37.16391], [140.30091, 37.16419], [140.30098, 37.16446], [140.30108, 37.16476], [140.30116, 37.16507], [140.30125, 37.16538], [140.30132, 37.16565], [140.30149, 37.16624], [140.30163, 37.16671], [140.30176, 37.16717], [140.30192, 37.16766], [140.30209, 37.16821], [140.30228, 37.16876], [140.30246, 37.16936], [140.30255, 37.16963], [140.30258, 37.16974], [140.30273, 37.17039], [140.30274, 37.17044], [140.30289, 37.17095], [140.30317, 37.17183], [140.3036, 37.17322], [140.30389, 37.1742], [140.30444, 37.17606], [140.30464, 37.17667], [140.30491, 37.17754], [140.30518, 37.17842], [140.30538, 37.17896], [140.30546, 37.17918], [140.30567, 37.1797], [140.30583, 37.18008], [140.30639, 37.18118], [140.30681, 37.18195], [140.30708, 37.18244], [140.30749, 37.18304], [140.30801, 37.18374], [140.30834, 37.18411], [140.3085, 37.1843], [140.3092, 37.18504], [140.30959, 37.18547], [140.30986, 37.18573], [140.31033, 37.18619], [140.31047, 37.18631], [140.31109, 37.18686], [140.31133, 37.18704], [140.31239, 37.18786], [140.31346, 37.18868], [140.31429, 37.18932], [140.31507, 37.18992], [140.31597, 37.19062], [140.31611, 37.19073], [140.31663, 37.19112], [140.31746, 37.19177], [140.31824, 37.19236], [140.31876, 37.19276], [140.31984, 37.19358], [140.32064, 37.1942], [140.32141, 37.19479], [140.32192, 37.19518], [140.32249, 37.1956], [140.32299, 37.19599], [140.32355, 37.19642], [140.32403, 37.19681], [140.32456, 37.19727], [140.32501, 37.19769], [140.32546, 37.19817], [140.32588, 37.19863], [140.32626, 37.19915], [140.32646, 37.19942], [140.32662, 37.19966], [140.32691, 37.20022], [140.32703, 37.20049], [140.32743, 37.20164], [140.32768, 37.20247], [140.3278, 37.20303], [140.32797, 37.20392], [140.32806, 37.20449], [140.3281, 37.20477]]}, "properties": {"id": "GEOM_TOKYO_3223", "route_id": "R_20E64CE3", "route_name": null, "route_color": "#3AA76D", "route_text_color": null, "line_name": "東北線", "operator_id": "jr_east", "representation": "service_path", "min_zoom": 0, "max_zoom": 24, "offset_rank": 0}}, {"type": "Feature", "bbox": [140.32845, 37.20673, 140.34625, 37.24973], "geometry": {"type": "LineString", "coordinates": [[140.32845, 37.20673], [140.32858, 37.20751], [140.32886, 37.20922], [140.32889, 37.20936], [140.32918, 37.21113], [140.32952, 37.21317], [140.32999, 37.21608], [140.33029, 37.21785], [140.33033, 37.21815], [140.33052, 37.21932], [140.33075, 37.22072], [140.33076, 37.22077], [140.33093, 37.22193], [140.33124, 37.22372], [140.33143, 37.2249], [140.33168, 37.22661], [140.3318, 37.22733], [140.33199, 37.22838], [140.33214, 37.22895], [140.33229, 37.22955], [140.33233, 37.22969], [140.33237, 37.22981], [140.33255, 37.23031], [140.33269, 37.23069], [140.33281, 37.23094], [140.33296, 37.23121], [140.33365, 37.23223], [140.33479, 37.23379], [140.33589, 37.23531], [140.33703, 37.23687], [140.33755, 37.2376], [140.33775, 37.23788], [140.33849, 37.23889], [140.33959, 37.2404], [140.34033, 37.24143], [140.34179, 37.24349], [140.3429, 37.24506], [140.34314, 37.24539], [140.34325, 37.24554], [140.34434, 37.24712], [140.34543, 37.24862], [140.34606, 37.24948], [140.34625, 37.24973]]}, "properties": {"id": "GEOM_TOKYO_3224", "route_id": "R_20E64CE3", "route_name": null, "route_color": "#3AA76D", "route_text_color": null, "line_name": "東北線", "operator_id": "jr_east", "representation": "service_path", "min_zoom": 0, "max_zoom": 24, "offset_rank": 0}}, {"type": "Feature", "bbox": [140.18823, 37.12325, 140.21096, 37.13236], "geometry": {"type": "LineString", "coordinates": [[140.21096, 37.13052], [140.20861, 37.13097], [140.20847, 37.131], [140.20786, 37.13112], [140.20411, 37.13189], [140.20318, 37.13207], [140.20244, 37.13222], [140.20189, 37.1323], [140.20104, 37.13236], [140.20015, 37.13235], [140.1997, 37.1323], [140.19919, 37.13225], [140.19868, 37.13214], [140.19822, 37.13202], [140.1978, 37.13188], [140.19737, 37.13171], [140.19662, 37.13134], [140.19627, 37.13114], [140.19545, 37.13068], [140.19525, 37.13053], [140.19487, 37.13018], [140.19337, 37.1286], [140.18945, 37.12448], [140.18921, 37.12424], [140.18823, 37.12325]]}, "properties": {"id": "GEOM_TOKYO_3225", "route_id": "R_20E64CE3", "route_name": null, "route_color": "#3AA76D", "route_text_color": null, "line_name": "東北線", "operator_id": "jr_east", "representation": "service_path", "min_zoom": 0, "max_zoom": 24, "offset_rank": 0}}, {"type": "Feature", "bbox": [140.25933, 37.137, 140.26104, 37.13805], "geometry": {"type": "LineString", "coordinates": [[140.26104, 37.13805], [140.25933, 37.137]]}, "properties": {"id": "GEOM_TOKYO_3232", "route_id": "R_20E64CE3", "route_name": null, "route_color": "#3AA76D", "route_text_color": null, "line_name": "東北線", "operator_id": "jr_east", "representation": "service_path", "min_zoom": 0, "max_zoom": 24, "offset_rank": 0}}, {"type": "Feature", "bbox": [140.15553, 37.05564, 140.1727, 37.08104], "geometry": {"type": "LineString", "coordinates": [[140.15553, 37.05564], [140.15557, 37.0557], [140.15568, 37.05584], [140.15599, 37.05623], [140.15617, 37.05645], [140.1568, 37.05711], [140.15725, 37.05754], [140.15754, 37.0578], [140.15782, 37.05805], [140.15797, 37.05817], [140.1581, 37.05826], [140.15824, 37.05836], [140.15849, 37.05851], [140.15928, 37.05899], [140.16001, 37.05939], [140.16053, 37.05968], [140.16096, 37.05993], [140.16164, 37.06031], [140.16206, 37.06065], [140.16265, 37.06125], [140.16277, 37.06141], [140.16312, 37.06196], [140.16342, 37.06264], [140.16361, 37.0632], [140.1637, 37.06376], [140.16372, 37.06399], [140.16371, 37.06416], [140.16362, 37.06479], [140.1635, 37.06557], [140.16347, 37.06591], [140.16348, 37.06663], [140.16348, 37.0669], [140.16351, 37.06722], [140.16361, 37.06766], [140.16387, 37.0683], [140.16397, 37.06859], [140.1641, 37.06888], [140.16435, 37.06933], [140.16465, 37.06992], [140.16578, 37.07199], [140.16658, 37.07352], [140.16676, 37.07382], [140.16692, 37.07408], [140.16741, 37.07475], [140.16755, 37.07493], [140.16795, 37.07545], [140.16842, 37.07604], [140.16861, 37.07627], [140.16937, 37.07722], [140.1696, 37.07752], [140.16986, 37.07787], [140.17009, 37.07815], [140.17197, 37.08026], [140.17217, 37.0805], [140.17251, 37.08086], [140.1727, 37.08104]]}, "properties": {"id": "GEOM_TOKYO_3235", "route_id": "R_20E64CE3", "route_name": null, "route_color": "#3AA76D", "route_text_color": null, "line_name": "東北線", "operator_id": "jr_east", "representation": "service_path", "min_zoom": 0, "max_zoom": 24, "offset_rank": 0}}, {"type": "Feature", "bbox": [140.15466, 37.05429, 140.15553, 37.05564], "geometry": {"type": "LineString", "coordinates": [[140.15466, 37.05429], [140.15494, 37.05476], [140.15521, 37.05518], [140.15553, 37.05564]]}, "properties": {"id": "GEOM_TOKYO_3236", "route_id": "R_20E64CE3", "route_name": null, "route_color": "#3AA76D", "route_text_color": null, "line_name": "東北線", "operator_id": "jr_east", "representation": "service_path", "min_zoom": 0, "max_zoom": 24, "offset_rank": 0}}, {"type": "Feature", "bbox": [140.12208, 37.02388, 140.15466, 37.05429], "geometry": {"type": "LineString", "coordinates": [[140.12208, 37.02388], [140.12446, 37.02464], [140.12665, 37.02538], [140.12741, 37.0257], [140.13015, 37.02711], [140.13169, 37.02792], [140.132, 37.02808], [140.1336, 37.02892], [140.13439, 37.02933], [140.13559, 37.02997], [140.13591, 37.03018], [140.13623, 37.03041], [140.13644, 37.03061], [140.13655, 37.03073], [140.13666, 37.03086], [140.13708, 37.0314], [140.1372, 37.03155], [140.13766, 37.03213], [140.13848, 37.03322], [140.13904, 37.0339], [140.13919, 37.03412], [140.13953, 37.03451], [140.14002, 37.03495], [140.14046, 37.03528], [140.14075, 37.03545], [140.14127, 37.03569], [140.14183, 37.03592], [140.14301, 37.0364], [140.14423, 37.03684], [140.14462, 37.03699], [140.14537, 37.03726], [140.14654, 37.03772], [140.14692, 37.03787], [140.14699, 37.03791], [140.14732, 37.03806], [140.14757, 37.0382], [140.14798, 37.03847], [140.14843, 37.03878], [140.14874, 37.03901], [140.14902, 37.0393], [140.14918, 37.03947], [140.14931, 37.03962], [140.14983, 37.04027], [140.15055, 37.04137], [140.15097, 37.04215], [140.15119, 37.04269], [140.15178, 37.0454], [140.15204, 37.04658], [140.15235, 37.048], [140.15236, 37.04804], [140.15247, 37.0486], [140.15258, 37.0491], [140.15262, 37.04926], [140.15273, 37.04973], [140.15293, 37.05038], [140.15306, 37.05075], [140.15318, 37.05112], [140.15323, 37.05124], [140.15341, 37.0517], [140.15419, 37.05337], [140.15436, 37.05374], [140.15451, 37.05401], [140.15466, 37.05429]]}, "properties": {"id": "GEOM_TOKYO_3265", "route_id": "R_20E64CE3", "route_name": null, "route_color": "#3AA76D", "route_text_color": null, "line_name": "東北線", "operator_id": "jr_east", "representation": "service_path", "min_zoom": 0, "max_zoom": 24, "offset_rank": 0}}]}