{"type": "FeatureCollection", "features": [{"type": "Feature", "bbox": [135.49446, 34.73191, 135.49791, 34.73268], "geometry": {"type": "LineString", "coordinates": [[135.49446, 34.73191], [135.49454, 34.73191], [135.49466, 34.73192], [135.49719, 34.73251], [135.49791, 34.73268]]}, "properties": {"id": "TRACK_TOKYO_0647", "line_name": "山陽新幹線", "station_group_ids": [], "mode": "shinkansen", "operator_id": "西日本旅客鉄道", "line_color": "#1263D6", "tags": ["tokyo", "track_centerline"]}}, {"type": "Feature", "bbox": [135.49446, 34.73191, 135.49782, 34.73293], "geometry": {"type": "LineString", "coordinates": [[135.49446, 34.73191], [135.49452, 34.73194], [135.49461, 34.73197], [135.49719, 34.73277], [135.49782, 34.73293]]}, "properties": {"id": "TRACK_TOKYO_0648", "line_name": "山陽新幹線", "station_group_ids": [], "mode": "shinkansen", "operator_id": "西日本旅客鉄道", "line_color": "#1263D6", "tags": ["tokyo", "track_centerline"]}}, {"type": "Feature", "bbox": [135.49791, 34.73268, 135.50238, 34.73412], "geometry": {"type": "LineString", "coordinates": [[135.49791, 34.73268], [135.50238, 34.73412]]}, "properties": {"id": "TRACK_TOKYO_0649", "line_name": "山陽新幹線", "station_group_ids": [], "mode": "shinkansen", "operator_id": "西日本旅客鉄道", "line_color": "#1263D6", "tags": ["tokyo", "track_centerline"]}}, {"type": "Feature", "bbox": [135.49782, 34.73293, 135.50225, 34.73443], "geometry": {"type": "LineString", "coordinates": [[135.49782, 34.73293], [135.50225, 34.73443]]}, "properties": {"id": "TRACK_TOKYO_0650", "line_name": "山陽新幹線", "station_group_ids": [], "mode": "shinkansen", "operator_id": "西日本旅客鉄道", "line_color": "#1263D6", "tags": ["tokyo", "track_centerline"]}}, {"type": "Feature", "bbox": [135.19501, 34.70618, 135.19866, 34.7083], "geometry": {"type": "LineString", "coordinates": [[135.19866, 34.7083], [135.19792, 34.70781], [135.19655, 34.70699], [135.19501, 34.70618]]}, "properties": {"id": "TRACK_TOKYO_0651", "line_name": "山陽新幹線", "station_group_ids": [], "mode": "shinkansen", "operator_id": "西日本旅客鉄道", "line_color": "#1263D6", "tags": ["tokyo", "track_centerline"]}}, {"type": "Feature", "bbox": [134.95833, 34.66688, 134.96204, 34.66724], "geometry": {"type": "LineString", "coordinates": [[134.96204, 34.66688], [134.96136, 34.66694], [134.95833, 34.66724]]}, "properties": {"id": "TRACK_TOKYO_0652", "line_name": "山陽新幹線", "station_group_ids": [], "mode": "shinkansen", "operator_id": "西日本旅客鉄道", "line_color": "#1263D6", "tags": ["tokyo", "track_centerline"]}}, {"type": "Feature", "bbox": [135.19866, 34.7083, 135.49446, 34.7687], "geometry": {"type": "LineString", "coordinates": [[135.19866, 34.7083], [135.19902, 34.70854], [135.20038, 34.70955], [135.2023, 34.71114], [135.20407, 34.71269], [135.2052, 34.71375], [135.20634, 34.71482], [135.20663, 34.71508], [135.20729, 34.71569], [135.20785, 34.71627], [135.20867, 34.71706], [135.20886, 34.71725], [135.2104, 34.71871], [135.21209, 34.7203], [135.21441, 34.72247], [135.21585, 34.72383], [135.21591, 34.72389], [135.21798, 34.72584], [135.2191, 34.7269], [135.22161, 34.72908], [135.2228, 34.73011], [135.22339, 34.73054], [135.2237, 34.73077], [135.22529, 34.73187], [135.22707, 34.73318], [135.22792, 34.73378], [135.2287, 34.7343], [135.23028, 34.73536], [135.23181, 34.73625], [135.2319, 34.7363], [135.23296, 34.73689], [135.23409, 34.73749], [135.2354, 34.73811], [135.23682, 34.7388], [135.23842, 34.73952], [135.24005, 34.74017], [135.24156, 34.74068], [135.24203, 34.74084], [135.24426, 34.74155], [135.24721, 34.74251], [135.25557, 34.7451], [135.26592, 34.74831], [135.27628, 34.75152], [135.28083, 34.75293], [135.28147, 34.75313], [135.28183, 34.75324], [135.28512, 34.75429], [135.28521, 34.75432], [135.2885, 34.75537], [135.29179, 34.75645], [135.29508, 34.75753], [135.29541, 34.75764], [135.29837, 34.75861], [135.3018, 34.75972], [135.30524, 34.76083], [135.3057, 34.76098], [135.30869, 34.76194], [135.31039, 34.76249], [135.31146, 34.76283], [135.31214, 34.76305], [135.31261, 34.76319], [135.3138, 34.76359], [135.31617, 34.76427], [135.31704, 34.76449], [135.319, 34.76491], [135.3207, 34.76526], [135.32203, 34.7655], [135.32231, 34.76555], [135.32323, 34.7657], [135.3237, 34.76578], [135.32407, 34.76581], [135.32439, 34.76586], [135.32575, 34.76599], [135.32689, 34.76611], [135.32794, 34.76623], [135.32842, 34.76628], [135.32926, 34.76631], [135.32961, 34.76633], [135.33007, 34.76636], [135.33044, 34.76635], [135.33085, 34.76635], [135.33276, 34.76627], [135.33303, 34.76625], [135.33451, 34.76617], [135.33624, 34.76611], [135.33664, 34.76612], [135.33806, 34.76607], [135.33972, 34.76599], [135.34083, 34.76593], [135.34208, 34.76581], [135.34321, 34.76568], [135.34407, 34.76558], [135.34672, 34.76526], [135.34902, 34.76502], [135.35021, 34.76491], [135.35336, 34.76467], [135.35441, 34.7646], [135.35508, 34.76454], [135.35636, 34.76454], [135.35704, 34.76456], [135.35772, 34.76458], [135.35837, 34.76459], [135.35907, 34.76462], [135.36059, 34.76474], [135.36119, 34.76478], [135.36238, 34.76487], [135.36412, 34.76502], [135.36497, 34.76511], [135.36767, 34.76538], [135.3722, 34.7658], [135.37334, 34.76594], [135.37368, 34.76596], [135.37422, 34.76601], [135.37428, 34.76602], [135.37452, 34.76605], [135.37585, 34.76616], [135.37607, 34.76619], [135.37621, 34.7662], [135.37683, 34.76627], [135.37783, 34.76636], [135.37787, 34.76637], [135.37882, 34.76646], [135.37919, 34.76649], [135.37957, 34.76653], [135.3796, 34.76654], [135.38011, 34.76658], [135.38014, 34.76659], [135.38031, 34.76661], [135.38097, 34.76666], [135.38114, 34.76669], [135.38138, 34.76671], [135.38155, 34.76672], [135.38247, 34.76682], [135.38259, 34.76682], [135.38262, 34.76683], [135.38278, 34.76684], [135.38283, 34.76686], [135.38306, 34.76687], [135.38349, 34.76691], [135.38382, 34.76695], [135.38403, 34.76696], [135.38436, 34.767], [135.3845, 34.76702], [135.38491, 34.76706], [135.3851, 34.76708], [135.38545, 34.76711], [135.38554, 34.76713], [135.38603, 34.76717], [135.3864, 34.76721], [135.38716, 34.76728], [135.3875, 34.76731], [135.38825, 34.76738], [135.38862, 34.76741], [135.38879, 34.76744], [135.38894, 34.76745], [135.38913, 34.76747], [135.38989, 34.76754], [135.39, 34.76755], [135.39013, 34.76756], [135.39059, 34.76761], [135.39074, 34.76763], [135.39088, 34.76764], [135.39114, 34.76766], [135.39125, 34.76768], [135.39187, 34.76775], [135.39264, 34.76781], [135.39276, 34.76784], [135.39289, 34.76784], [135.39329, 34.76788], [135.39336, 34.76789], [135.39366, 34.76791], [135.39411, 34.76796], [135.39449, 34.76799], [135.39454, 34.76801], [135.39536, 34.76808], [135.39578, 34.76812], [135.39584, 34.76814], [135.39625, 34.76817], [135.39658, 34.76821], [135.39705, 34.76825], [135.39767, 34.76831], [135.39773, 34.76831], [135.39812, 34.76835], [135.39847, 34.76838], [135.39851, 34.76839], [135.3991, 34.76844], [135.39981, 34.7685], [135.4003, 34.76855], [135.40164, 34.76862], [135.40178, 34.76863], [135.40253, 34.76866], [135.4036, 34.76869], [135.40439, 34.76869], [135.40582, 34.7687], [135.40705, 34.76867], [135.40713, 34.76866], [135.40748, 34.76865], [135.40782, 34.76864], [135.40841, 34.76862], [135.40875, 34.76859], [135.40903, 34.76857], [135.41014, 34.76848], [135.41038, 34.76847], [135.41051, 34.76845], [135.41082, 34.76842], [135.4111, 34.76839], [135.41135, 34.76836], [135.41159, 34.76833], [135.41195, 34.76829], [135.41216, 34.76825], [135.41238, 34.76823], [135.41245, 34.76821], [135.41256, 34.7682], [135.41264, 34.76818], [135.4132, 34.76809], [135.41331, 34.76807], [135.41392, 34.76796], [135.41463, 34.76783], [135.41536, 34.76767], [135.41591, 34.76757], [135.41594, 34.76756], [135.41615, 34.76752], [135.41624, 34.76749], [135.41728, 34.76723], [135.41762, 34.76714], [135.41767, 34.76713], [135.41788, 34.76708], [135.41825, 34.76698], [135.4188, 34.76681], [135.41887, 34.7668], [135.41932, 34.76666], [135.41985, 34.7665], [135.42015, 34.7664], [135.4202, 34.76639], [135.42055, 34.76627], [135.42063, 34.76625], [135.42066, 34.76624], [135.42127, 34.76605], [135.42143, 34.76599], [135.4216, 34.76593], [135.42175, 34.76588], [135.42186, 34.76584], [135.42195, 34.76581], [135.42225, 34.7657], [135.42255, 34.7656], [135.42276, 34.76552], [135.42327, 34.76532], [135.42341, 34.76527], [135.42345, 34.76526], [135.4235, 34.76524], [135.42397, 34.76506], [135.42517, 34.76457], [135.4252, 34.76455], [135.4253, 34.76451], [135.42594, 34.76424], [135.42599, 34.7642], [135.42621, 34.76411], [135.42644, 34.764], [135.42673, 34.76388], [135.4273, 34.76359], [135.42738, 34.76356], [135.42791, 34.76329], [135.42825, 34.7631], [135.42873, 34.76284], [135.42914, 34.76261], [135.4295, 34.76243], [135.42963, 34.76234], [135.43044, 34.76187], [135.43055, 34.7618], [135.43144, 34.76123], [135.43212, 34.76078], [135.43256, 34.76047], [135.43262, 34.76043], [135.43288, 34.76025], [135.4333, 34.75996], [135.43413, 34.75936], [135.43428, 34.75925], [135.43568, 34.75817], [135.43616, 34.75777], [135.43664, 34.75737], [135.4368, 34.75721], [135.43685, 34.75717], [135.43688, 34.75713], [135.43729, 34.75676], [135.43758, 34.75648], [135.4381, 34.75599], [135.43823, 34.75586], [135.43834, 34.75577], [135.43866, 34.75544], [135.43908, 34.75499], [135.4395, 34.75454], [135.43955, 34.7545], [135.4401, 34.7539], [135.44018, 34.7538], [135.44033, 34.75363], [135.44064, 34.75325], [135.44096, 34.75293], [135.44123, 34.75261], [135.44152, 34.75222], [135.44219, 34.75129], [135.4426, 34.75069], [135.44278, 34.75044], [135.44314, 34.74987], [135.44359, 34.74911], [135.44479, 34.74695], [135.446, 34.74478], [135.44728, 34.74252], [135.44845, 34.74046], [135.44965, 34.7383], [135.45087, 34.73615], [135.45189, 34.73432], [135.45208, 34.73399], [135.45328, 34.73185], [135.45446, 34.72973], [135.4549, 34.72896], [135.45521, 34.72848], [135.45548, 34.72812], [135.45586, 34.7276], [135.45631, 34.72704], [135.45697, 34.72634], [135.45732, 34.72599], [135.45737, 34.72595], [135.45773, 34.72561], [135.45823, 34.72522], [135.45899, 34.72473], [135.45908, 34.72468], [135.45975, 34.72432], [135.46057, 34.72393], [135.46138, 34.7236], [135.46206, 34.72337], [135.46275, 34.72321], [135.46348, 34.7231], [135.46399, 34.72304], [135.46443, 34.723], [135.46502, 34.723], [135.46601, 34.72306], [135.46677, 34.72313], [135.46732, 34.7232], [135.46771, 34.72329], [135.46812, 34.7234], [135.46953, 34.72385], [135.46955, 34.72385], [135.47387, 34.72528], [135.47876, 34.7269], [135.47982, 34.72724], [135.48473, 34.72884], [135.49011, 34.73058], [135.49017, 34.7306], [135.49446, 34.73191]]}, "properties": {"id": "TRACK_TOKYO_0654", "line_name": "山陽新幹線", "station_group_ids": [], "mode": "shinkansen", "operator_id": "西日本旅客鉄道", "line_color": "#1263D6", "tags": ["tokyo", "track_centerline"]}}, {"type": "Feature", "bbox": [134.96204, 34.66471, 135.19501, 34.70618], "geometry": {"type": "LineString", "coordinates": [[135.19501, 34.70618], [135.19466, 34.70599], [135.19434, 34.70584], [135.19363, 34.70551], [135.19229, 34.70496], [135.19098, 34.70453], [135.18889, 34.70395], [135.18731, 34.70356], [135.18577, 34.70325], [135.18545, 34.70319], [135.18325, 34.70281], [135.17885, 34.70211], [135.17459, 34.70141], [135.17456, 34.7014], [135.16999, 34.70068], [135.1668, 34.70016], [135.16502, 34.69987], [135.163, 34.69954], [135.16134, 34.69926], [135.15851, 34.69876], [135.15415, 34.69809], [135.15374, 34.69802], [135.14973, 34.69742], [135.14806, 34.69718], [135.14619, 34.69688], [135.14467, 34.69657], [135.1433, 34.69627], [135.1423, 34.69605], [135.14196, 34.69597], [135.13981, 34.69549], [135.1388, 34.69524], [135.1383, 34.69511], [135.1339, 34.69404], [135.13387, 34.69404], [135.13178, 34.69351], [135.12869, 34.69274], [135.12572, 34.69197], [135.12222, 34.69104], [135.11893, 34.69027], [135.11825, 34.69011], [135.11655, 34.6897], [135.11116, 34.68839], [135.11043, 34.6882], [135.10981, 34.68805], [135.10965, 34.68801], [135.10942, 34.68795], [135.10916, 34.68789], [135.10852, 34.68773], [135.10814, 34.68764], [135.10769, 34.68755], [135.1061, 34.68714], [135.10522, 34.68692], [135.10448, 34.68674], [135.10149, 34.68601], [135.09386, 34.68417], [135.09313, 34.68399], [135.0918, 34.68366], [135.0908, 34.68341], [135.08831, 34.68282], [135.08441, 34.68188], [135.08323, 34.6816], [135.08248, 34.68143], [135.08047, 34.68096], [135.07867, 34.68059], [135.0782, 34.6805], [135.07768, 34.68039], [135.07762, 34.68038], [135.07689, 34.68023], [135.07537, 34.67993], [135.07444, 34.67976], [135.07299, 34.67944], [135.07282, 34.6794], [135.07191, 34.6792], [135.06931, 34.67866], [135.06562, 34.67791], [135.06269, 34.67733], [135.06195, 34.67718], [135.06048, 34.67689], [135.0593, 34.67664], [135.05819, 34.6764], [135.05431, 34.67562], [135.05194, 34.67514], [135.05056, 34.67486], [135.0494, 34.67466], [135.04919, 34.67461], [135.04818, 34.67439], [135.04687, 34.67412], [135.04648, 34.67404], [135.04524, 34.67378], [135.04478, 34.67369], [135.04379, 34.67347], [135.04305, 34.67331], [135.04142, 34.67299], [135.04093, 34.67289], [135.04066, 34.67284], [135.04055, 34.67282], [135.04051, 34.67281], [135.04048, 34.6728], [135.0401, 34.67272], [135.03982, 34.67266], [135.03946, 34.67258], [135.03548, 34.6718], [135.03312, 34.67132], [135.03233, 34.67118], [135.032, 34.67112], [135.03179, 34.67108], [135.03165, 34.67105], [135.03047, 34.67082], [135.03023, 34.67077], [135.02996, 34.67071], [135.02966, 34.67065], [135.02878, 34.67048], [135.02839, 34.67041], [135.02795, 34.67031], [135.02728, 34.67017], [135.02703, 34.67012], [135.02636, 34.66996], [135.02623, 34.66992], [135.02608, 34.66989], [135.02533, 34.66972], [135.02438, 34.66952], [135.02386, 34.66941], [135.02247, 34.66911], [135.01989, 34.66861], [135.01856, 34.66834], [135.01828, 34.66829], [135.01463, 34.66756], [135.01253, 34.66712], [135.01155, 34.66694], [135.01081, 34.66679], [135.00984, 34.6666], [135.00839, 34.66632], [135.00821, 34.66629], [135.00813, 34.66627], [135.00637, 34.66593], [135.00426, 34.66548], [135.00312, 34.66527], [135.00251, 34.66518], [134.99981, 34.66487], [134.99911, 34.66481], [134.99723, 34.66475], [134.9965, 34.66473], [134.99503, 34.66471], [134.99356, 34.66473], [134.9916, 34.6648], [134.99071, 34.66486], [134.98817, 34.66502], [134.98544, 34.66521], [134.98201, 34.66545], [134.97961, 34.66562], [134.97575, 34.66587], [134.97439, 34.66597], [134.97308, 34.66607], [134.97004, 34.6663], [134.96677, 34.66655], [134.9635, 34.66676], [134.96204, 34.66688]]}, "properties": {"id": "TRACK_TOKYO_0655", "line_name": "山陽新幹線", "station_group_ids": [], "mode": "shinkansen", "operator_id": "西日本旅客鉄道", "line_color": "#1263D6", "tags": ["tokyo", "track_centerline"]}}, {"type": "Feature", "bbox": [134.69284, 34.66724, 134.95833, 34.82619], "geometry": {"type": "LineString", "coordinates": [[134.95833, 34.66724], [134.95526, 34.66757], [134.95309, 34.66785], [134.95292, 34.66787], [134.95158, 34.66806], [134.94946, 34.6684], [134.94666, 34.66888], [134.9444, 34.66933], [134.94257, 34.66979], [134.94214, 34.66992], [134.94089, 34.67033], [134.94026, 34.67058], [134.93958, 34.67085], [134.93836, 34.67137], [134.93727, 34.6719], [134.9363, 34.6724], [134.93521, 34.67304], [134.9341, 34.67372], [134.93242, 34.67486], [134.93124, 34.67575], [134.92917, 34.6773], [134.92619, 34.67956], [134.92318, 34.68194], [134.91524, 34.68822], [134.91302, 34.68998], [134.91084, 34.69167], [134.90815, 34.69375], [134.90722, 34.69445], [134.90551, 34.69571], [134.903, 34.69749], [134.90154, 34.69844], [134.90008, 34.69931], [134.89859, 34.70009], [134.89801, 34.70039], [134.89338, 34.70272], [134.88914, 34.70479], [134.88848, 34.70511], [134.88651, 34.70609], [134.88463, 34.70711], [134.88321, 34.70794], [134.88223, 34.70857], [134.88104, 34.70942], [134.88018, 34.71006], [134.87238, 34.7158], [134.87224, 34.7159], [134.86636, 34.72033], [134.86488, 34.72144], [134.86333, 34.72264], [134.86252, 34.72324], [134.86185, 34.72366], [134.85939, 34.72514], [134.85786, 34.7261], [134.85603, 34.72724], [134.8518, 34.72993], [134.85018, 34.73096], [134.84704, 34.73297], [134.84637, 34.73344], [134.84445, 34.73477], [134.84168, 34.73673], [134.84126, 34.73703], [134.8387, 34.73879], [134.83721, 34.73983], [134.83621, 34.74054], [134.83497, 34.74142], [134.82893, 34.74572], [134.82661, 34.74734], [134.82565, 34.74801], [134.81823, 34.75324], [134.81813, 34.75331], [134.81717, 34.75391], [134.81712, 34.75394], [134.81638, 34.75444], [134.81407, 34.756], [134.81366, 34.75628], [134.81299, 34.75674], [134.81251, 34.75707], [134.81144, 34.7578], [134.81053, 34.75842], [134.81003, 34.75877], [134.80976, 34.75895], [134.80917, 34.75938], [134.80865, 34.75975], [134.80858, 34.7598], [134.80853, 34.75983], [134.80832, 34.76], [134.80828, 34.76001], [134.80827, 34.76003], [134.80586, 34.76178], [134.80303, 34.76391], [134.8021, 34.76464], [134.80045, 34.76592], [134.80032, 34.76602], [134.79942, 34.76673], [134.79615, 34.76939], [134.79593, 34.76956], [134.79405, 34.77108], [134.79258, 34.77227], [134.79171, 34.77297], [134.78981, 34.77442], [134.78929, 34.7748], [134.78897, 34.77504], [134.78893, 34.77508], [134.78881, 34.77516], [134.78869, 34.77524], [134.78742, 34.77614], [134.78707, 34.77638], [134.7869, 34.77649], [134.78682, 34.77654], [134.78579, 34.77729], [134.78482, 34.77795], [134.78432, 34.77828], [134.78383, 34.77859], [134.78381, 34.77862], [134.78255, 34.77939], [134.78201, 34.77972], [134.78154, 34.78001], [134.78117, 34.78023], [134.78061, 34.78057], [134.78003, 34.78093], [134.77975, 34.7811], [134.77925, 34.7814], [134.77799, 34.78216], [134.77794, 34.78218], [134.77736, 34.78255], [134.77682, 34.78287], [134.77636, 34.78315], [134.77547, 34.7837], [134.77506, 34.78395], [134.77452, 34.78427], [134.77386, 34.78465], [134.77347, 34.78489], [134.77345, 34.78491], [134.77334, 34.78496], [134.7728, 34.78531], [134.77191, 34.78589], [134.77156, 34.78613], [134.77088, 34.78661], [134.76981, 34.78739], [134.76975, 34.78744], [134.76925, 34.7878], [134.76713, 34.7896], [134.7663, 34.79031], [134.76625, 34.79034], [134.76563, 34.79092], [134.76484, 34.79166], [134.76321, 34.79317], [134.76165, 34.79464], [134.75981, 34.79635], [134.75979, 34.79636], [134.75943, 34.79671], [134.75818, 34.79787], [134.7578, 34.79823], [134.75731, 34.79869], [134.75676, 34.7992], [134.75648, 34.79946], [134.75618, 34.79973], [134.75541, 34.80047], [134.7551, 34.80075], [134.75497, 34.80087], [134.75451, 34.80129], [134.75318, 34.80254], [134.75293, 34.80278], [134.75269, 34.80301], [134.75262, 34.80306], [134.75211, 34.80354], [134.75143, 34.80417], [134.75124, 34.80435], [134.74947, 34.80602], [134.74901, 34.80644], [134.74877, 34.80666], [134.74864, 34.80679], [134.74816, 34.80723], [134.74786, 34.80752], [134.74726, 34.80811], [134.7463, 34.80896], [134.74559, 34.80965], [134.74502, 34.81016], [134.74463, 34.81046], [134.74409, 34.81085], [134.74362, 34.81119], [134.74356, 34.81124], [134.7431, 34.81154], [134.74111, 34.81285], [134.74095, 34.81296], [134.74084, 34.81303], [134.73895, 34.81425], [134.7379, 34.81494], [134.73656, 34.8158], [134.73574, 34.81634], [134.7357, 34.81636], [134.73496, 34.81683], [134.73446, 34.81715], [134.73363, 34.81765], [134.73275, 34.81816], [134.73221, 34.81847], [134.73144, 34.81888], [134.7312, 34.819], [134.73118, 34.81902], [134.73114, 34.81904], [134.73048, 34.81938], [134.72987, 34.81967], [134.72876, 34.82017], [134.72755, 34.82068], [134.72631, 34.82117], [134.7255, 34.82146], [134.72501, 34.82164], [134.7236, 34.82205], [134.72244, 34.82235], [134.72071, 34.82277], [134.71866, 34.82319], [134.71479, 34.82366], [134.71335, 34.82383], [134.71052, 34.82414], [134.70685, 34.82455], [134.70381, 34.82489], [134.70277, 34.825], [134.6975, 34.82561], [134.69284, 34.82619]]}, "properties": {"id": "TRACK_TOKYO_0656", "line_name": "山陽新幹線", "station_group_ids": [], "mode": "shinkansen", "operator_id": "西日本旅客鉄道", "line_color": "#1263D6", "tags": ["tokyo", "track_centerline"]}}, {"type": "Feature", "bbox": [135.49791, 34.73268, 135.50238, 34.73412], "geometry": {"type": "LineString", "coordinates": [[135.49791, 34.73268], [135.50238, 34.73412]]}, "properties": {"id": "TRACK_TOKYO_0984", "line_name": "東海道新幹線", "station_group_ids": [], "mode": "shinkansen", "operator_id": "東海旅客鉄道", "line_color": "#1F78FF", "tags": ["tokyo", "track_centerline"]}}, {"type": "Feature", "bbox": [135.50238, 34.73412, 135.50412, 34.73509], "geometry": {"type": "LineString", "coordinates": [[135.50238, 34.73412], [135.5025, 34.73419], [135.50354, 34.73476], [135.50412, 34.73509]]}, "properties": {"id": "TRACK_TOKYO_0985", "line_name": "東海道新幹線", "station_group_ids": [], "mode": "shinkansen", "operator_id": "東海旅客鉄道", "line_color": "#1F78FF", "tags": ["tokyo", "track_centerline"]}}, {"type": "Feature", "bbox": [135.50412, 34.73509, 135.75684, 34.98481], "geometry": {"type": "LineString", "coordinates": [[135.50412, 34.73509], [135.5058, 34.73587], [135.50593, 34.73593], [135.50612, 34.73602], [135.50654, 34.73621], [135.50688, 34.73637], [135.50772, 34.73676], [135.50798, 34.73688], [135.50832, 34.73708], [135.5084, 34.73713], [135.50963, 34.73828], [135.51054, 34.73914], [135.51066, 34.73925], [135.51119, 34.73974], [135.51173, 34.74027], [135.51175, 34.74029], [135.51179, 34.74032], [135.51218, 34.74068], [135.5124, 34.74089], [135.51265, 34.74113], [135.5129, 34.74137], [135.51315, 34.74159], [135.5137, 34.74209], [135.51385, 34.74222], [135.51391, 34.74227], [135.51394, 34.74229], [135.51421, 34.74255], [135.51472, 34.74295], [135.51552, 34.74351], [135.51555, 34.74353], [135.51617, 34.74386], [135.51677, 34.74413], [135.51714, 34.74428], [135.51751, 34.74443], [135.51805, 34.74458], [135.51884, 34.74477], [135.51941, 34.74489], [135.52011, 34.745], [135.52098, 34.74514], [135.52169, 34.74524], [135.52219, 34.74531], [135.52652, 34.74589], [135.52962, 34.7463], [135.53081, 34.74648], [135.53194, 34.74668], [135.53259, 34.74683], [135.53318, 34.74696], [135.53416, 34.74725], [135.53518, 34.74757], [135.53608, 34.74786], [135.53718, 34.74831], [135.53838, 34.74883], [135.53937, 34.74933], [135.54089, 34.75018], [135.54186, 34.75076], [135.5423, 34.75105], [135.54251, 34.75119], [135.54309, 34.75165], [135.54377, 34.75215], [135.54427, 34.75259], [135.54458, 34.75287], [135.54497, 34.75325], [135.54575, 34.75399], [135.5478, 34.75586], [135.54894, 34.75693], [135.54949, 34.75744], [135.54958, 34.75754], [135.55047, 34.75836], [135.55113, 34.75897], [135.5515, 34.75932], [135.55204, 34.75984], [135.55251, 34.76024], [135.55256, 34.7603], [135.55324, 34.76091], [135.55396, 34.76153], [135.55571, 34.76297], [135.55573, 34.76298], [135.55613, 34.76331], [135.5581, 34.76489], [135.55843, 34.76515], [135.55914, 34.76572], [135.56095, 34.76715], [135.56173, 34.76779], [135.56175, 34.76779], [135.56237, 34.76831], [135.56434, 34.76987], [135.56479, 34.77025], [135.56537, 34.7707], [135.56598, 34.77121], [135.56605, 34.77127], [135.56703, 34.77207], [135.56724, 34.77224], [135.56745, 34.77241], [135.56772, 34.77264], [135.56805, 34.7729], [135.5687, 34.77343], [135.57135, 34.77558], [135.57159, 34.77579], [135.57169, 34.77586], [135.5732, 34.77708], [135.57339, 34.77725], [135.57467, 34.77828], [135.57551, 34.77894], [135.57632, 34.7796], [135.57639, 34.77964], [135.57656, 34.77978], [135.57664, 34.77985], [135.57809, 34.78103], [135.57898, 34.78176], [135.57957, 34.78224], [135.58038, 34.78289], [135.58081, 34.78325], [135.58127, 34.78362], [135.58253, 34.78462], [135.58295, 34.78496], [135.583, 34.78499], [135.58389, 34.78574], [135.58519, 34.78682], [135.58761, 34.78891], [135.58772, 34.78901], [135.58773, 34.78903], [135.58776, 34.78904], [135.58898, 34.79009], [135.58999, 34.79097], [135.59053, 34.79144], [135.59104, 34.79184], [135.59126, 34.79202], [135.59309, 34.79348], [135.59351, 34.79381], [135.59404, 34.79423], [135.59462, 34.79469], [135.59682, 34.79646], [135.59737, 34.7969], [135.59839, 34.7977], [135.59857, 34.79785], [135.59876, 34.798], [135.60137, 34.80007], [135.60207, 34.80069], [135.60247, 34.80104], [135.60315, 34.80168], [135.60409, 34.80258], [135.60463, 34.80312], [135.60511, 34.80363], [135.6053, 34.80381], [135.60597, 34.80454], [135.6062, 34.8048], [135.60685, 34.80559], [135.60778, 34.80673], [135.60864, 34.80779], [135.60871, 34.80789], [135.60883, 34.80804], [135.60919, 34.80847], [135.61049, 34.8101], [135.61133, 34.81114], [135.61172, 34.81163], [135.6118, 34.81173], [135.61207, 34.81207], [135.61219, 34.81223], [135.6124, 34.81248], [135.61269, 34.81284], [135.61293, 34.81313], [135.6131, 34.81335], [135.61317, 34.81343], [135.61353, 34.81388], [135.61357, 34.81391], [135.61369, 34.81408], [135.61372, 34.8141], [135.61405, 34.81452], [135.61412, 34.81461], [135.61497, 34.81567], [135.61528, 34.81606], [135.61532, 34.81609], [135.61598, 34.81692], [135.61675, 34.8179], [135.61683, 34.81799], [135.61747, 34.81878], [135.61814, 34.81961], [135.61876, 34.82039], [135.62004, 34.82195], [135.62117, 34.82334], [135.62131, 34.82352], [135.6216, 34.82386], [135.62218, 34.82459], [135.62413, 34.82705], [135.62522, 34.82843], [135.62568, 34.82903], [135.62574, 34.82909], [135.62728, 34.83103], [135.62742, 34.83119], [135.6278, 34.83167], [135.62789, 34.83177], [135.62923, 34.83345], [135.62928, 34.83351], [135.63111, 34.83579], [135.63174, 34.83657], [135.63265, 34.83777], [135.6334, 34.83875], [135.63412, 34.8397], [135.63564, 34.84164], [135.63588, 34.84196], [135.63709, 34.84354], [135.63859, 34.84551], [135.6401, 34.84746], [135.6416, 34.84941], [135.64176, 34.8496], [135.64311, 34.85136], [135.64462, 34.85331], [135.6461, 34.85526], [135.64757, 34.8572], [135.64761, 34.85726], [135.64901, 34.8591], [135.64934, 34.85954], [135.64974, 34.86005], [135.6501, 34.86051], [135.65051, 34.861], [135.65088, 34.86144], [135.65129, 34.86192], [135.65169, 34.86234], [135.6521, 34.86279], [135.65405, 34.86457], [135.65424, 34.86474], [135.65444, 34.86493], [135.65459, 34.86506], [135.65636, 34.86669], [135.65842, 34.86863], [135.6605, 34.87058], [135.66071, 34.87079], [135.66088, 34.87094], [135.66095, 34.87101], [135.66257, 34.87255], [135.66278, 34.87275], [135.66307, 34.87303], [135.66465, 34.87451], [135.66515, 34.875], [135.66666, 34.87647], [135.66741, 34.87717], [135.66786, 34.8776], [135.66871, 34.87843], [135.67023, 34.87989], [135.67074, 34.88038], [135.67277, 34.88231], [135.67482, 34.88426], [135.67528, 34.8847], [135.67545, 34.88486], [135.67689, 34.88623], [135.67725, 34.88657], [135.67768, 34.88699], [135.67799, 34.88729], [135.67817, 34.88746], [135.67886, 34.88816], [135.67993, 34.8893], [135.67997, 34.88935], [135.6807, 34.89012], [135.68115, 34.89064], [135.68162, 34.89114], [135.68204, 34.89161], [135.68211, 34.89167], [135.68228, 34.89183], [135.68252, 34.89207], [135.68299, 34.89248], [135.68394, 34.89334], [135.68448, 34.89385], [135.68461, 34.89398], [135.68485, 34.8942], [135.68533, 34.89467], [135.68576, 34.89512], [135.68656, 34.89594], [135.68711, 34.89653], [135.68753, 34.89698], [135.68836, 34.89789], [135.68921, 34.89881], [135.68966, 34.8993], [135.6902, 34.89983], [135.69055, 34.90016], [135.69103, 34.90057], [135.69141, 34.90088], [135.69204, 34.90139], [135.6926, 34.90179], [135.69371, 34.90256], [135.69426, 34.90289], [135.69484, 34.90324], [135.6954, 34.90357], [135.69575, 34.90376], [135.69918, 34.9055], [135.6996, 34.9057], [135.7004, 34.90611], [135.70138, 34.90661], [135.70204, 34.90698], [135.70257, 34.90728], [135.7032, 34.90766], [135.70414, 34.90828], [135.70476, 34.90873], [135.70481, 34.90876], [135.70547, 34.90925], [135.70636, 34.90995], [135.70683, 34.91034], [135.7073, 34.91078], [135.70777, 34.9112], [135.70823, 34.91169], [135.7084, 34.91186], [135.70865, 34.91211], [135.70909, 34.91261], [135.70954, 34.91315], [135.70987, 34.91359], [135.71024, 34.91408], [135.7106, 34.9146], [135.71092, 34.9151], [135.71153, 34.91616], [135.71201, 34.91704], [135.71213, 34.91727], [135.71292, 34.919], [135.71316, 34.91956], [135.71325, 34.9199], [135.71341, 34.92032], [135.71364, 34.9212], [135.71375, 34.92175], [135.71386, 34.92234], [135.71395, 34.92291], [135.71404, 34.92352], [135.7141, 34.92406], [135.71415, 34.92496], [135.71417, 34.92583], [135.71415, 34.9264], [135.71415, 34.9267], [135.71416, 34.92885], [135.71416, 34.92907], [135.71416, 34.92928], [135.71419, 34.93073], [135.71423, 34.93251], [135.71425, 34.93334], [135.71425, 34.93418], [135.71426, 34.93449], [135.71433, 34.93597], [135.71435, 34.9362], [135.71438, 34.93711], [135.71445, 34.93973], [135.71451, 34.94237], [135.71458, 34.94498], [135.71458, 34.94502], [135.71466, 34.94768], [135.71472, 34.95033], [135.71477, 34.95174], [135.71482, 34.95297], [135.71487, 34.95561], [135.71495, 34.95815], [135.71497, 34.95852], [135.71499, 34.95891], [135.71503, 34.95924], [135.71508, 34.95966], [135.71522, 34.96053], [135.71525, 34.96074], [135.71525, 34.9608], [135.71542, 34.96195], [135.71559, 34.96309], [135.71565, 34.96342], [135.71581, 34.96418], [135.71601, 34.96506], [135.71612, 34.96561], [135.71623, 34.96607], [135.71643, 34.96697], [135.71659, 34.96755], [135.71671, 34.96796], [135.71687, 34.96838], [135.71698, 34.96863], [135.71701, 34.96868], [135.71737, 34.96939], [135.71776, 34.97011], [135.718, 34.97056], [135.71827, 34.97099], [135.7185, 34.97133], [135.71877, 34.97173], [135.71913, 34.97226], [135.71945, 34.97269], [135.72005, 34.97342], [135.72053, 34.97397], [135.7209, 34.97437], [135.72106, 34.97452], [135.72126, 34.97473], [135.72179, 34.97516], [135.72248, 34.97564], [135.72306, 34.97602], [135.7239, 34.97653], [135.72505, 34.97715], [135.72621, 34.97778], [135.7279, 34.9787], [135.72999, 34.97982], [135.73136, 34.98055], [135.73221, 34.981], [135.73313, 34.98144], [135.73396, 34.98178], [135.73406, 34.98182], [135.73471, 34.98208], [135.73562, 34.98245], [135.73626, 34.98266], [135.73748, 34.983], [135.74034, 34.98379], [135.74268, 34.9844], [135.74345, 34.98457], [135.74426, 34.98472], [135.74451, 34.98474], [135.74461, 34.98475], [135.74516, 34.9848], [135.74542, 34.9848], [135.74579, 34.98481], [135.74717, 34.98479], [135.7474, 34.98481], [135.74896, 34.9846], [135.74952, 34.98454], [135.75531, 34.98458], [135.75684, 34.98459]]}, "properties": {"id": "TRACK_TOKYO_0986", "line_name": "東海道新幹線", "station_group_ids": [], "mode": "shinkansen", "operator_id": "東海旅客鉄道", "line_color": "#1F78FF", "tags": ["tokyo", "track_centerline"]}}, {"type": "Feature", "bbox": [135.49782, 34.73293, 135.50225, 34.73443], "geometry": {"type": "LineString", "coordinates": [[135.49782, 34.73293], [135.50225, 34.73443]]}, "properties": {"id": "TRACK_TOKYO_0987", "line_name": "東海道新幹線", "station_group_ids": [], "mode": "shinkansen", "operator_id": "東海旅客鉄道", "line_color": "#1F78FF", "tags": ["tokyo", "track_centerline"]}}, {"type": "Feature", "bbox": [135.50225, 34.73443, 135.50412, 34.73509], "geometry": {"type": "LineString", "coordinates": [[135.50225, 34.73443], [135.50249, 34.73452], [135.50289, 34.73466], [135.50304, 34.73472], [135.50342, 34.73485], [135.50412, 34.73509]]}, "properties": {"id": "TRACK_TOKYO_0988", "line_name": "東海道新幹線", "station_group_ids": [], "mode": "shinkansen", "operator_id": "東海旅客鉄道", "line_color": "#1F78FF", "tags": ["tokyo", "track_centerline"]}}]}