{"type": "FeatureCollection", "features": [{"type": "Feature", "bbox": [138.79949499999998, 36.950165, 138.79949499999998, 36.950165], "geometry": {"type": "Point", "coordinates": [138.79949499999998, 36.950165]}, "properties": {"id": "PS_6B427EADB2AE", "station_group_id": "SG_E41D6756315D", "operator_id": "jr_east", "operator_ids": "jr_east", "name_en": "ガーラ湯沢", "name_ja": "ガーラ湯沢", "label_rank": 72, "tags": ["tokyo", "v3"]}}, {"type": "Feature", "bbox": [138.82801, 37.02875, 138.82801, 37.02875], "geometry": {"type": "Point", "coordinates": [138.82801, 37.02875]}, "properties": {"id": "PS_0AFEB7C5465D", "station_group_id": "SG_D4A4089D325E", "operator_id": "jr_east", "operator_ids": "jr_east", "name_en": "上越国際スキー場前", "name_ja": "上越国際スキー場前", "label_rank": 72, "tags": ["tokyo", "v3"]}}, {"type": "Feature", "bbox": [138.908435, 37.119945, 138.908435, 37.119945], "geometry": {"type": "Point", "coordinates": [138.908435, 37.119945]}, "properties": {"id": "PS_A683277EE12E", "station_group_id": "SG_06E8750CA486", "operator_id": "jr_east", "operator_ids": "jr_east", "name_en": "五日町", "name_ja": "五日町", "label_rank": 72, "tags": ["tokyo", "v3"]}}, {"type": "Feature", "bbox": [138.93511, 37.191755, 138.93511, 37.191755], "geometry": {"type": "Point", "coordinates": [138.93511, 37.191755]}, "properties": {"id": "PS_076C2EE397E5", "station_group_id": "SG_40E92CD9E431", "operator_id": "jr_east", "operator_ids": "jr_east", "name_en": "八色", "name_ja": "八色", "label_rank": 72, "tags": ["tokyo", "v3"]}}, {"type": "Feature", "bbox": [138.87566500000003, 37.066675000000004, 138.87566500000003, 37.066675000000004], "geometry": {"type": "Point", "coordinates": [138.87566500000003, 37.066675000000004]}, "properties": {"id": "PS_DFFD029A0C40", "station_group_id": "SG_3E8FCE0B0778", "operator_id": "jr_east", "operator_ids": "jr_east", "name_en": "六日町", "name_ja": "六日町", "label_rank": 72, "tags": ["tokyo", "v3"]}}, {"type": "Feature", "bbox": [138.96795, 36.830745, 138.96795, 36.830745], "geometry": {"type": "Point", "coordinates": [138.96795, 36.830745]}, "properties": {"id": "PS_4CBBC4F7251D", "station_group_id": "SG_B734B4939A5D", "operator_id": "jr_east", "operator_ids": "jr_east", "name_en": "土合", "name_ja": "土合", "label_rank": 72, "tags": ["tokyo", "v3"]}}, {"type": "Feature", "bbox": [138.96218, 36.829965, 138.96218, 36.829965], "geometry": {"type": "Point", "coordinates": [138.96218, 36.829965]}, "properties": {"id": "PS_B2ED775717DD", "station_group_id": "SG_B734B4939A5D", "operator_id": "jr_east", "operator_ids": "jr_east", "name_en": "土合", "name_ja": "土合", "label_rank": 72, "tags": ["tokyo", "v3"]}}, {"type": "Feature", "bbox": [138.86159, 36.875275, 138.86159, 36.875275], "geometry": {"type": "Point", "coordinates": [138.86159, 36.875275]}, "properties": {"id": "PS_589C46835B56", "station_group_id": "SG_87C0B757C136", "operator_id": "jr_east", "operator_ids": "jr_east", "name_en": "土樽", "name_ja": "土樽", "label_rank": 72, "tags": ["tokyo", "v3"]}}, {"type": "Feature", "bbox": [138.84843, 37.041485, 138.84843, 37.041485], "geometry": {"type": "Point", "coordinates": [138.84843, 37.041485]}, "properties": {"id": "PS_537743F8C70A", "station_group_id": "SG_F2FC411E5C20", "operator_id": "jr_east", "operator_ids": "jr_east", "name_en": "塩沢", "name_ja": "塩沢", "label_rank": 72, "tags": ["tokyo", "v3"]}}, {"type": "Feature", "bbox": [138.82133, 37.02123, 138.82133, 37.02123], "geometry": {"type": "Point", "coordinates": [138.82133, 37.02123]}, "properties": {"id": "PS_996FDDA65768", "station_group_id": "SG_D30C9A50BCE5", "operator_id": "jr_east", "operator_ids": "jr_east", "name_en": "大沢", "name_ja": "大沢", "label_rank": 72, "tags": ["tokyo", "v3"]}}, {"type": "Feature", "bbox": [138.839355, 36.924345, 138.839355, 36.924345], "geometry": {"type": "Point", "coordinates": [138.839355, 36.924345]}, "properties": {"id": "PS_E3184C244BF8", "station_group_id": "SG_C6F8840BE0AB", "operator_id": "jr_east", "operator_ids": "jr_east", "name_en": "岩原スキー場前", "name_ja": "岩原スキー場前", "label_rank": 72, "tags": ["tokyo", "v3"]}}, {"type": "Feature", "bbox": [138.96930500000002, 36.779085, 138.96930500000002, 36.779085], "geometry": {"type": "Point", "coordinates": [138.96930500000002, 36.779085]}, "properties": {"id": "PS_ED212C8E2128", "station_group_id": "SG_84FEF923AA88", "operator_id": "jr_east", "operator_ids": "jr_east", "name_en": "水上", "name_ja": "水上", "label_rank": 72, "tags": ["tokyo", "v3"]}}, {"type": "Feature", "bbox": [138.922735, 37.167585, 138.922735, 37.167585], "geometry": {"type": "Point", "coordinates": [138.922735, 37.167585]}, "properties": {"id": "PS_B3A04D264C2E", "station_group_id": "SG_7C332E71D678", "operator_id": "jr_east", "operator_ids": "jr_east", "name_en": "浦佐", "name_ja": "浦佐", "label_rank": 72, "tags": ["tokyo", "v3"]}}, {"type": "Feature", "bbox": [138.92304000000001, 37.167370000000005, 138.92304000000001, 37.167370000000005], "geometry": {"type": "Point", "coordinates": [138.92304000000001, 37.167370000000005]}, "properties": {"id": "PS_AC0FB1E3A4BB", "station_group_id": "SG_7C332E71D678", "operator_id": "jr_east", "operator_ids": "jr_east", "name_en": "浦佐", "name_ja": "浦佐", "label_rank": 72, "tags": ["tokyo", "v3"]}}, {"type": "Feature", "bbox": [138.80418, 36.988924999999995, 138.80418, 36.988924999999995], "geometry": {"type": "Point", "coordinates": [138.80418, 36.988924999999995]}, "properties": {"id": "PS_537A5587A003", "station_group_id": "SG_F312AE2833CF", "operator_id": "jr_east", "operator_ids": "jr_east", "name_en": "石打", "name_ja": "石打", "label_rank": 72, "tags": ["tokyo", "v3"]}}, {"type": "Feature", "bbox": [138.848515, 36.91032, 138.848515, 36.91032], "geometry": {"type": "Point", "coordinates": [138.848515, 36.91032]}, "properties": {"id": "PS_D9011FF57286", "station_group_id": "SG_8FFA5B4FAE41", "operator_id": "jr_east", "operator_ids": "jr_east", "name_en": "越後中里", "name_ja": "越後中里", "label_rank": 72, "tags": ["tokyo", "v3"]}}, {"type": "Feature", "bbox": [138.809515, 36.935455000000005, 138.809515, 36.935455000000005], "geometry": {"type": "Point", "coordinates": [138.809515, 36.935455000000005]}, "properties": {"id": "PS_48827CDCDC33", "station_group_id": "SG_05102D3CF4B9", "operator_id": "jr_east", "operator_ids": "jr_east", "name_en": "越後湯沢", "name_ja": "越後湯沢", "label_rank": 72, "tags": ["tokyo", "v3"]}}, {"type": "Feature", "bbox": [138.809515, 36.935455000000005, 138.809515, 36.935455000000005], "geometry": {"type": "Point", "coordinates": [138.809515, 36.935455000000005]}, "properties": {"id": "PS_877759227469", "station_group_id": "SG_05102D3CF4B9", "operator_id": "jr_east", "operator_ids": "jr_east", "name_en": "越後湯沢", "name_ja": "越後湯沢", "label_rank": 72, "tags": ["tokyo", "v3"]}}, {"type": "Feature", "bbox": [138.80973, 36.936184999999995, 138.80973, 36.936184999999995], "geometry": {"type": "Point", "coordinates": [138.80973, 36.936184999999995]}, "properties": {"id": "PS_02894478C2A2", "station_group_id": "SG_05102D3CF4B9", "operator_id": "jr_east", "operator_ids": "jr_east", "name_en": "越後湯沢", "name_ja": "越後湯沢", "label_rank": 72, "tags": ["tokyo", "v3"]}}]}