{"type": "FeatureCollection", "features": [{"type": "Feature", "bbox": [138.97759, 36.693065000000004, 138.97759, 36.693065000000004], "geometry": {"type": "Point", "coordinates": [138.97759, 36.693065000000004]}, "properties": {"id": "PS_B8D7F0636CBB", "station_group_id": "SG_996BCF495705", "name_en": "上毛高原", "name_ja": "上毛高原", "label_rank": 72, "tags": ["tokyo", "v3"]}}, {"type": "Feature", "bbox": [138.46464500000002, 36.27815, 138.46464500000002, 36.27815], "geometry": {"type": "Point", "coordinates": [138.46464500000002, 36.27815]}, "properties": {"id": "PS_B4ED90EAB0A8", "station_group_id": "SG_6D0D7527994D", "name_en": "佐久平", "name_ja": "佐久平", "label_rank": 72, "tags": ["tokyo", "v3"]}}, {"type": "Feature", "bbox": [138.8492, 36.362539999999996, 138.8492, 36.362539999999996], "geometry": {"type": "Point", "coordinates": [138.8492, 36.362539999999996]}, "properties": {"id": "PS_CFFA6361DFB3", "station_group_id": "SG_BDE51A265883", "name_en": "安中榛名", "name_ja": "安中榛名", "label_rank": 72, "tags": ["tokyo", "v3"]}}, {"type": "Feature", "bbox": [138.63498, 36.342595, 138.63498, 36.342595], "geometry": {"type": "Point", "coordinates": [138.63498, 36.342595]}, "properties": {"id": "PS_914498FA672C", "station_group_id": "SG_B05B94082AEE", "name_en": "軽井沢", "name_ja": "軽井沢", "label_rank": 72, "tags": ["tokyo", "v3"]}}]}