{"type": "FeatureCollection", "features": [{"type": "Feature", "bbox": [138.74328, 35.672839999999994, 138.74328, 35.672839999999994], "geometry": {"type": "Point", "coordinates": [138.74328, 35.672839999999994]}, "properties": {"id": "PS_1A87F6BB45B6", "station_group_id": "SG_C7BE79ACE24C", "name_en": "勝沼ぶどう郷", "name_ja": "勝沼ぶどう郷", "label_rank": 72, "tags": ["tokyo", "v3"]}}, {"type": "Feature", "bbox": [138.734755, 35.705365, 138.734755, 35.705365], "geometry": {"type": "Point", "coordinates": [138.734755, 35.705365]}, "properties": {"id": "PS_1E9594EA3039", "station_group_id": "SG_C69D758CCDA5", "name_en": "塩山", "name_ja": "塩山", "label_rank": 72, "tags": ["tokyo", "v3"]}}, {"type": "Feature", "bbox": [138.487825, 35.687725, 138.487825, 35.687725], "geometry": {"type": "Point", "coordinates": [138.487825, 35.687725]}, "properties": {"id": "PS_42B4EBFED210", "station_group_id": "SG_F951F40EB019", "name_en": "塩崎", "name_ja": "塩崎", "label_rank": 72, "tags": ["tokyo", "v3"]}}, {"type": "Feature", "bbox": [138.682975, 35.685050000000004, 138.682975, 35.685050000000004], "geometry": {"type": "Point", "coordinates": [138.682975, 35.685050000000004]}, "properties": {"id": "PS_B34AFD692583", "station_group_id": "SG_E31C20822F50", "name_en": "山梨市", "name_ja": "山梨市", "label_rank": 72, "tags": ["tokyo", "v3"]}}, {"type": "Feature", "bbox": [138.433145, 35.736869999999996, 138.433145, 35.736869999999996], "geometry": {"type": "Point", "coordinates": [138.433145, 35.736869999999996]}, "properties": {"id": "PS_3C2C2EBF5B12", "station_group_id": "SG_47B195357ABE", "name_en": "新府", "name_ja": "新府", "label_rank": 72, "tags": ["tokyo", "v3"]}}, {"type": "Feature", "bbox": [138.65897999999999, 35.673465, 138.65897999999999, 35.673465], "geometry": {"type": "Point", "coordinates": [138.65897999999999, 35.673465]}, "properties": {"id": "PS_A6A47EEEFCEB", "station_group_id": "SG_B76417BCDC0F", "name_en": "春日居町", "name_ja": "春日居町", "label_rank": 72, "tags": ["tokyo", "v3"]}}, {"type": "Feature", "bbox": [138.703055, 35.69434, 138.703055, 35.69434], "geometry": {"type": "Point", "coordinates": [138.703055, 35.69434]}, "properties": {"id": "PS_6B86FC13C389", "station_group_id": "SG_C87E6BE760A5", "name_en": "東山梨", "name_ja": "東山梨", "label_rank": 72, "tags": ["tokyo", "v3"]}}, {"type": "Feature", "bbox": [138.41389, 35.75105, 138.41389, 35.75105], "geometry": {"type": "Point", "coordinates": [138.41389, 35.75105]}, "properties": {"id": "PS_6737DBF83164", "station_group_id": "SG_09CF7029873E", "name_en": "穴山", "name_ja": "穴山", "label_rank": 72, "tags": ["tokyo", "v3"]}}, {"type": "Feature", "bbox": [138.45139999999998, 35.709565, 138.45139999999998, 35.709565], "geometry": {"type": "Point", "coordinates": [138.45139999999998, 35.709565]}, "properties": {"id": "PS_41BCDE35049A", "station_group_id": "SG_2C0B1F4F148B", "name_en": "韮崎", "name_ja": "韮崎", "label_rank": 72, "tags": ["tokyo", "v3"]}}]}