{"type": "FeatureCollection", "features": [{"type": "Feature", "bbox": [138.84537, 35.524253333333334, 138.84537, 35.524253333333334], "geometry": {"type": "Point", "coordinates": [138.84537, 35.524253333333334]}, "properties": {"id": "PS_F9F876BC683D", "station_group_id": "SG_C4BA56AE08D9", "operator_id": "富士山麓電気鉄道", "operator_ids": "富士山麓電気鉄道", "name_en": "三つ峠", "name_ja": "三つ峠", "label_rank": 72, "tags": ["tokyo", "v3"]}}, {"type": "Feature", "bbox": [138.93806999999998, 35.6094, 138.93806999999998, 35.6094], "geometry": {"type": "Point", "coordinates": [138.93806999999998, 35.6094]}, "properties": {"id": "PS_25D408FBF5BD", "station_group_id": "SG_744D8787F673", "operator_id": "富士山麓電気鉄道", "operator_ids": "富士山麓電気鉄道", "name_en": "上大月", "name_ja": "上大月", "label_rank": 72, "tags": ["tokyo", "v3"]}}, {"type": "Feature", "bbox": [138.803765, 35.497965, 138.803765, 35.497965], "geometry": {"type": "Point", "coordinates": [138.803765, 35.497965]}, "properties": {"id": "PS_7F1585E9C9AF", "station_group_id": "SG_95A6F720C0BA", "operator_id": "富士山麓電気鉄道", "operator_ids": "富士山麓電気鉄道", "name_en": "下吉田", "name_ja": "下吉田", "label_rank": 72, "tags": ["tokyo", "v3"]}}, {"type": "Feature", "bbox": [138.883735, 35.594425, 138.883735, 35.594425], "geometry": {"type": "Point", "coordinates": [138.883735, 35.594425]}, "properties": {"id": "PS_A0D3F1FEA36F", "station_group_id": "SG_6BEAF412FE2D", "operator_id": "jr_east", "operator_ids": "jr_east", "name_en": "初狩", "name_ja": "初狩", "label_rank": 72, "tags": ["tokyo", "v3"]}}, {"type": "Feature", "bbox": [138.887465, 35.53887, 138.887465, 35.53887], "geometry": {"type": "Point", "coordinates": [138.887465, 35.53887]}, "properties": {"id": "PS_1D68B30F4A5F", "station_group_id": "SG_374F8939C00B", "operator_id": "富士山麓電気鉄道", "operator_ids": "富士山麓電気鉄道", "name_en": "十日市場", "name_ja": "十日市場", "label_rank": 72, "tags": ["tokyo", "v3"]}}, {"type": "Feature", "bbox": [138.942565, 35.613254999999995, 138.942565, 35.613254999999995], "geometry": {"type": "Point", "coordinates": [138.942565, 35.613254999999995]}, "properties": {"id": "PS_C3AFAD2DBD7F", "station_group_id": "SG_6228EE6F9EAD", "operator_id": "jr_east", "operator_ids": "jr_east", "name_en": "大月", "name_ja": "大月", "label_rank": 72, "tags": ["tokyo", "v3"]}}, {"type": "Feature", "bbox": [138.79483499999998, 35.48359, 138.79483499999998, 35.48359], "geometry": {"type": "Point", "coordinates": [138.79483499999998, 35.48359]}, "properties": {"id": "PS_D69FD0A270E3", "station_group_id": "SG_BD6691181693", "operator_id": "富士山麓電気鉄道", "operator_ids": "富士山麓電気鉄道", "name_en": "富士山", "name_ja": "富士山", "label_rank": 72, "tags": ["tokyo", "v3"]}}, {"type": "Feature", "bbox": [138.79483499999998, 35.48359, 138.79483499999998, 35.48359], "geometry": {"type": "Point", "coordinates": [138.79483499999998, 35.48359]}, "properties": {"id": "PS_C3CF58BEC92C", "station_group_id": "SG_BD6691181693", "operator_id": "富士山麓電気鉄道", "operator_ids": "富士山麓電気鉄道", "name_en": "富士山", "name_ja": "富士山", "label_rank": 72, "tags": ["tokyo", "v3"]}}, {"type": "Feature", "bbox": [138.78181666666669, 35.48953666666667, 138.78181666666669, 35.48953666666667], "geometry": {"type": "Point", "coordinates": [138.78181666666669, 35.48953666666667]}, "properties": {"id": "PS_EE2FB666AADE", "station_group_id": "SG_E99DA0916272", "operator_id": "富士山麓電気鉄道", "operator_ids": "富士山麓電気鉄道", "name_en": "富士急ハイランド", "name_ja": "富士急ハイランド", "label_rank": 72, "tags": ["tokyo", "v3"]}}, {"type": "Feature", "bbox": [138.82557, 35.508449999999996, 138.82557, 35.508449999999996], "geometry": {"type": "Point", "coordinates": [138.82557, 35.508449999999996]}, "properties": {"id": "PS_B53A7FF56727", "station_group_id": "SG_A1F94777728A", "operator_id": "富士山麓電気鉄道", "operator_ids": "富士山麓電気鉄道", "name_en": "寿", "name_ja": "寿", "label_rank": 72, "tags": ["tokyo", "v3"]}}, {"type": "Feature", "bbox": [138.79798, 35.493325, 138.79798, 35.493325], "geometry": {"type": "Point", "coordinates": [138.79798, 35.493325]}, "properties": {"id": "PS_7DCE19EAFBFB", "station_group_id": "SG_32819B433AE2", "operator_id": "富士山麓電気鉄道", "operator_ids": "富士山麓電気鉄道", "name_en": "月江寺", "name_ja": "月江寺", "label_rank": 72, "tags": ["tokyo", "v3"]}}, {"type": "Feature", "bbox": [138.87045, 35.536245, 138.87045, 35.536245], "geometry": {"type": "Point", "coordinates": [138.87045, 35.536245]}, "properties": {"id": "PS_C2F55B9A5B63", "station_group_id": "SG_4E83310B6729", "operator_id": "富士山麓電気鉄道", "operator_ids": "富士山麓電気鉄道", "name_en": "東桂", "name_ja": "東桂", "label_rank": 72, "tags": ["tokyo", "v3"]}}, {"type": "Feature", "bbox": [138.76938, 35.49798, 138.76938, 35.49798], "geometry": {"type": "Point", "coordinates": [138.76938, 35.49798]}, "properties": {"id": "PS_7C2111EBF7F5", "station_group_id": "SG_D0EC2F3EE720", "operator_id": "富士山麓電気鉄道", "operator_ids": "富士山麓電気鉄道", "name_en": "河口湖", "name_ja": "河口湖", "label_rank": 72, "tags": ["tokyo", "v3"]}}, {"type": "Feature", "bbox": [138.96838, 35.61289, 138.96838, 35.61289], "geometry": {"type": "Point", "coordinates": [138.96838, 35.61289]}, "properties": {"id": "PS_A18F5B120962", "station_group_id": "SG_099ADC569ADD", "operator_id": "jr_east", "operator_ids": "jr_east", "name_en": "猿橋", "name_ja": "猿橋", "label_rank": 72, "tags": ["tokyo", "v3"]}}, {"type": "Feature", "bbox": [138.931205, 35.593475, 138.931205, 35.593475], "geometry": {"type": "Point", "coordinates": [138.931205, 35.593475]}, "properties": {"id": "PS_EF1D4EEC4A01", "station_group_id": "SG_D2689304D93A", "operator_id": "富士山麓電気鉄道", "operator_ids": "富士山麓電気鉄道", "name_en": "田野倉", "name_ja": "田野倉", "label_rank": 72, "tags": ["tokyo", "v3"]}}, {"type": "Feature", "bbox": [138.56876, 35.667125, 138.56876, 35.667125], "geometry": {"type": "Point", "coordinates": [138.56876, 35.667125]}, "properties": {"id": "PS_4EF2A08ACD09", "station_group_id": "SG_92874CA7310D", "operator_id": "jr_east", "operator_ids": "jr_east", "name_en": "甲府", "name_ja": "甲府", "label_rank": 72, "tags": ["tokyo", "v3"]}}, {"type": "Feature", "bbox": [138.78162, 35.639345, 138.78162, 35.639345], "geometry": {"type": "Point", "coordinates": [138.78162, 35.639345]}, "properties": {"id": "PS_E8C22E715DA3", "station_group_id": "SG_DC6F57D78317", "operator_id": "jr_east", "operator_ids": "jr_east", "name_en": "甲斐大和", "name_ja": "甲斐大和", "label_rank": 72, "tags": ["tokyo", "v3"]}}, {"type": "Feature", "bbox": [138.63448499999998, 35.657525, 138.63448499999998, 35.657525], "geometry": {"type": "Point", "coordinates": [138.63448499999998, 35.657525]}, "properties": {"id": "PS_2ED507DED972", "station_group_id": "SG_F7DD78D9E788", "operator_id": "jr_east", "operator_ids": "jr_east", "name_en": "石和温泉", "name_ja": "石和温泉", "label_rank": 72, "tags": ["tokyo", "v3"]}}, {"type": "Feature", "bbox": [138.92924, 35.575194999999994, 138.92924, 35.575194999999994], "geometry": {"type": "Point", "coordinates": [138.92924, 35.575194999999994]}, "properties": {"id": "PS_C299C7C79140", "station_group_id": "SG_E195D66C12C2", "operator_id": "富士山麓電気鉄道", "operator_ids": "富士山麓電気鉄道", "name_en": "禾生", "name_ja": "禾生", "label_rank": 72, "tags": ["tokyo", "v3"]}}, {"type": "Feature", "bbox": [138.51935, 35.668675, 138.51935, 35.668675], "geometry": {"type": "Point", "coordinates": [138.51935, 35.668675]}, "properties": {"id": "PS_36922ED4A367", "station_group_id": "SG_C049353351CA", "operator_id": "jr_east", "operator_ids": "jr_east", "name_en": "竜王", "name_ja": "竜王", "label_rank": 72, "tags": ["tokyo", "v3"]}}, {"type": "Feature", "bbox": [138.825365, 35.603989999999996, 138.825365, 35.603989999999996], "geometry": {"type": "Point", "coordinates": [138.825365, 35.603989999999996]}, "properties": {"id": "PS_EE9E19D6F58D", "station_group_id": "SG_58E611C8E5D6", "operator_id": "jr_east", "operator_ids": "jr_east", "name_en": "笹子", "name_ja": "笹子", "label_rank": 72, "tags": ["tokyo", "v3"]}}, {"type": "Feature", "bbox": [138.812175, 35.50216, 138.812175, 35.50216], "geometry": {"type": "Point", "coordinates": [138.812175, 35.50216]}, "properties": {"id": "PS_6B1C4C8E7CF1", "station_group_id": "SG_7A06A76F7E2A", "operator_id": "富士山麓電気鉄道", "operator_ids": "富士山麓電気鉄道", "name_en": "葭池温泉前", "name_ja": "葭池温泉前", "label_rank": 72, "tags": ["tokyo", "v3"]}}, {"type": "Feature", "bbox": [138.90463, 35.5506, 138.90463, 35.5506], "geometry": {"type": "Point", "coordinates": [138.90463, 35.5506]}, "properties": {"id": "PS_071BB288659D", "station_group_id": "SG_EC3C5F175B11", "operator_id": "富士山麓電気鉄道", "operator_ids": "富士山麓電気鉄道", "name_en": "谷村町", "name_ja": "谷村町", "label_rank": 72, "tags": ["tokyo", "v3"]}}, {"type": "Feature", "bbox": [138.907455, 35.557204999999996, 138.907455, 35.557204999999996], "geometry": {"type": "Point", "coordinates": [138.907455, 35.557204999999996]}, "properties": {"id": "PS_9EA0ADD645C3", "station_group_id": "SG_E4491A9D5F07", "operator_id": "富士山麓電気鉄道", "operator_ids": "富士山麓電気鉄道", "name_en": "都留市", "name_ja": "都留市", "label_rank": 72, "tags": ["tokyo", "v3"]}}, {"type": "Feature", "bbox": [138.89663000000002, 35.542585, 138.89663000000002, 35.542585], "geometry": {"type": "Point", "coordinates": [138.89663000000002, 35.542585]}, "properties": {"id": "PS_A0D2D09D27FC", "station_group_id": "SG_DDF93F84B5DC", "operator_id": "富士山麓電気鉄道", "operator_ids": "富士山麓電気鉄道", "name_en": "都留文科大学前", "name_ja": "都留文科大学前", "label_rank": 72, "tags": ["tokyo", "v3"]}}, {"type": "Feature", "bbox": [138.59930500000002, 35.659499999999994, 138.59930500000002, 35.659499999999994], "geometry": {"type": "Point", "coordinates": [138.59930500000002, 35.659499999999994]}, "properties": {"id": "PS_3B67337A2692", "station_group_id": "SG_D801F4B0908A", "operator_id": "jr_east", "operator_ids": "jr_east", "name_en": "酒折", "name_ja": "酒折", "label_rank": 72, "tags": ["tokyo", "v3"]}}]}