{"type": "FeatureCollection", "features": [{"type": "Feature", "bbox": [130.574395, 32.791229, 130.699565, 32.941927], "geometry": {"type": "LineString", "coordinates": [[130.574395, 32.941927], [130.576895, 32.939991], [130.58079, 32.937545], [130.603235, 32.924981], [130.605845, 32.923232], [130.60858, 32.921031], [130.613581, 32.916871], [130.627245, 32.905391], [130.64112, 32.893787], [130.654846, 32.882271], [130.670345, 32.869252], [130.673103, 32.866524], [130.674697, 32.86462], [130.675691, 32.863344], [130.676664, 32.861789], [130.67794, 32.859744], [130.679782, 32.856494], [130.685353, 32.846708], [130.690163, 32.838321], [130.690656, 32.837455], [130.691631, 32.835701], [130.694287, 32.83107], [130.697173, 32.825988], [130.699002, 32.822766], [130.699222, 32.822244], [130.699459, 32.821586], [130.699548, 32.820977], [130.699565, 32.819946], [130.699544, 32.819495], [130.699374, 32.818794], [130.699095, 32.817871], [130.698408, 32.815995], [130.697035, 32.812552], [130.694766, 32.806997], [130.694512, 32.805967], [130.694411, 32.805], [130.694225, 32.800942], [130.694124, 32.799832], [130.694039, 32.799281], [130.693599, 32.797498], [130.693235, 32.79616], [130.693049, 32.795616], [130.692769, 32.795136], [130.692456, 32.794721], [130.692117, 32.794327], [130.689673, 32.791815], [130.689334, 32.791421], [130.689184, 32.791229]]}, "properties": {"id": "TRACK_TOKYO_4485", "line_name": "九州新幹線", "station_group_ids": [], "mode": "shinkansen", "operator_id": "jr_kyushu", "line_color": "#DE4B39", "tags": ["tokyo", "track_centerline"]}}]}