{"type": "FeatureCollection", "features": [{"type": "Feature", "bbox": [140.02177, 36.93278, 140.18778, 37.12221], "geometry": {"type": "LineString", "coordinates": [[140.02177, 36.93278], [140.02184, 36.93284], [140.02459, 36.93534], [140.02491, 36.93562], [140.02558, 36.93622], [140.02657, 36.93712], [140.02909, 36.93942], [140.03101, 36.94118], [140.03174, 36.94186], [140.03471, 36.94464], [140.03695, 36.94671], [140.03766, 36.94736], [140.0394, 36.94895], [140.04189, 36.95122], [140.04498, 36.95412], [140.04615, 36.95516], [140.04877, 36.9576], [140.05057, 36.95959], [140.05283, 36.9622], [140.05414, 36.9637], [140.05713, 36.96707], [140.05926, 36.96955], [140.06071, 36.97124], [140.06476, 36.97593], [140.06563, 36.97692], [140.06968, 36.98158], [140.07137, 36.98354], [140.07206, 36.98432], [140.07233, 36.98467], [140.07288, 36.98532], [140.07382, 36.98639], [140.07532, 36.98812], [140.07576, 36.98864], [140.07596, 36.98886], [140.07784, 36.99101], [140.08104, 36.99489], [140.08278, 36.99707], [140.08303, 36.99736], [140.084, 36.99858], [140.0851, 36.99999], [140.08616, 37.00137], [140.08636, 37.00167], [140.08747, 37.00309], [140.08798, 37.00375], [140.08853, 37.00449], [140.08913, 37.00529], [140.08954, 37.00587], [140.09003, 37.00653], [140.09069, 37.00742], [140.09137, 37.00836], [140.09255, 37.00996], [140.0936, 37.0114], [140.09617, 37.01495], [140.09941, 37.01942], [140.10175, 37.02267], [140.10179, 37.02272], [140.10362, 37.02524], [140.10745, 37.03047], [140.10908, 37.03273], [140.11116, 37.03554], [140.11347, 37.03874], [140.11473, 37.04048], [140.11565, 37.04177], [140.1194, 37.04682], [140.12043, 37.04821], [140.12143, 37.04954], [140.12168, 37.04991], [140.12448, 37.05383], [140.1247, 37.05408], [140.12579, 37.05546], [140.12661, 37.05645], [140.12732, 37.05735], [140.12921, 37.05959], [140.13019, 37.06065], [140.13149, 37.06203], [140.13311, 37.06376], [140.13984, 37.07092], [140.14152, 37.07272], [140.14347, 37.07486], [140.14405, 37.07552], [140.1465, 37.07813], [140.15324, 37.08529], [140.15329, 37.08535], [140.1536, 37.08567], [140.1543, 37.08641], [140.15458, 37.08672], [140.15574, 37.08798], [140.15581, 37.08805], [140.15723, 37.08957], [140.15786, 37.09025], [140.16156, 37.09421], [140.1663, 37.09929], [140.16994, 37.10319], [140.17039, 37.10365], [140.17155, 37.10489], [140.17157, 37.10491], [140.17179, 37.10513], [140.17588, 37.1095], [140.17663, 37.11029], [140.17761, 37.11135], [140.17778, 37.11155], [140.17849, 37.11231], [140.17864, 37.11248], [140.17874, 37.11259], [140.17879, 37.11265], [140.181, 37.11494], [140.18105, 37.115], [140.18126, 37.11522], [140.1816, 37.11559], [140.18411, 37.11827], [140.18772, 37.12215], [140.18778, 37.12221]]}, "properties": {"id": "GEOM_TOKYO_2997", "route_id": "R_86450D72", "route_name": null, "route_color": "#2D9C5B", "route_text_color": null, "line_name": "東北新幹線", "operator_id": "jr_east", "representation": "service_path", "min_zoom": 0, "max_zoom": 24, "offset_rank": 0}}, {"type": "Feature", "bbox": [140.08708, 36.99573, 140.08762, 36.99729], "geometry": {"type": "LineString", "coordinates": [[140.08762, 36.99729], [140.08708, 36.99573]]}, "properties": {"id": "GEOM_TOKYO_3226", "route_id": "R_20E64CE3", "route_name": null, "route_color": "#3AA76D", "route_text_color": null, "line_name": "東北線", "operator_id": "jr_east", "representation": "service_path", "min_zoom": 0, "max_zoom": 24, "offset_rank": 0}}, {"type": "Feature", "bbox": [140.1195, 37.023, 140.12208, 37.02388], "geometry": {"type": "LineString", "coordinates": [[140.1195, 37.023], [140.12168, 37.02376], [140.12208, 37.02388]]}, "properties": {"id": "GEOM_TOKYO_3231", "route_id": "R_20E64CE3", "route_name": null, "route_color": "#3AA76D", "route_text_color": null, "line_name": "東北線", "operator_id": "jr_east", "representation": "service_path", "min_zoom": 0, "max_zoom": 24, "offset_rank": 0}}, {"type": "Feature", "bbox": [140.02193, 36.93247, 140.05933, 36.96915], "geometry": {"type": "LineString", "coordinates": [[140.05933, 36.96915], [140.05902, 36.96881], [140.05798, 36.96762], [140.05746, 36.96701], [140.0568, 36.96626], [140.05493, 36.96414], [140.05374, 36.96283], [140.05198, 36.9608], [140.051, 36.95968], [140.05074, 36.95938], [140.04892, 36.95737], [140.04638, 36.95503], [140.04392, 36.95276], [140.04361, 36.95247], [140.0407, 36.94979], [140.03755, 36.94692], [140.03658, 36.94601], [140.03453, 36.94408], [140.03166, 36.94142], [140.02929, 36.93921], [140.02851, 36.93848], [140.02568, 36.9359], [140.02472, 36.93498], [140.02302, 36.93345], [140.02193, 36.93247]]}, "properties": {"id": "GEOM_TOKYO_3234", "route_id": "R_20E64CE3", "route_name": null, "route_color": "#3AA76D", "route_text_color": null, "line_name": "東北線", "operator_id": "jr_east", "representation": "service_path", "min_zoom": 0, "max_zoom": 24, "offset_rank": 0}}, {"type": "Feature", "bbox": [140.05933, 36.96915, 140.06097, 36.97109], "geometry": {"type": "LineString", "coordinates": [[140.06097, 36.97109], [140.05933, 36.96915]]}, "properties": {"id": "GEOM_TOKYO_3237", "route_id": "R_20E64CE3", "route_name": null, "route_color": "#3AA76D", "route_text_color": null, "line_name": "東北線", "operator_id": "jr_east", "representation": "service_path", "min_zoom": 0, "max_zoom": 24, "offset_rank": 0}}, {"type": "Feature", "bbox": [140.06097, 36.97109, 140.08708, 36.99573], "geometry": {"type": "LineString", "coordinates": [[140.08708, 36.99573], [140.08614, 36.99331], [140.08601, 36.99298], [140.08583, 36.99262], [140.0857, 36.99236], [140.08546, 36.99203], [140.08533, 36.99187], [140.08516, 36.99169], [140.0848, 36.99135], [140.08461, 36.99118], [140.08417, 36.99084], [140.08326, 36.99035], [140.08227, 36.98981], [140.08162, 36.98949], [140.08129, 36.98933], [140.08107, 36.98924], [140.08088, 36.98917], [140.08053, 36.98904], [140.08013, 36.98892], [140.07972, 36.9888], [140.07835, 36.98848], [140.07792, 36.98834], [140.07757, 36.9882], [140.07716, 36.98797], [140.07684, 36.98776], [140.07637, 36.98746], [140.07606, 36.98722], [140.07529, 36.98661], [140.07385, 36.98534], [140.07265, 36.98433], [140.07208, 36.98379], [140.07175, 36.98344], [140.07117, 36.98282], [140.06958, 36.98099], [140.06935, 36.98071], [140.06848, 36.97969], [140.06627, 36.97718], [140.06591, 36.97677], [140.06551, 36.9763], [140.06437, 36.97502], [140.06246, 36.9728], [140.06097, 36.97109]]}, "properties": {"id": "GEOM_TOKYO_3239", "route_id": "R_20E64CE3", "route_name": null, "route_color": "#3AA76D", "route_text_color": null, "line_name": "東北線", "operator_id": "jr_east", "representation": "service_path", "min_zoom": 0, "max_zoom": 24, "offset_rank": 0}}, {"type": "Feature", "bbox": [140.12208, 37.02388, 140.15466, 37.05429], "geometry": {"type": "LineString", "coordinates": [[140.12208, 37.02388], [140.12446, 37.02464], [140.12665, 37.02538], [140.12741, 37.0257], [140.13015, 37.02711], [140.13169, 37.02792], [140.132, 37.02808], [140.1336, 37.02892], [140.13439, 37.02933], [140.13559, 37.02997], [140.13591, 37.03018], [140.13623, 37.03041], [140.13644, 37.03061], [140.13655, 37.03073], [140.13666, 37.03086], [140.13708, 37.0314], [140.1372, 37.03155], [140.13766, 37.03213], [140.13848, 37.03322], [140.13904, 37.0339], [140.13919, 37.03412], [140.13953, 37.03451], [140.14002, 37.03495], [140.14046, 37.03528], [140.14075, 37.03545], [140.14127, 37.03569], [140.14183, 37.03592], [140.14301, 37.0364], [140.14423, 37.03684], [140.14462, 37.03699], [140.14537, 37.03726], [140.14654, 37.03772], [140.14692, 37.03787], [140.14699, 37.03791], [140.14732, 37.03806], [140.14757, 37.0382], [140.14798, 37.03847], [140.14843, 37.03878], [140.14874, 37.03901], [140.14902, 37.0393], [140.14918, 37.03947], [140.14931, 37.03962], [140.14983, 37.04027], [140.15055, 37.04137], [140.15097, 37.04215], [140.15119, 37.04269], [140.15178, 37.0454], [140.15204, 37.04658], [140.15235, 37.048], [140.15236, 37.04804], [140.15247, 37.0486], [140.15258, 37.0491], [140.15262, 37.04926], [140.15273, 37.04973], [140.15293, 37.05038], [140.15306, 37.05075], [140.15318, 37.05112], [140.15323, 37.05124], [140.15341, 37.0517], [140.15419, 37.05337], [140.15436, 37.05374], [140.15451, 37.05401], [140.15466, 37.05429]]}, "properties": {"id": "GEOM_TOKYO_3250", "route_id": "R_20E64CE3", "route_name": null, "route_color": "#3AA76D", "route_text_color": null, "line_name": "東北線", "operator_id": "jr_east", "representation": "service_path", "min_zoom": 0, "max_zoom": 24, "offset_rank": 0}}, {"type": "Feature", "bbox": [140.08762, 36.99729, 140.1195, 37.023], "geometry": {"type": "LineString", "coordinates": [[140.08762, 36.99729], [140.0878, 36.99785], [140.08792, 36.99838], [140.08804, 36.99879], [140.08811, 36.99919], [140.08837, 37.00046], [140.08861, 37.00138], [140.08886, 37.00196], [140.08922, 37.00248], [140.08965, 37.00309], [140.09006, 37.00365], [140.09035, 37.00405], [140.09092, 37.0048], [140.09141, 37.00546], [140.09183, 37.006], [140.0923, 37.00657], [140.09293, 37.00725], [140.09347, 37.0078], [140.0938, 37.00813], [140.09489, 37.00913], [140.0956, 37.00978], [140.09658, 37.01068], [140.09701, 37.01109], [140.09757, 37.01156], [140.09806, 37.01196], [140.09867, 37.0124], [140.09928, 37.01278], [140.10135, 37.01391], [140.10146, 37.01398], [140.10316, 37.01489], [140.10596, 37.01642], [140.10765, 37.01736], [140.11068, 37.01898], [140.11168, 37.01954], [140.11186, 37.01964], [140.11219, 37.01982], [140.11327, 37.02043], [140.11384, 37.02073], [140.1145, 37.02108], [140.11517, 37.02141], [140.11577, 37.02169], [140.11619, 37.02187], [140.11673, 37.02206], [140.1195, 37.023]]}, "properties": {"id": "GEOM_TOKYO_3260", "route_id": "R_20E64CE3", "route_name": null, "route_color": "#3AA76D", "route_text_color": null, "line_name": "東北線", "operator_id": "jr_east", "representation": "service_path", "min_zoom": 0, "max_zoom": 24, "offset_rank": 0}}]}