{"type": "FeatureCollection", "features": [{"type": "Feature", "bbox": [140.08155, 36.08213, 140.08301, 36.0822], "geometry": {"type": "LineString", "coordinates": [[140.08155, 36.0822], [140.08301, 36.08213]]}, "properties": {"id": "GEOM_TOKYO_0470", "route_id": "R_988834EF", "route_name": "常磐新線", "route_color": "#2BB673", "route_text_color": "#ffffff", "line_name": "常磐新線", "operator_id": "tsukuba_express", "representation": "service_path", "min_zoom": 0, "max_zoom": 24, "offset_rank": 0}}, {"type": "Feature", "bbox": [140.08301, 36.07936, 140.10956, 36.08213], "geometry": {"type": "LineString", "coordinates": [[140.10956, 36.08197], [140.10548, 36.08015], [140.10482, 36.07993], [140.10378, 36.07964], [140.10278, 36.07947], [140.1018, 36.07939], [140.1004, 36.07936], [140.09905, 36.0795], [140.09712, 36.0799], [140.0903, 36.08156], [140.08843, 36.08178], [140.08301, 36.08213]]}, "properties": {"id": "GEOM_TOKYO_0471", "route_id": "R_988834EF", "route_name": "常磐新線", "route_color": "#2BB673", "route_text_color": "#ffffff", "line_name": "常磐新線", "operator_id": "tsukuba_express", "representation": "service_path", "min_zoom": 0, "max_zoom": 24, "offset_rank": 0}}, {"type": "Feature", "bbox": [140.03801, 35.9938, 140.03868, 35.99501], "geometry": {"type": "LineString", "coordinates": [[140.03801, 35.9938], [140.03868, 35.99501]]}, "properties": {"id": "GEOM_TOKYO_0472", "route_id": "R_988834EF", "route_name": "常磐新線", "route_color": "#2BB673", "route_text_color": "#ffffff", "line_name": "常磐新線", "operator_id": "tsukuba_express", "representation": "service_path", "min_zoom": 0, "max_zoom": 24, "offset_rank": 0}}, {"type": "Feature", "bbox": [140.03868, 35.99501, 140.05608, 36.02935], "geometry": {"type": "LineString", "coordinates": [[140.03868, 35.99501], [140.04073, 35.99882], [140.04319, 36.00324], [140.04456, 36.00566], [140.04571, 36.00764], [140.04634, 36.00869], [140.04678, 36.00948], [140.04787, 36.01149], [140.05127, 36.01751], [140.05328, 36.0211], [140.05458, 36.02394], [140.05482, 36.02456], [140.05512, 36.02557], [140.05539, 36.02673], [140.05554, 36.02737], [140.05608, 36.02935]]}, "properties": {"id": "GEOM_TOKYO_0473", "route_id": "R_988834EF", "route_name": "常磐新線", "route_color": "#2BB673", "route_text_color": "#ffffff", "line_name": "常磐新線", "operator_id": "tsukuba_express", "representation": "service_path", "min_zoom": 0, "max_zoom": 24, "offset_rank": 0}}, {"type": "Feature", "bbox": [140.10956, 36.08197, 140.11153, 36.08288], "geometry": {"type": "LineString", "coordinates": [[140.10956, 36.08197], [140.11153, 36.08288]]}, "properties": {"id": "GEOM_TOKYO_0474", "route_id": "R_988834EF", "route_name": "常磐新線", "route_color": "#2BB673", "route_text_color": "#ffffff", "line_name": "常磐新線", "operator_id": "tsukuba_express", "representation": "service_path", "min_zoom": 0, "max_zoom": 24, "offset_rank": 0}}, {"type": "Feature", "bbox": [140.05608, 36.02935, 140.05633, 36.03049], "geometry": {"type": "LineString", "coordinates": [[140.05608, 36.02935], [140.05633, 36.03049]]}, "properties": {"id": "GEOM_TOKYO_0475", "route_id": "R_988834EF", "route_name": "常磐新線", "route_color": "#2BB673", "route_text_color": "#ffffff", "line_name": "常磐新線", "operator_id": "tsukuba_express", "representation": "service_path", "min_zoom": 0, "max_zoom": 24, "offset_rank": 0}}, {"type": "Feature", "bbox": [140.0593, 36.05899, 140.08155, 36.0823], "geometry": {"type": "LineString", "coordinates": [[140.08155, 36.0822], [140.07843, 36.0823], [140.07621, 36.08218], [140.07375, 36.08169], [140.07101, 36.0806], [140.06948, 36.07968], [140.0683, 36.07869], [140.06732, 36.07761], [140.06639, 36.07634], [140.0649, 36.07366], [140.06133, 36.0672], [140.06063, 36.06589], [140.0599, 36.06408], [140.05936, 36.06157], [140.0593, 36.06058], [140.05933, 36.05899]]}, "properties": {"id": "GEOM_TOKYO_0476", "route_id": "R_988834EF", "route_name": "常磐新線", "route_color": "#2BB673", "route_text_color": "#ffffff", "line_name": "常磐新線", "operator_id": "tsukuba_express", "representation": "service_path", "min_zoom": 0, "max_zoom": 24, "offset_rank": 0}}, {"type": "Feature", "bbox": [140.05633, 36.03049, 140.06044, 36.05781], "geometry": {"type": "LineString", "coordinates": [[140.05942, 36.05781], [140.06021, 36.05152], [140.06044, 36.04893], [140.06035, 36.04699], [140.06015, 36.04574], [140.05633, 36.03049]]}, "properties": {"id": "GEOM_TOKYO_0477", "route_id": "R_988834EF", "route_name": "常磐新線", "route_color": "#2BB673", "route_text_color": "#ffffff", "line_name": "常磐新線", "operator_id": "tsukuba_express", "representation": "service_path", "min_zoom": 0, "max_zoom": 24, "offset_rank": 0}}, {"type": "Feature", "bbox": [140.05933, 36.05781, 140.05942, 36.05899], "geometry": {"type": "LineString", "coordinates": [[140.05942, 36.05781], [140.05933, 36.05899]]}, "properties": {"id": "GEOM_TOKYO_0478", "route_id": "R_988834EF", "route_name": "常磐新線", "route_color": "#2BB673", "route_text_color": "#ffffff", "line_name": "常磐新線", "operator_id": "tsukuba_express", "representation": "service_path", "min_zoom": 0, "max_zoom": 24, "offset_rank": 0}}, {"type": "Feature", "bbox": [139.99266, 35.9503, 140.03801, 35.9938], "geometry": {"type": "LineString", "coordinates": [[139.99266, 35.9503], [139.99465, 35.9512], [139.99651, 35.95199], [139.99729, 35.95235], [139.99881, 35.95311], [139.99938, 35.95349], [140.0004, 35.95426], [140.00128, 35.95517], [140.00176, 35.95578], [140.00242, 35.95692], [140.00253, 35.95709], [140.00331, 35.95864], [140.00494, 35.96166], [140.00608, 35.96385], [140.00665, 35.96484], [140.00691, 35.96522], [140.00719, 35.96557], [140.00739, 35.9658], [140.00764, 35.96605], [140.0079, 35.9663], [140.00843, 35.96671], [140.01089, 35.96875], [140.01652, 35.97304], [140.02142, 35.97673], [140.03035, 35.98357], [140.032, 35.98506], [140.03302, 35.98605], [140.0334, 35.98646], [140.03378, 35.98687], [140.03451, 35.98776], [140.03684, 35.99164], [140.03801, 35.9938]]}, "properties": {"id": "GEOM_TOKYO_0479", "route_id": "R_988834EF", "route_name": "常磐新線", "route_color": "#2BB673", "route_text_color": "#ffffff", "line_name": "常磐新線", "operator_id": "tsukuba_express", "representation": "service_path", "min_zoom": 0, "max_zoom": 24, "offset_rank": 0}}, {"type": "Feature", "bbox": [139.99136, 35.94973, 139.99266, 35.9503], "geometry": {"type": "LineString", "coordinates": [[139.99136, 35.94973], [139.99266, 35.9503]]}, "properties": {"id": "GEOM_TOKYO_0480", "route_id": "R_988834EF", "route_name": "常磐新線", "route_color": "#2BB673", "route_text_color": "#ffffff", "line_name": "常磐新線", "operator_id": "tsukuba_express", "representation": "service_path", "min_zoom": 0, "max_zoom": 24, "offset_rank": 0}}, {"type": "Feature", "bbox": [139.95769, 35.91145, 139.99136, 35.94973], "geometry": {"type": "LineString", "coordinates": [[139.95769, 35.91145], [139.9595, 35.9178], [139.95995, 35.91933], [139.96029, 35.9206], [139.96058, 35.92165], [139.96077, 35.92225], [139.96172, 35.92388], [139.96283, 35.92575], [139.9641, 35.92773], [139.96887, 35.93539], [139.97139, 35.93933], [139.9731, 35.94213], [139.97377, 35.94299], [139.97479, 35.94401], [139.97574, 35.94477], [139.97632, 35.94515], [139.97692, 35.94547], [139.97776, 35.94581], [139.97902, 35.9462], [139.98164, 35.94666], [139.98357, 35.94693], [139.98445, 35.94705], [139.98566, 35.94741], [139.99136, 35.94973]]}, "properties": {"id": "GEOM_TOKYO_0482", "route_id": "R_988834EF", "route_name": "常磐新線", "route_color": "#2BB673", "route_text_color": "#ffffff", "line_name": "常磐新線", "operator_id": "tsukuba_express", "representation": "service_path", "min_zoom": 0, "max_zoom": 24, "offset_rank": 0}}, {"type": "Feature", "bbox": [140.13755, 35.92864, 140.13828, 35.93123], "geometry": {"type": "LineString", "coordinates": [[140.13828, 35.93123], [140.13815, 35.93009], [140.13805, 35.9298], [140.1378, 35.92917], [140.13755, 35.92864]]}, "properties": {"id": "GEOM_TOKYO_2436", "route_id": "R_06E4D384", "route_name": null, "route_color": "#22A6B3", "route_text_color": null, "line_name": "常磐線", "operator_id": "jr_east", "representation": "service_path", "min_zoom": 0, "max_zoom": 24, "offset_rank": 0}}, {"type": "Feature", "bbox": [140.13815, 35.93123, 140.14088, 35.97366], "geometry": {"type": "LineString", "coordinates": [[140.14088, 35.97366], [140.14086, 35.97339], [140.14081, 35.97293], [140.14064, 35.97122], [140.14037, 35.96835], [140.14021, 35.96655], [140.14009, 35.96555], [140.14007, 35.96537], [140.13992, 35.96378], [140.13962, 35.9608], [140.13946, 35.95902], [140.13929, 35.9572], [140.13925, 35.95676], [140.13905, 35.95475], [140.1389, 35.95299], [140.13858, 35.94968], [140.13853, 35.9492], [140.13835, 35.94726], [140.13824, 35.94594], [140.13822, 35.94571], [140.13821, 35.94551], [140.13816, 35.94462], [140.13815, 35.94404], [140.13817, 35.94259], [140.13819, 35.94082], [140.13821, 35.93879], [140.13823, 35.93837], [140.13824, 35.93799], [140.13827, 35.93566], [140.1383, 35.93301], [140.13829, 35.93183], [140.13828, 35.93158], [140.13828, 35.93123]]}, "properties": {"id": "GEOM_TOKYO_2458", "route_id": "R_06E4D384", "route_name": null, "route_color": "#22A6B3", "route_text_color": null, "line_name": "常磐線", "operator_id": "jr_east", "representation": "service_path", "min_zoom": 0, "max_zoom": 24, "offset_rank": 0}}, {"type": "Feature", "bbox": [139.85326, 35.95936, 139.85996, 35.97034], "geometry": {"type": "LineString", "coordinates": [[139.85996, 35.95936], [139.85798, 35.9626], [139.85776, 35.96295], [139.85665, 35.96478], [139.85503, 35.96746], [139.85452, 35.96829], [139.85326, 35.97034]]}, "properties": {"id": "GEOM_TOKYO_3921", "route_id": "R_74A4AEDE", "route_name": "野田線", "route_color": "#1F78FF", "route_text_color": "#ffffff", "line_name": "野田線", "operator_id": "tobu", "representation": "service_path", "min_zoom": 0, "max_zoom": 24, "offset_rank": 0}}, {"type": "Feature", "bbox": [139.85264, 35.97034, 139.85326, 35.97136], "geometry": {"type": "LineString", "coordinates": [[139.85326, 35.97034], [139.85264, 35.97136]]}, "properties": {"id": "GEOM_TOKYO_3922", "route_id": "R_74A4AEDE", "route_name": "野田線", "route_color": "#1F78FF", "route_text_color": "#ffffff", "line_name": "野田線", "operator_id": "tobu", "representation": "service_path", "min_zoom": 0, "max_zoom": 24, "offset_rank": 0}}, {"type": "Feature", "bbox": [139.89065, 35.93113, 139.89154, 35.93203], "geometry": {"type": "LineString", "coordinates": [[139.89154, 35.93113], [139.89065, 35.93203]]}, "properties": {"id": "GEOM_TOKYO_3926", "route_id": "R_74A4AEDE", "route_name": "野田線", "route_color": "#1F78FF", "route_text_color": "#ffffff", "line_name": "野田線", "operator_id": "tobu", "representation": "service_path", "min_zoom": 0, "max_zoom": 24, "offset_rank": 0}}, {"type": "Feature", "bbox": [139.86498, 35.94434, 139.87005, 35.95019], "geometry": {"type": "LineString", "coordinates": [[139.87005, 35.94434], [139.86966, 35.94467], [139.86927, 35.94505], [139.8689, 35.94543], [139.86861, 35.94573], [139.86819, 35.94621], [139.86592, 35.94901], [139.86498, 35.95019]]}, "properties": {"id": "GEOM_TOKYO_3934", "route_id": "R_74A4AEDE", "route_name": "野田線", "route_color": "#1F78FF", "route_text_color": "#ffffff", "line_name": "野田線", "operator_id": "tobu", "representation": "service_path", "min_zoom": 0, "max_zoom": 24, "offset_rank": 0}}, {"type": "Feature", "bbox": [139.87152, 35.93203, 139.89065, 35.94319], "geometry": {"type": "LineString", "coordinates": [[139.89065, 35.93203], [139.8902, 35.93248], [139.88891, 35.93377], [139.88874, 35.93394], [139.88812, 35.93455], [139.88747, 35.9352], [139.88689, 35.93569], [139.88624, 35.93614], [139.88585, 35.93637], [139.88575, 35.93642], [139.88406, 35.9372], [139.87892, 35.93962], [139.87868, 35.93973], [139.87741, 35.94034], [139.87542, 35.94129], [139.87515, 35.94141], [139.87255, 35.94262], [139.87209, 35.94285], [139.87176, 35.94302], [139.87175, 35.94302], [139.87163, 35.94312], [139.87152, 35.94319]]}, "properties": {"id": "GEOM_TOKYO_3938", "route_id": "R_74A4AEDE", "route_name": "野田線", "route_color": "#1F78FF", "route_text_color": "#ffffff", "line_name": "野田線", "operator_id": "tobu", "representation": "service_path", "min_zoom": 0, "max_zoom": 24, "offset_rank": 0}}, {"type": "Feature", "bbox": [139.83548, 35.97136, 139.85264, 35.97944], "geometry": {"type": "LineString", "coordinates": [[139.85264, 35.97136], [139.85198, 35.97246], [139.8505, 35.97496], [139.85018, 35.97547], [139.84971, 35.97614], [139.84931, 35.97662], [139.84893, 35.97703], [139.84859, 35.97735], [139.84819, 35.97769], [139.8477, 35.97805], [139.84724, 35.97834], [139.84675, 35.97861], [139.84641, 35.97877], [139.84628, 35.97883], [139.8458, 35.97902], [139.8454, 35.97916], [139.84499, 35.97927], [139.84456, 35.97934], [139.84411, 35.9794], [139.84362, 35.97944], [139.84333, 35.97944], [139.84299, 35.97944], [139.84266, 35.97943], [139.84039, 35.97934], [139.83763, 35.97926], [139.83548, 35.97921]]}, "properties": {"id": "GEOM_TOKYO_3942", "route_id": "R_74A4AEDE", "route_name": "野田線", "route_color": "#1F78FF", "route_text_color": "#ffffff", "line_name": "野田線", "operator_id": "tobu", "representation": "service_path", "min_zoom": 0, "max_zoom": 24, "offset_rank": 0}}, {"type": "Feature", "bbox": [139.89154, 35.91495, 139.90592, 35.93113], "geometry": {"type": "LineString", "coordinates": [[139.90592, 35.91495], [139.90584, 35.91539], [139.90582, 35.91546], [139.90569, 35.91614], [139.90558, 35.9166], [139.90549, 35.91682], [139.90547, 35.91686], [139.90535, 35.91712], [139.9052, 35.91732], [139.90304, 35.91959], [139.90276, 35.91987], [139.90134, 35.92129], [139.90041, 35.92223], [139.89918, 35.92347], [139.89867, 35.92398], [139.89769, 35.92497], [139.89587, 35.92677], [139.89576, 35.92688], [139.89503, 35.9276], [139.89463, 35.92802], [139.8928, 35.92987], [139.89265, 35.93002], [139.89154, 35.93113]]}, "properties": {"id": "GEOM_TOKYO_3944", "route_id": "R_74A4AEDE", "route_name": "野田線", "route_color": "#1F78FF", "route_text_color": "#ffffff", "line_name": "野田線", "operator_id": "tobu", "representation": "service_path", "min_zoom": 0, "max_zoom": 24, "offset_rank": 0}}, {"type": "Feature", "bbox": [139.86427, 35.95019, 139.86498, 35.95104], "geometry": {"type": "LineString", "coordinates": [[139.86498, 35.95019], [139.86427, 35.95104]]}, "properties": {"id": "GEOM_TOKYO_3947", "route_id": "R_74A4AEDE", "route_name": "野田線", "route_color": "#1F78FF", "route_text_color": "#ffffff", "line_name": "野田線", "operator_id": "tobu", "representation": "service_path", "min_zoom": 0, "max_zoom": 24, "offset_rank": 0}}, {"type": "Feature", "bbox": [139.87005, 35.94319, 139.87152, 35.94434], "geometry": {"type": "LineString", "coordinates": [[139.87152, 35.94319], [139.871, 35.94357], [139.8706, 35.94387], [139.87005, 35.94434]]}, "properties": {"id": "GEOM_TOKYO_3948", "route_id": "R_74A4AEDE", "route_name": "野田線", "route_color": "#1F78FF", "route_text_color": "#ffffff", "line_name": "野田線", "operator_id": "tobu", "representation": "service_path", "min_zoom": 0, "max_zoom": 24, "offset_rank": 0}}, {"type": "Feature", "bbox": [139.86065, 35.95104, 139.86427, 35.95823], "geometry": {"type": "LineString", "coordinates": [[139.86427, 35.95104], [139.86377, 35.9516], [139.86345, 35.95199], [139.8633, 35.95219], [139.86314, 35.95246], [139.86294, 35.95286], [139.86284, 35.9531], [139.86277, 35.95335], [139.86274, 35.95354], [139.86275, 35.95382], [139.86276, 35.95416], [139.86274, 35.95445], [139.8627, 35.95469], [139.86261, 35.95494], [139.86251, 35.95516], [139.86234, 35.95545], [139.86209, 35.95586], [139.86065, 35.95823]]}, "properties": {"id": "GEOM_TOKYO_3951", "route_id": "R_74A4AEDE", "route_name": "野田線", "route_color": "#1F78FF", "route_text_color": "#ffffff", "line_name": "野田線", "operator_id": "tobu", "representation": "service_path", "min_zoom": 0, "max_zoom": 24, "offset_rank": 0}}, {"type": "Feature", "bbox": [139.85996, 35.95823, 139.86065, 35.95936], "geometry": {"type": "LineString", "coordinates": [[139.86065, 35.95823], [139.85996, 35.95936]]}, "properties": {"id": "GEOM_TOKYO_3952", "route_id": "R_74A4AEDE", "route_name": "野田線", "route_color": "#1F78FF", "route_text_color": "#ffffff", "line_name": "野田線", "operator_id": "tobu", "representation": "service_path", "min_zoom": 0, "max_zoom": 24, "offset_rank": 0}}]}