{"type": "FeatureCollection", "features": [{"type": "Feature", "bbox": [140.13274, 35.58427, 140.14922, 35.5902], "geometry": {"type": "LineString", "coordinates": [[140.14922, 35.58427], [140.14884, 35.58454], [140.1483, 35.58499], [140.14818, 35.58511], [140.14798, 35.58527], [140.14706, 35.58605], [140.1468, 35.58624], [140.14632, 35.58659], [140.14599, 35.58687], [140.1458, 35.58704], [140.14576, 35.58707], [140.14542, 35.58737], [140.1449, 35.5878], [140.14466, 35.58798], [140.14411, 35.58842], [140.14355, 35.58875], [140.14311, 35.58895], [140.14269, 35.58915], [140.14214, 35.58938], [140.14153, 35.58951], [140.14057, 35.58961], [140.14044, 35.58962], [140.13941, 35.5897], [140.13928, 35.58971], [140.13829, 35.58976], [140.13819, 35.58976], [140.13625, 35.58985], [140.13616, 35.58986], [140.1337, 35.59001], [140.13303, 35.59014], [140.13274, 35.5902]]}, "properties": {"id": "GEOM_TOKYO_0174", "route_id": "R_3492E341", "route_name": null, "route_color": "#2457C5", "route_text_color": null, "line_name": "千原線", "operator_id": "keisei", "representation": "service_path", "min_zoom": 0, "max_zoom": 24, "offset_rank": 0}}, {"type": "Feature", "bbox": [140.11814, 35.59052, 140.1316, 35.60674], "geometry": {"type": "LineString", "coordinates": [[140.1316, 35.59052], [140.13094, 35.59077], [140.13032, 35.591], [140.1295, 35.59131], [140.12578, 35.59281], [140.12521, 35.59304], [140.12478, 35.59328], [140.12414, 35.59382], [140.12372, 35.59436], [140.12334, 35.5953], [140.12293, 35.59685], [140.1229, 35.59696], [140.12275, 35.59737], [140.12215, 35.59854], [140.12174, 35.59926], [140.12168, 35.59935], [140.12157, 35.59956], [140.12135, 35.60002], [140.12057, 35.60175], [140.11873, 35.60561], [140.11814, 35.60674]]}, "properties": {"id": "GEOM_TOKYO_0179", "route_id": "R_3492E341", "route_name": null, "route_color": "#2457C5", "route_text_color": null, "line_name": "千原線", "operator_id": "keisei", "representation": "service_path", "min_zoom": 0, "max_zoom": 24, "offset_rank": 0}}, {"type": "Feature", "bbox": [140.1316, 35.5902, 140.13274, 35.59052], "geometry": {"type": "LineString", "coordinates": [[140.13274, 35.5902], [140.1316, 35.59052]]}, "properties": {"id": "GEOM_TOKYO_0180", "route_id": "R_3492E341", "route_name": null, "route_color": "#2457C5", "route_text_color": null, "line_name": "千原線", "operator_id": "keisei", "representation": "service_path", "min_zoom": 0, "max_zoom": 24, "offset_rank": 0}}, {"type": "Feature", "bbox": [140.11739, 35.60674, 140.11814, 35.60821], "geometry": {"type": "LineString", "coordinates": [[140.11739, 35.60821], [140.11814, 35.60674]]}, "properties": {"id": "GEOM_TOKYO_0181", "route_id": "R_3492E341", "route_name": null, "route_color": "#2457C5", "route_text_color": null, "line_name": "千原線", "operator_id": "keisei", "representation": "service_path", "min_zoom": 0, "max_zoom": 24, "offset_rank": 0}}, {"type": "Feature", "bbox": [140.04184, 35.66098, 140.05574, 35.67278], "geometry": {"type": "LineString", "coordinates": [[140.04184, 35.67278], [140.04227, 35.67242], [140.04307, 35.67177], [140.04504, 35.67008], [140.04523, 35.66991], [140.04655, 35.66879], [140.04809, 35.6675], [140.04917, 35.6666], [140.05136, 35.66475], [140.05384, 35.66265], [140.05517, 35.66153], [140.05574, 35.66098]]}, "properties": {"id": "GEOM_TOKYO_0185", "route_id": "R_AF3DADBA", "route_name": "千葉線", "route_color": "#2457C5", "route_text_color": "#ffffff", "line_name": "千葉線", "operator_id": "keisei", "representation": "service_path", "min_zoom": 0, "max_zoom": 24, "offset_rank": 0}}, {"type": "Feature", "bbox": [140.05574, 35.65994, 140.05631, 35.66098], "geometry": {"type": "LineString", "coordinates": [[140.05574, 35.66098], [140.05587, 35.66083], [140.0561, 35.6605], [140.05631, 35.65994]]}, "properties": {"id": "GEOM_TOKYO_0187", "route_id": "R_AF3DADBA", "route_name": "千葉線", "route_color": "#2457C5", "route_text_color": "#ffffff", "line_name": "千葉線", "operator_id": "keisei", "representation": "service_path", "min_zoom": 0, "max_zoom": 24, "offset_rank": 0}}, {"type": "Feature", "bbox": [140.06721, 35.63771, 140.08565, 35.65235], "geometry": {"type": "LineString", "coordinates": [[140.06721, 35.65235], [140.06828, 35.65201], [140.07206, 35.65073], [140.07213, 35.6507], [140.07461, 35.64987], [140.07531, 35.64965], [140.07598, 35.64952], [140.07682, 35.64942], [140.07994, 35.64924], [140.08143, 35.6491], [140.08222, 35.64891], [140.08279, 35.64865], [140.08285, 35.64862], [140.08326, 35.6483], [140.08363, 35.64783], [140.08397, 35.64704], [140.08401, 35.64689], [140.08416, 35.64622], [140.0842, 35.64603], [140.08443, 35.64469], [140.08449, 35.64438], [140.08471, 35.64311], [140.08489, 35.64205], [140.08494, 35.6418], [140.08534, 35.63941], [140.08565, 35.63771]]}, "properties": {"id": "GEOM_TOKYO_0188", "route_id": "R_AF3DADBA", "route_name": "千葉線", "route_color": "#2457C5", "route_text_color": "#ffffff", "line_name": "千葉線", "operator_id": "keisei", "representation": "service_path", "min_zoom": 0, "max_zoom": 24, "offset_rank": 0}}, {"type": "Feature", "bbox": [140.06631, 35.65235, 140.06721, 35.65267], "geometry": {"type": "LineString", "coordinates": [[140.06631, 35.65267], [140.06721, 35.65235]]}, "properties": {"id": "GEOM_TOKYO_0189", "route_id": "R_AF3DADBA", "route_name": "千葉線", "route_color": "#2457C5", "route_text_color": "#ffffff", "line_name": "千葉線", "operator_id": "keisei", "representation": "service_path", "min_zoom": 0, "max_zoom": 24, "offset_rank": 0}}, {"type": "Feature", "bbox": [140.08565, 35.63679, 140.08577, 35.63771], "geometry": {"type": "LineString", "coordinates": [[140.08565, 35.63771], [140.08577, 35.63679]]}, "properties": {"id": "GEOM_TOKYO_0190", "route_id": "R_AF3DADBA", "route_name": "千葉線", "route_color": "#2457C5", "route_text_color": "#ffffff", "line_name": "千葉線", "operator_id": "keisei", "representation": "service_path", "min_zoom": 0, "max_zoom": 24, "offset_rank": 0}}, {"type": "Feature", "bbox": [140.05631, 35.65267, 140.06631, 35.65994], "geometry": {"type": "LineString", "coordinates": [[140.05631, 35.65994], [140.05672, 35.6587], [140.05709, 35.65796], [140.05733, 35.65758], [140.05776, 35.6572], [140.05916, 35.65627], [140.06143, 35.6549], [140.06256, 35.65421], [140.06286, 35.65402], [140.06346, 35.65369], [140.06367, 35.6536], [140.06631, 35.65267]]}, "properties": {"id": "GEOM_TOKYO_0191", "route_id": "R_AF3DADBA", "route_name": "千葉線", "route_color": "#2457C5", "route_text_color": "#ffffff", "line_name": "千葉線", "operator_id": "keisei", "representation": "service_path", "min_zoom": 0, "max_zoom": 24, "offset_rank": 0}}, {"type": "Feature", "bbox": [140.11406, 35.61154, 140.11465, 35.6117], "geometry": {"type": "LineString", "coordinates": [[140.11406, 35.6117], [140.11465, 35.61154]]}, "properties": {"id": "GEOM_TOKYO_0192", "route_id": "R_AF3DADBA", "route_name": "千葉線", "route_color": "#2457C5", "route_text_color": "#ffffff", "line_name": "千葉線", "operator_id": "keisei", "representation": "service_path", "min_zoom": 0, "max_zoom": 24, "offset_rank": 0}}, {"type": "Feature", "bbox": [140.11739, 35.60674, 140.11814, 35.60821], "geometry": {"type": "LineString", "coordinates": [[140.11739, 35.60821], [140.11814, 35.60674]]}, "properties": {"id": "GEOM_TOKYO_0193", "route_id": "R_AF3DADBA", "route_name": "千葉線", "route_color": "#2457C5", "route_text_color": "#ffffff", "line_name": "千葉線", "operator_id": "keisei", "representation": "service_path", "min_zoom": 0, "max_zoom": 24, "offset_rank": 0}}, {"type": "Feature", "bbox": [140.11465, 35.60821, 140.11739, 35.61154], "geometry": {"type": "LineString", "coordinates": [[140.11465, 35.61154], [140.11505, 35.61144], [140.11536, 35.61124], [140.11571, 35.61101], [140.11623, 35.61035], [140.11675, 35.60948], [140.11739, 35.60821]]}, "properties": {"id": "GEOM_TOKYO_0194", "route_id": "R_AF3DADBA", "route_name": "千葉線", "route_color": "#2457C5", "route_text_color": "#ffffff", "line_name": "千葉線", "operator_id": "keisei", "representation": "service_path", "min_zoom": 0, "max_zoom": 24, "offset_rank": 0}}, {"type": "Feature", "bbox": [140.10901, 35.6117, 140.11406, 35.61238], "geometry": {"type": "LineString", "coordinates": [[140.10901, 35.61238], [140.11071, 35.61203], [140.11162, 35.61185], [140.11194, 35.61184], [140.1129, 35.61183], [140.1134, 35.61179], [140.11376, 35.61175], [140.11406, 35.6117]]}, "properties": {"id": "GEOM_TOKYO_0195", "route_id": "R_AF3DADBA", "route_name": "千葉線", "route_color": "#2457C5", "route_text_color": "#ffffff", "line_name": "千葉線", "operator_id": "keisei", "representation": "service_path", "min_zoom": 0, "max_zoom": 24, "offset_rank": 0}}, {"type": "Feature", "bbox": [140.10258, 35.61721, 140.10316, 35.61804], "geometry": {"type": "LineString", "coordinates": [[140.10258, 35.61804], [140.10316, 35.61721]]}, "properties": {"id": "GEOM_TOKYO_0196", "route_id": "R_AF3DADBA", "route_name": "千葉線", "route_color": "#2457C5", "route_text_color": "#ffffff", "line_name": "千葉線", "operator_id": "keisei", "representation": "service_path", "min_zoom": 0, "max_zoom": 24, "offset_rank": 0}}, {"type": "Feature", "bbox": [140.10316, 35.61255, 140.10824, 35.61721], "geometry": {"type": "LineString", "coordinates": [[140.10316, 35.61721], [140.10395, 35.61615], [140.10515, 35.6145], [140.10578, 35.61372], [140.10632, 35.61326], [140.10667, 35.61303], [140.10714, 35.61285], [140.10824, 35.61255]]}, "properties": {"id": "GEOM_TOKYO_0197", "route_id": "R_AF3DADBA", "route_name": "千葉線", "route_color": "#2457C5", "route_text_color": "#ffffff", "line_name": "千葉線", "operator_id": "keisei", "representation": "service_path", "min_zoom": 0, "max_zoom": 24, "offset_rank": 0}}, {"type": "Feature", "bbox": [140.09765, 35.61804, 140.10258, 35.62487], "geometry": {"type": "LineString", "coordinates": [[140.09765, 35.62487], [140.09866, 35.62346], [140.09947, 35.62234], [140.10028, 35.62123], [140.10198, 35.61888], [140.10258, 35.61804]]}, "properties": {"id": "GEOM_TOKYO_0198", "route_id": "R_AF3DADBA", "route_name": "千葉線", "route_color": "#2457C5", "route_text_color": "#ffffff", "line_name": "千葉線", "operator_id": "keisei", "representation": "service_path", "min_zoom": 0, "max_zoom": 24, "offset_rank": 0}}, {"type": "Feature", "bbox": [140.08577, 35.62572, 140.097, 35.63679], "geometry": {"type": "LineString", "coordinates": [[140.08577, 35.63679], [140.08608, 35.63534], [140.08626, 35.63489], [140.08648, 35.63457], [140.08707, 35.63396], [140.08741, 35.63369], [140.08786, 35.63342], [140.08947, 35.63262], [140.08993, 35.6324], [140.09157, 35.63163], [140.09226, 35.6313], [140.09258, 35.63106], [140.09314, 35.63064], [140.0936, 35.63024], [140.09391, 35.6299], [140.09469, 35.62885], [140.097, 35.62572]]}, "properties": {"id": "GEOM_TOKYO_0199", "route_id": "R_AF3DADBA", "route_name": "千葉線", "route_color": "#2457C5", "route_text_color": "#ffffff", "line_name": "千葉線", "operator_id": "keisei", "representation": "service_path", "min_zoom": 0, "max_zoom": 24, "offset_rank": 0}}, {"type": "Feature", "bbox": [140.097, 35.62487, 140.09765, 35.62572], "geometry": {"type": "LineString", "coordinates": [[140.097, 35.62572], [140.09765, 35.62487]]}, "properties": {"id": "GEOM_TOKYO_0200", "route_id": "R_AF3DADBA", "route_name": "千葉線", "route_color": "#2457C5", "route_text_color": "#ffffff", "line_name": "千葉線", "operator_id": "keisei", "representation": "service_path", "min_zoom": 0, "max_zoom": 24, "offset_rank": 0}}, {"type": "Feature", "bbox": [140.10824, 35.61238, 140.10901, 35.61255], "geometry": {"type": "LineString", "coordinates": [[140.10824, 35.61255], [140.10901, 35.61238]]}, "properties": {"id": "GEOM_TOKYO_0201", "route_id": "R_AF3DADBA", "route_name": "千葉線", "route_color": "#2457C5", "route_text_color": "#ffffff", "line_name": "千葉線", "operator_id": "keisei", "representation": "service_path", "min_zoom": 0, "max_zoom": 24, "offset_rank": 0}}, {"type": "Feature", "bbox": [139.8922, 35.66539, 139.89427, 35.66642], "geometry": {"type": "LineString", "coordinates": [[139.89427, 35.66642], [139.89335, 35.66596], [139.89274, 35.66565], [139.8922, 35.66539]]}, "properties": {"id": "GEOM_TOKYO_1615", "route_id": "R_8B989DA1", "route_name": "5号線東西線", "route_color": "#00A7DB", "route_text_color": "#ffffff", "line_name": "5号線東西線", "operator_id": "tokyo_metro", "representation": "service_path", "min_zoom": 0, "max_zoom": 24, "offset_rank": 0}}, {"type": "Feature", "bbox": [139.89427, 35.66642, 139.90149, 35.67207], "geometry": {"type": "LineString", "coordinates": [[139.90149, 35.67207], [139.9014, 35.67199], [139.9013, 35.67192], [139.89906, 35.67007], [139.8989, 35.66991], [139.89852, 35.66958], [139.89794, 35.66907], [139.89679, 35.66807], [139.89596, 35.66747], [139.89543, 35.6671], [139.89497, 35.66679], [139.89427, 35.66642]]}, "properties": {"id": "GEOM_TOKYO_1616", "route_id": "R_8B989DA1", "route_name": "5号線東西線", "route_color": "#00A7DB", "route_text_color": "#ffffff", "line_name": "5号線東西線", "operator_id": "tokyo_metro", "representation": "service_path", "min_zoom": 0, "max_zoom": 24, "offset_rank": 0}}, {"type": "Feature", "bbox": [139.83291, 35.66471, 139.85786, 35.66802], "geometry": {"type": "LineString", "coordinates": [[139.85786, 35.66471], [139.85725, 35.66476], [139.85457, 35.66497], [139.85201, 35.66517], [139.84622, 35.66566], [139.84588, 35.66569], [139.84493, 35.66577], [139.84279, 35.66594], [139.83975, 35.66635], [139.83754, 35.66667], [139.83698, 35.66678], [139.83503, 35.66735], [139.83495, 35.66737], [139.83451, 35.6675], [139.8343, 35.66757], [139.83291, 35.66802]]}, "properties": {"id": "GEOM_TOKYO_1618", "route_id": "R_8B989DA1", "route_name": "5号線東西線", "route_color": "#00A7DB", "route_text_color": "#ffffff", "line_name": "5号線東西線", "operator_id": "tokyo_metro", "representation": "service_path", "min_zoom": 0, "max_zoom": 24, "offset_rank": 0}}, {"type": "Feature", "bbox": [139.86134, 35.6637, 139.8711, 35.66441], "geometry": {"type": "LineString", "coordinates": [[139.8711, 35.6637], [139.87101, 35.6637], [139.86697, 35.66396], [139.86142, 35.66441], [139.86134, 35.66441]]}, "properties": {"id": "GEOM_TOKYO_1619", "route_id": "R_8B989DA1", "route_name": "5号線東西線", "route_color": "#00A7DB", "route_text_color": "#ffffff", "line_name": "5号線東西線", "operator_id": "tokyo_metro", "representation": "service_path", "min_zoom": 0, "max_zoom": 24, "offset_rank": 0}}, {"type": "Feature", "bbox": [139.8711, 35.66354, 139.87396, 35.6637], "geometry": {"type": "LineString", "coordinates": [[139.87396, 35.66354], [139.87353, 35.66356], [139.87294, 35.66359], [139.87231, 35.66363], [139.87176, 35.66366], [139.87164, 35.66367], [139.87123, 35.66369], [139.8711, 35.6637]]}, "properties": {"id": "GEOM_TOKYO_1620", "route_id": "R_8B989DA1", "route_name": "5号線東西線", "route_color": "#00A7DB", "route_text_color": "#ffffff", "line_name": "5号線東西線", "operator_id": "tokyo_metro", "representation": "service_path", "min_zoom": 0, "max_zoom": 24, "offset_rank": 0}}, {"type": "Feature", "bbox": [139.87396, 35.66326, 139.8922, 35.66539], "geometry": {"type": "LineString", "coordinates": [[139.8922, 35.66539], [139.89215, 35.66537], [139.89102, 35.66478], [139.89031, 35.66446], [139.88977, 35.66425], [139.88931, 35.66411], [139.88915, 35.66407], [139.88813, 35.66396], [139.88711, 35.66386], [139.88511, 35.66367], [139.88189, 35.66335], [139.88097, 35.66327], [139.88065, 35.66326], [139.87762, 35.66336], [139.87406, 35.66353], [139.87396, 35.66354]]}, "properties": {"id": "GEOM_TOKYO_1622", "route_id": "R_8B989DA1", "route_name": "5号線東西線", "route_color": "#00A7DB", "route_text_color": "#ffffff", "line_name": "5号線東西線", "operator_id": "tokyo_metro", "representation": "service_path", "min_zoom": 0, "max_zoom": 24, "offset_rank": 0}}, {"type": "Feature", "bbox": [139.85786, 35.66441, 139.86134, 35.66471], "geometry": {"type": "LineString", "coordinates": [[139.85786, 35.66471], [139.85872, 35.66464], [139.85904, 35.66461], [139.85943, 35.66458], [139.85974, 35.66455], [139.86134, 35.66441]]}, "properties": {"id": "GEOM_TOKYO_1630", "route_id": "R_8B989DA1", "route_name": "5号線東西線", "route_color": "#00A7DB", "route_text_color": "#ffffff", "line_name": "5号線東西線", "operator_id": "tokyo_metro", "representation": "service_path", "min_zoom": 0, "max_zoom": 24, "offset_rank": 0}}, {"type": "Feature", "bbox": [140.12794, 35.58341, 140.13012, 35.5876], "geometry": {"type": "LineString", "coordinates": [[140.12794, 35.5876], [140.128, 35.58751], [140.12823, 35.58714], [140.12847, 35.58665], [140.12848, 35.58662], [140.1285, 35.58659], [140.12856, 35.58646], [140.12863, 35.58633], [140.12888, 35.58585], [140.13012, 35.58341]]}, "properties": {"id": "GEOM_TOKYO_2150", "route_id": "R_CA890E41", "route_name": null, "route_color": "#D9352A", "route_text_color": null, "line_name": "外房線", "operator_id": "jr_east", "representation": "service_path", "min_zoom": 0, "max_zoom": 24, "offset_rank": 0}}, {"type": "Feature", "bbox": [140.13023, 35.58113, 140.13124, 35.58318], "geometry": {"type": "LineString", "coordinates": [[140.13124, 35.58113], [140.13049, 35.58266], [140.13023, 35.58318]]}, "properties": {"id": "GEOM_TOKYO_2151", "route_id": "R_CA890E41", "route_name": null, "route_color": "#D9352A", "route_text_color": null, "line_name": "外房線", "operator_id": "jr_east", "representation": "service_path", "min_zoom": 0, "max_zoom": 24, "offset_rank": 0}}, {"type": "Feature", "bbox": [140.13124, 35.57866, 140.13246, 35.58113], "geometry": {"type": "LineString", "coordinates": [[140.13246, 35.57866], [140.13207, 35.57944], [140.13124, 35.58113]]}, "properties": {"id": "GEOM_TOKYO_2152", "route_id": "R_CA890E41", "route_name": null, "route_color": "#D9352A", "route_text_color": null, "line_name": "外房線", "operator_id": "jr_east", "representation": "service_path", "min_zoom": 0, "max_zoom": 24, "offset_rank": 0}}, {"type": "Feature", "bbox": [140.13012, 35.58318, 140.13023, 35.58341], "geometry": {"type": "LineString", "coordinates": [[140.13023, 35.58318], [140.13012, 35.58341]]}, "properties": {"id": "GEOM_TOKYO_2153", "route_id": "R_CA890E41", "route_name": null, "route_color": "#D9352A", "route_text_color": null, "line_name": "外房線", "operator_id": "jr_east", "representation": "service_path", "min_zoom": 0, "max_zoom": 24, "offset_rank": 0}}, {"type": "Feature", "bbox": [140.12093, 35.59958, 140.12193, 35.60167], "geometry": {"type": "LineString", "coordinates": [[140.12093, 35.60167], [140.12174, 35.59992], [140.12193, 35.59958]]}, "properties": {"id": "GEOM_TOKYO_2159", "route_id": "R_CA890E41", "route_name": null, "route_color": "#D9352A", "route_text_color": null, "line_name": "外房線", "operator_id": "jr_east", "representation": "service_path", "min_zoom": 0, "max_zoom": 24, "offset_rank": 0}}, {"type": "Feature", "bbox": [140.11035, 35.61371, 140.11221, 35.61508], "geometry": {"type": "LineString", "coordinates": [[140.11221, 35.61371], [140.11103, 35.61454], [140.11035, 35.61508]]}, "properties": {"id": "GEOM_TOKYO_2161", "route_id": "R_CA890E41", "route_name": null, "route_color": "#D9352A", "route_text_color": null, "line_name": "外房線", "operator_id": "jr_east", "representation": "service_path", "min_zoom": 0, "max_zoom": 24, "offset_rank": 0}}, {"type": "Feature", "bbox": [140.11221, 35.61259, 140.11396, 35.61371], "geometry": {"type": "LineString", "coordinates": [[140.11396, 35.61259], [140.11298, 35.61321], [140.11235, 35.61362], [140.11221, 35.61371]]}, "properties": {"id": "GEOM_TOKYO_2166", "route_id": "R_CA890E41", "route_name": null, "route_color": "#D9352A", "route_text_color": null, "line_name": "外房線", "operator_id": "jr_east", "representation": "service_path", "min_zoom": 0, "max_zoom": 24, "offset_rank": 0}}, {"type": "Feature", "bbox": [140.12193, 35.5876, 140.12794, 35.59958], "geometry": {"type": "LineString", "coordinates": [[140.12193, 35.59958], [140.12245, 35.59854], [140.12325, 35.59694], [140.12347, 35.5965], [140.12521, 35.59304], [140.12563, 35.5922], [140.12733, 35.58889], [140.12774, 35.58801], [140.12794, 35.5876]]}, "properties": {"id": "GEOM_TOKYO_2168", "route_id": "R_CA890E41", "route_name": null, "route_color": "#D9352A", "route_text_color": null, "line_name": "外房線", "operator_id": "jr_east", "representation": "service_path", "min_zoom": 0, "max_zoom": 24, "offset_rank": 0}}, {"type": "Feature", "bbox": [140.11396, 35.60167, 140.12093, 35.61259], "geometry": {"type": "LineString", "coordinates": [[140.12093, 35.60167], [140.1197, 35.60418], [140.11959, 35.60439], [140.11802, 35.60756], [140.11679, 35.61007], [140.11632, 35.61067], [140.11576, 35.61123], [140.11526, 35.61169], [140.11496, 35.6119], [140.11447, 35.61225], [140.11427, 35.6124], [140.11396, 35.61259]]}, "properties": {"id": "GEOM_TOKYO_2173", "route_id": "R_CA890E41", "route_name": null, "route_color": "#D9352A", "route_text_color": null, "line_name": "外房線", "operator_id": "jr_east", "representation": "service_path", "min_zoom": 0, "max_zoom": 24, "offset_rank": 0}}, {"type": "Feature", "bbox": [140.13246, 35.56307, 140.17825, 35.57866], "geometry": {"type": "LineString", "coordinates": [[140.13246, 35.57866], [140.13342, 35.57777], [140.13456, 35.5769], [140.13589, 35.5759], [140.13819, 35.57419], [140.13868, 35.57384], [140.14067, 35.57231], [140.14316, 35.57062], [140.14372, 35.57028], [140.14456, 35.56992], [140.14799, 35.56847], [140.14993, 35.56762], [140.15057, 35.56734], [140.15348, 35.56611], [140.15628, 35.56489], [140.15703, 35.56466], [140.15746, 35.56458], [140.15812, 35.56453], [140.15892, 35.56453], [140.15949, 35.56453], [140.15981, 35.56452], [140.16008, 35.56452], [140.16025, 35.56453], [140.16346, 35.56453], [140.16351, 35.56453], [140.16716, 35.56451], [140.16918, 35.56449], [140.16966, 35.56449], [140.17146, 35.5648], [140.17252, 35.56494], [140.1728, 35.56497], [140.17329, 35.565], [140.17373, 35.56498], [140.17452, 35.56487], [140.1749, 35.5648], [140.17527, 35.56473], [140.17626, 35.56441], [140.17684, 35.56416], [140.17706, 35.56403], [140.17713, 35.56399], [140.17765, 35.56359], [140.17825, 35.56307]]}, "properties": {"id": "GEOM_TOKYO_2175", "route_id": "R_CA890E41", "route_name": null, "route_color": "#D9352A", "route_text_color": null, "line_name": "外房線", "operator_id": "jr_east", "representation": "service_path", "min_zoom": 0, "max_zoom": 24, "offset_rank": 0}}, {"type": "Feature", "bbox": [140.01203, 35.66685, 140.01392, 35.66795], "geometry": {"type": "LineString", "coordinates": [[140.01392, 35.66685], [140.01203, 35.66795]]}, "properties": {"id": "GEOM_TOKYO_2216", "route_id": "R_2867532E", "route_name": null, "route_color": "#C62828", "route_text_color": null, "line_name": "京葉線", "operator_id": "jr_east", "representation": "service_path", "min_zoom": 0, "max_zoom": 24, "offset_rank": 0}}, {"type": "Feature", "bbox": [140.04291, 35.63785, 140.05815, 35.64785], "geometry": {"type": "LineString", "coordinates": [[140.05815, 35.63785], [140.0543, 35.64059], [140.05259, 35.64185], [140.05174, 35.64241], [140.05162, 35.64249], [140.04813, 35.64464], [140.04536, 35.64633], [140.04299, 35.6478], [140.04291, 35.64785]]}, "properties": {"id": "GEOM_TOKYO_2219", "route_id": "R_2867532E", "route_name": null, "route_color": "#C62828", "route_text_color": null, "line_name": "京葉線", "operator_id": "jr_east", "representation": "service_path", "min_zoom": 0, "max_zoom": 24, "offset_rank": 0}}, {"type": "Feature", "bbox": [140.04108, 35.64785, 140.04291, 35.64895], "geometry": {"type": "LineString", "coordinates": [[140.04291, 35.64785], [140.04108, 35.64895]]}, "properties": {"id": "GEOM_TOKYO_2220", "route_id": "R_2867532E", "route_name": null, "route_color": "#C62828", "route_text_color": null, "line_name": "京葉線", "operator_id": "jr_east", "representation": "service_path", "min_zoom": 0, "max_zoom": 24, "offset_rank": 0}}, {"type": "Feature", "bbox": [140.01392, 35.65877323228198, 140.02617031849945, 35.66685], "geometry": {"type": "LineString", "coordinates": [[140.02617031849945, 35.65877323228198], [140.0256, 35.65916], [140.02503, 35.65954], [140.02295, 35.66097], [140.0221, 35.66154], [140.02074, 35.66244], [140.01871, 35.66383], [140.01585, 35.66568], [140.01399, 35.66681], [140.01392, 35.66685]]}, "properties": {"id": "GEOM_TOKYO_2221", "route_id": "R_2867532E", "route_name": null, "route_color": "#C62828", "route_text_color": null, "line_name": "京葉線", "operator_id": "jr_east", "representation": "service_path", "min_zoom": 0, "max_zoom": 24, "offset_rank": 0}}, {"type": "Feature", "bbox": [139.99643, 35.66795, 140.01203, 35.68131], "geometry": {"type": "LineString", "coordinates": [[140.01203, 35.66795], [140.01191, 35.66802], [140.01028, 35.66897], [140.00866, 35.66991], [140.00843, 35.67002], [140.0074, 35.67062], [140.00662, 35.67107], [140.00584, 35.67155], [140.00519, 35.67203], [140.00461, 35.67248], [140.00437, 35.67269], [140.00425, 35.67279], [140.00381, 35.67331], [140.00346, 35.67376], [140.00314, 35.67425], [140.00279, 35.67496], [140.00252, 35.67549], [140.00229, 35.67604], [140.00184, 35.67712], [140.00168, 35.67747], [140.00148, 35.67784], [140.00109, 35.67845], [140.00071, 35.67888], [140.00022, 35.67931], [139.99978, 35.67963], [139.9992, 35.67992], [139.99874, 35.68015], [139.9987, 35.68017], [139.99788, 35.68057], [139.99713, 35.68093], [139.99675, 35.68116], [139.99652, 35.68126], [139.99643, 35.68131]]}, "properties": {"id": "GEOM_TOKYO_2222", "route_id": "R_2867532E", "route_name": null, "route_color": "#C62828", "route_text_color": null, "line_name": "京葉線", "operator_id": "jr_east", "representation": "service_path", "min_zoom": 0, "max_zoom": 24, "offset_rank": 0}}, {"type": "Feature", "bbox": [139.82785, 35.64452, 139.86054, 35.64697], "geometry": {"type": "LineString", "coordinates": [[139.86054, 35.64452], [139.86047, 35.64454], [139.85912, 35.64503], [139.85821, 35.64534], [139.85758, 35.64553], [139.85716, 35.64563], [139.85676, 35.6457], [139.85641, 35.64574], [139.85457, 35.64589], [139.84976, 35.64622], [139.84928, 35.64625], [139.84172, 35.6467], [139.84131, 35.64673], [139.83992, 35.64683], [139.8388, 35.64691], [139.83812, 35.64694], [139.83719, 35.64697], [139.82785, 35.64609]]}, "properties": {"id": "GEOM_TOKYO_2227", "route_id": "R_2867532E", "route_name": null, "route_color": "#C62828", "route_text_color": null, "line_name": "京葉線", "operator_id": "jr_east", "representation": "service_path", "min_zoom": 0, "max_zoom": 24, "offset_rank": 0}}, {"type": "Feature", "bbox": [139.86054, 35.64382, 139.86243, 35.64452], "geometry": {"type": "LineString", "coordinates": [[139.86243, 35.64382], [139.86054, 35.64452]]}, "properties": {"id": "GEOM_TOKYO_2236", "route_id": "R_2867532E", "route_name": null, "route_color": "#C62828", "route_text_color": null, "line_name": "京葉線", "operator_id": "jr_east", "representation": "service_path", "min_zoom": 0, "max_zoom": 24, "offset_rank": 0}}, {"type": "Feature", "bbox": [139.9117, 35.64883, 139.91336, 35.65021], "geometry": {"type": "LineString", "coordinates": [[139.91336, 35.65021], [139.9117, 35.64883]]}, "properties": {"id": "GEOM_TOKYO_2237", "route_id": "R_2867532E", "route_name": null, "route_color": "#C62828", "route_text_color": null, "line_name": "京葉線", "operator_id": "jr_east", "representation": "service_path", "min_zoom": 0, "max_zoom": 24, "offset_rank": 0}}, {"type": "Feature", "bbox": [139.92413, 35.66742, 139.95346, 35.68953], "geometry": {"type": "LineString", "coordinates": [[139.92413, 35.66742], [139.92454, 35.66825], [139.9249, 35.66888], [139.92522, 35.66942], [139.92547, 35.66973], [139.92561, 35.66991], [139.92618, 35.67042], [139.92695, 35.67107], [139.92775, 35.67175], [139.92976, 35.67345], [139.93152, 35.67498], [139.93321, 35.67647], [139.93326, 35.67651], [139.93552, 35.67842], [139.937, 35.67965], [139.9381, 35.68053], [139.93828, 35.68067], [139.93867, 35.68093], [139.93924, 35.68127], [139.94036, 35.68192], [139.94102, 35.6823], [139.9414, 35.68251], [139.94145, 35.68254], [139.94483, 35.6844], [139.94726, 35.68559], [139.94835, 35.68616], [139.94911, 35.68658], [139.94997, 35.6871], [139.95049, 35.68743], [139.9506, 35.68751], [139.95107, 35.68783], [139.95161, 35.68822], [139.95295, 35.68918], [139.95346, 35.68953]]}, "properties": {"id": "GEOM_TOKYO_2241", "route_id": "R_2867532E", "route_name": null, "route_color": "#C62828", "route_text_color": null, "line_name": "京葉線", "operator_id": "jr_east", "representation": "service_path", "min_zoom": 0, "max_zoom": 24, "offset_rank": 0}}, {"type": "Feature", "bbox": [139.91336, 35.65021, 139.92317, 35.66554], "geometry": {"type": "LineString", "coordinates": [[139.92317, 35.66554], [139.92235, 35.66392], [139.92161, 35.66246], [139.92077, 35.66087], [139.91966, 35.6587], [139.91866, 35.65677], [139.91806, 35.6556], [139.91731, 35.65416], [139.91699, 35.65359], [139.91666, 35.65312], [139.91645, 35.65284], [139.9163, 35.65269], [139.91554, 35.65203], [139.91336, 35.65021]]}, "properties": {"id": "GEOM_TOKYO_2242", "route_id": "R_2867532E", "route_name": null, "route_color": "#C62828", "route_text_color": null, "line_name": "京葉線", "operator_id": "jr_east", "representation": "service_path", "min_zoom": 0, "max_zoom": 24, "offset_rank": 0}}, {"type": "Feature", "bbox": [139.92317, 35.66554, 139.92413, 35.66742], "geometry": {"type": "LineString", "coordinates": [[139.92413, 35.66742], [139.92351, 35.6662], [139.92329, 35.66577], [139.92317, 35.66554]]}, "properties": {"id": "GEOM_TOKYO_2243", "route_id": "R_2867532E", "route_name": null, "route_color": "#C62828", "route_text_color": null, "line_name": "京葉線", "operator_id": "jr_east", "representation": "service_path", "min_zoom": 0, "max_zoom": 24, "offset_rank": 0}}, {"type": "Feature", "bbox": [140.12489, 35.58341, 140.13012, 35.58973], "geometry": {"type": "LineString", "coordinates": [[140.12489, 35.58973], [140.12574, 35.58925], [140.12623, 35.58897], [140.1264, 35.58887], [140.12711, 35.58822], [140.12737, 35.5879], [140.1275, 35.58774], [140.12761, 35.5876], [140.12762, 35.58758], [140.12818, 35.58662], [140.1282, 35.58659], [140.12847, 35.58624], [140.12865, 35.58589], [140.1295, 35.58422], [140.12965, 35.58397], [140.13012, 35.58341]]}, "properties": {"id": "GEOM_TOKYO_2244", "route_id": "R_2867532E", "route_name": null, "route_color": "#C62828", "route_text_color": null, "line_name": "京葉線", "operator_id": "jr_east", "representation": "service_path", "min_zoom": 0, "max_zoom": 24, "offset_rank": 0}}, {"type": "Feature", "bbox": [140.13023, 35.58113, 140.13124, 35.58318], "geometry": {"type": "LineString", "coordinates": [[140.13124, 35.58113], [140.13049, 35.58266], [140.13023, 35.58318]]}, "properties": {"id": "GEOM_TOKYO_2245", "route_id": "R_2867532E", "route_name": null, "route_color": "#C62828", "route_text_color": null, "line_name": "京葉線", "operator_id": "jr_east", "representation": "service_path", "min_zoom": 0, "max_zoom": 24, "offset_rank": 0}}, {"type": "Feature", "bbox": [140.13012, 35.58318, 140.13023, 35.58341], "geometry": {"type": "LineString", "coordinates": [[140.13023, 35.58318], [140.13012, 35.58341]]}, "properties": {"id": "GEOM_TOKYO_2246", "route_id": "R_2867532E", "route_name": null, "route_color": "#C62828", "route_text_color": null, "line_name": "京葉線", "operator_id": "jr_east", "representation": "service_path", "min_zoom": 0, "max_zoom": 24, "offset_rank": 0}}, {"type": "Feature", "bbox": [140.06002, 35.62961, 140.07271, 35.63649], "geometry": {"type": "LineString", "coordinates": [[140.07271, 35.62961], [140.07235, 35.62964], [140.07115, 35.62982], [140.07018, 35.63005], [140.06954, 35.63024], [140.06871, 35.63053], [140.06845, 35.63065], [140.06821, 35.63076], [140.06755, 35.63114], [140.06674, 35.63169], [140.06352, 35.634], [140.06002, 35.63649]]}, "properties": {"id": "GEOM_TOKYO_2247", "route_id": "R_2867532E", "route_name": null, "route_color": "#C62828", "route_text_color": null, "line_name": "京葉線", "operator_id": "jr_east", "representation": "service_path", "min_zoom": 0, "max_zoom": 24, "offset_rank": 0}}, {"type": "Feature", "bbox": [139.88271, 35.63579, 139.88473, 35.63653], "geometry": {"type": "LineString", "coordinates": [[139.88473, 35.63579], [139.88271, 35.63653]]}, "properties": {"id": "GEOM_TOKYO_2248", "route_id": "R_2867532E", "route_name": null, "route_color": "#C62828", "route_text_color": null, "line_name": "京葉線", "operator_id": "jr_east", "representation": "service_path", "min_zoom": 0, "max_zoom": 24, "offset_rank": 0}}, {"type": "Feature", "bbox": [140.07271, 35.62943, 140.07499, 35.62961], "geometry": {"type": "LineString", "coordinates": [[140.07499, 35.62943], [140.07418, 35.62949], [140.07396, 35.62951], [140.07271, 35.62961]]}, "properties": {"id": "GEOM_TOKYO_2249", "route_id": "R_2867532E", "route_name": null, "route_color": "#C62828", "route_text_color": null, "line_name": "京葉線", "operator_id": "jr_east", "representation": "service_path", "min_zoom": 0, "max_zoom": 24, "offset_rank": 0}}, {"type": "Feature", "bbox": [140.05815, 35.63649, 140.06002, 35.63785], "geometry": {"type": "LineString", "coordinates": [[140.06002, 35.63649], [140.05815, 35.63785]]}, "properties": {"id": "GEOM_TOKYO_2250", "route_id": "R_2867532E", "route_name": null, "route_color": "#C62828", "route_text_color": null, "line_name": "京葉線", "operator_id": "jr_east", "representation": "service_path", "min_zoom": 0, "max_zoom": 24, "offset_rank": 0}}, {"type": "Feature", "bbox": [139.86243, 35.63653, 139.88271, 35.64382], "geometry": {"type": "LineString", "coordinates": [[139.88271, 35.63653], [139.88189, 35.63682], [139.87822, 35.63813], [139.87507, 35.63928], [139.87374, 35.63977], [139.87372, 35.63978], [139.87299, 35.64005], [139.87176, 35.64048], [139.86614, 35.64247], [139.86249, 35.6438], [139.86243, 35.64382]]}, "properties": {"id": "GEOM_TOKYO_2251", "route_id": "R_2867532E", "route_name": null, "route_color": "#C62828", "route_text_color": null, "line_name": "京葉線", "operator_id": "jr_east", "representation": "service_path", "min_zoom": 0, "max_zoom": 24, "offset_rank": 0}}, {"type": "Feature", "bbox": [140.07499, 35.61201, 140.09738, 35.62943], "geometry": {"type": "LineString", "coordinates": [[140.07499, 35.62943], [140.07589, 35.62933], [140.07684, 35.6292], [140.07781, 35.62899], [140.07872, 35.62875], [140.07961, 35.62838], [140.0806, 35.62785], [140.08163, 35.62715], [140.08274, 35.62631], [140.08392, 35.62523], [140.08419, 35.62496], [140.08575, 35.6234], [140.08756, 35.6216], [140.08941, 35.61981], [140.09125, 35.618], [140.0914, 35.61785], [140.09184, 35.61742], [140.09396, 35.61533], [140.09496, 35.61437], [140.09544, 35.6139], [140.09738, 35.61201]]}, "properties": {"id": "GEOM_TOKYO_2252", "route_id": "R_2867532E", "route_name": null, "route_color": "#C62828", "route_text_color": null, "line_name": "京葉線", "operator_id": "jr_east", "representation": "service_path", "min_zoom": 0, "max_zoom": 24, "offset_rank": 0}}, {"type": "Feature", "bbox": [139.88473, 35.63443, 139.9117, 35.64883], "geometry": {"type": "LineString", "coordinates": [[139.9117, 35.64883], [139.90836, 35.64602], [139.90533, 35.64353], [139.90464, 35.64296], [139.90321, 35.64177], [139.90098, 35.63992], [139.89879, 35.6381], [139.89758, 35.63708], [139.89742, 35.63694], [139.89689, 35.63651], [139.89643, 35.63616], [139.89595, 35.63586], [139.89548, 35.63562], [139.8948, 35.63531], [139.89397, 35.63498], [139.89368, 35.63489], [139.89332, 35.63479], [139.89219, 35.63459], [139.89123, 35.63447], [139.89026, 35.63443], [139.88979, 35.63445], [139.88906, 35.63454], [139.88795, 35.63478], [139.88752, 35.6349], [139.88736, 35.63494], [139.88689, 35.63509], [139.88473, 35.63579]]}, "properties": {"id": "GEOM_TOKYO_2253", "route_id": "R_2867532E", "route_name": null, "route_color": "#C62828", "route_text_color": null, "line_name": "京葉線", "operator_id": "jr_east", "representation": "service_path", "min_zoom": 0, "max_zoom": 24, "offset_rank": 0}}, {"type": "Feature", "bbox": [140.09738, 35.60736, 140.10213, 35.61201], "geometry": {"type": "LineString", "coordinates": [[140.10213, 35.60736], [140.10128, 35.60819], [140.09988, 35.60955], [140.09972, 35.6097], [140.0983, 35.6111], [140.09738, 35.61201]]}, "properties": {"id": "GEOM_TOKYO_2254", "route_id": "R_2867532E", "route_name": null, "route_color": "#C62828", "route_text_color": null, "line_name": "京葉線", "operator_id": "jr_east", "representation": "service_path", "min_zoom": 0, "max_zoom": 24, "offset_rank": 0}}, {"type": "Feature", "bbox": [140.10213, 35.60606, 140.10346, 35.60736], "geometry": {"type": "LineString", "coordinates": [[140.10346, 35.60606], [140.10213, 35.60736]]}, "properties": {"id": "GEOM_TOKYO_2255", "route_id": "R_2867532E", "route_name": null, "route_color": "#C62828", "route_text_color": null, "line_name": "京葉線", "operator_id": "jr_east", "representation": "service_path", "min_zoom": 0, "max_zoom": 24, "offset_rank": 0}}, {"type": "Feature", "bbox": [140.10346, 35.58973, 140.12489, 35.60606], "geometry": {"type": "LineString", "coordinates": [[140.10346, 35.60606], [140.10568, 35.60385], [140.10786, 35.60169], [140.10836, 35.60123], [140.1087, 35.60096], [140.10953, 35.60052], [140.11009, 35.60029], [140.11106, 35.6], [140.11131, 35.59995], [140.11358, 35.59954], [140.11469, 35.59927], [140.11514, 35.59912], [140.11592, 35.59869], [140.11679, 35.59804], [140.11738, 35.59738], [140.11788, 35.59673], [140.11892, 35.59509], [140.11929, 35.59453], [140.12027, 35.59306], [140.12089, 35.59212], [140.12124, 35.5917], [140.12154, 35.59138], [140.12174, 35.59117], [140.12194, 35.59104], [140.12209, 35.59096], [140.12277, 35.59063], [140.12489, 35.58973]]}, "properties": {"id": "GEOM_TOKYO_2256", "route_id": "R_2867532E", "route_name": null, "route_color": "#C62828", "route_text_color": null, "line_name": "京葉線", "operator_id": "jr_east", "representation": "service_path", "min_zoom": 0, "max_zoom": 24, "offset_rank": 0}}, {"type": "Feature", "bbox": [140.08672, 35.61201, 140.09738, 35.62164], "geometry": {"type": "LineString", "coordinates": [[140.08672, 35.62164], [140.08829, 35.62013], [140.09084, 35.61763], [140.09141, 35.61705], [140.09258, 35.61592], [140.09401, 35.61456], [140.09443, 35.61422], [140.09457, 35.61411], [140.09483, 35.61389], [140.09548, 35.61342], [140.09738, 35.61201]]}, "properties": {"id": "GEOM_TOKYO_2257", "route_id": "R_2867532E", "route_name": null, "route_color": "#C62828", "route_text_color": null, "line_name": "京葉線", "operator_id": "jr_east", "representation": "service_path", "min_zoom": 0, "max_zoom": 24, "offset_rank": 0}}, {"type": "Feature", "bbox": [140.12489, 35.5876, 140.12794, 35.58973], "geometry": {"type": "LineString", "coordinates": [[140.12489, 35.58973], [140.12554, 35.58952], [140.12624, 35.58916], [140.12642, 35.58905], [140.12682, 35.58879], [140.12734, 35.58833], [140.12764, 35.58798], [140.12777, 35.58783], [140.12794, 35.5876]]}, "properties": {"id": "GEOM_TOKYO_2258", "route_id": "R_2867532E", "route_name": null, "route_color": "#C62828", "route_text_color": null, "line_name": "京葉線", "operator_id": "jr_east", "representation": "service_path", "min_zoom": 0, "max_zoom": 24, "offset_rank": 0}}, {"type": "Feature", "bbox": [140.12794, 35.58341, 140.13012, 35.5876], "geometry": {"type": "LineString", "coordinates": [[140.12794, 35.5876], [140.128, 35.58751], [140.12823, 35.58714], [140.12847, 35.58665], [140.12848, 35.58662], [140.1285, 35.58659], [140.12856, 35.58646], [140.12863, 35.58633], [140.12888, 35.58585], [140.13012, 35.58341]]}, "properties": {"id": "GEOM_TOKYO_2259", "route_id": "R_2867532E", "route_name": null, "route_color": "#C62828", "route_text_color": null, "line_name": "京葉線", "operator_id": "jr_east", "representation": "service_path", "min_zoom": 0, "max_zoom": 24, "offset_rank": 0}}, {"type": "Feature", "bbox": [140.03625, 35.6617, 140.05529, 35.67785], "geometry": {"type": "LineString", "coordinates": [[140.03625, 35.67785], [140.03668, 35.67759], [140.03686, 35.67751], [140.03712, 35.67736], [140.03776, 35.67694], [140.03813, 35.67671], [140.03939, 35.67599], [140.04001, 35.67568], [140.04062, 35.67537], [140.04137, 35.67496], [140.04213, 35.67446], [140.04264, 35.67408], [140.04342, 35.67347], [140.04403, 35.67289], [140.04478, 35.67214], [140.04618, 35.67065], [140.0469, 35.66991], [140.04837, 35.66872], [140.04839, 35.66871], [140.04991, 35.66739], [140.05022, 35.66712], [140.05077, 35.66665], [140.05189, 35.66549], [140.05299, 35.66434], [140.05324, 35.66403], [140.05375, 35.66341], [140.05529, 35.6617]]}, "properties": {"id": "GEOM_TOKYO_2898", "route_id": "R_7A7743D8", "route_name": null, "route_color": "#F4C300", "route_text_color": null, "line_name": "総武線", "operator_id": "jr_east", "representation": "service_path", "min_zoom": 0, "max_zoom": 24, "offset_rank": 0}}, {"type": "Feature", "bbox": [140.07449, 35.63856, 140.09168, 35.65167], "geometry": {"type": "LineString", "coordinates": [[140.09168, 35.63856], [140.09163, 35.63863], [140.08999, 35.64096], [140.08953, 35.64162], [140.08853, 35.64304], [140.08814, 35.64359], [140.08749, 35.64453], [140.08614, 35.64644], [140.08552, 35.64729], [140.08502, 35.64798], [140.08469, 35.64838], [140.08375, 35.64923], [140.08352, 35.64937], [140.08344, 35.64943], [140.08256, 35.64999], [140.08141, 35.65052], [140.08077, 35.65074], [140.08005, 35.65094], [140.07951, 35.65105], [140.07812, 35.65121], [140.07748, 35.65129], [140.07678, 35.65137], [140.0765, 35.65141], [140.07594, 35.65148], [140.07516, 35.65158], [140.07449, 35.65167]]}, "properties": {"id": "GEOM_TOKYO_2901", "route_id": "R_7A7743D8", "route_name": null, "route_color": "#F4C300", "route_text_color": null, "line_name": "総武線", "operator_id": "jr_east", "representation": "service_path", "min_zoom": 0, "max_zoom": 24, "offset_rank": 0}}, {"type": "Feature", "bbox": [140.04316, 35.6617, 140.05529, 35.67199], "geometry": {"type": "LineString", "coordinates": [[140.04316, 35.67199], [140.04536, 35.67009], [140.04557, 35.66991], [140.04721, 35.66854], [140.04973, 35.66643], [140.05002, 35.66618], [140.05148, 35.66494], [140.05295, 35.66369], [140.05327, 35.66342], [140.05362, 35.66312], [140.05529, 35.6617]]}, "properties": {"id": "GEOM_TOKYO_2902", "route_id": "R_7A7743D8", "route_name": null, "route_color": "#F4C300", "route_text_color": null, "line_name": "総武線", "operator_id": "jr_east", "representation": "service_path", "min_zoom": 0, "max_zoom": 24, "offset_rank": 0}}, {"type": "Feature", "bbox": [140.0722, 35.65167, 140.07449, 35.65193], "geometry": {"type": "LineString", "coordinates": [[140.07449, 35.65167], [140.07325, 35.65181], [140.07264, 35.65188], [140.0722, 35.65193]]}, "properties": {"id": "GEOM_TOKYO_2903", "route_id": "R_7A7743D8", "route_name": null, "route_color": "#F4C300", "route_text_color": null, "line_name": "総武線", "operator_id": "jr_east", "representation": "service_path", "min_zoom": 0, "max_zoom": 24, "offset_rank": 0}}, {"type": "Feature", "bbox": [140.05849, 35.65193, 140.0722, 35.65896], "geometry": {"type": "LineString", "coordinates": [[140.0722, 35.65193], [140.07161, 35.65202], [140.07077, 35.65213], [140.07006, 35.6523], [140.06946, 35.65252], [140.06862, 35.65286], [140.06722, 35.65358], [140.06712, 35.65363], [140.06701, 35.65369], [140.06679, 35.6538], [140.06607, 35.65417], [140.06584, 35.65429], [140.0655, 35.65447], [140.06492, 35.65477], [140.06388, 35.65531], [140.06274, 35.6559], [140.06269, 35.65593], [140.06181, 35.65641], [140.06089, 35.65699], [140.06029, 35.65745], [140.05939, 35.65819], [140.05849, 35.65896]]}, "properties": {"id": "GEOM_TOKYO_2904", "route_id": "R_7A7743D8", "route_name": null, "route_color": "#F4C300", "route_text_color": null, "line_name": "総武線", "operator_id": "jr_east", "representation": "service_path", "min_zoom": 0, "max_zoom": 24, "offset_rank": 0}}, {"type": "Feature", "bbox": [140.05529, 35.66013, 140.05715, 35.6617], "geometry": {"type": "LineString", "coordinates": [[140.05715, 35.66013], [140.05529, 35.6617]]}, "properties": {"id": "GEOM_TOKYO_2915", "route_id": "R_7A7743D8", "route_name": null, "route_color": "#F4C300", "route_text_color": null, "line_name": "総武線", "operator_id": "jr_east", "representation": "service_path", "min_zoom": 0, "max_zoom": 24, "offset_rank": 0}}, {"type": "Feature", "bbox": [140.05715, 35.65896, 140.05849, 35.66013], "geometry": {"type": "LineString", "coordinates": [[140.05849, 35.65896], [140.05812, 35.65928], [140.05784, 35.65953], [140.05715, 35.66013]]}, "properties": {"id": "GEOM_TOKYO_2917", "route_id": "R_7A7743D8", "route_name": null, "route_color": "#F4C300", "route_text_color": null, "line_name": "総武線", "operator_id": "jr_east", "representation": "service_path", "min_zoom": 0, "max_zoom": 24, "offset_rank": 0}}, {"type": "Feature", "bbox": [140.11035, 35.61405, 140.11218, 35.61508], "geometry": {"type": "LineString", "coordinates": [[140.11218, 35.61405], [140.11119, 35.61456], [140.11035, 35.61508]]}, "properties": {"id": "GEOM_TOKYO_2959", "route_id": "R_7A7743D8", "route_name": null, "route_color": "#F4C300", "route_text_color": null, "line_name": "総武線", "operator_id": "jr_east", "representation": "service_path", "min_zoom": 0, "max_zoom": 24, "offset_rank": 0}}, {"type": "Feature", "bbox": [140.11218, 35.61315, 140.11492, 35.61405], "geometry": {"type": "LineString", "coordinates": [[140.11492, 35.61315], [140.11409, 35.6133], [140.11371, 35.61343], [140.11255, 35.61385], [140.11218, 35.61405]]}, "properties": {"id": "GEOM_TOKYO_2960", "route_id": "R_7A7743D8", "route_name": null, "route_color": "#F4C300", "route_text_color": null, "line_name": "総武線", "operator_id": "jr_east", "representation": "service_path", "min_zoom": 0, "max_zoom": 24, "offset_rank": 0}}, {"type": "Feature", "bbox": [140.11492, 35.61313, 140.12154, 35.61655], "geometry": {"type": "LineString", "coordinates": [[140.12154, 35.61655], [140.11958, 35.61523], [140.11858, 35.61461], [140.11774, 35.61408], [140.1173, 35.61382], [140.11662, 35.61342], [140.11612, 35.61323], [140.11563, 35.61313], [140.11492, 35.61315]]}, "properties": {"id": "GEOM_TOKYO_2961", "route_id": "R_7A7743D8", "route_name": null, "route_color": "#F4C300", "route_text_color": null, "line_name": "総武線", "operator_id": "jr_east", "representation": "service_path", "min_zoom": 0, "max_zoom": 24, "offset_rank": 0}}, {"type": "Feature", "bbox": [140.12154, 35.61655, 140.1233, 35.6177], "geometry": {"type": "LineString", "coordinates": [[140.1233, 35.6177], [140.12174, 35.61668], [140.12154, 35.61655]]}, "properties": {"id": "GEOM_TOKYO_2962", "route_id": "R_7A7743D8", "route_name": null, "route_color": "#F4C300", "route_text_color": null, "line_name": "総武線", "operator_id": "jr_east", "representation": "service_path", "min_zoom": 0, "max_zoom": 24, "offset_rank": 0}}, {"type": "Feature", "bbox": [140.1233, 35.6177, 140.14791, 35.63512], "geometry": {"type": "LineString", "coordinates": [[140.14791, 35.63512], [140.14752, 35.63483], [140.14601, 35.63372], [140.14556, 35.63338], [140.14531, 35.63321], [140.14519, 35.63312], [140.14474, 35.63281], [140.14097, 35.63003], [140.13983, 35.6292], [140.13694, 35.62711], [140.13622, 35.62657], [140.13248, 35.62385], [140.13041, 35.62235], [140.13039, 35.62234], [140.13001, 35.62207], [140.1262, 35.61958], [140.12572, 35.61927], [140.12568, 35.61924], [140.1233, 35.6177]]}, "properties": {"id": "GEOM_TOKYO_2963", "route_id": "R_7A7743D8", "route_name": null, "route_color": "#F4C300", "route_text_color": null, "line_name": "総武線", "operator_id": "jr_east", "representation": "service_path", "min_zoom": 0, "max_zoom": 24, "offset_rank": 0}}, {"type": "Feature", "bbox": [140.09168, 35.63606, 140.09345, 35.63856], "geometry": {"type": "LineString", "coordinates": [[140.09345, 35.63606], [140.09207, 35.63801], [140.09191, 35.63823], [140.09168, 35.63856]]}, "properties": {"id": "GEOM_TOKYO_2966", "route_id": "R_7A7743D8", "route_name": null, "route_color": "#F4C300", "route_text_color": null, "line_name": "総武線", "operator_id": "jr_east", "representation": "service_path", "min_zoom": 0, "max_zoom": 24, "offset_rank": 0}}, {"type": "Feature", "bbox": [140.10267, 35.6219, 140.10398, 35.62336], "geometry": {"type": "LineString", "coordinates": [[140.10398, 35.6219], [140.10333, 35.62262], [140.10267, 35.62336]]}, "properties": {"id": "GEOM_TOKYO_2967", "route_id": "R_7A7743D8", "route_name": null, "route_color": "#F4C300", "route_text_color": null, "line_name": "総武線", "operator_id": "jr_east", "representation": "service_path", "min_zoom": 0, "max_zoom": 24, "offset_rank": 0}}, {"type": "Feature", "bbox": [140.10398, 35.61508, 140.11035, 35.6219], "geometry": {"type": "LineString", "coordinates": [[140.11035, 35.61508], [140.10969, 35.61561], [140.10949, 35.61583], [140.10922, 35.61608], [140.10857, 35.61677], [140.10658, 35.61899], [140.10398, 35.6219]]}, "properties": {"id": "GEOM_TOKYO_2968", "route_id": "R_7A7743D8", "route_name": null, "route_color": "#F4C300", "route_text_color": null, "line_name": "総武線", "operator_id": "jr_east", "representation": "service_path", "min_zoom": 0, "max_zoom": 24, "offset_rank": 0}}, {"type": "Feature", "bbox": [140.09345, 35.62336, 140.10267, 35.63606], "geometry": {"type": "LineString", "coordinates": [[140.10267, 35.62336], [140.10214, 35.62396], [140.10145, 35.62475], [140.09935, 35.62768], [140.09897, 35.62824], [140.0969, 35.63121], [140.09486, 35.63409], [140.09345, 35.63606]]}, "properties": {"id": "GEOM_TOKYO_2969", "route_id": "R_7A7743D8", "route_name": null, "route_color": "#F4C300", "route_text_color": null, "line_name": "総武線", "operator_id": "jr_east", "representation": "service_path", "min_zoom": 0, "max_zoom": 24, "offset_rank": 0}}, {"type": "Feature", "bbox": [140.13023, 35.58113, 140.13124, 35.58318], "geometry": {"type": "LineString", "coordinates": [[140.13124, 35.58113], [140.13049, 35.58266], [140.13023, 35.58318]]}, "properties": {"id": "GEOM_TOKYO_3758", "route_id": "R_CA8B486E", "route_name": null, "route_color": "#00AFCC", "route_text_color": null, "line_name": "内房線", "operator_id": "jr_east", "representation": "service_path", "min_zoom": 0, "max_zoom": 24, "offset_rank": 0}}, {"type": "Feature", "bbox": [140.11924, 35.53545, 140.12083, 35.53687], "geometry": {"type": "LineString", "coordinates": [[140.11924, 35.53545], [140.12083, 35.53687]]}, "properties": {"id": "GEOM_TOKYO_3759", "route_id": "R_CA8B486E", "route_name": null, "route_color": "#00AFCC", "route_text_color": null, "line_name": "内房線", "operator_id": "jr_east", "representation": "service_path", "min_zoom": 0, "max_zoom": 24, "offset_rank": 0}}, {"type": "Feature", "bbox": [140.1318, 35.55114, 140.13257, 35.55306], "geometry": {"type": "LineString", "coordinates": [[140.1318, 35.55114], [140.13257, 35.55306]]}, "properties": {"id": "GEOM_TOKYO_3760", "route_id": "R_CA8B486E", "route_name": null, "route_color": "#00AFCC", "route_text_color": null, "line_name": "内房線", "operator_id": "jr_east", "representation": "service_path", "min_zoom": 0, "max_zoom": 24, "offset_rank": 0}}, {"type": "Feature", "bbox": [140.13124, 35.57866, 140.13246, 35.58113], "geometry": {"type": "LineString", "coordinates": [[140.13246, 35.57866], [140.13207, 35.57944], [140.13124, 35.58113]]}, "properties": {"id": "GEOM_TOKYO_3761", "route_id": "R_CA8B486E", "route_name": null, "route_color": "#00AFCC", "route_text_color": null, "line_name": "内房線", "operator_id": "jr_east", "representation": "service_path", "min_zoom": 0, "max_zoom": 24, "offset_rank": 0}}, {"type": "Feature", "bbox": [140.13246, 35.55306, 140.13496, 35.57866], "geometry": {"type": "LineString", "coordinates": [[140.13257, 35.55306], [140.1331, 35.5544], [140.13318, 35.55459], [140.13418, 35.55711], [140.1343, 35.55742], [140.13468, 35.55838], [140.13484, 35.55888], [140.13496, 35.55941], [140.13496, 35.55976], [140.13492, 35.56035], [140.13486, 35.56118], [140.13474, 35.56303], [140.13462, 35.56481], [140.13462, 35.5649], [140.13459, 35.56531], [140.13441, 35.56815], [140.13439, 35.56846], [140.13419, 35.57137], [140.13405, 35.5736], [140.13397, 35.57482], [140.13392, 35.57545], [140.1338, 35.57586], [140.13348, 35.57663], [140.13346, 35.57667], [140.13246, 35.57866]]}, "properties": {"id": "GEOM_TOKYO_3762", "route_id": "R_CA8B486E", "route_name": null, "route_color": "#00AFCC", "route_text_color": null, "line_name": "内房線", "operator_id": "jr_east", "representation": "service_path", "min_zoom": 0, "max_zoom": 24, "offset_rank": 0}}, {"type": "Feature", "bbox": [140.12083, 35.53687, 140.1318, 35.55114], "geometry": {"type": "LineString", "coordinates": [[140.12083, 35.53687], [140.12174, 35.53764], [140.12259, 35.53838], [140.12291, 35.53867], [140.12407, 35.53969], [140.12561, 35.54106], [140.1275, 35.54275], [140.12761, 35.54285], [140.12856, 35.54376], [140.12881, 35.54404], [140.12903, 35.54433], [140.12922, 35.54469], [140.1296, 35.54557], [140.12982, 35.54611], [140.13023, 35.54714], [140.13026, 35.54721], [140.13032, 35.54738], [140.13069, 35.54832], [140.13153, 35.55046], [140.1318, 35.55114]]}, "properties": {"id": "GEOM_TOKYO_3763", "route_id": "R_CA8B486E", "route_name": null, "route_color": "#00AFCC", "route_text_color": null, "line_name": "内房線", "operator_id": "jr_east", "representation": "service_path", "min_zoom": 0, "max_zoom": 24, "offset_rank": 0}}, {"type": "Feature", "bbox": [140.091, 35.51405, 140.11924, 35.53545], "geometry": {"type": "LineString", "coordinates": [[140.091, 35.51405], [140.09142, 35.51436], [140.09174, 35.51461], [140.09246, 35.51515], [140.09407, 35.51635], [140.09501, 35.51705], [140.09592, 35.51773], [140.09638, 35.51806], [140.09664, 35.51825], [140.09693, 35.51848], [140.09699, 35.51852], [140.09793, 35.51921], [140.09934, 35.52029], [140.10001, 35.52078], [140.10182, 35.52213], [140.10368, 35.5235], [140.10416, 35.52386], [140.10729, 35.52618], [140.10793, 35.52667], [140.10932, 35.52771], [140.11003, 35.52823], [140.11068, 35.52874], [140.11086, 35.52887], [140.11195, 35.52966], [140.11239, 35.53001], [140.11446, 35.53153], [140.11535, 35.53221], [140.11578, 35.53251], [140.11668, 35.53324], [140.11693, 35.53343], [140.11783, 35.53422], [140.11807, 35.53441], [140.1185, 35.5348], [140.11924, 35.53545]]}, "properties": {"id": "GEOM_TOKYO_3766", "route_id": "R_CA8B486E", "route_name": null, "route_color": "#00AFCC", "route_text_color": null, "line_name": "内房線", "operator_id": "jr_east", "representation": "service_path", "min_zoom": 0, "max_zoom": 24, "offset_rank": 0}}, {"type": "Feature", "bbox": [139.93439, 35.41558, 139.95616, 35.43153], "geometry": {"type": "LineString", "coordinates": [[139.93439, 35.41558], [139.93465, 35.41593], [139.93488, 35.41625], [139.93524, 35.41675], [139.9353, 35.41682], [139.93598, 35.41776], [139.93649, 35.41846], [139.9368, 35.41889], [139.93734, 35.4196], [139.9376, 35.41994], [139.93861, 35.42131], [139.93941, 35.42241], [139.94023, 35.42349], [139.94109, 35.42464], [139.94175, 35.42533], [139.9426, 35.42605], [139.94322, 35.42644], [139.94404, 35.4269], [139.94554, 35.42753], [139.94626, 35.4278], [139.94683, 35.42802], [139.94965, 35.42907], [139.95271, 35.43023], [139.95586, 35.43142], [139.95616, 35.43153]]}, "properties": {"id": "GEOM_TOKYO_3768", "route_id": "R_CA8B486E", "route_name": null, "route_color": "#00AFCC", "route_text_color": null, "line_name": "内房線", "operator_id": "jr_east", "representation": "service_path", "min_zoom": 0, "max_zoom": 24, "offset_rank": 0}}, {"type": "Feature", "bbox": [139.93322, 35.41399, 139.93439, 35.41558], "geometry": {"type": "LineString", "coordinates": [[139.93322, 35.41399], [139.93439, 35.41558]]}, "properties": {"id": "GEOM_TOKYO_3771", "route_id": "R_CA8B486E", "route_name": null, "route_color": "#00AFCC", "route_text_color": null, "line_name": "内房線", "operator_id": "jr_east", "representation": "service_path", "min_zoom": 0, "max_zoom": 24, "offset_rank": 0}}, {"type": "Feature", "bbox": [140.08849, 35.51218, 140.091, 35.51405], "geometry": {"type": "LineString", "coordinates": [[140.08849, 35.51218], [140.091, 35.51405]]}, "properties": {"id": "GEOM_TOKYO_3776", "route_id": "R_CA8B486E", "route_name": null, "route_color": "#00AFCC", "route_text_color": null, "line_name": "内房線", "operator_id": "jr_east", "representation": "service_path", "min_zoom": 0, "max_zoom": 24, "offset_rank": 0}}, {"type": "Feature", "bbox": [140.04356, 35.47947, 140.08849, 35.51218], "geometry": {"type": "LineString", "coordinates": [[140.04356, 35.47947], [140.04383, 35.47961], [140.04521, 35.48032], [140.04718, 35.48134], [140.0491, 35.48233], [140.05039, 35.48298], [140.05081, 35.4832], [140.05121, 35.48341], [140.05177, 35.48374], [140.05222, 35.48402], [140.05273, 35.48437], [140.0538, 35.48518], [140.05556, 35.4865], [140.05581, 35.48669], [140.05748, 35.48792], [140.0577, 35.48808], [140.05913, 35.48913], [140.06045, 35.49012], [140.06063, 35.49026], [140.06214, 35.49138], [140.06235, 35.49153], [140.06338, 35.49232], [140.06455, 35.4932], [140.06491, 35.49345], [140.06577, 35.49399], [140.06606, 35.49417], [140.06836, 35.4956], [140.06961, 35.49638], [140.07046, 35.49692], [140.07067, 35.49705], [140.073, 35.4985], [140.07348, 35.4988], [140.07578, 35.50024], [140.07733, 35.50122], [140.07824, 35.50177], [140.07874, 35.50213], [140.07899, 35.50235], [140.07955, 35.50285], [140.07995, 35.50326], [140.08029, 35.50363], [140.0808, 35.50424], [140.08132, 35.50487], [140.0821, 35.50578], [140.08235, 35.5061], [140.08287, 35.50672], [140.08352, 35.50749], [140.08435, 35.5085], [140.08469, 35.50888], [140.08539, 35.50976], [140.0857, 35.51006], [140.08614, 35.51046], [140.08755, 35.5115], [140.08849, 35.51218]]}, "properties": {"id": "GEOM_TOKYO_3789", "route_id": "R_CA8B486E", "route_name": null, "route_color": "#00AFCC", "route_text_color": null, "line_name": "内房線", "operator_id": "jr_east", "representation": "service_path", "min_zoom": 0, "max_zoom": 24, "offset_rank": 0}}, {"type": "Feature", "bbox": [139.99443, 35.44977, 139.99642, 35.4508], "geometry": {"type": "LineString", "coordinates": [[139.99642, 35.4508], [139.99443, 35.44977]]}, "properties": {"id": "GEOM_TOKYO_3792", "route_id": "R_CA8B486E", "route_name": null, "route_color": "#00AFCC", "route_text_color": null, "line_name": "内房線", "operator_id": "jr_east", "representation": "service_path", "min_zoom": 0, "max_zoom": 24, "offset_rank": 0}}, {"type": "Feature", "bbox": [140.04024, 35.47779, 140.04356, 35.47947], "geometry": {"type": "LineString", "coordinates": [[140.04024, 35.47779], [140.042, 35.47869], [140.04356, 35.47947]]}, "properties": {"id": "GEOM_TOKYO_3796", "route_id": "R_CA8B486E", "route_name": null, "route_color": "#00AFCC", "route_text_color": null, "line_name": "内房線", "operator_id": "jr_east", "representation": "service_path", "min_zoom": 0, "max_zoom": 24, "offset_rank": 0}}, {"type": "Feature", "bbox": [139.99642, 35.4508, 140.04024, 35.47779], "geometry": {"type": "LineString", "coordinates": [[139.99642, 35.4508], [139.99675, 35.45097], [139.99698, 35.45108], [139.9994, 35.4523], [140.00091, 35.45305], [140.00193, 35.45358], [140.00223, 35.45376], [140.003, 35.45423], [140.00405, 35.45487], [140.0044, 35.45507], [140.0047, 35.45522], [140.00518, 35.45547], [140.00521, 35.45548], [140.0073, 35.45642], [140.00779, 35.45667], [140.00836, 35.45701], [140.00956, 35.45778], [140.01028, 35.45824], [140.01076, 35.45852], [140.01126, 35.4588], [140.01272, 35.45948], [140.01451, 35.46031], [140.01467, 35.46038], [140.01505, 35.46057], [140.01596, 35.46119], [140.01608, 35.46127], [140.01729, 35.46213], [140.01823, 35.4628], [140.01837, 35.46288], [140.01977, 35.46375], [140.02136, 35.46473], [140.02347, 35.46604], [140.02436, 35.46659], [140.02458, 35.46673], [140.025, 35.46699], [140.02571, 35.46744], [140.0273, 35.46843], [140.0286, 35.46926], [140.02916, 35.46965], [140.02962, 35.47001], [140.03024, 35.47054], [140.03063, 35.47092], [140.03072, 35.47101], [140.03097, 35.4713], [140.03157, 35.47198], [140.03188, 35.47239], [140.03277, 35.47348], [140.03303, 35.47376], [140.03351, 35.47418], [140.03385, 35.47446], [140.03404, 35.4746], [140.03528, 35.47526], [140.03748, 35.47638], [140.03855, 35.47692], [140.04024, 35.47779]]}, "properties": {"id": "GEOM_TOKYO_3799", "route_id": "R_CA8B486E", "route_name": null, "route_color": "#00AFCC", "route_text_color": null, "line_name": "内房線", "operator_id": "jr_east", "representation": "service_path", "min_zoom": 0, "max_zoom": 24, "offset_rank": 0}}, {"type": "Feature", "bbox": [139.95826, 35.43228, 139.99443, 35.44977], "geometry": {"type": "LineString", "coordinates": [[139.99443, 35.44977], [139.99243, 35.44876], [139.99071, 35.44791], [139.98904, 35.44706], [139.98733, 35.44621], [139.98688, 35.44599], [139.98501, 35.44507], [139.98322, 35.44415], [139.98073, 35.4429], [139.97793, 35.4415], [139.97745, 35.44126], [139.97498, 35.44], [139.97235, 35.43869], [139.97036, 35.43768], [139.96886, 35.43694], [139.96802, 35.43652], [139.96619, 35.43559], [139.96433, 35.43465], [139.96331, 35.43415], [139.96195, 35.43364], [139.95984, 35.43286], [139.95826, 35.43228]]}, "properties": {"id": "GEOM_TOKYO_3809", "route_id": "R_CA8B486E", "route_name": null, "route_color": "#00AFCC", "route_text_color": null, "line_name": "内房線", "operator_id": "jr_east", "representation": "service_path", "min_zoom": 0, "max_zoom": 24, "offset_rank": 0}}, {"type": "Feature", "bbox": [139.95616, 35.43153, 139.95826, 35.43228], "geometry": {"type": "LineString", "coordinates": [[139.95826, 35.43228], [139.95616, 35.43153]]}, "properties": {"id": "GEOM_TOKYO_3820", "route_id": "R_CA8B486E", "route_name": null, "route_color": "#00AFCC", "route_text_color": null, "line_name": "内房線", "operator_id": "jr_east", "representation": "service_path", "min_zoom": 0, "max_zoom": 24, "offset_rank": 0}}, {"type": "Feature", "bbox": [140.0279759224182, 35.64895, 140.04108, 35.65754874226812], "geometry": {"type": "LineString", "coordinates": [[140.04108, 35.64895], [140.04098, 35.64901], [140.04029, 35.64941], [140.03765, 35.65104], [140.03509, 35.65271], [140.0341, 35.65337], [140.03177, 35.65495], [140.02821, 35.65739], [140.0279759224182, 35.65754874226812]]}, "properties": {"id": "GEOM_TOKYO_4597", "route_id": "R_2867532E", "route_name": null, "route_color": "#C62828", "route_text_color": null, "line_name": "京葉線", "operator_id": "jr_east", "representation": "service_path", "min_zoom": 0, "max_zoom": 24, "offset_rank": 0}}, {"type": "Feature", "bbox": [140.02617031849945, 35.65754874226812, 140.0279759224182, 35.65877323228198], "geometry": {"type": "LineString", "coordinates": [[140.0279759224182, 35.65754874226812], [140.02617031849945, 35.65877323228198]]}, "properties": {"id": "GEOM_TOKYO_4598", "route_id": "R_2867532E", "route_name": null, "route_color": "#C62828", "route_text_color": null, "line_name": "京葉線", "operator_id": "jr_east", "representation": "service_path", "min_zoom": 0, "max_zoom": 24, "offset_rank": 0}}]}