{"type": "FeatureCollection", "features": [{"type": "Feature", "bbox": [139.345565, 36.043515, 139.345565, 36.043515], "geometry": {"type": "Point", "coordinates": [139.345565, 36.043515]}, "properties": {"id": "PS_1E4C9B565976", "station_group_id": "SG_B21973B64F28", "operator_id": "tobu", "operator_ids": "tobu", "name_en": "つきのわ", "name_ja": "つきのわ", "label_rank": 72, "tags": ["tokyo", "v3"]}}, {"type": "Feature", "bbox": [139.37008, 35.940215, 139.37008, 35.940215], "geometry": {"type": "Point", "coordinates": [139.37008, 35.940215]}, "properties": {"id": "PS_2B4339D947BA", "station_group_id": "SG_20A61C5640D8", "operator_id": "tobu", "operator_ids": "tobu", "name_en": "一本松", "name_ja": "一本松", "label_rank": 72, "tags": ["tokyo", "v3"]}}, {"type": "Feature", "bbox": [139.39684499999998, 35.97198, 139.39684499999998, 35.97198], "geometry": {"type": "Point", "coordinates": [139.39684499999998, 35.97198]}, "properties": {"id": "PS_7CF9B07D51C7", "station_group_id": "SG_9974F25B4965", "operator_id": "tobu", "operator_ids": "tobu", "name_en": "北坂戸", "name_ja": "北坂戸", "label_rank": 72, "tags": ["tokyo", "v3"]}}, {"type": "Feature", "bbox": [139.533545, 36.03218, 139.533545, 36.03218], "geometry": {"type": "Point", "coordinates": [139.533545, 36.03218]}, "properties": {"id": "PS_2A070FE1B76E", "station_group_id": "SG_FC0EE4C2F730", "operator_id": "jr_east", "operator_ids": "jr_east", "name_en": "北本", "name_ja": "北本", "label_rank": 72, "tags": ["tokyo", "v3"]}}, {"type": "Feature", "bbox": [139.47695499999998, 36.085494999999995, 139.47695499999998, 36.085494999999995], "geometry": {"type": "Point", "coordinates": [139.47695499999998, 36.085494999999995]}, "properties": {"id": "PS_F591E7C0B242", "station_group_id": "SG_C1B2BA8637F7", "operator_id": "jr_east", "operator_ids": "jr_east", "name_en": "北鴻巣", "name_ja": "北鴻巣", "label_rank": 72, "tags": ["tokyo", "v3"]}}, {"type": "Feature", "bbox": [139.55695500000002, 36.149625, 139.55695500000002, 36.149625], "geometry": {"type": "Point", "coordinates": [139.55695500000002, 36.149625]}, "properties": {"id": "PS_D98F9010AAED", "station_group_id": "SG_43046F7B6E1E", "operator_id": "tobu", "operator_ids": "tobu", "name_en": "南羽生", "name_ja": "南羽生", "label_rank": 72, "tags": ["tokyo", "v3"]}}, {"type": "Feature", "bbox": [139.45360499999998, 36.10289, 139.45360499999998, 36.10289], "geometry": {"type": "Point", "coordinates": [139.45360499999998, 36.10289]}, "properties": {"id": "PS_393CF3C03994", "station_group_id": "SG_E8D756F5A067", "operator_id": "jr_east", "operator_ids": "jr_east", "name_en": "吹上", "name_ja": "吹上", "label_rank": 72, "tags": ["tokyo", "v3"]}}, {"type": "Feature", "bbox": [139.394045, 35.957049999999995, 139.394045, 35.957049999999995], "geometry": {"type": "Point", "coordinates": [139.394045, 35.957049999999995]}, "properties": {"id": "PS_BA6873E1564A", "station_group_id": "SG_295F1C2062EA", "operator_id": "tobu", "operator_ids": "tobu", "name_en": "坂戸", "name_ja": "坂戸", "label_rank": 92, "tags": ["tokyo", "v3"]}}, {"type": "Feature", "bbox": [139.39416, 35.95725, 139.39416, 35.95725], "geometry": {"type": "Point", "coordinates": [139.39416, 35.95725]}, "properties": {"id": "PS_1EFAC4DD957F", "station_group_id": "SG_295F1C2062EA", "operator_id": "tobu", "operator_ids": "tobu", "name_en": "坂戸", "name_ja": "坂戸", "label_rank": 92, "tags": ["tokyo", "v3"]}}, {"type": "Feature", "bbox": [139.346475, 35.937605000000005, 139.346475, 35.937605000000005], "geometry": {"type": "Point", "coordinates": [139.346475, 35.937605000000005]}, "properties": {"id": "PS_359BBFB59ACE", "station_group_id": "SG_99F83CF344A0", "operator_id": "tobu", "operator_ids": "tobu", "name_en": "川角", "name_ja": "川角", "label_rank": 72, "tags": ["tokyo", "v3"]}}, {"type": "Feature", "bbox": [139.40152, 36.034819999999996, 139.40152, 36.034819999999996], "geometry": {"type": "Point", "coordinates": [139.40152, 36.034819999999996]}, "properties": {"id": "PS_A27EA121A293", "station_group_id": "SG_1BA15A53A719", "operator_id": "tobu", "operator_ids": "tobu", "name_en": "東松山", "name_ja": "東松山", "label_rank": 72, "tags": ["tokyo", "v3"]}}, {"type": "Feature", "bbox": [139.31533000000002, 35.94715, 139.31533000000002, 35.94715], "geometry": {"type": "Point", "coordinates": [139.31533000000002, 35.94715]}, "properties": {"id": "PS_467A27D1800B", "station_group_id": "SG_1E5F77F26E70", "operator_id": "tobu", "operator_ids": "tobu", "name_en": "東毛呂", "name_ja": "東毛呂", "label_rank": 72, "tags": ["tokyo", "v3"]}}, {"type": "Feature", "bbox": [139.37533000000002, 36.045165, 139.37533000000002, 36.045165], "geometry": {"type": "Point", "coordinates": [139.37533000000002, 36.045165]}, "properties": {"id": "PS_D5C14046FFF6", "station_group_id": "SG_355F125069ED", "operator_id": "tobu", "operator_ids": "tobu", "name_en": "森林公園", "name_ja": "森林公園", "label_rank": 72, "tags": ["tokyo", "v3"]}}, {"type": "Feature", "bbox": [139.30926, 35.95221, 139.30926, 35.95221], "geometry": {"type": "Point", "coordinates": [139.30926, 35.95221]}, "properties": {"id": "PS_4087B5EF6406", "station_group_id": "SG_EEFAF6F444DD", "operator_id": "tobu", "operator_ids": "tobu", "name_en": "武州唐沢", "name_ja": "武州唐沢", "label_rank": 72, "tags": ["tokyo", "v3"]}}, {"type": "Feature", "bbox": [139.32619, 35.941995000000006, 139.32619, 35.941995000000006], "geometry": {"type": "Point", "coordinates": [139.32619, 35.941995000000006]}, "properties": {"id": "PS_CB4277F2A826", "station_group_id": "SG_129856F2EDBB", "operator_id": "tobu", "operator_ids": "tobu", "name_en": "武州長瀬", "name_ja": "武州長瀬", "label_rank": 72, "tags": ["tokyo", "v3"]}}, {"type": "Feature", "bbox": [139.32774, 36.044385, 139.32774, 36.044385], "geometry": {"type": "Point", "coordinates": [139.32774, 36.044385]}, "properties": {"id": "PS_F62B9B28CF3C", "station_group_id": "SG_8EEFDE5EF8CC", "operator_id": "tobu", "operator_ids": "tobu", "name_en": "武蔵嵐山", "name_ja": "武蔵嵐山", "label_rank": 72, "tags": ["tokyo", "v3"]}}, {"type": "Feature", "bbox": [139.389925, 36.13981, 139.389925, 36.13981], "geometry": {"type": "Point", "coordinates": [139.389925, 36.13981]}, "properties": {"id": "PS_2A6F656B158B", "station_group_id": "SG_3E5C16A6DE1F", "operator_id": "jr_east", "operator_ids": "jr_east", "name_en": "熊谷", "name_ja": "熊谷", "label_rank": 72, "tags": ["tokyo", "v3"]}}, {"type": "Feature", "bbox": [139.389645, 36.1395, 139.389645, 36.1395], "geometry": {"type": "Point", "coordinates": [139.389645, 36.1395]}, "properties": {"id": "PS_A6EB8E4B040E", "station_group_id": "SG_3E5C16A6DE1F", "operator_id": "jr_east", "operator_ids": "jr_east", "name_en": "熊谷", "name_ja": "熊谷", "label_rank": 72, "tags": ["tokyo", "v3"]}}, {"type": "Feature", "bbox": [139.33026, 36.17442, 139.33026, 36.17442], "geometry": {"type": "Point", "coordinates": [139.33026, 36.17442]}, "properties": {"id": "PS_57449D63955F", "station_group_id": "SG_BDF5BBF4FF68", "operator_id": "jr_east", "operator_ids": "jr_east", "name_en": "籠原", "name_ja": "籠原", "label_rank": 72, "tags": ["tokyo", "v3"]}}, {"type": "Feature", "bbox": [139.534015, 36.17019, 139.534015, 36.17019], "geometry": {"type": "Point", "coordinates": [139.534015, 36.17019]}, "properties": {"id": "PS_F484D257CABE", "station_group_id": "SG_CB2D7AA2A76F", "operator_id": "tobu", "operator_ids": "tobu", "name_en": "羽生", "name_ja": "羽生", "label_rank": 72, "tags": ["tokyo", "v3"]}}, {"type": "Feature", "bbox": [139.40866, 35.948930000000004, 139.40866, 35.948930000000004], "geometry": {"type": "Point", "coordinates": [139.40866, 35.948930000000004]}, "properties": {"id": "PS_2E05C20D3ABA", "station_group_id": "SG_DFC225A640AD", "operator_id": "tobu", "operator_ids": "tobu", "name_en": "若葉", "name_ja": "若葉", "label_rank": 72, "tags": ["tokyo", "v3"]}}, {"type": "Feature", "bbox": [139.432085, 36.113895, 139.432085, 36.113895], "geometry": {"type": "Point", "coordinates": [139.432085, 36.113895]}, "properties": {"id": "PS_8388EBB80E55", "station_group_id": "SG_30EC223C449F", "operator_id": "jr_east", "operator_ids": "jr_east", "name_en": "行田", "name_ja": "行田", "label_rank": 72, "tags": ["tokyo", "v3"]}}, {"type": "Feature", "bbox": [139.35646, 35.93176, 139.35646, 35.93176], "geometry": {"type": "Point", "coordinates": [139.35646, 35.93176]}, "properties": {"id": "PS_3908CF60413F", "station_group_id": "SG_45E4C241D1FC", "operator_id": "tobu", "operator_ids": "tobu", "name_en": "西大家", "name_ja": "西大家", "label_rank": 72, "tags": ["tokyo", "v3"]}}, {"type": "Feature", "bbox": [139.299615, 35.962805, 139.299615, 35.962805], "geometry": {"type": "Point", "coordinates": [139.299615, 35.962805]}, "properties": {"id": "PS_59B03E56DE7B", "station_group_id": "SG_B37AD6BCCF68", "operator_id": "tobu", "operator_ids": "tobu", "name_en": "越生", "name_ja": "越生", "label_rank": 72, "tags": ["tokyo", "v3"]}}, {"type": "Feature", "bbox": [139.39767999999998, 36.002955, 139.39767999999998, 36.002955], "geometry": {"type": "Point", "coordinates": [139.39767999999998, 36.002955]}, "properties": {"id": "PS_634DDBAC5CE0", "station_group_id": "SG_4B385D621717", "operator_id": "tobu", "operator_ids": "tobu", "name_en": "高坂", "name_ja": "高坂", "label_rank": 72, "tags": ["tokyo", "v3"]}}, {"type": "Feature", "bbox": [139.50958500000002, 36.05924, 139.50958500000002, 36.05924], "geometry": {"type": "Point", "coordinates": [139.50958500000002, 36.05924]}, "properties": {"id": "PS_77F07B620247", "station_group_id": "SG_1A06EF02A40E", "operator_id": "jr_east", "operator_ids": "jr_east", "name_en": "鴻巣", "name_ja": "鴻巣", "label_rank": 72, "tags": ["tokyo", "v3"]}}, {"type": "Feature", "bbox": [139.42401999999998, 35.93672, 139.42401999999998, 35.93672], "geometry": {"type": "Point", "coordinates": [139.42401999999998, 35.93672]}, "properties": {"id": "PS_C0B8ABB1E001", "station_group_id": "SG_C1DF47F338AA", "operator_id": "tobu", "operator_ids": "tobu", "name_en": "鶴ヶ島", "name_ja": "鶴ヶ島", "label_rank": 72, "tags": ["tokyo", "v3"]}}]}