{"type": "FeatureCollection", "features": [{"type": "Feature", "bbox": [139.545775, 35.75144, 139.545775, 35.75144], "geometry": {"type": "Point", "coordinates": [139.545775, 35.75144]}, "properties": {"id": "PS_67A6B536BFF8", "station_group_id": "SG_C6345D2EA168", "operator_id": "seibu", "operator_ids": "seibu", "name_en": "ひばりヶ丘", "name_ja": "ひばりヶ丘", "label_rank": 72, "tags": ["tokyo", "v3"]}}, {"type": "Feature", "bbox": [139.52309, 35.860744999999994, 139.52309, 35.860744999999994], "geometry": {"type": "Point", "coordinates": [139.52309, 35.860744999999994]}, "properties": {"id": "PS_199A2F764F9C", "station_group_id": "SG_287C6ED515CF", "operator_id": "tobu", "operator_ids": "tobu", "name_en": "ふじみ野", "name_ja": "ふじみ野", "label_rank": 72, "tags": ["tokyo", "v3"]}}, {"type": "Feature", "bbox": [139.550785, 35.8382, 139.550785, 35.8382], "geometry": {"type": "Point", "coordinates": [139.550785, 35.8382]}, "properties": {"id": "PS_BE8A723F6907", "station_group_id": "SG_00D6D0A3BDF2", "operator_id": "tobu", "operator_ids": "tobu", "name_en": "みずほ台", "name_ja": "みずほ台", "label_rank": 72, "tags": ["tokyo", "v3"]}}, {"type": "Feature", "bbox": [139.480065, 35.722105, 139.480065, 35.722105], "geometry": {"type": "Point", "coordinates": [139.480065, 35.722105]}, "properties": {"id": "PS_4201C2905B0D", "station_group_id": "SG_88C0DBF828E2", "operator_id": "seibu", "operator_ids": "seibu", "name_en": "一橋学園", "name_ja": "一橋学園", "label_rank": 72, "tags": ["tokyo", "v3"]}}, {"type": "Feature", "bbox": [139.56063999999998, 35.702695000000006, 139.56063999999998, 35.702695000000006], "geometry": {"type": "Point", "coordinates": [139.56063999999998, 35.702695000000006]}, "properties": {"id": "PS_09994BA2C7A1", "station_group_id": "SG_ACB3EA538C08", "operator_id": "jr_east", "operator_ids": "jr_east", "name_en": "三鷹", "name_ja": "三鷹", "label_rank": 92, "tags": ["tokyo", "v3"]}}, {"type": "Feature", "bbox": [139.415865, 35.74576, 139.415865, 35.74576], "geometry": {"type": "Point", "coordinates": [139.415865, 35.74576]}, "properties": {"id": "PS_40F512708A61", "station_group_id": "SG_C404A76A71D8", "operator_id": "tama_monorail", "operator_ids": "tama_monorail", "name_en": "上北台", "name_ja": "上北台", "label_rank": 72, "tags": ["tokyo", "v3"]}}, {"type": "Feature", "bbox": [139.51187, 35.87387, 139.51187, 35.87387], "geometry": {"type": "Point", "coordinates": [139.51187, 35.87387]}, "properties": {"id": "PS_93AC28FCF128", "station_group_id": "SG_2DC2E2506BFD", "operator_id": "tobu", "operator_ids": "tobu", "name_en": "上福岡", "name_ja": "上福岡", "label_rank": 72, "tags": ["tokyo", "v3"]}}, {"type": "Feature", "bbox": [139.441165, 35.779444999999996, 139.441165, 35.779444999999996], "geometry": {"type": "Point", "coordinates": [139.441165, 35.779444999999996]}, "properties": {"id": "PS_2DA9D0492AE3", "station_group_id": "SG_BA7560708A7E", "operator_id": "seibu", "operator_ids": "seibu", "name_en": "下山口", "name_ja": "下山口", "label_rank": 72, "tags": ["tokyo", "v3"]}}, {"type": "Feature", "bbox": [139.37571, 35.709, 139.37571, 35.709], "geometry": {"type": "Point", "coordinates": [139.37571, 35.709]}, "properties": {"id": "PS_FD6C5E4EF3FA", "station_group_id": "SG_9221DA447FA5", "operator_id": "jr_east", "operator_ids": "jr_east", "name_en": "中神", "name_ja": "中神", "label_rank": 72, "tags": ["tokyo", "v3"]}}, {"type": "Feature", "bbox": [139.472695, 35.749525000000006, 139.472695, 35.749525000000006], "geometry": {"type": "Point", "coordinates": [139.472695, 35.749525000000006]}, "properties": {"id": "PS_8F6A11B12FA6", "station_group_id": "SG_C4C0C9A8F3BA", "operator_id": "seibu", "operator_ids": "seibu", "name_en": "久米川", "name_ja": "久米川", "label_rank": 72, "tags": ["tokyo", "v3"]}}, {"type": "Feature", "bbox": [139.36019, 35.837675000000004, 139.36019, 35.837675000000004], "geometry": {"type": "Point", "coordinates": [139.36019, 35.837675000000004]}, "properties": {"id": "PS_6ACA07EE5B19", "station_group_id": "SG_22059381E400", "operator_id": "seibu", "operator_ids": "seibu", "name_en": "仏子", "name_ja": "仏子", "label_rank": 72, "tags": ["tokyo", "v3"]}}, {"type": "Feature", "bbox": [139.34536500000002, 35.840559999999996, 139.34536500000002, 35.840559999999996], "geometry": {"type": "Point", "coordinates": [139.34536500000002, 35.840559999999996]}, "properties": {"id": "PS_26DA8EC0728C", "station_group_id": "SG_4929D38139B4", "operator_id": "seibu", "operator_ids": "seibu", "name_en": "元加治", "name_ja": "元加治", "label_rank": 72, "tags": ["tokyo", "v3"]}}, {"type": "Feature", "bbox": [139.427185, 35.832385, 139.427185, 35.832385], "geometry": {"type": "Point", "coordinates": [139.427185, 35.832385]}, "properties": {"id": "PS_26FB8A4F6CB2", "station_group_id": "SG_7B68C25C732F", "operator_id": "seibu", "operator_ids": "seibu", "name_en": "入曽", "name_ja": "入曽", "label_rank": 72, "tags": ["tokyo", "v3"]}}, {"type": "Feature", "bbox": [139.390265, 35.842805, 139.390265, 35.842805], "geometry": {"type": "Point", "coordinates": [139.390265, 35.842805]}, "properties": {"id": "PS_C1DC032ED9B3", "station_group_id": "SG_854869CEC282", "operator_id": "seibu", "operator_ids": "seibu", "name_en": "入間市", "name_ja": "入間市", "label_rank": 72, "tags": ["tokyo", "v3"]}}, {"type": "Feature", "bbox": [139.46775, 35.74489, 139.46775, 35.74489], "geometry": {"type": "Point", "coordinates": [139.46775, 35.74489]}, "properties": {"id": "PS_7DE89EC0117D", "station_group_id": "SG_EA8EBC75E986", "operator_id": "seibu", "operator_ids": "seibu", "name_en": "八坂", "name_ja": "八坂", "label_rank": 72, "tags": ["tokyo", "v3"]}}, {"type": "Feature", "bbox": [139.471795, 35.680855, 139.471795, 35.680855], "geometry": {"type": "Point", "coordinates": [139.471795, 35.680855]}, "properties": {"id": "PS_5E30398CE7A9", "station_group_id": "SG_C11E13C51AA5", "operator_id": "jr_east", "operator_ids": "jr_east", "name_en": "北府中", "name_ja": "北府中", "label_rank": 72, "tags": ["tokyo", "v3"]}}, {"type": "Feature", "bbox": [139.519155, 35.90318, 139.519155, 35.90318], "geometry": {"type": "Point", "coordinates": [139.519155, 35.90318]}, "properties": {"id": "PS_AFF6A3BA52F4", "station_group_id": "SG_8D8DF99BACFA", "operator_id": "jr_east", "operator_ids": "jr_east", "name_en": "南古谷", "name_ja": "南古谷", "label_rank": 72, "tags": ["tokyo", "v3"]}}, {"type": "Feature", "bbox": [139.45418999999998, 35.889695, 139.45418999999998, 35.889695], "geometry": {"type": "Point", "coordinates": [139.45418999999998, 35.889695]}, "properties": {"id": "PS_0C9CAEBF740C", "station_group_id": "SG_968C0A9503E2", "operator_id": "seibu", "operator_ids": "seibu", "name_en": "南大塚", "name_ja": "南大塚", "label_rank": 72, "tags": ["tokyo", "v3"]}}, {"type": "Feature", "bbox": [139.48085500000002, 35.700145000000006, 139.48085500000002, 35.700145000000006], "geometry": {"type": "Point", "coordinates": [139.48085500000002, 35.700145000000006]}, "properties": {"id": "PS_98CE260FFD25", "station_group_id": "SG_801264692E20", "operator_id": "seibu", "operator_ids": "seibu", "name_en": "国分寺", "name_ja": "国分寺", "label_rank": 92, "tags": ["tokyo", "v3"]}}, {"type": "Feature", "bbox": [139.479275, 35.7011, 139.479275, 35.7011], "geometry": {"type": "Point", "coordinates": [139.479275, 35.7011]}, "properties": {"id": "PS_A8ACBBE792F7", "station_group_id": "SG_801264692E20", "operator_id": "seibu", "operator_ids": "seibu", "name_en": "国分寺", "name_ja": "国分寺", "label_rank": 92, "tags": ["tokyo", "v3"]}}, {"type": "Feature", "bbox": [139.48085500000002, 35.700145000000006, 139.48085500000002, 35.700145000000006], "geometry": {"type": "Point", "coordinates": [139.48085500000002, 35.700145000000006]}, "properties": {"id": "PS_305BA90AFD10", "station_group_id": "SG_801264692E20", "operator_id": "jr_east", "operator_ids": "jr_east", "name_en": "国分寺", "name_ja": "国分寺", "label_rank": 92, "tags": ["tokyo", "v3"]}}, {"type": "Feature", "bbox": [139.446415, 35.699195, 139.446415, 35.699195], "geometry": {"type": "Point", "coordinates": [139.446415, 35.699195]}, "properties": {"id": "PS_4889088449E3", "station_group_id": "SG_4B0855763F7A", "operator_id": "jr_east", "operator_ids": "jr_east", "name_en": "国立", "name_ja": "国立", "label_rank": 72, "tags": ["tokyo", "v3"]}}, {"type": "Feature", "bbox": [139.44271500000002, 35.765785, 139.44271500000002, 35.765785], "geometry": {"type": "Point", "coordinates": [139.44271500000002, 35.765785]}, "properties": {"id": "PS_35AFB1DE42C6", "station_group_id": "SG_783C587B2A95", "operator_id": "seibu", "operator_ids": "seibu", "name_en": "多摩湖", "name_ja": "多摩湖", "label_rank": 72, "tags": ["tokyo", "v3"]}}, {"type": "Feature", "bbox": [139.44271500000002, 35.765785, 139.44271500000002, 35.765785], "geometry": {"type": "Point", "coordinates": [139.44271500000002, 35.765785]}, "properties": {"id": "PS_3D42578D104E", "station_group_id": "SG_783C587B2A95", "operator_id": "seibu", "operator_ids": "seibu", "name_en": "多摩湖", "name_ja": "多摩湖", "label_rank": 72, "tags": ["tokyo", "v3"]}}, {"type": "Feature", "bbox": [139.51715000000002, 35.676825, 139.51715000000002, 35.676825], "geometry": {"type": "Point", "coordinates": [139.51715000000002, 35.676825]}, "properties": {"id": "PS_6550FBF23304", "station_group_id": "SG_46AE60E2EB51", "operator_id": "seibu", "operator_ids": "seibu", "name_en": "多磨", "name_ja": "多磨", "label_rank": 72, "tags": ["tokyo", "v3"]}}, {"type": "Feature", "bbox": [139.302275, 35.776055, 139.302275, 35.776055], "geometry": {"type": "Point", "coordinates": [139.302275, 35.776055]}, "properties": {"id": "PS_C1C279A6EF07", "station_group_id": "SG_F9CC4A891F4A", "operator_id": "jr_east", "operator_ids": "jr_east", "name_en": "小作", "name_ja": "小作", "label_rank": 72, "tags": ["tokyo", "v3"]}}, {"type": "Feature", "bbox": [139.46349500000002, 35.737565000000004, 139.46349500000002, 35.737565000000004], "geometry": {"type": "Point", "coordinates": [139.46349500000002, 35.737565000000004]}, "properties": {"id": "PS_F9D99707E0C4", "station_group_id": "SG_DBE22F979F02", "operator_id": "seibu", "operator_ids": "seibu", "name_en": "小川", "name_ja": "小川", "label_rank": 92, "tags": ["tokyo", "v3"]}}, {"type": "Feature", "bbox": [139.46349500000002, 35.737565000000004, 139.46349500000002, 35.737565000000004], "geometry": {"type": "Point", "coordinates": [139.46349500000002, 35.737565000000004]}, "properties": {"id": "PS_FD5398AD2B33", "station_group_id": "SG_DBE22F979F02", "operator_id": "seibu", "operator_ids": "seibu", "name_en": "小川", "name_ja": "小川", "label_rank": 92, "tags": ["tokyo", "v3"]}}, {"type": "Feature", "bbox": [139.488445, 35.736914999999996, 139.488445, 35.736914999999996], "geometry": {"type": "Point", "coordinates": [139.488445, 35.736914999999996]}, "properties": {"id": "PS_E582AEB98AB0", "station_group_id": "SG_038269DB2BA4", "operator_id": "seibu", "operator_ids": "seibu", "name_en": "小平", "name_ja": "小平", "label_rank": 92, "tags": ["tokyo", "v3"]}}, {"type": "Feature", "bbox": [139.488445, 35.736914999999996, 139.488445, 35.736914999999996], "geometry": {"type": "Point", "coordinates": [139.488445, 35.736914999999996]}, "properties": {"id": "PS_35E06B3A8D6D", "station_group_id": "SG_038269DB2BA4", "operator_id": "seibu", "operator_ids": "seibu", "name_en": "小平", "name_ja": "小平", "label_rank": 92, "tags": ["tokyo", "v3"]}}, {"type": "Feature", "bbox": [139.43804, 35.800585, 139.43804, 35.800585], "geometry": {"type": "Point", "coordinates": [139.43804, 35.800585]}, "properties": {"id": "PS_869989B715C7", "station_group_id": "SG_2BEB26439BD0", "operator_id": "seibu", "operator_ids": "seibu", "name_en": "小手指", "name_ja": "小手指", "label_rank": 92, "tags": ["tokyo", "v3"]}}, {"type": "Feature", "bbox": [139.483205, 35.906684999999996, 139.483205, 35.906684999999996], "geometry": {"type": "Point", "coordinates": [139.483205, 35.906684999999996]}, "properties": {"id": "PS_35A06C6A05DE", "station_group_id": "SG_005B4F5A5225", "operator_id": "jr_east", "operator_ids": "jr_east", "name_en": "川越", "name_ja": "川越", "label_rank": 92, "tags": ["tokyo", "v3"]}}, {"type": "Feature", "bbox": [139.483145, 35.9072, 139.483145, 35.9072], "geometry": {"type": "Point", "coordinates": [139.483145, 35.9072]}, "properties": {"id": "PS_EE36A07D10CF", "station_group_id": "SG_005B4F5A5225", "operator_id": "tobu", "operator_ids": "tobu", "name_en": "川越", "name_ja": "川越", "label_rank": 92, "tags": ["tokyo", "v3"]}}, {"type": "Feature", "bbox": [139.477095, 35.914135, 139.477095, 35.914135], "geometry": {"type": "Point", "coordinates": [139.477095, 35.914135]}, "properties": {"id": "PS_0C94DC8F8B17", "station_group_id": "SG_44F3EB2C9BDA", "operator_id": "tobu", "operator_ids": "tobu", "name_en": "川越市", "name_ja": "川越市", "label_rank": 72, "tags": ["tokyo", "v3"]}}, {"type": "Feature", "bbox": [139.4801, 35.67219, 139.4801, 35.67219], "geometry": {"type": "Point", "coordinates": [139.4801, 35.67219]}, "properties": {"id": "PS_2D2EF6015EE3", "station_group_id": "SG_3DC897E56A4D", "operator_id": "keio", "operator_ids": "keio", "name_en": "府中", "name_ja": "府中", "label_rank": 72, "tags": ["tokyo", "v3"]}}, {"type": "Feature", "bbox": [139.46389, 35.711349999999996, 139.46389, 35.711349999999996], "geometry": {"type": "Point", "coordinates": [139.46389, 35.711349999999996]}, "properties": {"id": "PS_0512217B7953", "station_group_id": "SG_ECF3EC30801B", "operator_id": "seibu", "operator_ids": "seibu", "name_en": "恋ヶ窪", "name_ja": "恋ヶ窪", "label_rank": 72, "tags": ["tokyo", "v3"]}}, {"type": "Feature", "bbox": [139.47328, 35.78682, 139.47328, 35.78682], "geometry": {"type": "Point", "coordinates": [139.47328, 35.78682]}, "properties": {"id": "PS_0F8A429E2166", "station_group_id": "SG_71D4296B90E8", "operator_id": "seibu", "operator_ids": "seibu", "name_en": "所沢", "name_ja": "所沢", "label_rank": 100, "tags": ["tokyo", "v3"]}}, {"type": "Feature", "bbox": [139.473445, 35.786685, 139.473445, 35.786685], "geometry": {"type": "Point", "coordinates": [139.473445, 35.786685]}, "properties": {"id": "PS_B6280EE144B8", "station_group_id": "SG_71D4296B90E8", "operator_id": "seibu", "operator_ids": "seibu", "name_en": "所沢", "name_ja": "所沢", "label_rank": 100, "tags": ["tokyo", "v3"]}}, {"type": "Feature", "bbox": [139.3442, 35.721064999999996, 139.3442, 35.721064999999996], "geometry": {"type": "Point", "coordinates": [139.3442, 35.721064999999996]}, "properties": {"id": "PS_9AA89FFBA2B2", "station_group_id": "SG_7F93B606940D", "operator_id": "seibu", "operator_ids": "seibu", "name_en": "拝島", "name_ja": "拝島", "label_rank": 92, "tags": ["tokyo", "v3"]}}, {"type": "Feature", "bbox": [139.34347, 35.721195, 139.34347, 35.721195], "geometry": {"type": "Point", "coordinates": [139.34347, 35.721195]}, "properties": {"id": "PS_737DA110FE1C", "station_group_id": "SG_7F93B606940D", "operator_id": "jr_east", "operator_ids": "jr_east", "name_en": "拝島", "name_ja": "拝島", "label_rank": 92, "tags": ["tokyo", "v3"]}}, {"type": "Feature", "bbox": [139.47050000000002, 35.73092, 139.47050000000002, 35.73092], "geometry": {"type": "Point", "coordinates": [139.47050000000002, 35.73092]}, "properties": {"id": "PS_76A26D1D8783", "station_group_id": "SG_325C1FE74FA3", "operator_id": "jr_east", "operator_ids": "jr_east", "name_en": "新小平", "name_ja": "新小平", "label_rank": 72, "tags": ["tokyo", "v3"]}}, {"type": "Feature", "bbox": [139.526745, 35.69592, 139.526745, 35.69592], "geometry": {"type": "Point", "coordinates": [139.526745, 35.69592]}, "properties": {"id": "PS_922FFCA5D134", "station_group_id": "SG_524D2D139B33", "operator_id": "seibu", "operator_ids": "seibu", "name_en": "新小金井", "name_ja": "新小金井", "label_rank": 72, "tags": ["tokyo", "v3"]}}, {"type": "Feature", "bbox": [139.55629, 35.80378, 139.55629, 35.80378], "geometry": {"type": "Point", "coordinates": [139.55629, 35.80378]}, "properties": {"id": "PS_64F4A0BCC013", "station_group_id": "SG_DFF6BF45A066", "operator_id": "jr_east", "operator_ids": "jr_east", "name_en": "新座", "name_ja": "新座", "label_rank": 72, "tags": ["tokyo", "v3"]}}, {"type": "Feature", "bbox": [139.45717, 35.805805, 139.45717, 35.805805], "geometry": {"type": "Point", "coordinates": [139.45717, 35.805805]}, "properties": {"id": "PS_FEE4061E4ACD", "station_group_id": "SG_BA76237CC657", "operator_id": "seibu", "operator_ids": "seibu", "name_en": "新所沢", "name_ja": "新所沢", "label_rank": 72, "tags": ["tokyo", "v3"]}}, {"type": "Feature", "bbox": [139.4973, 35.89102, 139.4973, 35.89102], "geometry": {"type": "Point", "coordinates": [139.4973, 35.89102]}, "properties": {"id": "PS_91DD2E3A1120", "station_group_id": "SG_D5A570CD4AB7", "operator_id": "tobu", "operator_ids": "tobu", "name_en": "新河岸", "name_ja": "新河岸", "label_rank": 72, "tags": ["tokyo", "v3"]}}, {"type": "Feature", "bbox": [139.43379, 35.874155, 139.43379, 35.874155], "geometry": {"type": "Point", "coordinates": [139.43379, 35.874155]}, "properties": {"id": "PS_023A8B270F87", "station_group_id": "SG_D2AB56A8D685", "operator_id": "seibu", "operator_ids": "seibu", "name_en": "新狭山", "name_ja": "新狭山", "label_rank": 72, "tags": ["tokyo", "v3"]}}, {"type": "Feature", "bbox": [139.49375500000002, 35.778310000000005, 139.49375500000002, 35.778310000000005], "geometry": {"type": "Point", "coordinates": [139.49375500000002, 35.778310000000005]}, "properties": {"id": "PS_95E9DD313BD4", "station_group_id": "SG_39939551085A", "operator_id": "jr_east", "operator_ids": "jr_east", "name_en": "新秋津", "name_ja": "新秋津", "label_rank": 72, "tags": ["tokyo", "v3"]}}, {"type": "Feature", "bbox": [139.39343000000002, 35.678545, 139.39343000000002, 35.678545], "geometry": {"type": "Point", "coordinates": [139.39343000000002, 35.678545]}, "properties": {"id": "PS_59D280E90887", "station_group_id": "SG_88210F58D182", "operator_id": "jr_east", "operator_ids": "jr_east", "name_en": "日野", "name_ja": "日野", "label_rank": 72, "tags": ["tokyo", "v3"]}}, {"type": "Feature", "bbox": [139.361635, 35.71322, 139.361635, 35.71322], "geometry": {"type": "Point", "coordinates": [139.361635, 35.71322]}, "properties": {"id": "PS_31256F276136", "station_group_id": "SG_6A75B7897B8C", "operator_id": "jr_east", "operator_ids": "jr_east", "name_en": "昭島", "name_ja": "昭島", "label_rank": 72, "tags": ["tokyo", "v3"]}}, {"type": "Feature", "bbox": [139.48113, 35.913675, 139.48113, 35.913675], "geometry": {"type": "Point", "coordinates": [139.48113, 35.913675]}, "properties": {"id": "PS_522045A65BAE", "station_group_id": "SG_F5CBD1AB1FA1", "operator_id": "seibu", "operator_ids": "seibu", "name_en": "本川越", "name_ja": "本川越", "label_rank": 72, "tags": ["tokyo", "v3"]}}, {"type": "Feature", "bbox": [139.384595, 35.706275, 139.384595, 35.706275], "geometry": {"type": "Point", "coordinates": [139.384595, 35.706275]}, "properties": {"id": "PS_DF5815EAA6E5", "station_group_id": "SG_7CE7482F90C5", "operator_id": "jr_east", "operator_ids": "jr_east", "name_en": "東中神", "name_ja": "東中神", "label_rank": 72, "tags": ["tokyo", "v3"]}}, {"type": "Feature", "bbox": [139.53375, 35.76045, 139.53375, 35.76045], "geometry": {"type": "Point", "coordinates": [139.53375, 35.76045]}, "properties": {"id": "PS_EEE9BF0A8597", "station_group_id": "SG_0589A7CC7803", "operator_id": "seibu", "operator_ids": "seibu", "name_en": "東久留米", "name_ja": "東久留米", "label_rank": 92, "tags": ["tokyo", "v3"]}}, {"type": "Feature", "bbox": [139.434295, 35.732905, 139.434295, 35.732905], "geometry": {"type": "Point", "coordinates": [139.434295, 35.732905]}, "properties": {"id": "PS_F5C620FF6524", "station_group_id": "SG_F3245FA3D55F", "operator_id": "seibu", "operator_ids": "seibu", "name_en": "東大和市", "name_ja": "東大和市", "label_rank": 72, "tags": ["tokyo", "v3"]}}, {"type": "Feature", "bbox": [139.52375999999998, 35.70156, 139.52375999999998, 35.70156], "geometry": {"type": "Point", "coordinates": [139.52375999999998, 35.70156]}, "properties": {"id": "PS_ED19CD89FB67", "station_group_id": "SG_0BA238D37D3A", "operator_id": "jr_east", "operator_ids": "jr_east", "name_en": "東小金井", "name_ja": "東小金井", "label_rank": 72, "tags": ["tokyo", "v3"]}}, {"type": "Feature", "bbox": [139.51454, 35.79489, 139.51454, 35.79489], "geometry": {"type": "Point", "coordinates": [139.51454, 35.79489]}, "properties": {"id": "PS_1EE762BD1737", "station_group_id": "SG_7581647637E6", "operator_id": "jr_east", "operator_ids": "jr_east", "name_en": "東所沢", "name_ja": "東所沢", "label_rank": 72, "tags": ["tokyo", "v3"]}}, {"type": "Feature", "bbox": [139.46586000000002, 35.759965, 139.46586000000002, 35.759965], "geometry": {"type": "Point", "coordinates": [139.46586000000002, 35.759965]}, "properties": {"id": "PS_5A1A147F67FA", "station_group_id": "SG_C22E078A665F", "operator_id": "seibu", "operator_ids": "seibu", "name_en": "東村山", "name_ja": "東村山", "label_rank": 92, "tags": ["tokyo", "v3"]}}, {"type": "Feature", "bbox": [139.46586000000002, 35.759965, 139.46586000000002, 35.759965], "geometry": {"type": "Point", "coordinates": [139.46586000000002, 35.759965]}, "properties": {"id": "PS_D056173F3A09", "station_group_id": "SG_C22E078A665F", "operator_id": "seibu", "operator_ids": "seibu", "name_en": "東村山", "name_ja": "東村山", "label_rank": 92, "tags": ["tokyo", "v3"]}}, {"type": "Feature", "bbox": [139.46586000000002, 35.759965, 139.46586000000002, 35.759965], "geometry": {"type": "Point", "coordinates": [139.46586000000002, 35.759965]}, "properties": {"id": "PS_D8F685FC6BD5", "station_group_id": "SG_C22E078A665F", "operator_id": "seibu", "operator_ids": "seibu", "name_en": "東村山", "name_ja": "東村山", "label_rank": 92, "tags": ["tokyo", "v3"]}}, {"type": "Feature", "bbox": [139.32598000000002, 35.85302, 139.32598000000002, 35.85302], "geometry": {"type": "Point", "coordinates": [139.32598000000002, 35.85302]}, "properties": {"id": "PS_3339CF49F446", "station_group_id": "SG_7FE076EEAD71", "operator_id": "seibu", "operator_ids": "seibu", "name_en": "東飯能", "name_ja": "東飯能", "label_rank": 72, "tags": ["tokyo", "v3"]}}, {"type": "Feature", "bbox": [139.56246, 35.830560000000006, 139.56246, 35.830560000000006], "geometry": {"type": "Point", "coordinates": [139.56246, 35.830560000000006]}, "properties": {"id": "PS_15794EDF0E49", "station_group_id": "SG_518C226F4041", "operator_id": "tobu", "operator_ids": "tobu", "name_en": "柳瀬川", "name_ja": "柳瀬川", "label_rank": 72, "tags": ["tokyo", "v3"]}}, {"type": "Feature", "bbox": [139.40928000000002, 35.689800000000005, 139.40928000000002, 35.689800000000005], "geometry": {"type": "Point", "coordinates": [139.40928000000002, 35.689800000000005]}, "properties": {"id": "PS_850F44E6B4F4", "station_group_id": "SG_E7003A8B194A", "operator_id": "tama_monorail", "operator_ids": "tama_monorail", "name_en": "柴崎体育館", "name_ja": "柴崎体育館", "label_rank": 72, "tags": ["tokyo", "v3"]}}, {"type": "Feature", "bbox": [139.41655500000002, 35.739035, 139.41655500000002, 35.739035], "geometry": {"type": "Point", "coordinates": [139.41655500000002, 35.739035]}, "properties": {"id": "PS_1005266B550F", "station_group_id": "SG_3A98DC7DCE3A", "operator_id": "tama_monorail", "operator_ids": "tama_monorail", "name_en": "桜街道", "name_ja": "桜街道", "label_rank": 72, "tags": ["tokyo", "v3"]}}, {"type": "Feature", "bbox": [139.544265, 35.70191, 139.544265, 35.70191], "geometry": {"type": "Point", "coordinates": [139.544265, 35.70191]}, "properties": {"id": "PS_85AD86A0F2B0", "station_group_id": "SG_7AF58CA7BB43", "operator_id": "seibu", "operator_ids": "seibu", "name_en": "武蔵境", "name_ja": "武蔵境", "label_rank": 92, "tags": ["tokyo", "v3"]}}, {"type": "Feature", "bbox": [139.543555, 35.70209, 139.543555, 35.70209], "geometry": {"type": "Point", "coordinates": [139.543555, 35.70209]}, "properties": {"id": "PS_5667B28E81C0", "station_group_id": "SG_7AF58CA7BB43", "operator_id": "jr_east", "operator_ids": "jr_east", "name_en": "武蔵境", "name_ja": "武蔵境", "label_rank": 92, "tags": ["tokyo", "v3"]}}, {"type": "Feature", "bbox": [139.44404, 35.756434999999996, 139.44404, 35.756434999999996], "geometry": {"type": "Point", "coordinates": [139.44404, 35.756434999999996]}, "properties": {"id": "PS_BD1D354AAA25", "station_group_id": "SG_B317D641A268", "operator_id": "seibu", "operator_ids": "seibu", "name_en": "武蔵大和", "name_ja": "武蔵大和", "label_rank": 72, "tags": ["tokyo", "v3"]}}, {"type": "Feature", "bbox": [139.50592999999998, 35.701035, 139.50592999999998, 35.701035], "geometry": {"type": "Point", "coordinates": [139.50592999999998, 35.701035]}, "properties": {"id": "PS_8E9A67A36495", "station_group_id": "SG_A5AB749277E7", "operator_id": "jr_east", "operator_ids": "jr_east", "name_en": "武蔵小金井", "name_ja": "武蔵小金井", "label_rank": 72, "tags": ["tokyo", "v3"]}}, {"type": "Feature", "bbox": [139.28068, 35.885255, 139.28068, 35.885255], "geometry": {"type": "Point", "coordinates": [139.28068, 35.885255]}, "properties": {"id": "PS_2C5046E1DEE8", "station_group_id": "SG_8A828806BD9D", "operator_id": "seibu", "operator_ids": "seibu", "name_en": "武蔵横手", "name_ja": "武蔵横手", "label_rank": 72, "tags": ["tokyo", "v3"]}}, {"type": "Feature", "bbox": [139.39234499999998, 35.728825, 139.39234499999998, 35.728825], "geometry": {"type": "Point", "coordinates": [139.39234499999998, 35.728825]}, "properties": {"id": "PS_E59D380AA887", "station_group_id": "SG_BA2CFD9E06E5", "operator_id": "seibu", "operator_ids": "seibu", "name_en": "武蔵砂川", "name_ja": "武蔵砂川", "label_rank": 72, "tags": ["tokyo", "v3"]}}, {"type": "Feature", "bbox": [139.412755, 35.82085, 139.412755, 35.82085], "geometry": {"type": "Point", "coordinates": [139.412755, 35.82085]}, "properties": {"id": "PS_90495F928343", "station_group_id": "SG_74189721BA9D", "operator_id": "seibu", "operator_ids": "seibu", "name_en": "武蔵藤沢", "name_ja": "武蔵藤沢", "label_rank": 72, "tags": ["tokyo", "v3"]}}, {"type": "Feature", "bbox": [139.37112000000002, 35.901685, 139.37112000000002, 35.901685], "geometry": {"type": "Point", "coordinates": [139.37112000000002, 35.901685]}, "properties": {"id": "PS_6769CC49BE72", "station_group_id": "SG_9EE6DF93BE72", "operator_id": "jr_east", "operator_ids": "jr_east", "name_en": "武蔵高萩", "name_ja": "武蔵高萩", "label_rank": 72, "tags": ["tokyo", "v3"]}}, {"type": "Feature", "bbox": [139.28405500000002, 35.784774999999996, 139.28405500000002, 35.784774999999996], "geometry": {"type": "Point", "coordinates": [139.28405500000002, 35.784774999999996]}, "properties": {"id": "PS_80EEC696CF48", "station_group_id": "SG_E4F91535350F", "operator_id": "jr_east", "operator_ids": "jr_east", "name_en": "河辺", "name_ja": "河辺", "label_rank": 72, "tags": ["tokyo", "v3"]}}, {"type": "Feature", "bbox": [139.419565, 35.718845, 139.419565, 35.718845], "geometry": {"type": "Point", "coordinates": [139.419565, 35.718845]}, "properties": {"id": "PS_551F4E33BC65", "station_group_id": "SG_0767DA0F6061", "operator_id": "tama_monorail", "operator_ids": "tama_monorail", "name_en": "泉体育館", "name_ja": "泉体育館", "label_rank": 72, "tags": ["tokyo", "v3"]}}, {"type": "Feature", "bbox": [139.519895, 35.771964999999994, 139.519895, 35.771964999999994], "geometry": {"type": "Point", "coordinates": [139.519895, 35.771964999999994]}, "properties": {"id": "PS_21AE54C9DEF8", "station_group_id": "SG_9E74BE0AC78E", "operator_id": "seibu", "operator_ids": "seibu", "name_en": "清瀬", "name_ja": "清瀬", "label_rank": 92, "tags": ["tokyo", "v3"]}}, {"type": "Feature", "bbox": [139.33379000000002, 35.734335, 139.33379000000002, 35.734335], "geometry": {"type": "Point", "coordinates": [139.33379000000002, 35.734335]}, "properties": {"id": "PS_99D77FE6FC38", "station_group_id": "SG_22875E84BB24", "operator_id": "jr_east", "operator_ids": "jr_east", "name_en": "牛浜", "name_ja": "牛浜", "label_rank": 72, "tags": ["tokyo", "v3"]}}, {"type": "Feature", "bbox": [139.41702, 35.810405, 139.41702, 35.810405], "geometry": {"type": "Point", "coordinates": [139.41702, 35.810405]}, "properties": {"id": "PS_53A5C6A6151A", "station_group_id": "SG_42A38B810731", "operator_id": "seibu", "operator_ids": "seibu", "name_en": "狭山ヶ丘", "name_ja": "狭山ヶ丘", "label_rank": 72, "tags": ["tokyo", "v3"]}}, {"type": "Feature", "bbox": [139.41339, 35.85726, 139.41339, 35.85726], "geometry": {"type": "Point", "coordinates": [139.41339, 35.85726]}, "properties": {"id": "PS_99C0F1101058", "station_group_id": "SG_137BD7BBC667", "operator_id": "seibu", "operator_ids": "seibu", "name_en": "狭山市", "name_ja": "狭山市", "label_rank": 72, "tags": ["tokyo", "v3"]}}, {"type": "Feature", "bbox": [139.418775, 35.731705000000005, 139.418775, 35.731705000000005], "geometry": {"type": "Point", "coordinates": [139.418775, 35.731705000000005]}, "properties": {"id": "PS_1A6A387CF19B", "station_group_id": "SG_3A556A76E0D7", "operator_id": "seibu", "operator_ids": "seibu", "name_en": "玉川上水", "name_ja": "玉川上水", "label_rank": 92, "tags": ["tokyo", "v3"]}}, {"type": "Feature", "bbox": [139.417735, 35.732169999999996, 139.417735, 35.732169999999996], "geometry": {"type": "Point", "coordinates": [139.417735, 35.732169999999996]}, "properties": {"id": "PS_0842BCE3F0A1", "station_group_id": "SG_3A556A76E0D7", "operator_id": "tama_monorail", "operator_ids": "tama_monorail", "name_en": "玉川上水", "name_ja": "玉川上水", "label_rank": 92, "tags": ["tokyo", "v3"]}}, {"type": "Feature", "bbox": [139.538985, 35.727195, 139.538985, 35.727195], "geometry": {"type": "Point", "coordinates": [139.538985, 35.727195]}, "properties": {"id": "PS_6AF2CF05EA5C", "station_group_id": "SG_58ABAD743C90", "operator_id": "seibu", "operator_ids": "seibu", "name_en": "田無", "name_ja": "田無", "label_rank": 92, "tags": ["tokyo", "v3"]}}, {"type": "Feature", "bbox": [139.409155, 35.67825, 139.409155, 35.67825], "geometry": {"type": "Point", "coordinates": [139.409155, 35.67825]}, "properties": {"id": "PS_1232F7D07B6E", "station_group_id": "SG_7C841727812E", "operator_id": "tama_monorail", "operator_ids": "tama_monorail", "name_en": "甲州街道", "name_ja": "甲州街道", "label_rank": 72, "tags": ["tokyo", "v3"]}}, {"type": "Feature", "bbox": [139.43541, 35.91754, 139.43541, 35.91754], "geometry": {"type": "Point", "coordinates": [139.43541, 35.91754]}, "properties": {"id": "PS_3D40F3A9E4F0", "station_group_id": "SG_D28A85F021A9", "operator_id": "jr_east", "operator_ids": "jr_east", "name_en": "的場", "name_ja": "的場", "label_rank": 72, "tags": ["tokyo", "v3"]}}, {"type": "Feature", "bbox": [139.41810500000003, 35.723385, 139.41810500000003, 35.723385], "geometry": {"type": "Point", "coordinates": [139.41810500000003, 35.723385]}, "properties": {"id": "PS_BECC2B7A3C9A", "station_group_id": "SG_8BF52837F026", "operator_id": "tama_monorail", "operator_ids": "tama_monorail", "name_en": "砂川七番", "name_ja": "砂川七番", "label_rank": 72, "tags": ["tokyo", "v3"]}}, {"type": "Feature", "bbox": [139.327745, 35.742485, 139.327745, 35.742485], "geometry": {"type": "Point", "coordinates": [139.327745, 35.742485]}, "properties": {"id": "PS_5F44D4D0CD1F", "station_group_id": "SG_28F4DA32A5B2", "operator_id": "jr_east", "operator_ids": "jr_east", "name_en": "福生", "name_ja": "福生", "label_rank": 72, "tags": ["tokyo", "v3"]}}, {"type": "Feature", "bbox": [139.496905, 35.778475, 139.496905, 35.778475], "geometry": {"type": "Point", "coordinates": [139.496905, 35.778475]}, "properties": {"id": "PS_7168FD61E2D8", "station_group_id": "SG_5D240CA895CA", "operator_id": "seibu", "operator_ids": "seibu", "name_en": "秋津", "name_ja": "秋津", "label_rank": 92, "tags": ["tokyo", "v3"]}}, {"type": "Feature", "bbox": [139.39939, 35.844645, 139.39939, 35.844645], "geometry": {"type": "Point", "coordinates": [139.39939, 35.844645]}, "properties": {"id": "PS_7C9B08A6E804", "station_group_id": "SG_4FF6F770C410", "operator_id": "seibu", "operator_ids": "seibu", "name_en": "稲荷山公園", "name_ja": "稲荷山公園", "label_rank": 72, "tags": ["tokyo", "v3"]}}, {"type": "Feature", "bbox": [139.41377, 35.698025, 139.41377, 35.698025], "geometry": {"type": "Point", "coordinates": [139.41377, 35.698025]}, "properties": {"id": "PS_78B9E48D81E1", "station_group_id": "SG_D890BBFD35B2", "operator_id": "jr_east", "operator_ids": "jr_east", "name_en": "立川", "name_ja": "立川", "label_rank": 92, "tags": ["tokyo", "v3"]}}, {"type": "Feature", "bbox": [139.414155, 35.69828, 139.414155, 35.69828], "geometry": {"type": "Point", "coordinates": [139.414155, 35.69828]}, "properties": {"id": "PS_A70EAB1BAB09", "station_group_id": "SG_D890BBFD35B2", "operator_id": "jr_east", "operator_ids": "jr_east", "name_en": "立川", "name_ja": "立川", "label_rank": 92, "tags": ["tokyo", "v3"]}}, {"type": "Feature", "bbox": [139.413765, 35.697765000000004, 139.413765, 35.697765000000004], "geometry": {"type": "Point", "coordinates": [139.413765, 35.697765000000004]}, "properties": {"id": "PS_1897E816ED48", "station_group_id": "SG_D890BBFD35B2", "operator_id": "jr_east", "operator_ids": "jr_east", "name_en": "立川", "name_ja": "立川", "label_rank": 92, "tags": ["tokyo", "v3"]}}, {"type": "Feature", "bbox": [139.41377, 35.698025, 139.41377, 35.698025], "geometry": {"type": "Point", "coordinates": [139.41377, 35.698025]}, "properties": {"id": "PS_F0EDD51B8244", "station_group_id": "SG_D890BBFD35B2", "operator_id": "jr_east", "operator_ids": "jr_east", "name_en": "立川", "name_ja": "立川", "label_rank": 92, "tags": ["tokyo", "v3"]}}, {"type": "Feature", "bbox": [139.412665, 35.699525, 139.412665, 35.699525], "geometry": {"type": "Point", "coordinates": [139.412665, 35.699525]}, "properties": {"id": "PS_BD40A54E0164", "station_group_id": "SG_1B1BCE8DE220", "operator_id": "tama_monorail", "operator_ids": "tama_monorail", "name_en": "立川北", "name_ja": "立川北", "label_rank": 72, "tags": ["tokyo", "v3"]}}, {"type": "Feature", "bbox": [139.412575, 35.696169999999995, 139.412575, 35.696169999999995], "geometry": {"type": "Point", "coordinates": [139.412575, 35.696169999999995]}, "properties": {"id": "PS_CA2668A8ACAB", "station_group_id": "SG_115954D4E0D6", "operator_id": "tama_monorail", "operator_ids": "tama_monorail", "name_en": "立川南", "name_ja": "立川南", "label_rank": 72, "tags": ["tokyo", "v3"]}}, {"type": "Feature", "bbox": [139.41707, 35.71427, 139.41707, 35.71427], "geometry": {"type": "Point", "coordinates": [139.41707, 35.71427]}, "properties": {"id": "PS_8C2FE9A931AE", "station_group_id": "SG_F81AD287D8D9", "operator_id": "tama_monorail", "operator_ids": "tama_monorail", "name_en": "立飛", "name_ja": "立飛", "label_rank": 72, "tags": ["tokyo", "v3"]}}, {"type": "Feature", "bbox": [139.40626, 35.907579999999996, 139.40626, 35.907579999999996], "geometry": {"type": "Point", "coordinates": [139.40626, 35.907579999999996]}, "properties": {"id": "PS_4B91D1346A30", "station_group_id": "SG_5D235471EA43", "operator_id": "jr_east", "operator_ids": "jr_east", "name_en": "笠幡", "name_ja": "笠幡", "label_rank": 72, "tags": ["tokyo", "v3"]}}, {"type": "Feature", "bbox": [139.3163, 35.757940000000005, 139.3163, 35.757940000000005], "geometry": {"type": "Point", "coordinates": [139.3163, 35.757940000000005]}, "properties": {"id": "PS_C4652393858D", "station_group_id": "SG_3990018BC48A", "operator_id": "jr_east", "operator_ids": "jr_east", "name_en": "羽村", "name_ja": "羽村", "label_rank": 72, "tags": ["tokyo", "v3"]}}, {"type": "Feature", "bbox": [139.46559000000002, 35.798339999999996, 139.46559000000002, 35.798339999999996], "geometry": {"type": "Point", "coordinates": [139.46559000000002, 35.798339999999996]}, "properties": {"id": "PS_BF03F78D203D", "station_group_id": "SG_995B6F9E357A", "operator_id": "seibu", "operator_ids": "seibu", "name_en": "航空公園", "name_ja": "航空公園", "label_rank": 72, "tags": ["tokyo", "v3"]}}, {"type": "Feature", "bbox": [139.51332, 35.726145, 139.51332, 35.726145], "geometry": {"type": "Point", "coordinates": [139.51332, 35.726145]}, "properties": {"id": "PS_C787FD548A44", "station_group_id": "SG_8FF53A79941E", "operator_id": "seibu", "operator_ids": "seibu", "name_en": "花小金井", "name_ja": "花小金井", "label_rank": 92, "tags": ["tokyo", "v3"]}}, {"type": "Feature", "bbox": [139.47682500000002, 35.74078, 139.47682500000002, 35.74078], "geometry": {"type": "Point", "coordinates": [139.47682500000002, 35.74078]}, "properties": {"id": "PS_D8882C4153FE", "station_group_id": "SG_BBE12549901B", "operator_id": "seibu", "operator_ids": "seibu", "name_en": "萩山", "name_ja": "萩山", "label_rank": 92, "tags": ["tokyo", "v3"]}}, {"type": "Feature", "bbox": [139.47682500000002, 35.74078, 139.47682500000002, 35.74078], "geometry": {"type": "Point", "coordinates": [139.47682500000002, 35.74078]}, "properties": {"id": "PS_162DBF0BFF75", "station_group_id": "SG_BBE12549901B", "operator_id": "seibu", "operator_ids": "seibu", "name_en": "萩山", "name_ja": "萩山", "label_rank": 92, "tags": ["tokyo", "v3"]}}, {"type": "Feature", "bbox": [139.465925, 35.69973, 139.465925, 35.69973], "geometry": {"type": "Point", "coordinates": [139.465925, 35.69973]}, "properties": {"id": "PS_989BA4B824AA", "station_group_id": "SG_CF68AF38F71F", "operator_id": "jr_east", "operator_ids": "jr_east", "name_en": "西国分寺", "name_ja": "西国分寺", "label_rank": 92, "tags": ["tokyo", "v3"]}}, {"type": "Feature", "bbox": [139.465985, 35.69991, 139.465985, 35.69991], "geometry": {"type": "Point", "coordinates": [139.465985, 35.69991]}, "properties": {"id": "PS_96A5D23485BE", "station_group_id": "SG_CF68AF38F71F", "operator_id": "jr_east", "operator_ids": "jr_east", "name_en": "西国分寺", "name_ja": "西国分寺", "label_rank": 92, "tags": ["tokyo", "v3"]}}, {"type": "Feature", "bbox": [139.459935, 35.919095, 139.459935, 35.919095], "geometry": {"type": "Point", "coordinates": [139.459935, 35.919095]}, "properties": {"id": "PS_A66285D18874", "station_group_id": "SG_093A2A4B41EE", "operator_id": "jr_east", "operator_ids": "jr_east", "name_en": "西川越", "name_ja": "西川越", "label_rank": 72, "tags": ["tokyo", "v3"]}}, {"type": "Feature", "bbox": [139.45614, 35.788830000000004, 139.45614, 35.788830000000004], "geometry": {"type": "Point", "coordinates": [139.45614, 35.788830000000004]}, "properties": {"id": "PS_92A4972F4249", "station_group_id": "SG_A823B32488A9", "operator_id": "seibu", "operator_ids": "seibu", "name_en": "西所沢", "name_ja": "西所沢", "label_rank": 92, "tags": ["tokyo", "v3"]}}, {"type": "Feature", "bbox": [139.45614, 35.788830000000004, 139.45614, 35.788830000000004], "geometry": {"type": "Point", "coordinates": [139.45614, 35.788830000000004]}, "properties": {"id": "PS_384A3CD0F681", "station_group_id": "SG_A823B32488A9", "operator_id": "seibu", "operator_ids": "seibu", "name_en": "西所沢", "name_ja": "西所沢", "label_rank": 92, "tags": ["tokyo", "v3"]}}, {"type": "Feature", "bbox": [139.448895, 35.767735, 139.448895, 35.767735], "geometry": {"type": "Point", "coordinates": [139.448895, 35.767735]}, "properties": {"id": "PS_88E8D194CB8B", "station_group_id": "SG_5CB5F77DD90C", "operator_id": "seibu", "operator_ids": "seibu", "name_en": "西武園", "name_ja": "西武園", "label_rank": 72, "tags": ["tokyo", "v3"]}}, {"type": "Feature", "bbox": [139.44019, 35.76903, 139.44019, 35.76903], "geometry": {"type": "Point", "coordinates": [139.44019, 35.76903]}, "properties": {"id": "PS_6219243204D3", "station_group_id": "SG_3E9212646859", "operator_id": "seibu", "operator_ids": "seibu", "name_en": "西武園ゆうえんち", "name_ja": "西武園ゆうえんち", "label_rank": 72, "tags": ["tokyo", "v3"]}}, {"type": "Feature", "bbox": [139.5524, 35.72858, 139.5524, 35.72858], "geometry": {"type": "Point", "coordinates": [139.5524, 35.72858]}, "properties": {"id": "PS_70FBE563AD9A", "station_group_id": "SG_89AA73E8C561", "operator_id": "seibu", "operator_ids": "seibu", "name_en": "西武柳沢", "name_ja": "西武柳沢", "label_rank": 72, "tags": ["tokyo", "v3"]}}, {"type": "Feature", "bbox": [139.42044, 35.771575, 139.42044, 35.771575], "geometry": {"type": "Point", "coordinates": [139.42044, 35.771575]}, "properties": {"id": "PS_F4FA84D44405", "station_group_id": "SG_731477659A7A", "operator_id": "seibu", "operator_ids": "seibu", "name_en": "西武球場前", "name_ja": "西武球場前", "label_rank": 72, "tags": ["tokyo", "v3"]}}, {"type": "Feature", "bbox": [139.420235, 35.77078, 139.420235, 35.77078], "geometry": {"type": "Point", "coordinates": [139.420235, 35.77078]}, "properties": {"id": "PS_952E1497DB21", "station_group_id": "SG_731477659A7A", "operator_id": "seibu", "operator_ids": "seibu", "name_en": "西武球場前", "name_ja": "西武球場前", "label_rank": 72, "tags": ["tokyo", "v3"]}}, {"type": "Feature", "bbox": [139.369655, 35.72618, 139.369655, 35.72618], "geometry": {"type": "Point", "coordinates": [139.369655, 35.72618]}, "properties": {"id": "PS_3FD30351F08D", "station_group_id": "SG_BCD944DEEC08", "operator_id": "seibu", "operator_ids": "seibu", "name_en": "西武立川", "name_ja": "西武立川", "label_rank": 72, "tags": ["tokyo", "v3"]}}, {"type": "Feature", "bbox": [139.39316, 35.70362, 139.39316, 35.70362], "geometry": {"type": "Point", "coordinates": [139.39316, 35.70362]}, "properties": {"id": "PS_BF2FAC6F7F88", "station_group_id": "SG_62F42B2C3678", "operator_id": "jr_east", "operator_ids": "jr_east", "name_en": "西立川", "name_ja": "西立川", "label_rank": 72, "tags": ["tokyo", "v3"]}}, {"type": "Feature", "bbox": [139.44404500000002, 35.925425, 139.44404500000002, 35.925425], "geometry": {"type": "Point", "coordinates": [139.44404500000002, 35.925425]}, "properties": {"id": "PS_175A6405CBC2", "station_group_id": "SG_4220EE36F74E", "operator_id": "tobu", "operator_ids": "tobu", "name_en": "霞ヶ関", "name_ja": "霞ヶ関", "label_rank": 92, "tags": ["tokyo", "v3"]}}, {"type": "Feature", "bbox": [139.47656999999998, 35.730990000000006, 139.47656999999998, 35.730990000000006], "geometry": {"type": "Point", "coordinates": [139.47656999999998, 35.730990000000006]}, "properties": {"id": "PS_D4DA4C9556AC", "station_group_id": "SG_AE6C71F2500E", "operator_id": "seibu", "operator_ids": "seibu", "name_en": "青梅街道", "name_ja": "青梅街道", "label_rank": 72, "tags": ["tokyo", "v3"]}}, {"type": "Feature", "bbox": [139.31883, 35.851214999999996, 139.31883, 35.851214999999996], "geometry": {"type": "Point", "coordinates": [139.31883, 35.851214999999996]}, "properties": {"id": "PS_26E84491BB70", "station_group_id": "SG_0EA20F7ACEB7", "operator_id": "seibu", "operator_ids": "seibu", "name_en": "飯能", "name_ja": "飯能", "label_rank": 72, "tags": ["tokyo", "v3"]}}, {"type": "Feature", "bbox": [139.413275, 35.710045, 139.413275, 35.710045], "geometry": {"type": "Point", "coordinates": [139.413275, 35.710045]}, "properties": {"id": "PS_6EE2AA9914BE", "station_group_id": "SG_7723D21DD378", "operator_id": "tama_monorail", "operator_ids": "tama_monorail", "name_en": "高松", "name_ja": "高松", "label_rank": 72, "tags": ["tokyo", "v3"]}}, {"type": "Feature", "bbox": [139.30437999999998, 35.882025, 139.30437999999998, 35.882025], "geometry": {"type": "Point", "coordinates": [139.30437999999998, 35.882025]}, "properties": {"id": "PS_472EAB8577FE", "station_group_id": "SG_82FE63221162", "operator_id": "seibu", "operator_ids": "seibu", "name_en": "高麗", "name_ja": "高麗", "label_rank": 72, "tags": ["tokyo", "v3"]}}, {"type": "Feature", "bbox": [139.33813, 35.896370000000005, 139.33813, 35.896370000000005], "geometry": {"type": "Point", "coordinates": [139.33813, 35.896370000000005]}, "properties": {"id": "PS_51C85F9908AA", "station_group_id": "SG_3F0BB20683F7", "operator_id": "jr_east", "operator_ids": "jr_east", "name_en": "高麗川", "name_ja": "高麗川", "label_rank": 72, "tags": ["tokyo", "v3"]}}, {"type": "Feature", "bbox": [139.539455, 35.845600000000005, 139.539455, 35.845600000000005], "geometry": {"type": "Point", "coordinates": [139.539455, 35.845600000000005]}, "properties": {"id": "PS_7210250C87ED", "station_group_id": "SG_AEBD5AF87047", "operator_id": "tobu", "operator_ids": "tobu", "name_en": "鶴瀬", "name_ja": "鶴瀬", "label_rank": 72, "tags": ["tokyo", "v3"]}}, {"type": "Feature", "bbox": [139.46106, 35.72301, 139.46106, 35.72301], "geometry": {"type": "Point", "coordinates": [139.46106, 35.72301]}, "properties": {"id": "PS_E02EA1299225", "station_group_id": "SG_71ECF546BC05", "operator_id": "seibu", "operator_ids": "seibu", "name_en": "鷹の台", "name_ja": "鷹の台", "label_rank": 72, "tags": ["tokyo", "v3"]}}]}