{"type": "FeatureCollection", "features": [{"type": "Feature", "bbox": [139.55354499999999, 35.568775, 139.55354499999999, 35.568775], "geometry": {"type": "Point", "coordinates": [139.55354499999999, 35.568775]}, "properties": {"id": "PS_73B8A63A557B", "station_group_id": "SG_277D444BCF77", "name_en": "あざみ野", "name_ja": "あざみ野", "label_rank": 92, "tags": ["tokyo", "v3"]}}, {"type": "Feature", "bbox": [139.487185, 35.415099999999995, 139.487185, 35.415099999999995], "geometry": {"type": "Point", "coordinates": [139.487185, 35.415099999999995]}, "properties": {"id": "PS_837AEE2806F3", "station_group_id": "SG_3DE57D049B43", "name_en": "いずみ中央", "name_ja": "いずみ中央", "label_rank": 72, "tags": ["tokyo", "v3"]}}, {"type": "Feature", "bbox": [139.49512, 35.429495, 139.49512, 35.429495], "geometry": {"type": "Point", "coordinates": [139.49512, 35.429495]}, "properties": {"id": "PS_72AED96CD132", "station_group_id": "SG_BC0CFADDC246", "name_en": "いずみ野", "name_ja": "いずみ野", "label_rank": 72, "tags": ["tokyo", "v3"]}}, {"type": "Feature", "bbox": [139.415885, 35.466845, 139.415885, 35.466845], "geometry": {"type": "Point", "coordinates": [139.415885, 35.466845]}, "properties": {"id": "PS_532552BB7FA5", "station_group_id": "SG_1017209F66A0", "name_en": "かしわ台", "name_ja": "かしわ台", "label_rank": 72, "tags": ["tokyo", "v3"]}}, {"type": "Feature", "bbox": [139.48666500000002, 35.558, 139.48666500000002, 35.558], "geometry": {"type": "Point", "coordinates": [139.48666500000002, 35.558]}, "properties": {"id": "PS_3A8D19643161", "station_group_id": "SG_B2FD0FB4F7D1", "name_en": "こどもの国", "name_ja": "こどもの国", "label_rank": 72, "tags": ["tokyo", "v3"]}}, {"type": "Feature", "bbox": [139.428696, 35.47151, 139.428696, 35.47151], "geometry": {"type": "Point", "coordinates": [139.428696, 35.47151]}, "properties": {"id": "PS_CF54734DA7E1", "station_group_id": "SG_52B3EF968E0F", "name_en": "さがみ野", "name_ja": "さがみ野", "label_rank": 72, "tags": ["tokyo", "v3"]}}, {"type": "Feature", "bbox": [139.48176999999998, 35.517165, 139.48176999999998, 35.517165], "geometry": {"type": "Point", "coordinates": [139.48176999999998, 35.517165]}, "properties": {"id": "PS_A04C096D8152", "station_group_id": "SG_E051C22F7C5E", "name_en": "すずかけ台", "name_ja": "すずかけ台", "label_rank": 72, "tags": ["tokyo", "v3"]}}, {"type": "Feature", "bbox": [139.55867, 35.57737, 139.55867, 35.57737], "geometry": {"type": "Point", "coordinates": [139.55867, 35.57737]}, "properties": {"id": "PS_3B1D5E000426", "station_group_id": "SG_118FEA36EC4D", "name_en": "たまプラーザ", "name_ja": "たまプラーザ", "label_rank": 92, "tags": ["tokyo", "v3"]}}, {"type": "Feature", "bbox": [139.45872500000002, 35.510555, 139.45872500000002, 35.510555], "geometry": {"type": "Point", "coordinates": [139.45872500000002, 35.510555]}, "properties": {"id": "PS_5C5D5986B3D7", "station_group_id": "SG_5E92CA4599E2", "name_en": "つきみ野", "name_ja": "つきみ野", "label_rank": 72, "tags": ["tokyo", "v3"]}}, {"type": "Feature", "bbox": [139.48494, 35.527065, 139.48494, 35.527065], "geometry": {"type": "Point", "coordinates": [139.48494, 35.527065]}, "properties": {"id": "PS_C75BA9C74A5C", "station_group_id": "SG_95D522A7C79F", "name_en": "つくし野", "name_ja": "つくし野", "label_rank": 72, "tags": ["tokyo", "v3"]}}, {"type": "Feature", "bbox": [139.464985, 35.618405, 139.464985, 35.618405], "geometry": {"type": "Point", "coordinates": [139.464985, 35.618405]}, "properties": {"id": "PS_8DED9622659A", "station_group_id": "SG_7B63239E8107", "name_en": "はるひ野", "name_ja": "はるひ野", "label_rank": 72, "tags": ["tokyo", "v3"]}}, {"type": "Feature", "bbox": [139.308465, 35.643625, 139.308465, 35.643625], "geometry": {"type": "Point", "coordinates": [139.308465, 35.643625]}, "properties": {"id": "PS_FF07D0F8198B", "station_group_id": "SG_B7519984D179", "name_en": "めじろ台", "name_ja": "めじろ台", "label_rank": 72, "tags": ["tokyo", "v3"]}}, {"type": "Feature", "bbox": [139.41986, 35.671315, 139.41986, 35.671315], "geometry": {"type": "Point", "coordinates": [139.41986, 35.671315]}, "properties": {"id": "PS_304FB6C190D5", "station_group_id": "SG_B57657033A4D", "name_en": "万願寺", "name_ja": "万願寺", "label_rank": 72, "tags": ["tokyo", "v3"]}}, {"type": "Feature", "bbox": [139.50257, 35.467785, 139.50257, 35.467785], "geometry": {"type": "Point", "coordinates": [139.50257, 35.467785]}, "properties": {"id": "PS_8FA1AFDFCA80", "station_group_id": "SG_ED63BF980AEF", "name_en": "三ツ境", "name_ja": "三ツ境", "label_rank": 72, "tags": ["tokyo", "v3"]}}, {"type": "Feature", "bbox": [139.408725, 35.641885, 139.408725, 35.641885], "geometry": {"type": "Point", "coordinates": [139.408725, 35.641885]}, "properties": {"id": "PS_BF9F95D0709D", "station_group_id": "SG_28995EE48ADB", "name_en": "中央大学・明星大学", "name_ja": "中央大学・明星大学", "label_rank": 72, "tags": ["tokyo", "v3"]}}, {"type": "Feature", "bbox": [139.4441, 35.508005, 139.4441, 35.508005], "geometry": {"type": "Point", "coordinates": [139.4441, 35.508005]}, "properties": {"id": "PS_7F4348E14929", "station_group_id": "SG_0CC4843CE16C", "name_en": "中央林間", "name_ja": "中央林間", "label_rank": 92, "tags": ["tokyo", "v3"]}}, {"type": "Feature", "bbox": [139.445115, 35.50781, 139.445115, 35.50781], "geometry": {"type": "Point", "coordinates": [139.445115, 35.50781]}, "properties": {"id": "PS_8E8536A56D89", "station_group_id": "SG_0CC4843CE16C", "name_en": "中央林間", "name_ja": "中央林間", "label_rank": 92, "tags": ["tokyo", "v3"]}}, {"type": "Feature", "bbox": [139.457695, 35.659535000000005, 139.457695, 35.659535000000005], "geometry": {"type": "Point", "coordinates": [139.457695, 35.659535000000005]}, "properties": {"id": "PS_ECF09276302B", "station_group_id": "SG_B52F38078B26", "name_en": "中河原", "name_ja": "中河原", "label_rank": 72, "tags": ["tokyo", "v3"]}}, {"type": "Feature", "bbox": [139.53237000000001, 35.463390000000004, 139.53237000000001, 35.463390000000004], "geometry": {"type": "Point", "coordinates": [139.53237000000001, 35.463390000000004]}, "properties": {"id": "PS_45820BEC23FA", "station_group_id": "SG_A03E8558C764", "name_en": "二俣川", "name_ja": "二俣川", "label_rank": 72, "tags": ["tokyo", "v3"]}}, {"type": "Feature", "bbox": [139.53237000000001, 35.463390000000004, 139.53237000000001, 35.463390000000004], "geometry": {"type": "Point", "coordinates": [139.53237000000001, 35.463390000000004]}, "properties": {"id": "PS_412D5EBBF462", "station_group_id": "SG_A03E8558C764", "name_en": "二俣川", "name_ja": "二俣川", "label_rank": 72, "tags": ["tokyo", "v3"]}}, {"type": "Feature", "bbox": [139.493385, 35.600229999999996, 139.493385, 35.600229999999996], "geometry": {"type": "Point", "coordinates": [139.493385, 35.600229999999996]}, "properties": {"id": "PS_A4F3A02D667C", "station_group_id": "SG_4BB9F01888EA", "name_en": "五月台", "name_ja": "五月台", "label_rank": 72, "tags": ["tokyo", "v3"]}}, {"type": "Feature", "bbox": [139.51729, 35.632975, 139.51729, 35.632975], "geometry": {"type": "Point", "coordinates": [139.51729, 35.632975]}, "properties": {"id": "PS_A229869B13A8", "station_group_id": "SG_1F39D26D67A3", "name_en": "京王よみうりランド", "name_ja": "京王よみうりランド", "label_rank": 72, "tags": ["tokyo", "v3"]}}, {"type": "Feature", "bbox": [139.343055, 35.65802, 139.343055, 35.65802], "geometry": {"type": "Point", "coordinates": [139.343055, 35.65802]}, "properties": {"id": "PS_3E21CD6ED898", "station_group_id": "SG_387F68B0CEB8", "name_en": "京王八王子", "name_ja": "京王八王子", "label_rank": 72, "tags": ["tokyo", "v3"]}}, {"type": "Feature", "bbox": [139.400325, 35.624475000000004, 139.400325, 35.624475000000004], "geometry": {"type": "Point", "coordinates": [139.400325, 35.624475000000004]}, "properties": {"id": "PS_39E3FB88C688", "station_group_id": "SG_2FA08460B036", "name_en": "京王堀之内", "name_ja": "京王堀之内", "label_rank": 72, "tags": ["tokyo", "v3"]}}, {"type": "Feature", "bbox": [139.42416500000002, 35.625225, 139.42416500000002, 35.625225], "geometry": {"type": "Point", "coordinates": [139.42416500000002, 35.625225]}, "properties": {"id": "PS_41A770303750", "station_group_id": "SG_C27427544904", "name_en": "京王多摩センター", "name_ja": "京王多摩センター", "label_rank": 72, "tags": ["tokyo", "v3"]}}, {"type": "Feature", "bbox": [139.53634499999998, 35.644099999999995, 139.53634499999998, 35.644099999999995], "geometry": {"type": "Point", "coordinates": [139.53634499999998, 35.644099999999995]}, "properties": {"id": "PS_5D9FA0DC27B1", "station_group_id": "SG_F967CC54DC43", "name_en": "京王多摩川", "name_ja": "京王多摩川", "label_rank": 72, "tags": ["tokyo", "v3"]}}, {"type": "Feature", "bbox": [139.44821000000002, 35.63024, 139.44821000000002, 35.63024], "geometry": {"type": "Point", "coordinates": [139.44821000000002, 35.63024]}, "properties": {"id": "PS_96E8FE99F7FF", "station_group_id": "SG_C98E716750C3", "name_en": "京王永山", "name_ja": "京王永山", "label_rank": 72, "tags": ["tokyo", "v3"]}}, {"type": "Feature", "bbox": [139.33696, 35.644360000000006, 139.33696, 35.644360000000006], "geometry": {"type": "Point", "coordinates": [139.33696, 35.644360000000006]}, "properties": {"id": "PS_AC3B25477981", "station_group_id": "SG_11E1BCA7136C", "name_en": "京王片倉", "name_ja": "京王片倉", "label_rank": 72, "tags": ["tokyo", "v3"]}}, {"type": "Feature", "bbox": [139.531925, 35.634245, 139.531925, 35.634245], "geometry": {"type": "Point", "coordinates": [139.531925, 35.634245]}, "properties": {"id": "PS_507439CC887F", "station_group_id": "SG_5EDB6A9D4D5F", "name_en": "京王稲田堤", "name_ja": "京王稲田堤", "label_rank": 72, "tags": ["tokyo", "v3"]}}, {"type": "Feature", "bbox": [139.33882, 35.655505000000005, 139.33882, 35.655505000000005], "geometry": {"type": "Point", "coordinates": [139.33882, 35.655505000000005]}, "properties": {"id": "PS_2AC7A5A8DDDE", "station_group_id": "SG_57376451D8C0", "name_en": "八王子", "name_ja": "八王子", "label_rank": 72, "tags": ["tokyo", "v3"]}}, {"type": "Feature", "bbox": [139.468365, 35.668099999999995, 139.468365, 35.668099999999995], "geometry": {"type": "Point", "coordinates": [139.468365, 35.668099999999995]}, "properties": {"id": "PS_A801AE8D3CD3", "station_group_id": "SG_470A87667996", "name_en": "分倍河原", "name_ja": "分倍河原", "label_rank": 72, "tags": ["tokyo", "v3"]}}, {"type": "Feature", "bbox": [139.35417999999999, 35.644485, 139.35417999999999, 35.644485], "geometry": {"type": "Point", "coordinates": [139.35417999999999, 35.644485]}, "properties": {"id": "PS_5F3AADE13B18", "station_group_id": "SG_653C51560373", "name_en": "北野", "name_ja": "北野", "label_rank": 72, "tags": ["tokyo", "v3"]}}, {"type": "Feature", "bbox": [139.35417999999999, 35.644485, 139.35417999999999, 35.644485], "geometry": {"type": "Point", "coordinates": [139.35417999999999, 35.644485]}, "properties": {"id": "PS_FD034541F515", "station_group_id": "SG_653C51560373", "name_en": "北野", "name_ja": "北野", "label_rank": 72, "tags": ["tokyo", "v3"]}}, {"type": "Feature", "bbox": [139.51667, 35.52621, 139.51667, 35.52621], "geometry": {"type": "Point", "coordinates": [139.51667, 35.52621]}, "properties": {"id": "PS_0A1B6472903F", "station_group_id": "SG_374F8939C00B", "name_en": "十日市場", "name_ja": "十日市場", "label_rank": 72, "tags": ["tokyo", "v3"]}}, {"type": "Feature", "bbox": [139.52634749999999, 35.452545, 139.52634749999999, 35.452545], "geometry": {"type": "Point", "coordinates": [139.52634749999999, 35.452545]}, "properties": {"id": "PS_90C02F14D4DA", "station_group_id": "SG_7A3DD87D0984", "name_en": "南万騎が原", "name_ja": "南万騎が原", "label_rank": 72, "tags": ["tokyo", "v3"]}}, {"type": "Feature", "bbox": [139.37982499999998, 35.614095, 139.37982499999998, 35.614095], "geometry": {"type": "Point", "coordinates": [139.37982499999998, 35.614095]}, "properties": {"id": "PS_2353F284D7C2", "station_group_id": "SG_20586271A7F0", "name_en": "南大沢", "name_ja": "南大沢", "label_rank": 72, "tags": ["tokyo", "v3"]}}, {"type": "Feature", "bbox": [139.39257500000002, 35.65514, 139.39257500000002, 35.65514], "geometry": {"type": "Point", "coordinates": [139.39257500000002, 35.65514]}, "properties": {"id": "PS_A79D834CE052", "station_group_id": "SG_4D3F6BD15554", "name_en": "南平", "name_ja": "南平", "label_rank": 72, "tags": ["tokyo", "v3"]}}, {"type": "Feature", "bbox": [139.448005, 35.495599999999996, 139.448005, 35.495599999999996], "geometry": {"type": "Point", "coordinates": [139.448005, 35.495599999999996]}, "properties": {"id": "PS_AA650350FE5F", "station_group_id": "SG_D332EAB21631", "name_en": "南林間", "name_ja": "南林間", "label_rank": 72, "tags": ["tokyo", "v3"]}}, {"type": "Feature", "bbox": [139.47044, 35.511515, 139.47044, 35.511515], "geometry": {"type": "Point", "coordinates": [139.47044, 35.511515]}, "properties": {"id": "PS_C79FD5EA09C6", "station_group_id": "SG_808E32F3B321", "name_en": "南町田グランベリーパーク", "name_ja": "南町田グランベリーパーク", "label_rank": 92, "tags": ["tokyo", "v3"]}}, {"type": "Feature", "bbox": [139.37790999999999, 35.443065000000004, 139.37790999999999, 35.443065000000004], "geometry": {"type": "Point", "coordinates": [139.37790999999999, 35.443065000000004]}, "properties": {"id": "PS_F04F417DBF73", "station_group_id": "SG_33402BE39899", "name_en": "厚木", "name_ja": "厚木", "label_rank": 72, "tags": ["tokyo", "v3"]}}, {"type": "Feature", "bbox": [139.411675, 35.616565, 139.411675, 35.616565], "geometry": {"type": "Point", "coordinates": [139.411675, 35.616565]}, "properties": {"id": "PS_FA7CFFC048B1", "station_group_id": "SG_F1F7A815C520", "name_en": "唐木田", "name_ja": "唐木田", "label_rank": 72, "tags": ["tokyo", "v3"]}}, {"type": "Feature", "bbox": [139.55843, 35.650185, 139.55843, 35.650185], "geometry": {"type": "Point", "coordinates": [139.55843, 35.650185]}, "properties": {"id": "PS_890EA7274236", "station_group_id": "SG_B889956FFDC1", "name_en": "国領", "name_ja": "国領", "label_rank": 72, "tags": ["tokyo", "v3"]}}, {"type": "Feature", "bbox": [139.422785, 35.623855, 139.422785, 35.623855], "geometry": {"type": "Point", "coordinates": [139.422785, 35.623855]}, "properties": {"id": "PS_5B7385E833CB", "station_group_id": "SG_E36E96B9BDFB", "name_en": "多摩センター", "name_ja": "多摩センター", "label_rank": 72, "tags": ["tokyo", "v3"]}}, {"type": "Feature", "bbox": [139.40552, 35.649525, 139.40552, 35.649525], "geometry": {"type": "Point", "coordinates": [139.40552, 35.649525]}, "properties": {"id": "PS_21B73D0A9BEF", "station_group_id": "SG_F03640D3FD91", "name_en": "多摩動物公園", "name_ja": "多摩動物公園", "label_rank": 72, "tags": ["tokyo", "v3"]}}, {"type": "Feature", "bbox": [139.403815, 35.648534999999995, 139.403815, 35.648534999999995], "geometry": {"type": "Point", "coordinates": [139.403815, 35.648534999999995]}, "properties": {"id": "PS_E59B601F980A", "station_group_id": "SG_F03640D3FD91", "name_en": "多摩動物公園", "name_ja": "多摩動物公園", "label_rank": 72, "tags": ["tokyo", "v3"]}}, {"type": "Feature", "bbox": [139.36692499999998, 35.60174, 139.36692499999998, 35.60174], "geometry": {"type": "Point", "coordinates": [139.36692499999998, 35.60174]}, "properties": {"id": "PS_E3AD0AFD13C0", "station_group_id": "SG_50A3AB03E0B2", "name_en": "多摩境", "name_ja": "多摩境", "label_rank": 72, "tags": ["tokyo", "v3"]}}, {"type": "Feature", "bbox": [139.50212, 35.66636, 139.50212, 35.66636], "geometry": {"type": "Point", "coordinates": [139.50212, 35.66636]}, "properties": {"id": "PS_9ABDB626AEEF", "station_group_id": "SG_2E49B9F4281B", "name_en": "多磨霊園", "name_ja": "多磨霊園", "label_rank": 72, "tags": ["tokyo", "v3"]}}, {"type": "Feature", "bbox": [139.4615, 35.469795000000005, 139.4615, 35.469795000000005], "geometry": {"type": "Point", "coordinates": [139.4615, 35.469795000000005]}, "properties": {"id": "PS_07F9B313FEFF", "station_group_id": "SG_AE568B1FF4FF", "name_en": "大和", "name_ja": "大和", "label_rank": 72, "tags": ["tokyo", "v3"]}}, {"type": "Feature", "bbox": [139.416445, 35.63686, 139.416445, 35.63686], "geometry": {"type": "Point", "coordinates": [139.416445, 35.63686]}, "properties": {"id": "PS_1FD145EF2B16", "station_group_id": "SG_09829F8D4078", "name_en": "大塚・帝京大学", "name_ja": "大塚・帝京大学", "label_rank": 72, "tags": ["tokyo", "v3"]}}, {"type": "Feature", "bbox": [139.424375, 35.62493, 139.424375, 35.62493], "geometry": {"type": "Point", "coordinates": [139.424375, 35.62493]}, "properties": {"id": "PS_8B8D3D4B15F3", "station_group_id": "SG_B76C6BDF736F", "name_en": "小田急多摩センター", "name_ja": "小田急多摩センター", "label_rank": 72, "tags": ["tokyo", "v3"]}}, {"type": "Feature", "bbox": [139.44806, 35.629915, 139.44806, 35.629915], "geometry": {"type": "Point", "coordinates": [139.44806, 35.629915]}, "properties": {"id": "PS_EB79FFC19132", "station_group_id": "SG_D013FFB27DC0", "name_en": "小田急永山", "name_ja": "小田急永山", "label_rank": 72, "tags": ["tokyo", "v3"]}}, {"type": "Feature", "bbox": [139.423025, 35.515555, 139.423025, 35.515555], "geometry": {"type": "Point", "coordinates": [139.423025, 35.515555]}, "properties": {"id": "PS_BB2D01E2292F", "station_group_id": "SG_98FB52392C67", "name_en": "小田急相模原", "name_ja": "小田急相模原", "label_rank": 72, "tags": ["tokyo", "v3"]}}, {"type": "Feature", "bbox": [139.320755, 35.644355, 139.320755, 35.644355], "geometry": {"type": "Point", "coordinates": [139.320755, 35.644355]}, "properties": {"id": "PS_447DC8A34BE9", "station_group_id": "SG_747C5DDD6FC7", "name_en": "山田", "name_ja": "山田", "label_rank": 72, "tags": ["tokyo", "v3"]}}, {"type": "Feature", "bbox": [139.54126, 35.551265, 139.54126, 35.551265], "geometry": {"type": "Point", "coordinates": [139.54126, 35.551265]}, "properties": {"id": "PS_94BA2A1D8654", "station_group_id": "SG_7598B5403835", "name_en": "市が尾", "name_ja": "市が尾", "label_rank": 72, "tags": ["tokyo", "v3"]}}, {"type": "Feature", "bbox": [139.551715, 35.649860000000004, 139.551715, 35.649860000000004], "geometry": {"type": "Point", "coordinates": [139.551715, 35.649860000000004]}, "properties": {"id": "PS_FB020B4212BA", "station_group_id": "SG_87776A4B2B60", "name_en": "布田", "name_ja": "布田", "label_rank": 72, "tags": ["tokyo", "v3"]}}, {"type": "Feature", "bbox": [139.513475, 35.460539999999995, 139.513475, 35.460539999999995], "geometry": {"type": "Point", "coordinates": [139.513475, 35.460539999999995]}, "properties": {"id": "PS_B3092C9C4BEC", "station_group_id": "SG_B0CD24DFB322", "name_en": "希望ヶ丘", "name_ja": "希望ヶ丘", "label_rank": 72, "tags": ["tokyo", "v3"]}}, {"type": "Feature", "bbox": [139.379895, 35.647310000000004, 139.379895, 35.647310000000004], "geometry": {"type": "Point", "coordinates": [139.379895, 35.647310000000004]}, "properties": {"id": "PS_AF09D4221AEB", "station_group_id": "SG_6A2ACC426AB6", "name_en": "平山城址公園", "name_ja": "平山城址公園", "label_rank": 72, "tags": ["tokyo", "v3"]}}, {"type": "Feature", "bbox": [139.4771, 35.66584, 139.4771, 35.66584], "geometry": {"type": "Point", "coordinates": [139.4771, 35.66584]}, "properties": {"id": "PS_91E27DEAF4D5", "station_group_id": "SG_AA0B0BEDEFAD", "name_en": "府中本町", "name_ja": "府中本町", "label_rank": 72, "tags": ["tokyo", "v3"]}}, {"type": "Feature", "bbox": [139.485165, 35.668355, 139.485165, 35.668355], "geometry": {"type": "Point", "coordinates": [139.485165, 35.668355]}, "properties": {"id": "PS_F2039C066ADB", "station_group_id": "SG_2E674CAF1C2D", "name_en": "府中競馬正門前", "name_ja": "府中競馬正門前", "label_rank": 72, "tags": ["tokyo", "v3"]}}, {"type": "Feature", "bbox": [139.39988499999998, 35.48099, 139.39988499999998, 35.48099], "geometry": {"type": "Point", "coordinates": [139.39988499999998, 35.48099]}, "properties": {"id": "PS_76B7F07A6B1C", "station_group_id": "SG_69B18FB434FF", "name_en": "座間", "name_ja": "座間", "label_rank": 72, "tags": ["tokyo", "v3"]}}, {"type": "Feature", "bbox": [139.50663500000002, 35.42993, 139.50663500000002, 35.42993], "geometry": {"type": "Point", "coordinates": [139.50663500000002, 35.42993]}, "properties": {"id": "PS_F5E9C68B28CE", "station_group_id": "SG_1124CEC31AD0", "name_en": "弥生台", "name_ja": "弥生台", "label_rank": 72, "tags": ["tokyo", "v3"]}}, {"type": "Feature", "bbox": [139.49216, 35.5456, 139.49216, 35.5456], "geometry": {"type": "Point", "coordinates": [139.49216, 35.5456]}, "properties": {"id": "PS_F4E4BC9BC752", "station_group_id": "SG_028B5C8B267F", "name_en": "恩田", "name_ja": "恩田", "label_rank": 72, "tags": ["tokyo", "v3"]}}, {"type": "Feature", "bbox": [139.344155, 35.417770000000004, 139.344155, 35.417770000000004], "geometry": {"type": "Point", "coordinates": [139.344155, 35.417770000000004]}, "properties": {"id": "PS_6A9856B12A2D", "station_group_id": "SG_CCC77DC596FE", "name_en": "愛甲石田", "name_ja": "愛甲石田", "label_rank": 72, "tags": ["tokyo", "v3"]}}, {"type": "Feature", "bbox": [139.507475, 35.603705, 139.507475, 35.603705], "geometry": {"type": "Point", "coordinates": [139.507475, 35.603705]}, "properties": {"id": "PS_582B3247BDDC", "station_group_id": "SG_210A0724BCF9", "name_en": "新百合ヶ丘", "name_ja": "新百合ヶ丘", "label_rank": 92, "tags": ["tokyo", "v3"]}}, {"type": "Feature", "bbox": [139.507475, 35.603705, 139.507475, 35.603705], "geometry": {"type": "Point", "coordinates": [139.507475, 35.603705]}, "properties": {"id": "PS_4D3EE9B6EBC4", "station_group_id": "SG_210A0724BCF9", "name_en": "新百合ヶ丘", "name_ja": "新百合ヶ丘", "label_rank": 92, "tags": ["tokyo", "v3"]}}, {"type": "Feature", "bbox": [139.48864, 35.656185, 139.48864, 35.656185], "geometry": {"type": "Point", "coordinates": [139.48864, 35.656185]}, "properties": {"id": "PS_0DAF62E3D660", "station_group_id": "SG_83777553E69B", "name_en": "是政", "name_ja": "是政", "label_rank": 72, "tags": ["tokyo", "v3"]}}, {"type": "Feature", "bbox": [139.364375, 35.43921, 139.364375, 35.43921], "geometry": {"type": "Point", "coordinates": [139.364375, 35.43921]}, "properties": {"id": "PS_DC23AD7352FE", "station_group_id": "SG_685FB54ADB48", "name_en": "本厚木", "name_ja": "本厚木", "label_rank": 72, "tags": ["tokyo", "v3"]}}, {"type": "Feature", "bbox": [139.4954, 35.668769999999995, 139.4954, 35.668769999999995], "geometry": {"type": "Point", "coordinates": [139.4954, 35.668769999999995]}, "properties": {"id": "PS_C7FF0DFDBBF9", "station_group_id": "SG_C44FF00C5252", "name_en": "東府中", "name_ja": "東府中", "label_rank": 72, "tags": ["tokyo", "v3"]}}, {"type": "Feature", "bbox": [139.4954, 35.668769999999995, 139.4954, 35.668769999999995], "geometry": {"type": "Point", "coordinates": [139.4954, 35.668769999999995]}, "properties": {"id": "PS_AB110E013E6C", "station_group_id": "SG_C44FF00C5252", "name_en": "東府中", "name_ja": "東府中", "label_rank": 72, "tags": ["tokyo", "v3"]}}, {"type": "Feature", "bbox": [139.55650500000002, 35.429955, 139.55650500000002, 35.429955], "geometry": {"type": "Point", "coordinates": [139.55650500000002, 35.429955]}, "properties": {"id": "PS_821FFA6CE858", "station_group_id": "SG_1390D9C114EC", "name_en": "東戸塚", "name_ja": "東戸塚", "label_rank": 72, "tags": ["tokyo", "v3"]}}, {"type": "Feature", "bbox": [139.43912, 35.52002, 139.43912, 35.52002], "geometry": {"type": "Point", "coordinates": [139.43912, 35.52002]}, "properties": {"id": "PS_AC03CF281131", "station_group_id": "SG_B2DF64C0EAE7", "name_en": "東林間", "name_ja": "東林間", "label_rank": 72, "tags": ["tokyo", "v3"]}}, {"type": "Feature", "bbox": [139.422035, 35.631795, 139.422035, 35.631795], "geometry": {"type": "Point", "coordinates": [139.422035, 35.631795]}, "properties": {"id": "PS_9E8722F2409F", "station_group_id": "SG_640EADD9CC45", "name_en": "松が谷", "name_ja": "松が谷", "label_rank": 72, "tags": ["tokyo", "v3"]}}, {"type": "Feature", "bbox": [139.49755, 35.589569999999995, 139.49755, 35.589569999999995], "geometry": {"type": "Point", "coordinates": [139.49755, 35.589569999999995]}, "properties": {"id": "PS_A91D4E4B8E9F", "station_group_id": "SG_3EDBAE2FC8E3", "name_en": "柿生", "name_ja": "柿生", "label_rank": 72, "tags": ["tokyo", "v3"]}}, {"type": "Feature", "bbox": [139.481295, 35.60575, 139.481295, 35.60575], "geometry": {"type": "Point", "coordinates": [139.481295, 35.60575]}, "properties": {"id": "PS_B1613C48FD8C", "station_group_id": "SG_F43FC2B8CCD0", "name_en": "栗平", "name_ja": "栗平", "label_rank": 72, "tags": ["tokyo", "v3"]}}, {"type": "Feature", "bbox": [139.46573999999998, 35.45053, 139.46573999999998, 35.45053], "geometry": {"type": "Point", "coordinates": [139.46573999999998, 35.45053]}, "properties": {"id": "PS_3DCB4EE6051F", "station_group_id": "SG_5BFF38BB7D97", "name_en": "桜ヶ丘", "name_ja": "桜ヶ丘", "label_rank": 72, "tags": ["tokyo", "v3"]}}, {"type": "Feature", "bbox": [139.34354000000002, 35.59521, 139.34354000000002, 35.59521], "geometry": {"type": "Point", "coordinates": [139.34354000000002, 35.59521]}, "properties": {"id": "PS_3E610173AC45", "station_group_id": "SG_7D047EFA3FA7", "name_en": "橋本", "name_ja": "橋本", "label_rank": 72, "tags": ["tokyo", "v3"]}}, {"type": "Feature", "bbox": [139.511305, 35.664135, 139.511305, 35.664135], "geometry": {"type": "Point", "coordinates": [139.511305, 35.664135]}, "properties": {"id": "PS_DACA139AA683", "station_group_id": "SG_48DDBA4D73FA", "name_en": "武蔵野台", "name_ja": "武蔵野台", "label_rank": 72, "tags": ["tokyo", "v3"]}}, {"type": "Feature", "bbox": [139.55140999999998, 35.558535, 139.55140999999998, 35.558535], "geometry": {"type": "Point", "coordinates": [139.55140999999998, 35.558535]}, "properties": {"id": "PS_C86DD73E2A84", "station_group_id": "SG_ED5F250A15BE", "name_en": "江田", "name_ja": "江田", "label_rank": 72, "tags": ["tokyo", "v3"]}}, {"type": "Feature", "bbox": [139.39096, 35.452835, 139.39096, 35.452835], "geometry": {"type": "Point", "coordinates": [139.39096, 35.452835]}, "properties": {"id": "PS_E18C21E488F5", "station_group_id": "SG_24D45A0F45EA", "name_en": "海老名", "name_ja": "海老名", "label_rank": 72, "tags": ["tokyo", "v3"]}}, {"type": "Feature", "bbox": [139.48259000000002, 35.4704, 139.48259000000002, 35.4704], "geometry": {"type": "Point", "coordinates": [139.48259000000002, 35.4704]}, "properties": {"id": "PS_227C4F8D92E0", "station_group_id": "SG_6E0FBC6E6C0F", "name_en": "瀬谷", "name_ja": "瀬谷", "label_rank": 72, "tags": ["tokyo", "v3"]}}, {"type": "Feature", "bbox": [139.293645, 35.64059, 139.293645, 35.64059], "geometry": {"type": "Point", "coordinates": [139.293645, 35.64059]}, "properties": {"id": "PS_D61EE4A81A2C", "station_group_id": "SG_B0B1F993F981", "name_en": "狭間", "name_ja": "狭間", "label_rank": 72, "tags": ["tokyo", "v3"]}}, {"type": "Feature", "bbox": [139.46344, 35.563509999999994, 139.46344, 35.563509999999994], "geometry": {"type": "Point", "coordinates": [139.46344, 35.563509999999994]}, "properties": {"id": "PS_2B116FE088C1", "station_group_id": "SG_D5C26B8A41E4", "name_en": "玉川学園前", "name_ja": "玉川学園前", "label_rank": 72, "tags": ["tokyo", "v3"]}}, {"type": "Feature", "bbox": [139.5418, 35.614940000000004, 139.5418, 35.614940000000004], "geometry": {"type": "Point", "coordinates": [139.5418, 35.614940000000004]}, "properties": {"id": "PS_4BAB8A571159", "station_group_id": "SG_6F3B827A06ED", "name_en": "生田", "name_ja": "生田", "label_rank": 72, "tags": ["tokyo", "v3"]}}, {"type": "Feature", "bbox": [139.50455, 35.535875000000004, 139.50455, 35.535875000000004], "geometry": {"type": "Point", "coordinates": [139.50455, 35.535875000000004]}, "properties": {"id": "PS_56478C84F8B5", "station_group_id": "SG_B9E0321CB9ED", "name_en": "田奈", "name_ja": "田奈", "label_rank": 72, "tags": ["tokyo", "v3"]}}, {"type": "Feature", "bbox": [139.445085, 35.543915, 139.445085, 35.543915], "geometry": {"type": "Point", "coordinates": [139.445085, 35.543915]}, "properties": {"id": "PS_704A8E96DFD4", "station_group_id": "SG_39803B4401DD", "name_en": "町田", "name_ja": "町田", "label_rank": 92, "tags": ["tokyo", "v3"]}}, {"type": "Feature", "bbox": [139.509525, 35.666305, 139.509525, 35.666305], "geometry": {"type": "Point", "coordinates": [139.509525, 35.666305]}, "properties": {"id": "PS_9672FFE41B9D", "station_group_id": "SG_07D7AE62B776", "name_en": "白糸台", "name_ja": "白糸台", "label_rank": 72, "tags": ["tokyo", "v3"]}}, {"type": "Feature", "bbox": [139.51608, 35.609025, 139.51608, 35.609025], "geometry": {"type": "Point", "coordinates": [139.51608, 35.609025]}, "properties": {"id": "PS_C8C11E95F932", "station_group_id": "SG_F3EC4FF168E7", "name_en": "百合ヶ丘", "name_ja": "百合ヶ丘", "label_rank": 72, "tags": ["tokyo", "v3"]}}, {"type": "Feature", "bbox": [139.431375, 35.657375, 139.431375, 35.657375], "geometry": {"type": "Point", "coordinates": [139.431375, 35.657375]}, "properties": {"id": "PS_E3F09B150666", "station_group_id": "SG_FC1527E79FC7", "name_en": "百草園", "name_ja": "百草園", "label_rank": 72, "tags": ["tokyo", "v3"]}}, {"type": "Feature", "bbox": [139.44115499999998, 35.47054, 139.44115499999998, 35.47054], "geometry": {"type": "Point", "coordinates": [139.44115499999998, 35.47054]}, "properties": {"id": "PS_3545FC83785A", "station_group_id": "SG_1537C3C92D84", "name_en": "相模大塚", "name_ja": "相模大塚", "label_rank": 72, "tags": ["tokyo", "v3"]}}, {"type": "Feature", "bbox": [139.437885, 35.5322, 139.437885, 35.5322], "geometry": {"type": "Point", "coordinates": [139.437885, 35.5322]}, "properties": {"id": "PS_ED78B1CF1AC1", "station_group_id": "SG_7FE32DD54E9E", "name_en": "相模大野", "name_ja": "相模大野", "label_rank": 92, "tags": ["tokyo", "v3"]}}, {"type": "Feature", "bbox": [139.437885, 35.5322, 139.437885, 35.5322], "geometry": {"type": "Point", "coordinates": [139.437885, 35.5322]}, "properties": {"id": "PS_D028DE5C0ADA", "station_group_id": "SG_7FE32DD54E9E", "name_en": "相模大野", "name_ja": "相模大野", "label_rank": 92, "tags": ["tokyo", "v3"]}}, {"type": "Feature", "bbox": [139.408545, 35.499359999999996, 139.408545, 35.499359999999996], "geometry": {"type": "Point", "coordinates": [139.408545, 35.499359999999996]}, "properties": {"id": "PS_3C303C7C5C05", "station_group_id": "SG_FC9D6751EFC0", "name_en": "相武台前", "name_ja": "相武台前", "label_rank": 72, "tags": ["tokyo", "v3"]}}, {"type": "Feature", "bbox": [139.410755, 35.65523, 139.410755, 35.65523], "geometry": {"type": "Point", "coordinates": [139.410755, 35.65523]}, "properties": {"id": "PS_45828BAF0F0E", "station_group_id": "SG_3B6F2FFF2DA3", "name_en": "程久保", "name_ja": "程久保", "label_rank": 72, "tags": ["tokyo", "v3"]}}, {"type": "Feature", "bbox": [139.50016, 35.636095, 139.50016, 35.636095], "geometry": {"type": "Point", "coordinates": [139.50016, 35.636095]}, "properties": {"id": "PS_453D5FD396D2", "station_group_id": "SG_94F181CC488D", "name_en": "稲城", "name_ja": "稲城", "label_rank": 72, "tags": ["tokyo", "v3"]}}, {"type": "Feature", "bbox": [139.49966, 35.65621, 139.49966, 35.65621], "geometry": {"type": "Point", "coordinates": [139.49966, 35.65621]}, "properties": {"id": "PS_CB9274DB4DF2", "station_group_id": "SG_30ABE2D3FA10", "name_en": "競艇場前", "name_ja": "競艇場前", "label_rank": 72, "tags": ["tokyo", "v3"]}}, {"type": "Feature", "bbox": [139.52177749999998, 35.439305, 139.52177749999998, 35.439305], "geometry": {"type": "Point", "coordinates": [139.52177749999998, 35.439305]}, "properties": {"id": "PS_27A3E5EE75C4", "station_group_id": "SG_AD970DFF56DD", "name_en": "緑園都市", "name_ja": "緑園都市", "label_rank": 72, "tags": ["tokyo", "v3"]}}, {"type": "Feature", "bbox": [139.44696, 35.650800000000004, 139.44696, 35.650800000000004], "geometry": {"type": "Point", "coordinates": [139.44696, 35.650800000000004]}, "properties": {"id": "PS_9616B4E3B271", "station_group_id": "SG_46B48ECF188E", "name_en": "聖蹟桜ヶ丘", "name_ja": "聖蹟桜ヶ丘", "label_rank": 72, "tags": ["tokyo", "v3"]}}, {"type": "Feature", "bbox": [139.47234, 35.619365, 139.47234, 35.619365], "geometry": {"type": "Point", "coordinates": [139.47234, 35.619365]}, "properties": {"id": "PS_6D541A9B0E71", "station_group_id": "SG_91D320349BA4", "name_en": "若葉台", "name_ja": "若葉台", "label_rank": 72, "tags": ["tokyo", "v3"]}}, {"type": "Feature", "bbox": [139.52758, 35.5434, 139.52758, 35.5434], "geometry": {"type": "Point", "coordinates": [139.52758, 35.5434]}, "properties": {"id": "PS_426A8AE3BE0B", "station_group_id": "SG_2B385D976478", "name_en": "藤が丘", "name_ja": "藤が丘", "label_rank": 72, "tags": ["tokyo", "v3"]}}, {"type": "Feature", "bbox": [139.312005, 35.656275, 139.312005, 35.656275], "geometry": {"type": "Point", "coordinates": [139.312005, 35.656275]}, "properties": {"id": "PS_B6D563D387CC", "station_group_id": "SG_848E2EDE0551", "name_en": "西八王子", "name_ja": "西八王子", "label_rank": 72, "tags": ["tokyo", "v3"]}}, {"type": "Feature", "bbox": [139.529505, 35.65732, 139.529505, 35.65732], "geometry": {"type": "Point", "coordinates": [139.529505, 35.65732]}, "properties": {"id": "PS_778E0EB876A2", "station_group_id": "SG_FFF88CAF2F6A", "name_en": "西調布", "name_ja": "西調布", "label_rank": 72, "tags": ["tokyo", "v3"]}}, {"type": "Feature", "bbox": [139.52804, 35.614734999999996, 139.52804, 35.614734999999996], "geometry": {"type": "Point", "coordinates": [139.52804, 35.614734999999996]}, "properties": {"id": "PS_13AEAD8BE63D", "station_group_id": "SG_1E28D5D8A323", "name_en": "読売ランド前", "name_ja": "読売ランド前", "label_rank": 72, "tags": ["tokyo", "v3"]}}, {"type": "Feature", "bbox": [139.544735, 35.65177, 139.544735, 35.65177], "geometry": {"type": "Point", "coordinates": [139.544735, 35.65177]}, "properties": {"id": "PS_FCE4843458F2", "station_group_id": "SG_258117F0C665", "name_en": "調布", "name_ja": "調布", "label_rank": 100, "tags": ["tokyo", "v3"]}}, {"type": "Feature", "bbox": [139.544735, 35.65177, 139.544735, 35.65177], "geometry": {"type": "Point", "coordinates": [139.544735, 35.65177]}, "properties": {"id": "PS_CAD06058A81F", "station_group_id": "SG_258117F0C665", "name_en": "調布", "name_ja": "調布", "label_rank": 100, "tags": ["tokyo", "v3"]}}, {"type": "Feature", "bbox": [139.38145500000002, 35.65945, 139.38145500000002, 35.65945], "geometry": {"type": "Point", "coordinates": [139.38145500000002, 35.65945]}, "properties": {"id": "PS_69102E8B7EE7", "station_group_id": "SG_9E3F811ECFDF", "name_en": "豊田", "name_ja": "豊田", "label_rank": 72, "tags": ["tokyo", "v3"]}}, {"type": "Feature", "bbox": [139.36588, 35.64278, 139.36588, 35.64278], "geometry": {"type": "Point", "coordinates": [139.36588, 35.64278]}, "properties": {"id": "PS_54967383DFC4", "station_group_id": "SG_E37FD3D34E5F", "name_en": "長沼", "name_ja": "長沼", "label_rank": 72, "tags": ["tokyo", "v3"]}}, {"type": "Feature", "bbox": [139.4941, 35.53193, 139.4941, 35.53193], "geometry": {"type": "Point", "coordinates": [139.4941, 35.53193]}, "properties": {"id": "PS_67106AAB0C8C", "station_group_id": "SG_6FE28E939417", "name_en": "長津田", "name_ja": "長津田", "label_rank": 92, "tags": ["tokyo", "v3"]}}, {"type": "Feature", "bbox": [139.494245, 35.53183, 139.494245, 35.53183], "geometry": {"type": "Point", "coordinates": [139.494245, 35.53183]}, "properties": {"id": "PS_432A5870436E", "station_group_id": "SG_6FE28E939417", "name_en": "長津田", "name_ja": "長津田", "label_rank": 92, "tags": ["tokyo", "v3"]}}, {"type": "Feature", "bbox": [139.5173, 35.542855, 139.5173, 35.542855], "geometry": {"type": "Point", "coordinates": [139.5173, 35.542855]}, "properties": {"id": "PS_69FBA7580E1B", "station_group_id": "SG_E970F2E11534", "name_en": "青葉台", "name_ja": "青葉台", "label_rank": 92, "tags": ["tokyo", "v3"]}}, {"type": "Feature", "bbox": [139.52366, 35.659985, 139.52366, 35.659985], "geometry": {"type": "Point", "coordinates": [139.52366, 35.659985]}, "properties": {"id": "PS_693F7A251B4C", "station_group_id": "SG_DBEF627C769E", "name_en": "飛田給", "name_ja": "飛田給", "label_rank": 72, "tags": ["tokyo", "v3"]}}, {"type": "Feature", "bbox": [139.28170999999998, 35.641655, 139.28170999999998, 35.641655], "geometry": {"type": "Point", "coordinates": [139.28170999999998, 35.641655]}, "properties": {"id": "PS_6711E6875A88", "station_group_id": "SG_75BCC6320848", "name_en": "高尾", "name_ja": "高尾", "label_rank": 92, "tags": ["tokyo", "v3"]}}, {"type": "Feature", "bbox": [139.282635, 35.642375, 139.282635, 35.642375], "geometry": {"type": "Point", "coordinates": [139.282635, 35.642375]}, "properties": {"id": "PS_B77A81115F33", "station_group_id": "SG_75BCC6320848", "name_en": "高尾", "name_ja": "高尾", "label_rank": 92, "tags": ["tokyo", "v3"]}}, {"type": "Feature", "bbox": [139.4131, 35.662274999999994, 139.4131, 35.662274999999994], "geometry": {"type": "Point", "coordinates": [139.4131, 35.662274999999994]}, "properties": {"id": "PS_12B5402E129E", "station_group_id": "SG_D06FA6A64702", "name_en": "高幡不動", "name_ja": "高幡不動", "label_rank": 92, "tags": ["tokyo", "v3"]}}, {"type": "Feature", "bbox": [139.4131, 35.662274999999994, 139.4131, 35.662274999999994], "geometry": {"type": "Point", "coordinates": [139.4131, 35.662274999999994]}, "properties": {"id": "PS_56F41FEFABF4", "station_group_id": "SG_D06FA6A64702", "name_en": "高幡不動", "name_ja": "高幡不動", "label_rank": 92, "tags": ["tokyo", "v3"]}}, {"type": "Feature", "bbox": [139.415235, 35.66129, 139.415235, 35.66129], "geometry": {"type": "Point", "coordinates": [139.415235, 35.66129]}, "properties": {"id": "PS_9CC1D212FCEA", "station_group_id": "SG_D06FA6A64702", "name_en": "高幡不動", "name_ja": "高幡不動", "label_rank": 92, "tags": ["tokyo", "v3"]}}, {"type": "Feature", "bbox": [139.46471, 35.432145, 139.46471, 35.432145], "geometry": {"type": "Point", "coordinates": [139.46471, 35.432145]}, "properties": {"id": "PS_B950EB46CE67", "station_group_id": "SG_BCE2C3E13EC2", "name_en": "高座渋谷", "name_ja": "高座渋谷", "label_rank": 72, "tags": ["tokyo", "v3"]}}, {"type": "Feature", "bbox": [139.549985, 35.47509, 139.549985, 35.47509], "geometry": {"type": "Point", "coordinates": [139.549985, 35.47509]}, "properties": {"id": "PS_7E79D1CEC43F", "station_group_id": "SG_FB05C2FA42F4", "name_en": "鶴ヶ峰", "name_ja": "鶴ヶ峰", "label_rank": 72, "tags": ["tokyo", "v3"]}}, {"type": "Feature", "bbox": [139.48182500000001, 35.583110000000005, 139.48182500000001, 35.583110000000005], "geometry": {"type": "Point", "coordinates": [139.48182500000001, 35.583110000000005]}, "properties": {"id": "PS_854B06BEDD0E", "station_group_id": "SG_08A2746F2386", "name_en": "鶴川", "name_ja": "鶴川", "label_rank": 72, "tags": ["tokyo", "v3"]}}, {"type": "Feature", "bbox": [139.45064, 35.490570000000005, 139.45064, 35.490570000000005], "geometry": {"type": "Point", "coordinates": [139.45064, 35.490570000000005]}, "properties": {"id": "PS_99ED4935F9C9", "station_group_id": "SG_8839378BA1FE", "name_en": "鶴間", "name_ja": "鶴間", "label_rank": 72, "tags": ["tokyo", "v3"]}}, {"type": "Feature", "bbox": [139.47075, 35.613145, 139.47075, 35.613145], "geometry": {"type": "Point", "coordinates": [139.47075, 35.613145]}, "properties": {"id": "PS_6CB9B797257C", "station_group_id": "SG_858F39E1D82C", "name_en": "黒川", "name_ja": "黒川", "label_rank": 72, "tags": ["tokyo", "v3"]}}]}