{"type": "FeatureCollection", "features": [{"type": "Feature", "bbox": [139.48236, 35.405645, 139.48236, 35.405645], "geometry": {"type": "Point", "coordinates": [139.48236, 35.405645]}, "properties": {"id": "PS_063EFBA301D8", "station_group_id": "SG_FBD9AF98B0B9", "operator_id": "相模鉄道", "operator_ids": "相模鉄道", "name_en": "ゆめが丘", "name_ja": "ゆめが丘", "label_rank": 72, "tags": ["tokyo", "v3"]}}, {"type": "Feature", "bbox": [139.313795, 35.39609, 139.313795, 35.39609], "geometry": {"type": "Point", "coordinates": [139.313795, 35.39609]}, "properties": {"id": "PS_6B25F5F698CB", "station_group_id": "SG_8A0FA3186FD7", "operator_id": "odakyu", "operator_ids": "odakyu", "name_en": "伊勢原", "name_ja": "伊勢原", "label_rank": 72, "tags": ["tokyo", "v3"]}}, {"type": "Feature", "bbox": [139.47072, 35.38376, 139.47072, 35.38376], "geometry": {"type": "Point", "coordinates": [139.47072, 35.38376]}, "properties": {"id": "PS_C9E8C6FE4C5B", "station_group_id": "SG_8E8D8C1E7DAD", "operator_id": "odakyu", "operator_ids": "odakyu", "name_en": "六会日大前", "name_ja": "六会日大前", "label_rank": 72, "tags": ["tokyo", "v3"]}}, {"type": "Feature", "bbox": [139.54456499999998, 35.33794, 139.54456499999998, 35.33794], "geometry": {"type": "Point", "coordinates": [139.54456499999998, 35.33794]}, "properties": {"id": "PS_8B33AAAD2D60", "station_group_id": "SG_EBE466AEA1B4", "operator_id": "jr_east", "operator_ids": "jr_east", "name_en": "北鎌倉", "name_ja": "北鎌倉", "label_rank": 72, "tags": ["tokyo", "v3"]}}, {"type": "Feature", "bbox": [139.473265, 35.36259, 139.473265, 35.36259], "geometry": {"type": "Point", "coordinates": [139.473265, 35.36259]}, "properties": {"id": "PS_A31C296DA49E", "station_group_id": "SG_92FAAA2725B8", "operator_id": "odakyu", "operator_ids": "odakyu", "name_en": "善行", "name_ja": "善行", "label_rank": 72, "tags": ["tokyo", "v3"]}}, {"type": "Feature", "bbox": [139.31327499999998, 35.31146, 139.31327499999998, 35.31146], "geometry": {"type": "Point", "coordinates": [139.31327499999998, 35.31146]}, "properties": {"id": "PS_D1B4BDC84370", "station_group_id": "SG_DB1E193B2667", "operator_id": "jr_east", "operator_ids": "jr_east", "name_en": "大磯", "name_ja": "大磯", "label_rank": 72, "tags": ["tokyo", "v3"]}}, {"type": "Feature", "bbox": [139.53133000000003, 35.35401, 139.53133000000003, 35.35401], "geometry": {"type": "Point", "coordinates": [139.53133000000003, 35.35401]}, "properties": {"id": "PS_DBA52E5C5D10", "station_group_id": "SG_0490DB6DC24E", "operator_id": "jr_east", "operator_ids": "jr_east", "name_en": "大船", "name_ja": "大船", "label_rank": 100, "tags": ["tokyo", "v3"]}}, {"type": "Feature", "bbox": [139.53151000000003, 35.354105000000004, 139.53151000000003, 35.354105000000004], "geometry": {"type": "Point", "coordinates": [139.53151000000003, 35.354105000000004]}, "properties": {"id": "PS_4A549161D1B2", "station_group_id": "SG_0490DB6DC24E", "operator_id": "jr_east", "operator_ids": "jr_east", "name_en": "大船", "name_ja": "大船", "label_rank": 100, "tags": ["tokyo", "v3"]}}, {"type": "Feature", "bbox": [139.531165, 35.354155000000006, 139.531165, 35.354155000000006], "geometry": {"type": "Point", "coordinates": [139.531165, 35.354155000000006]}, "properties": {"id": "PS_6255B57623EF", "station_group_id": "SG_0490DB6DC24E", "operator_id": "jr_east", "operator_ids": "jr_east", "name_en": "大船", "name_ja": "大船", "label_rank": 100, "tags": ["tokyo", "v3"]}}, {"type": "Feature", "bbox": [139.349, 35.327659999999995, 139.349, 35.327659999999995], "geometry": {"type": "Point", "coordinates": [139.349, 35.327659999999995]}, "properties": {"id": "PS_85B31E51E4D3", "station_group_id": "SG_AAA70DA30269", "operator_id": "jr_east", "operator_ids": "jr_east", "name_en": "平塚", "name_ja": "平塚", "label_rank": 72, "tags": ["tokyo", "v3"]}}, {"type": "Feature", "bbox": [139.349, 35.327439999999996, 139.349, 35.327439999999996], "geometry": {"type": "Point", "coordinates": [139.349, 35.327439999999996]}, "properties": {"id": "PS_0DEBA8D30AFF", "station_group_id": "SG_AAA70DA30269", "operator_id": "jr_east", "operator_ids": "jr_east", "name_en": "平塚", "name_ja": "平塚", "label_rank": 72, "tags": ["tokyo", "v3"]}}, {"type": "Feature", "bbox": [139.53431, 35.400435, 139.53431, 35.400435], "geometry": {"type": "Point", "coordinates": [139.53431, 35.400435]}, "properties": {"id": "PS_E16ACE806CA9", "station_group_id": "SG_146DA21B9096", "operator_id": "jr_east", "operator_ids": "jr_east", "name_en": "戸塚", "name_ja": "戸塚", "label_rank": 72, "tags": ["tokyo", "v3"]}}, {"type": "Feature", "bbox": [139.550115, 35.367855000000006, 139.550115, 35.367855000000006], "geometry": {"type": "Point", "coordinates": [139.550115, 35.367855000000006]}, "properties": {"id": "PS_3DD9510B9D8A", "station_group_id": "SG_E1331BBD5651", "operator_id": "jr_east", "operator_ids": "jr_east", "name_en": "本郷台", "name_ja": "本郷台", "label_rank": 72, "tags": ["tokyo", "v3"]}}, {"type": "Feature", "bbox": [139.47529, 35.331035, 139.47529, 35.331035], "geometry": {"type": "Point", "coordinates": [139.47529, 35.331035]}, "properties": {"id": "PS_F83E484619F2", "station_group_id": "SG_A3D918E360ED", "operator_id": "odakyu", "operator_ids": "odakyu", "name_en": "本鵠沼", "name_ja": "本鵠沼", "label_rank": 72, "tags": ["tokyo", "v3"]}}, {"type": "Feature", "bbox": [139.46647000000002, 35.396545, 139.46647000000002, 35.396545], "geometry": {"type": "Point", "coordinates": [139.46647000000002, 35.396545]}, "properties": {"id": "PS_99341E024BCB", "station_group_id": "SG_D9B5AD29F781", "operator_id": "odakyu", "operator_ids": "odakyu", "name_en": "湘南台", "name_ja": "湘南台", "label_rank": 72, "tags": ["tokyo", "v3"]}}, {"type": "Feature", "bbox": [139.482925, 35.309309999999996, 139.482925, 35.309309999999996], "geometry": {"type": "Point", "coordinates": [139.482925, 35.309309999999996]}, "properties": {"id": "PS_70AE80DFD7D5", "station_group_id": "SG_4376D73A06BE", "operator_id": "odakyu", "operator_ids": "odakyu", "name_en": "片瀬江ノ島", "name_ja": "片瀬江ノ島", "label_rank": 72, "tags": ["tokyo", "v3"]}}, {"type": "Feature", "bbox": [139.40800000000002, 35.330645000000004, 139.40800000000002, 35.330645000000004], "geometry": {"type": "Point", "coordinates": [139.40800000000002, 35.330645000000004]}, "properties": {"id": "PS_4DC7B5B50631", "station_group_id": "SG_7283A327294A", "operator_id": "jr_east", "operator_ids": "jr_east", "name_en": "茅ヶ崎", "name_ja": "茅ヶ崎", "label_rank": 72, "tags": ["tokyo", "v3"]}}, {"type": "Feature", "bbox": [139.48712, 35.338595, 139.48712, 35.338595], "geometry": {"type": "Point", "coordinates": [139.48712, 35.338595]}, "properties": {"id": "PS_CDC8C25D287E", "station_group_id": "SG_131B226E4056", "operator_id": "odakyu", "operator_ids": "odakyu", "name_en": "藤沢", "name_ja": "藤沢", "label_rank": 92, "tags": ["tokyo", "v3"]}}, {"type": "Feature", "bbox": [139.48642, 35.33883, 139.48642, 35.33883], "geometry": {"type": "Point", "coordinates": [139.48642, 35.33883]}, "properties": {"id": "PS_63D7B05558DB", "station_group_id": "SG_131B226E4056", "operator_id": "jr_east", "operator_ids": "jr_east", "name_en": "藤沢", "name_ja": "藤沢", "label_rank": 92, "tags": ["tokyo", "v3"]}}, {"type": "Feature", "bbox": [139.47584, 35.34821, 139.47584, 35.34821], "geometry": {"type": "Point", "coordinates": [139.47584, 35.34821]}, "properties": {"id": "PS_05BFAF4C4642", "station_group_id": "SG_E0EC7C59119C", "operator_id": "odakyu", "operator_ids": "odakyu", "name_en": "藤沢本町", "name_ja": "藤沢本町", "label_rank": 72, "tags": ["tokyo", "v3"]}}, {"type": "Feature", "bbox": [139.445895, 35.336845, 139.445895, 35.336845], "geometry": {"type": "Point", "coordinates": [139.445895, 35.336845]}, "properties": {"id": "PS_FD3D031FADF7", "station_group_id": "SG_BF82F99B51A1", "operator_id": "jr_east", "operator_ids": "jr_east", "name_en": "辻堂", "name_ja": "辻堂", "label_rank": 72, "tags": ["tokyo", "v3"]}}, {"type": "Feature", "bbox": [139.55045, 35.31931, 139.55045, 35.31931], "geometry": {"type": "Point", "coordinates": [139.55045, 35.31931]}, "properties": {"id": "PS_31173C060FB2", "station_group_id": "SG_9142EA45C126", "operator_id": "jr_east", "operator_ids": "jr_east", "name_en": "鎌倉", "name_ja": "鎌倉", "label_rank": 72, "tags": ["tokyo", "v3"]}}, {"type": "Feature", "bbox": [139.465325, 35.41225, 139.465325, 35.41225], "geometry": {"type": "Point", "coordinates": [139.465325, 35.41225]}, "properties": {"id": "PS_63295838600F", "station_group_id": "SG_7BDE9EF11DD3", "operator_id": "odakyu", "operator_ids": "odakyu", "name_en": "長後", "name_ja": "長後", "label_rank": 72, "tags": ["tokyo", "v3"]}}, {"type": "Feature", "bbox": [139.47122000000002, 35.320750000000004, 139.47122000000002, 35.320750000000004], "geometry": {"type": "Point", "coordinates": [139.47122000000002, 35.320750000000004]}, "properties": {"id": "PS_547A33129760", "station_group_id": "SG_8D79723E9632", "operator_id": "odakyu", "operator_ids": "odakyu", "name_en": "鵠沼海岸", "name_ja": "鵠沼海岸", "label_rank": 72, "tags": ["tokyo", "v3"]}}, {"type": "Feature", "bbox": [139.27728, 35.380624999999995, 139.27728, 35.380624999999995], "geometry": {"type": "Point", "coordinates": [139.27728, 35.380624999999995]}, "properties": {"id": "PS_8AD4E8752ABC", "station_group_id": "SG_364ECA044BBF", "operator_id": "odakyu", "operator_ids": "odakyu", "name_en": "鶴巻温泉", "name_ja": "鶴巻温泉", "label_rank": 72, "tags": ["tokyo", "v3"]}}]}