{
  "type": "FeatureCollection",
  "metadata": {
    "schema": "onichase.v5.ship_map.1",
    "source": "official_ship_sources",
    "sourceFiles": [
      "data/v5_ship_seikan_ferry_official.json",
      "data/v5_ship_priority_batch_official.json"
    ],
    "portCount": 14,
    "routeCount": 14,
    "tripCount": 62,
    "note": "Ship map contains official promoted source data. Boarding remains disabled until gameplay connector integration is implemented."
  },
  "features": [
    {
      "type": "Feature",
      "id": "port:青森フェリーターミナル",
      "properties": {
        "kind": "port",
        "name": "青森フェリーターミナル",
        "city": "青森",
        "coordinateSource": "manual_geocode:青森フェリーターミナル"
      },
      "geometry": {
        "type": "Point",
        "coordinates": [
          140.7362,
          40.8393
        ]
      }
    },
    {
      "type": "Feature",
      "id": "port:函館フェリーターミナル",
      "properties": {
        "kind": "port",
        "name": "函館フェリーターミナル",
        "city": "函館",
        "coordinateSource": "manual_geocode:函館フェリーターミナル"
      },
      "geometry": {
        "type": "Point",
        "coordinates": [
          140.7169,
          41.8065
        ]
      }
    },
    {
      "type": "Feature",
      "id": "ship-route:seikan_ferry_aomori_hakodate",
      "properties": {
        "kind": "ship-route",
        "routeId": "seikan_ferry_aomori_hakodate",
        "routeName": "青森・函館",
        "operator": "青函フェリー",
        "origin": "青森フェリーターミナル",
        "destination": "函館フェリーターミナル",
        "distanceKm": 113,
        "tripCount": 8,
        "servicePatternCount": 0,
        "dailyDirectionalTripCount": null,
        "firstDepartureMinute": 120,
        "fareAdultJpy": null,
        "fareNormalAdultJpy": 2700,
        "farePeakAdultJpy": 3200,
        "playableStatus": "timetable_fare_ports_collected_connectors_pending"
      },
      "geometry": {
        "type": "LineString",
        "coordinates": [
          [
            140.7362,
            40.8393
          ],
          [
            140.7169,
            41.8065
          ]
        ]
      }
    },
    {
      "type": "Feature",
      "id": "ship-route:seikan_ferry_hakodate_aomori",
      "properties": {
        "kind": "ship-route",
        "routeId": "seikan_ferry_hakodate_aomori",
        "routeName": "函館・青森",
        "operator": "青函フェリー",
        "origin": "函館フェリーターミナル",
        "destination": "青森フェリーターミナル",
        "distanceKm": 113,
        "tripCount": 8,
        "servicePatternCount": 0,
        "dailyDirectionalTripCount": null,
        "firstDepartureMinute": 120,
        "fareAdultJpy": null,
        "fareNormalAdultJpy": 2700,
        "farePeakAdultJpy": 3200,
        "playableStatus": "timetable_fare_ports_collected_connectors_pending"
      },
      "geometry": {
        "type": "LineString",
        "coordinates": [
          [
            140.7169,
            41.8065
          ],
          [
            140.7362,
            40.8393
          ]
        ]
      }
    },
    {
      "type": "Feature",
      "id": "port:津なぎさまち",
      "properties": {
        "kind": "port",
        "name": "津なぎさまち",
        "city": "津",
        "coordinateSource": "manual_geocode:津なぎさまち"
      },
      "geometry": {
        "type": "Point",
        "coordinates": [
          136.5274,
          34.7199
        ]
      }
    },
    {
      "type": "Feature",
      "id": "port:中部国際空港高速船のりば",
      "properties": {
        "kind": "port",
        "name": "中部国際空港高速船のりば",
        "city": "常滑",
        "coordinateSource": "manual_geocode:セントレア高速船のりば"
      },
      "geometry": {
        "type": "Point",
        "coordinates": [
          136.8154,
          34.8581
        ]
      }
    },
    {
      "type": "Feature",
      "id": "port:神戸空港海上アクセスターミナル",
      "properties": {
        "kind": "port",
        "name": "神戸空港海上アクセスターミナル",
        "city": "神戸",
        "coordinateSource": "manual_geocode:神戸空港海上アクセスターミナル"
      },
      "geometry": {
        "type": "Point",
        "coordinates": [
          135.2288,
          34.6334
        ]
      }
    },
    {
      "type": "Feature",
      "id": "port:関西空港ポートターミナル",
      "properties": {
        "kind": "port",
        "name": "関西空港ポートターミナル",
        "city": "泉佐野",
        "coordinateSource": "manual_geocode:関西空港ポートターミナル"
      },
      "geometry": {
        "type": "Point",
        "coordinates": [
          135.2435,
          34.4356
        ]
      }
    },
    {
      "type": "Feature",
      "id": "port:和歌山港",
      "properties": {
        "kind": "port",
        "name": "和歌山港",
        "city": "和歌山",
        "coordinateSource": "manual_geocode:和歌山港フェリーターミナル"
      },
      "geometry": {
        "type": "Point",
        "coordinates": [
          135.1454,
          34.2158
        ]
      }
    },
    {
      "type": "Feature",
      "id": "port:徳島港",
      "properties": {
        "kind": "port",
        "name": "徳島港",
        "city": "徳島",
        "coordinateSource": "manual_geocode:徳島港フェリーターミナル"
      },
      "geometry": {
        "type": "Point",
        "coordinates": [
          134.5916,
          34.0627
        ]
      }
    },
    {
      "type": "Feature",
      "id": "port:鳥羽港",
      "properties": {
        "kind": "port",
        "name": "鳥羽港",
        "city": "鳥羽",
        "coordinateSource": "manual_geocode:鳥羽フェリーターミナル"
      },
      "geometry": {
        "type": "Point",
        "coordinates": [
          136.846,
          34.4862
        ]
      }
    },
    {
      "type": "Feature",
      "id": "port:伊良湖港",
      "properties": {
        "kind": "port",
        "name": "伊良湖港",
        "city": "田原",
        "coordinateSource": "manual_geocode:伊良湖港"
      },
      "geometry": {
        "type": "Point",
        "coordinates": [
          137.0242,
          34.5802
        ]
      }
    },
    {
      "type": "Feature",
      "id": "port:鹿児島港",
      "properties": {
        "kind": "port",
        "name": "鹿児島港",
        "city": "鹿児島",
        "coordinateSource": "manual_geocode:鹿児島港桜島フェリーターミナル"
      },
      "geometry": {
        "type": "Point",
        "coordinates": [
          130.5636,
          31.596
        ]
      }
    },
    {
      "type": "Feature",
      "id": "port:桜島港",
      "properties": {
        "kind": "port",
        "name": "桜島港",
        "city": "鹿児島",
        "coordinateSource": "manual_geocode:桜島港フェリーターミナル"
      },
      "geometry": {
        "type": "Point",
        "coordinates": [
          130.6014,
          31.5937
        ]
      }
    },
    {
      "type": "Feature",
      "id": "port:多比良港",
      "properties": {
        "kind": "port",
        "name": "多比良港",
        "city": "雲仙",
        "coordinateSource": "manual_geocode:多比良港ターミナル"
      },
      "geometry": {
        "type": "Point",
        "coordinates": [
          130.2457,
          32.8751
        ]
      }
    },
    {
      "type": "Feature",
      "id": "port:長洲港",
      "properties": {
        "kind": "port",
        "name": "長洲港",
        "city": "長洲",
        "coordinateSource": "manual_geocode:長洲港ターミナル"
      },
      "geometry": {
        "type": "Point",
        "coordinates": [
          130.4472,
          32.928
        ]
      }
    },
    {
      "type": "Feature",
      "id": "ship-route:tsu_airportline_tsu_centrair",
      "properties": {
        "kind": "ship-route",
        "routeId": "tsu_airportline_tsu_centrair",
        "routeName": "津・中部国際空港",
        "operator": "津エアポートライン",
        "origin": "津なぎさまち",
        "destination": "中部国際空港高速船のりば",
        "distanceKm": 43,
        "tripCount": 7,
        "servicePatternCount": 0,
        "dailyDirectionalTripCount": null,
        "firstDepartureMinute": 360,
        "fareAdultJpy": 2980,
        "fareNormalAdultJpy": null,
        "farePeakAdultJpy": null,
        "playableStatus": "timetable_fare_ports_collected_connectors_pending"
      },
      "geometry": {
        "type": "LineString",
        "coordinates": [
          [
            136.5274,
            34.7199
          ],
          [
            136.8154,
            34.8581
          ]
        ]
      }
    },
    {
      "type": "Feature",
      "id": "ship-route:tsu_airportline_centrair_tsu",
      "properties": {
        "kind": "ship-route",
        "routeId": "tsu_airportline_centrair_tsu",
        "routeName": "中部国際空港・津",
        "operator": "津エアポートライン",
        "origin": "中部国際空港高速船のりば",
        "destination": "津なぎさまち",
        "distanceKm": 43,
        "tripCount": 7,
        "servicePatternCount": 0,
        "dailyDirectionalTripCount": null,
        "firstDepartureMinute": 420,
        "fareAdultJpy": 2980,
        "fareNormalAdultJpy": null,
        "farePeakAdultJpy": null,
        "playableStatus": "timetable_fare_ports_collected_connectors_pending"
      },
      "geometry": {
        "type": "LineString",
        "coordinates": [
          [
            136.8154,
            34.8581
          ],
          [
            136.5274,
            34.7199
          ]
        ]
      }
    },
    {
      "type": "Feature",
      "id": "ship-route:bay_shuttle_kobe_kix",
      "properties": {
        "kind": "ship-route",
        "routeId": "bay_shuttle_kobe_kix",
        "routeName": "神戸空港・関西空港",
        "operator": "神戸-関空ベイ・シャトル",
        "origin": "神戸空港海上アクセスターミナル",
        "destination": "関西空港ポートターミナル",
        "distanceKm": 22,
        "tripCount": 16,
        "servicePatternCount": 0,
        "dailyDirectionalTripCount": null,
        "firstDepartureMinute": 330,
        "fareAdultJpy": 1880,
        "fareNormalAdultJpy": null,
        "farePeakAdultJpy": null,
        "playableStatus": "timetable_fare_ports_collected_connectors_pending"
      },
      "geometry": {
        "type": "LineString",
        "coordinates": [
          [
            135.2288,
            34.6334
          ],
          [
            135.2435,
            34.4356
          ]
        ]
      }
    },
    {
      "type": "Feature",
      "id": "ship-route:bay_shuttle_kix_kobe",
      "properties": {
        "kind": "ship-route",
        "routeId": "bay_shuttle_kix_kobe",
        "routeName": "関西空港・神戸空港",
        "operator": "神戸-関空ベイ・シャトル",
        "origin": "関西空港ポートターミナル",
        "destination": "神戸空港海上アクセスターミナル",
        "distanceKm": 22,
        "tripCount": 16,
        "servicePatternCount": 0,
        "dailyDirectionalTripCount": null,
        "firstDepartureMinute": 0,
        "fareAdultJpy": 1880,
        "fareNormalAdultJpy": null,
        "farePeakAdultJpy": null,
        "playableStatus": "timetable_fare_ports_collected_connectors_pending"
      },
      "geometry": {
        "type": "LineString",
        "coordinates": [
          [
            135.2435,
            34.4356
          ],
          [
            135.2288,
            34.6334
          ]
        ]
      }
    },
    {
      "type": "Feature",
      "id": "ship-route:nankai_ferry_wakayama_tokushima",
      "properties": {
        "kind": "ship-route",
        "routeId": "nankai_ferry_wakayama_tokushima",
        "routeName": "和歌山・徳島",
        "operator": "南海フェリー",
        "origin": "和歌山港",
        "destination": "徳島港",
        "distanceKm": 61,
        "tripCount": 0,
        "servicePatternCount": 0,
        "dailyDirectionalTripCount": null,
        "firstDepartureMinute": null,
        "fareAdultJpy": 2500,
        "fareNormalAdultJpy": null,
        "farePeakAdultJpy": null,
        "playableStatus": "timetable_fare_ports_collected_connectors_pending"
      },
      "geometry": {
        "type": "LineString",
        "coordinates": [
          [
            135.1454,
            34.2158
          ],
          [
            134.5916,
            34.0627
          ]
        ]
      }
    },
    {
      "type": "Feature",
      "id": "ship-route:nankai_ferry_tokushima_wakayama",
      "properties": {
        "kind": "ship-route",
        "routeId": "nankai_ferry_tokushima_wakayama",
        "routeName": "徳島・和歌山",
        "operator": "南海フェリー",
        "origin": "徳島港",
        "destination": "和歌山港",
        "distanceKm": 61,
        "tripCount": 0,
        "servicePatternCount": 0,
        "dailyDirectionalTripCount": null,
        "firstDepartureMinute": null,
        "fareAdultJpy": 2500,
        "fareNormalAdultJpy": null,
        "farePeakAdultJpy": null,
        "playableStatus": "timetable_fare_ports_collected_connectors_pending"
      },
      "geometry": {
        "type": "LineString",
        "coordinates": [
          [
            134.5916,
            34.0627
          ],
          [
            135.1454,
            34.2158
          ]
        ]
      }
    },
    {
      "type": "Feature",
      "id": "ship-route:ise_wan_ferry_toba_irago",
      "properties": {
        "kind": "ship-route",
        "routeId": "ise_wan_ferry_toba_irago",
        "routeName": "鳥羽・伊良湖",
        "operator": "伊勢湾フェリー",
        "origin": "鳥羽港",
        "destination": "伊良湖港",
        "distanceKm": 21,
        "tripCount": 0,
        "servicePatternCount": 0,
        "dailyDirectionalTripCount": null,
        "firstDepartureMinute": null,
        "fareAdultJpy": 1800,
        "fareNormalAdultJpy": null,
        "farePeakAdultJpy": null,
        "playableStatus": "fare_ports_collected_timetable_parser_pending"
      },
      "geometry": {
        "type": "LineString",
        "coordinates": [
          [
            136.846,
            34.4862
          ],
          [
            137.0242,
            34.5802
          ]
        ]
      }
    },
    {
      "type": "Feature",
      "id": "ship-route:ise_wan_ferry_irago_toba",
      "properties": {
        "kind": "ship-route",
        "routeId": "ise_wan_ferry_irago_toba",
        "routeName": "伊良湖・鳥羽",
        "operator": "伊勢湾フェリー",
        "origin": "伊良湖港",
        "destination": "鳥羽港",
        "distanceKm": 21,
        "tripCount": 0,
        "servicePatternCount": 0,
        "dailyDirectionalTripCount": null,
        "firstDepartureMinute": null,
        "fareAdultJpy": 1800,
        "fareNormalAdultJpy": null,
        "farePeakAdultJpy": null,
        "playableStatus": "fare_ports_collected_timetable_parser_pending"
      },
      "geometry": {
        "type": "LineString",
        "coordinates": [
          [
            137.0242,
            34.5802
          ],
          [
            136.846,
            34.4862
          ]
        ]
      }
    },
    {
      "type": "Feature",
      "id": "ship-route:sakurajima_ferry_kagoshima_sakurajima",
      "properties": {
        "kind": "ship-route",
        "routeId": "sakurajima_ferry_kagoshima_sakurajima",
        "routeName": "鹿児島・桜島",
        "operator": "鹿児島市船舶局",
        "origin": "鹿児島港",
        "destination": "桜島港",
        "distanceKm": 4,
        "tripCount": 0,
        "servicePatternCount": 2,
        "dailyDirectionalTripCount": 52,
        "firstDepartureMinute": null,
        "fareAdultJpy": 250,
        "fareNormalAdultJpy": null,
        "farePeakAdultJpy": null,
        "playableStatus": "frequency_fare_ports_collected_pdf_timetable_pending"
      },
      "geometry": {
        "type": "LineString",
        "coordinates": [
          [
            130.5636,
            31.596
          ],
          [
            130.6014,
            31.5937
          ]
        ]
      }
    },
    {
      "type": "Feature",
      "id": "ship-route:sakurajima_ferry_sakurajima_kagoshima",
      "properties": {
        "kind": "ship-route",
        "routeId": "sakurajima_ferry_sakurajima_kagoshima",
        "routeName": "桜島・鹿児島",
        "operator": "鹿児島市船舶局",
        "origin": "桜島港",
        "destination": "鹿児島港",
        "distanceKm": 4,
        "tripCount": 0,
        "servicePatternCount": 2,
        "dailyDirectionalTripCount": 52,
        "firstDepartureMinute": null,
        "fareAdultJpy": 250,
        "fareNormalAdultJpy": null,
        "farePeakAdultJpy": null,
        "playableStatus": "frequency_fare_ports_collected_pdf_timetable_pending"
      },
      "geometry": {
        "type": "LineString",
        "coordinates": [
          [
            130.6014,
            31.5937
          ],
          [
            130.5636,
            31.596
          ]
        ]
      }
    },
    {
      "type": "Feature",
      "id": "ship-route:ariake_ferry_taira_nagasu",
      "properties": {
        "kind": "ship-route",
        "routeId": "ariake_ferry_taira_nagasu",
        "routeName": "多比良・長洲",
        "operator": "有明フェリー",
        "origin": "多比良港",
        "destination": "長洲港",
        "distanceKm": 14,
        "tripCount": 0,
        "servicePatternCount": 0,
        "dailyDirectionalTripCount": null,
        "firstDepartureMinute": null,
        "fareAdultJpy": 450,
        "fareNormalAdultJpy": null,
        "farePeakAdultJpy": null,
        "playableStatus": "ports_collected_dynamic_timetable_and_fare_review_pending"
      },
      "geometry": {
        "type": "LineString",
        "coordinates": [
          [
            130.2457,
            32.8751
          ],
          [
            130.4472,
            32.928
          ]
        ]
      }
    },
    {
      "type": "Feature",
      "id": "ship-route:ariake_ferry_nagasu_taira",
      "properties": {
        "kind": "ship-route",
        "routeId": "ariake_ferry_nagasu_taira",
        "routeName": "長洲・多比良",
        "operator": "有明フェリー",
        "origin": "長洲港",
        "destination": "多比良港",
        "distanceKm": 14,
        "tripCount": 0,
        "servicePatternCount": 0,
        "dailyDirectionalTripCount": null,
        "firstDepartureMinute": null,
        "fareAdultJpy": 450,
        "fareNormalAdultJpy": null,
        "farePeakAdultJpy": null,
        "playableStatus": "ports_collected_dynamic_timetable_and_fare_review_pending"
      },
      "geometry": {
        "type": "LineString",
        "coordinates": [
          [
            130.4472,
            32.928
          ],
          [
            130.2457,
            32.8751
          ]
        ]
      }
    }
  ]
}
