{"type": "FeatureCollection", "features": [{"type": "Feature", "bbox": [138.91156, 35.09914, 139.0763, 35.12822], "geometry": {"type": "LineString", "coordinates": [[139.0763, 35.10305], [139.07605, 35.10288], [139.07573, 35.10267], [139.07495, 35.10221], [139.07477, 35.10211], [139.07377, 35.10154], [139.07293, 35.10112], [139.07243, 35.10087], [139.07197, 35.10062], [139.07099, 35.1002], [139.07048, 35.10003], [139.06935, 35.09973], [139.06904, 35.09968], [139.06896, 35.09964], [139.0686, 35.09958], [139.06803, 35.09946], [139.06767, 35.09938], [139.06728, 35.09932], [139.06656, 35.09923], [139.06589, 35.09917], [139.06555, 35.09915], [139.06478, 35.09914], [139.06421, 35.09914], [139.06367, 35.09916], [139.0633, 35.09918], [139.06308, 35.09921], [139.06207, 35.09931], [139.06121, 35.09941], [139.06018, 35.09952], [139.05903, 35.09965], [139.05743, 35.09982], [139.05645, 35.09994], [139.05478, 35.10012], [139.05367, 35.10025], [139.0521, 35.10042], [139.05197, 35.10044], [139.05092, 35.10054], [139.05035, 35.1006], [139.04932, 35.10072], [139.04869, 35.10078], [139.04723, 35.10094], [139.04509, 35.10117], [139.0429, 35.10143], [139.04111, 35.10162], [139.04061, 35.10168], [139.03919, 35.10183], [139.03808, 35.10197], [139.03551, 35.10224], [139.03544, 35.10224], [139.03466, 35.10232], [139.0335, 35.10246], [139.03251, 35.10257], [139.03094, 35.10274], [139.02916, 35.10292], [139.02656, 35.10322], [139.02552, 35.10334], [139.02453, 35.10345], [139.02447, 35.10346], [139.02264, 35.10366], [139.02166, 35.10378], [139.02006, 35.10395], [139.01902, 35.10406], [139.01814, 35.10416], [139.01693, 35.10429], [139.01544, 35.10444], [139.01411, 35.1046], [139.01355, 35.10466], [139.01249, 35.10478], [139.01195, 35.10484], [139.01078, 35.10498], [139.0092, 35.10515], [139.00754, 35.10532], [139.00593, 35.10549], [139.00431, 35.10567], [139.00308, 35.10581], [139.00257, 35.10586], [139.00108, 35.10601], [139.00046, 35.10608], [138.99949, 35.1062], [138.99786, 35.1064], [138.99721, 35.10647], [138.99685, 35.1065], [138.99471, 35.10676], [138.99362, 35.10689], [138.99296, 35.10694], [138.99194, 35.10705], [138.99134, 35.10712], [138.99076, 35.10718], [138.9898, 35.10729], [138.98857, 35.10742], [138.98756, 35.10752], [138.9864, 35.10764], [138.9843, 35.10788], [138.98368, 35.10795], [138.98306, 35.10801], [138.98204, 35.10809], [138.98097, 35.10821], [138.97938, 35.10841], [138.97815, 35.10853], [138.97719, 35.10862], [138.97658, 35.10873], [138.97507, 35.10893], [138.97395, 35.10912], [138.97332, 35.10925], [138.97305, 35.1093], [138.9724, 35.10946], [138.9717, 35.10968], [138.97107, 35.10988], [138.96962, 35.11037], [138.96857, 35.11073], [138.96723, 35.11118], [138.96548, 35.11178], [138.96506, 35.11191], [138.96466, 35.11205], [138.96365, 35.11238], [138.96252, 35.11275], [138.96152, 35.11311], [138.96047, 35.11348], [138.95943, 35.11387], [138.95854, 35.11419], [138.95833, 35.11426], [138.9575, 35.11455], [138.95642, 35.11494], [138.95532, 35.11531], [138.95408, 35.11573], [138.95322, 35.11604], [138.95232, 35.11637], [138.95118, 35.11678], [138.95058, 35.117], [138.95009, 35.11721], [138.94972, 35.11738], [138.94923, 35.11764], [138.94808, 35.11824], [138.94572, 35.11951], [138.94384, 35.12054], [138.94267, 35.12115], [138.94222, 35.12139], [138.94011, 35.12256], [138.93833, 35.12352], [138.93641, 35.1245], [138.93591, 35.12478], [138.93498, 35.12533], [138.93443, 35.12557], [138.93378, 35.12585], [138.93342, 35.12599], [138.93258, 35.12628], [138.93174, 35.12655], [138.93156, 35.1266], [138.93018, 35.12701], [138.92911, 35.12727], [138.92805, 35.12751], [138.9267, 35.12776], [138.92618, 35.12784], [138.92571, 35.1279], [138.92461, 35.12804], [138.92377, 35.12812], [138.92331, 35.12816], [138.92246, 35.1282], [138.92203, 35.12822], [138.92113, 35.12822], [138.92018, 35.1282], [138.91936, 35.12815], [138.91832, 35.12804], [138.91718, 35.1279], [138.91669, 35.12785], [138.91622, 35.12778], [138.9148, 35.12755], [138.91463, 35.12752], [138.91446, 35.1275], [138.91367, 35.12736], [138.91156, 35.12702]]}, "properties": {"id": "GEOM_TOKYO_0969", "route_id": "R_3B2E9FFD", "route_name": null, "route_color": "#1F78FF", "route_text_color": null, "line_name": "東海道新幹線", "operator_id": "東海旅客鉄道", "representation": "service_path", "min_zoom": 0, "max_zoom": 24, "offset_rank": 0}}, {"type": "Feature", "bbox": [138.90782, 35.1264, 138.91156, 35.12702], "geometry": {"type": "LineString", "coordinates": [[138.90782, 35.1264], [138.91156, 35.12702]]}, "properties": {"id": "GEOM_TOKYO_0970", "route_id": "R_3B2E9FFD", "route_name": null, "route_color": "#1F78FF", "route_text_color": null, "line_name": "東海道新幹線", "operator_id": "東海旅客鉄道", "representation": "service_path", "min_zoom": 0, "max_zoom": 24, "offset_rank": 0}}, {"type": "Feature", "bbox": [139.07952, 35.10548, 139.15371, 35.25501], "geometry": {"type": "LineString", "coordinates": [[139.15371, 35.25501], [139.15368, 35.25497], [139.15338, 35.25458], [139.15301, 35.25412], [139.15248, 35.25344], [139.15236, 35.25328], [139.15154, 35.25219], [139.15075, 35.25112], [139.15043, 35.25066], [139.15015, 35.25031], [139.14982, 35.24987], [139.14954, 35.24948], [139.14915, 35.24896], [139.14848, 35.24805], [139.14783, 35.24716], [139.14719, 35.24629], [139.14682, 35.24582], [139.14636, 35.24512], [139.14584, 35.24437], [139.14524, 35.2433], [139.14492, 35.24271], [139.14468, 35.24227], [139.14438, 35.24175], [139.14414, 35.24122], [139.144, 35.24093], [139.14367, 35.24009], [139.14356, 35.23978], [139.1432, 35.23901], [139.14277, 35.23773], [139.14237, 35.23667], [139.14221, 35.23616], [139.14185, 35.23523], [139.14173, 35.23489], [139.14145, 35.23412], [139.14105, 35.23299], [139.14073, 35.23208], [139.14028, 35.23084], [139.14003, 35.23007], [139.1397, 35.22897], [139.13945, 35.22814], [139.13922, 35.22721], [139.13907, 35.22659], [139.13897, 35.22617], [139.13891, 35.22575], [139.13885, 35.2253], [139.13874, 35.22449], [139.13872, 35.22419], [139.13859, 35.2234], [139.13836, 35.22171], [139.13819, 35.22046], [139.13801, 35.21928], [139.13785, 35.2181], [139.13771, 35.21701], [139.1376, 35.21627], [139.1375, 35.21545], [139.13744, 35.21516], [139.13729, 35.21411], [139.13722, 35.21338], [139.13717, 35.21292], [139.13714, 35.2126], [139.13706, 35.21194], [139.1369, 35.21063], [139.13684, 35.21012], [139.13678, 35.20954], [139.13668, 35.20869], [139.13659, 35.20794], [139.13647, 35.20702], [139.13638, 35.20618], [139.13619, 35.20495], [139.136, 35.20381], [139.13584, 35.20284], [139.1357, 35.20192], [139.13558, 35.20117], [139.13547, 35.20079], [139.13543, 35.2005], [139.13539, 35.20014], [139.13536, 35.1996], [139.13534, 35.19874], [139.13524, 35.19732], [139.13517, 35.19652], [139.13511, 35.19598], [139.13495, 35.19475], [139.13481, 35.19365], [139.13467, 35.19272], [139.13449, 35.19196], [139.13424, 35.19092], [139.13403, 35.19001], [139.13381, 35.1892], [139.13344, 35.18815], [139.13327, 35.18766], [139.13326, 35.18763], [139.13228, 35.18554], [139.13204, 35.18506], [139.132, 35.18495], [139.13195, 35.18484], [139.13173, 35.18448], [139.1314, 35.184], [139.13067, 35.18292], [139.12976, 35.18162], [139.12925, 35.18091], [139.12859, 35.17999], [139.12832, 35.17962], [139.12782, 35.17891], [139.12773, 35.17879], [139.12732, 35.17819], [139.1269, 35.17762], [139.12633, 35.17685], [139.12591, 35.17627], [139.12545, 35.17565], [139.12491, 35.175], [139.12438, 35.17434], [139.12381, 35.17367], [139.12335, 35.17315], [139.12277, 35.17245], [139.12241, 35.17201], [139.12184, 35.17132], [139.12147, 35.17092], [139.12124, 35.17067], [139.12061, 35.16996], [139.12051, 35.16986], [139.12029, 35.16963], [139.11994, 35.16924], [139.11965, 35.16892], [139.11897, 35.16821], [139.11857, 35.16777], [139.11794, 35.16715], [139.11765, 35.16679], [139.11735, 35.16647], [139.117, 35.16609], [139.11699, 35.16608], [139.11666, 35.16572], [139.11636, 35.16541], [139.11603, 35.16507], [139.11562, 35.16461], [139.11504, 35.16399], [139.11437, 35.16323], [139.11401, 35.16284], [139.11374, 35.16253], [139.11305, 35.16181], [139.11239, 35.16109], [139.11211, 35.16078], [139.11142, 35.16001], [139.11074, 35.15929], [139.11036, 35.15887], [139.11024, 35.15873], [139.10957, 35.15801], [139.10948, 35.15792], [139.10911, 35.15753], [139.10892, 35.15732], [139.10864, 35.15703], [139.10812, 35.15643], [139.10746, 35.15566], [139.10731, 35.15551], [139.10665, 35.1548], [139.10621, 35.15434], [139.10558, 35.15366], [139.10494, 35.15298], [139.10461, 35.15262], [139.1043, 35.15229], [139.10397, 35.15193], [139.10333, 35.15123], [139.10299, 35.15087], [139.10261, 35.15046], [139.10196, 35.14976], [139.10132, 35.14907], [139.10098, 35.1487], [139.10027, 35.14795], [139.09958, 35.14719], [139.09894, 35.14648], [139.09861, 35.14612], [139.09795, 35.14542], [139.09786, 35.14532], [139.09708, 35.14447], [139.09652, 35.14387], [139.09641, 35.14375], [139.09635, 35.14368], [139.09578, 35.14307], [139.09527, 35.14253], [139.09493, 35.14217], [139.09476, 35.14199], [139.0947, 35.14192], [139.09448, 35.14167], [139.09405, 35.14119], [139.094, 35.14112], [139.09369, 35.14072], [139.09355, 35.14054], [139.09324, 35.14012], [139.09315, 35.13992], [139.093, 35.13948], [139.09269, 35.13859], [139.09269, 35.13857], [139.09242, 35.13775], [139.09223, 35.13724], [139.09195, 35.13638], [139.09169, 35.13557], [139.09139, 35.13469], [139.0911, 35.1338], [139.09082, 35.13298], [139.09061, 35.13237], [139.09052, 35.13209], [139.09037, 35.13164], [139.09007, 35.13076], [139.08981, 35.12993], [139.08979, 35.12987], [139.08961, 35.12933], [139.08937, 35.12857], [139.08919, 35.12802], [139.08908, 35.12776], [139.08879, 35.1269], [139.08864, 35.12642], [139.08835, 35.12558], [139.08807, 35.12473], [139.08779, 35.12389], [139.08751, 35.12302], [139.08722, 35.12216], [139.08693, 35.12125], [139.0869, 35.12117], [139.08677, 35.12079], [139.08663, 35.12036], [139.08648, 35.11991], [139.08636, 35.11953], [139.08603, 35.11857], [139.08586, 35.11809], [139.08572, 35.11764], [139.08555, 35.11714], [139.08542, 35.11671], [139.08529, 35.11633], [139.085, 35.11548], [139.08469, 35.11453], [139.08449, 35.1139], [139.08412, 35.1129], [139.08398, 35.11247], [139.08385, 35.11208], [139.08378, 35.1119], [139.08371, 35.11168], [139.08359, 35.11134], [139.08341, 35.11086], [139.08307, 35.11015], [139.08288, 35.10981], [139.08254, 35.10926], [139.08217, 35.10873], [139.08148, 35.10775], [139.08112, 35.10727], [139.08085, 35.10697], [139.0804, 35.10646], [139.08012, 35.10617], [139.07997, 35.106], [139.07952, 35.10548]]}, "properties": {"id": "GEOM_TOKYO_0971", "route_id": "R_3B2E9FFD", "route_name": null, "route_color": "#1F78FF", "route_text_color": null, "line_name": "東海道新幹線", "operator_id": "東海旅客鉄道", "representation": "service_path", "min_zoom": 0, "max_zoom": 24, "offset_rank": 0}}, {"type": "Feature", "bbox": [139.0763, 35.10305, 139.07952, 35.10548], "geometry": {"type": "LineString", "coordinates": [[139.07952, 35.10548], [139.07899, 35.10499], [139.07786, 35.10413], [139.0763, 35.10305]]}, "properties": {"id": "GEOM_TOKYO_0972", "route_id": "R_3B2E9FFD", "route_name": null, "route_color": "#1F78FF", "route_text_color": null, "line_name": "東海道新幹線", "operator_id": "東海旅客鉄道", "representation": "service_path", "min_zoom": 0, "max_zoom": 24, "offset_rank": 0}}, {"type": "Feature", "bbox": [138.39156, 34.97277, 138.66128, 35.14181], "geometry": {"type": "LineString", "coordinates": [[138.39156, 34.97277], [138.39293, 34.97352], [138.39397, 34.9741], [138.39522, 34.9748], [138.39585, 34.97512], [138.39643, 34.9754], [138.39792, 34.97601], [138.39872, 34.97638], [138.4001, 34.97699], [138.40107, 34.97738], [138.40121, 34.97744], [138.40188, 34.97778], [138.4031, 34.97832], [138.40365, 34.97858], [138.40484, 34.97921], [138.4058, 34.97974], [138.40733, 34.98072], [138.40788, 34.98106], [138.40802, 34.98115], [138.40922, 34.98195], [138.41056, 34.98283], [138.41213, 34.98383], [138.41282, 34.98432], [138.41327, 34.98462], [138.41347, 34.98473], [138.41454, 34.98545], [138.41585, 34.98632], [138.41766, 34.9875], [138.41846, 34.98804], [138.41967, 34.98884], [138.42007, 34.9891], [138.42093, 34.98967], [138.42176, 34.9902], [138.42207, 34.99041], [138.42311, 34.99107], [138.42352, 34.99134], [138.42371, 34.99146], [138.42482, 34.99216], [138.42649, 34.99327], [138.42672, 34.99342], [138.42675, 34.99344], [138.42724, 34.99374], [138.42872, 34.99472], [138.43006, 34.99558], [138.43158, 34.99655], [138.43237, 34.99708], [138.43263, 34.99725], [138.43423, 34.99825], [138.43444, 34.99838], [138.43511, 34.99882], [138.43518, 34.99887], [138.43557, 34.99912], [138.43662, 34.99977], [138.43684, 34.99992], [138.43862, 35.00106], [138.43968, 35.00174], [138.44103, 35.00264], [138.44199, 35.00329], [138.44304, 35.00396], [138.44326, 35.0041], [138.44386, 35.00448], [138.44452, 35.0049], [138.44536, 35.00544], [138.44582, 35.00573], [138.44611, 35.00592], [138.44677, 35.00634], [138.44697, 35.00648], [138.44814, 35.00723], [138.44923, 35.00793], [138.45044, 35.0087], [138.45072, 35.00888], [138.45155, 35.0094], [138.45265, 35.01011], [138.45298, 35.01032], [138.45373, 35.01081], [138.45484, 35.01152], [138.45558, 35.01202], [138.45583, 35.01218], [138.45601, 35.01231], [138.45668, 35.01279], [138.45741, 35.01334], [138.45815, 35.01392], [138.45907, 35.01469], [138.4594, 35.01497], [138.46, 35.01548], [138.4605, 35.0159], [138.46088, 35.01623], [138.46118, 35.01649], [138.46176, 35.01698], [138.46279, 35.01785], [138.46374, 35.01865], [138.46428, 35.01912], [138.46495, 35.01969], [138.46586, 35.02046], [138.46665, 35.02115], [138.46762, 35.02196], [138.46882, 35.02298], [138.46884, 35.023], [138.46986, 35.02386], [138.47011, 35.02408], [138.47019, 35.02414], [138.47027, 35.02421], [138.47036, 35.02428], [138.47044, 35.02435], [138.47086, 35.0247], [138.47094, 35.02477], [138.47102, 35.02484], [138.47107, 35.02488], [138.47112, 35.02493], [138.47118, 35.02498], [138.47138, 35.02514], [138.47161, 35.02534], [138.47208, 35.02574], [138.47306, 35.02657], [138.47315, 35.02665], [138.47405, 35.02742], [138.47494, 35.02817], [138.47587, 35.02894], [138.47618, 35.0292], [138.47691, 35.02981], [138.47707, 35.02994], [138.47772, 35.03048], [138.47784, 35.03058], [138.47812, 35.03081], [138.47843, 35.03106], [138.47882, 35.03137], [138.47913, 35.03162], [138.47931, 35.03177], [138.47973, 35.03211], [138.4799, 35.03225], [138.48084, 35.03295], [138.48152, 35.03343], [138.48241, 35.034], [138.48253, 35.03407], [138.48293, 35.03432], [138.48334, 35.03457], [138.48359, 35.03472], [138.48406, 35.03502], [138.48464, 35.03538], [138.48468, 35.0354], [138.48472, 35.03543], [138.48477, 35.03546], [138.48481, 35.03549], [138.48582, 35.0361], [138.48586, 35.03613], [138.4859, 35.03615], [138.48591, 35.03616], [138.48595, 35.03618], [138.48598, 35.0362], [138.48703, 35.03686], [138.4871, 35.0369], [138.48721, 35.03697], [138.48821, 35.03758], [138.48842, 35.03771], [138.48872, 35.0379], [138.48909, 35.03813], [138.48917, 35.03818], [138.48926, 35.03823], [138.48933, 35.03828], [138.48941, 35.03833], [138.49015, 35.03879], [138.49035, 35.03891], [138.4906, 35.03906], [138.49161, 35.03971], [138.49168, 35.03976], [138.49179, 35.03983], [138.49275, 35.04046], [138.49389, 35.04121], [138.49438, 35.04156], [138.49478, 35.04185], [138.49496, 35.04197], [138.49612, 35.04284], [138.4969, 35.04345], [138.49734, 35.04382], [138.49796, 35.04445], [138.49806, 35.04456], [138.49843, 35.045], [138.49912, 35.04581], [138.50037, 35.04726], [138.5014, 35.04849], [138.50211, 35.04932], [138.50246, 35.04969], [138.50374, 35.05115], [138.5046, 35.05217], [138.50549, 35.05321], [138.50572, 35.05348], [138.50641, 35.0543], [138.5071, 35.0551], [138.50923, 35.05758], [138.51054, 35.05909], [138.51188, 35.06061], [138.51209, 35.06086], [138.51305, 35.06198], [138.51463, 35.06381], [138.51572, 35.0651], [138.51815, 35.06791], [138.51842, 35.06826], [138.52041, 35.07054], [138.5206, 35.07076], [138.52126, 35.07151], [138.52204, 35.0724], [138.52353, 35.0741], [138.52446, 35.07517], [138.5247, 35.07545], [138.52583, 35.07682], [138.52789, 35.0792], [138.52853, 35.07995], [138.53009, 35.0817], [138.53164, 35.08357], [138.53276, 35.08494], [138.53385, 35.08625], [138.53418, 35.08662], [138.53433, 35.08672], [138.53467, 35.08705], [138.53499, 35.0874], [138.53561, 35.08809], [138.53626, 35.08883], [138.53644, 35.08904], [138.53692, 35.08958], [138.53756, 35.0903], [138.53821, 35.09098], [138.53858, 35.09135], [138.53892, 35.09171], [138.53922, 35.09205], [138.53957, 35.09241], [138.54019, 35.09305], [138.54081, 35.09369], [138.54117, 35.09408], [138.5418, 35.09475], [138.54248, 35.09547], [138.54317, 35.09616], [138.54384, 35.09686], [138.54445, 35.09747], [138.54506, 35.09811], [138.54539, 35.09846], [138.54541, 35.09848], [138.54596, 35.09909], [138.5466, 35.09977], [138.54724, 35.10048], [138.54789, 35.10119], [138.54856, 35.10187], [138.54933, 35.10265], [138.5496, 35.10293], [138.55024, 35.10356], [138.55092, 35.10427], [138.55159, 35.10497], [138.5522, 35.10557], [138.55284, 35.10624], [138.55339, 35.10681], [138.5535, 35.10693], [138.55394, 35.10736], [138.55438, 35.1078], [138.55539, 35.10861], [138.55648, 35.10945], [138.55665, 35.10958], [138.55688, 35.10975], [138.55704, 35.10986], [138.55753, 35.11019], [138.55872, 35.11095], [138.55883, 35.11102], [138.55895, 35.11109], [138.55945, 35.11141], [138.5597, 35.11156], [138.55997, 35.11173], [138.56081, 35.11221], [138.56099, 35.11232], [138.56149, 35.1126], [138.56181, 35.11278], [138.56194, 35.11285], [138.56207, 35.11293], [138.5622, 35.113], [138.56234, 35.11307], [138.56248, 35.11315], [138.56319, 35.11354], [138.56379, 35.11382], [138.56475, 35.11425], [138.5662, 35.1149], [138.56721, 35.11536], [138.56812, 35.11577], [138.56906, 35.1162], [138.57006, 35.11666], [138.57105, 35.1171], [138.57231, 35.11768], [138.57253, 35.11778], [138.5734, 35.11817], [138.57431, 35.11859], [138.57529, 35.11904], [138.57614, 35.11941], [138.57621, 35.11944], [138.57712, 35.11986], [138.57812, 35.12031], [138.57907, 35.12075], [138.58003, 35.12118], [138.58057, 35.12142], [138.58147, 35.12182], [138.58238, 35.12224], [138.58328, 35.12264], [138.58428, 35.1231], [138.58523, 35.12355], [138.58588, 35.12385], [138.58616, 35.12398], [138.58674, 35.12425], [138.58807, 35.12485], [138.58902, 35.12528], [138.58993, 35.1257], [138.59091, 35.12614], [138.59189, 35.12657], [138.59283, 35.12701], [138.59368, 35.12739], [138.59466, 35.12783], [138.59556, 35.12824], [138.59603, 35.12845], [138.59696, 35.12887], [138.59795, 35.12932], [138.59895, 35.12977], [138.59986, 35.13018], [138.60085, 35.13061], [138.60181, 35.13105], [138.60269, 35.13147], [138.60366, 35.1319], [138.60417, 35.13213], [138.60469, 35.13234], [138.60525, 35.13262], [138.60564, 35.13281], [138.60671, 35.1333], [138.60768, 35.13373], [138.60798, 35.13389], [138.609, 35.13434], [138.60984, 35.13471], [138.61072, 35.13509], [138.61109, 35.13523], [138.61162, 35.13542], [138.61186, 35.1355], [138.61207, 35.13557], [138.61233, 35.13564], [138.61286, 35.1358], [138.61412, 35.13615], [138.61445, 35.13622], [138.61506, 35.13637], [138.61549, 35.13645], [138.61604, 35.13656], [138.61649, 35.13664], [138.61705, 35.13675], [138.61729, 35.13678], [138.61764, 35.13683], [138.61799, 35.13687], [138.6185, 35.13693], [138.61974, 35.13708], [138.62102, 35.13719], [138.62166, 35.13724], [138.62189, 35.13728], [138.62221, 35.13731], [138.62407, 35.13749], [138.62833, 35.13788], [138.62838, 35.13788], [138.63384, 35.13837], [138.63889, 35.13884], [138.64185, 35.13913], [138.64273, 35.1392], [138.6428, 35.13922], [138.64306, 35.13924], [138.64412, 35.13933], [138.64437, 35.13935], [138.64536, 35.13945], [138.64574, 35.13949], [138.64683, 35.13963], [138.64707, 35.13965], [138.64824, 35.1398], [138.64843, 35.13982], [138.64866, 35.13985], [138.64887, 35.13988], [138.64901, 35.1399], [138.64916, 35.13992], [138.64939, 35.13995], [138.64974, 35.14], [138.64997, 35.14004], [138.6502, 35.14008], [138.65306, 35.14053], [138.65328, 35.14056], [138.65435, 35.14073], [138.65464, 35.14077], [138.65669, 35.1411], [138.65702, 35.14114], [138.65751, 35.14122], [138.65776, 35.14126], [138.65947, 35.14153], [138.65977, 35.14158], [138.66128, 35.14181]]}, "properties": {"id": "GEOM_TOKYO_0977", "route_id": "R_3B2E9FFD", "route_name": null, "route_color": "#1F78FF", "route_text_color": null, "line_name": "東海道新幹線", "operator_id": "東海旅客鉄道", "representation": "service_path", "min_zoom": 0, "max_zoom": 24, "offset_rank": 0}}, {"type": "Feature", "bbox": [138.66128, 35.14181, 138.66555, 35.14244], "geometry": {"type": "LineString", "coordinates": [[138.66128, 35.14181], [138.66154, 35.14185], [138.66181, 35.14189], [138.66209, 35.14193], [138.66255, 35.142], [138.66449, 35.14229], [138.66476, 35.14233], [138.66555, 35.14244]]}, "properties": {"id": "GEOM_TOKYO_0978", "route_id": "R_3B2E9FFD", "route_name": null, "route_color": "#1F78FF", "route_text_color": null, "line_name": "東海道新幹線", "operator_id": "東海旅客鉄道", "representation": "service_path", "min_zoom": 0, "max_zoom": 24, "offset_rank": 0}}, {"type": "Feature", "bbox": [138.66555, 35.12287, 138.90782, 35.15611], "geometry": {"type": "LineString", "coordinates": [[138.66555, 35.14244], [138.66692, 35.14267], [138.66705, 35.1427], [138.66731, 35.14274], [138.67004, 35.14316], [138.67039, 35.14322], [138.67091, 35.14331], [138.67121, 35.14335], [138.67148, 35.14339], [138.67187, 35.14346], [138.67463, 35.14391], [138.67611, 35.14416], [138.67801, 35.14453], [138.67931, 35.14485], [138.68194, 35.1456], [138.68257, 35.14581], [138.68372, 35.14619], [138.68571, 35.14691], [138.68604, 35.14703], [138.68841, 35.14786], [138.69037, 35.14855], [138.69126, 35.14879], [138.69251, 35.14915], [138.69282, 35.14923], [138.6933, 35.14937], [138.69467, 35.14968], [138.69577, 35.1499], [138.69646, 35.15004], [138.69802, 35.15026], [138.70166, 35.15065], [138.7037, 35.15079], [138.70583, 35.15094], [138.709, 35.15121], [138.71191, 35.15146], [138.71473, 35.15169], [138.71486, 35.15171], [138.71504, 35.15172], [138.71521, 35.15173], [138.71555, 35.15176], [138.71592, 35.15179], [138.71615, 35.15181], [138.71855, 35.15209], [138.71884, 35.15212], [138.7232, 35.15263], [138.72332, 35.15264], [138.72343, 35.15265], [138.72642, 35.15303], [138.72672, 35.15305], [138.72717, 35.15312], [138.72752, 35.15316], [138.72798, 35.15322], [138.72887, 35.15334], [138.72919, 35.15337], [138.73137, 35.15364], [138.73153, 35.15366], [138.73174, 35.15368], [138.73403, 35.15396], [138.73435, 35.15399], [138.73618, 35.15423], [138.73652, 35.15427], [138.73813, 35.15448], [138.73838, 35.15451], [138.73999, 35.15473], [138.74021, 35.15475], [138.7412, 35.15488], [138.74149, 35.1549], [138.74437, 35.1553], [138.7447, 35.15535], [138.74512, 35.15541], [138.74551, 35.15546], [138.7457, 35.15549], [138.74687, 35.15564], [138.74812, 35.15574], [138.74926, 35.15583], [138.74993, 35.15588], [138.75024, 35.1559], [138.75176, 35.15602], [138.7522, 35.15608], [138.75296, 35.15611], [138.75425, 35.15611], [138.75585, 35.15606], [138.75689, 35.15597], [138.75693, 35.15597], [138.75795, 35.15588], [138.75927, 35.15576], [138.76051, 35.1556], [138.7617, 35.15543], [138.76326, 35.1552], [138.76422, 35.15499], [138.76539, 35.15466], [138.76672, 35.15428], [138.7677, 35.15401], [138.76791, 35.15395], [138.76908, 35.15362], [138.7706, 35.15316], [138.77184, 35.15281], [138.77238, 35.15265], [138.77454, 35.15204], [138.7751, 35.15187], [138.77646, 35.15148], [138.77727, 35.15125], [138.77828, 35.15096], [138.78149, 35.15007], [138.78314, 35.14958], [138.78381, 35.14939], [138.7843, 35.14925], [138.78559, 35.14889], [138.78601, 35.14877], [138.78811, 35.1482], [138.79046, 35.14753], [138.79195, 35.1471], [138.79252, 35.14693], [138.79256, 35.14692], [138.7939, 35.14653], [138.79392, 35.14652], [138.79641, 35.1458], [138.79665, 35.14574], [138.79875, 35.14515], [138.80091, 35.14454], [138.80194, 35.14426], [138.80197, 35.14425], [138.80318, 35.1439], [138.80373, 35.14374], [138.80493, 35.14341], [138.80632, 35.14302], [138.80702, 35.14281], [138.80838, 35.14235], [138.80908, 35.1421], [138.80911, 35.14209], [138.80998, 35.14177], [138.81036, 35.14163], [138.81075, 35.14149], [138.81089, 35.14143], [138.81158, 35.14118], [138.81253, 35.14074], [138.81338, 35.14029], [138.81399, 35.13992], [138.81428, 35.13973], [138.81433, 35.1397], [138.81556, 35.13889], [138.81618, 35.13845], [138.817, 35.13786], [138.81837, 35.13677], [138.81839, 35.13676], [138.82009, 35.13539], [138.82103, 35.13458], [138.82174, 35.13402], [138.82316, 35.13288], [138.82354, 35.13251], [138.82468, 35.13159], [138.82553, 35.13097], [138.82628, 35.13048], [138.82631, 35.13047], [138.82713, 35.12998], [138.82806, 35.12949], [138.82963, 35.12877], [138.83211, 35.12779], [138.83274, 35.12758], [138.83415, 35.12714], [138.83514, 35.12692], [138.83575, 35.1268], [138.8363, 35.12672], [138.83765, 35.12653], [138.83846, 35.12645], [138.84031, 35.12627], [138.84307, 35.12604], [138.84463, 35.12592], [138.84587, 35.12583], [138.84681, 35.12575], [138.84749, 35.1257], [138.84818, 35.12564], [138.84835, 35.12563], [138.8509, 35.12542], [138.85464, 35.12509], [138.85739, 35.12487], [138.85862, 35.12477], [138.85937, 35.1247], [138.85991, 35.12466], [138.86129, 35.12454], [138.86157, 35.12452], [138.8629, 35.1244], [138.8637, 35.12433], [138.86537, 35.12419], [138.86616, 35.12412], [138.86836, 35.12392], [138.86987, 35.12378], [138.87149, 35.12367], [138.87151, 35.12367], [138.87177, 35.12365], [138.87182, 35.12365], [138.87186, 35.12365], [138.87211, 35.12364], [138.87261, 35.1236], [138.87419, 35.12348], [138.87444, 35.12345], [138.87621, 35.12331], [138.87649, 35.12329], [138.87883, 35.12309], [138.87914, 35.12305], [138.87995, 35.12299], [138.88038, 35.12296], [138.88092, 35.12293], [138.88192, 35.12289], [138.88309, 35.12287], [138.88436, 35.12289], [138.88572, 35.12293], [138.88596, 35.12294], [138.8862, 35.12295], [138.8872, 35.12302], [138.88756, 35.12305], [138.88821, 35.12312], [138.88966, 35.12332], [138.88998, 35.12337], [138.89265, 35.12384], [138.89473, 35.1242], [138.89705, 35.12457], [138.8991, 35.12491], [138.89926, 35.12494], [138.90107, 35.12525], [138.90159, 35.12534], [138.90294, 35.12558], [138.90295, 35.12558], [138.90449, 35.12584], [138.9059, 35.12607], [138.90782, 35.1264]]}, "properties": {"id": "GEOM_TOKYO_0979", "route_id": "R_3B2E9FFD", "route_name": null, "route_color": "#1F78FF", "route_text_color": null, "line_name": "東海道新幹線", "operator_id": "東海旅客鉄道", "representation": "service_path", "min_zoom": 0, "max_zoom": 24, "offset_rank": 0}}, {"type": "Feature", "bbox": [138.8179, 35.11776, 138.82003, 35.11872], "geometry": {"type": "LineString", "coordinates": [[138.8179, 35.11872], [138.81809, 35.11863], [138.82003, 35.11776]]}, "properties": {"id": "GEOM_TOKYO_1007", "route_id": "R_A38B6B65", "route_name": null, "route_color": "#F28E1C", "route_text_color": null, "line_name": "東海道線", "operator_id": "東海旅客鉄道", "representation": "service_path", "min_zoom": 0, "max_zoom": 24, "offset_rank": 0}}, {"type": "Feature", "bbox": [138.79199, 35.12445, 138.7947, 35.12542], "geometry": {"type": "LineString", "coordinates": [[138.79199, 35.12542], [138.7947, 35.12445]]}, "properties": {"id": "GEOM_TOKYO_1008", "route_id": "R_A38B6B65", "route_name": null, "route_color": "#F28E1C", "route_text_color": null, "line_name": "東海道線", "operator_id": "東海旅客鉄道", "representation": "service_path", "min_zoom": 0, "max_zoom": 24, "offset_rank": 0}}, {"type": "Feature", "bbox": [138.82003, 35.10298, 138.85896, 35.11776], "geometry": {"type": "LineString", "coordinates": [[138.82003, 35.11776], [138.8203, 35.11764], [138.82395, 35.11605], [138.82584, 35.11523], [138.83061, 35.11315], [138.83371, 35.11179], [138.83445, 35.11147], [138.83889, 35.1095], [138.84332, 35.1076], [138.84348, 35.10753], [138.84568, 35.10657], [138.84783, 35.10562], [138.84788, 35.1056], [138.84791, 35.10558], [138.84795, 35.10557], [138.84804, 35.10553], [138.84813, 35.10549], [138.84974, 35.10478], [138.85143, 35.10405], [138.85158, 35.10399], [138.85205, 35.1038], [138.85228, 35.10369], [138.85337, 35.10319], [138.85397, 35.10305], [138.85526, 35.10305], [138.85655, 35.10299], [138.85896, 35.10298]]}, "properties": {"id": "GEOM_TOKYO_1009", "route_id": "R_A38B6B65", "route_name": null, "route_color": "#F28E1C", "route_text_color": null, "line_name": "東海道線", "operator_id": "東海旅客鉄道", "representation": "service_path", "min_zoom": 0, "max_zoom": 24, "offset_rank": 0}}, {"type": "Feature", "bbox": [138.97256, 35.09873, 139.07621, 35.10872], "geometry": {"type": "LineString", "coordinates": [[139.07621, 35.10266], [139.07521, 35.10202], [139.07473, 35.10173], [139.07452, 35.10161], [139.0743, 35.10147], [139.07374, 35.10111], [139.07335, 35.1009], [139.07288, 35.10066], [139.07214, 35.10029], [139.07155, 35.10004], [139.07099, 35.09982], [139.07059, 35.09968], [139.07003, 35.09955], [139.06988, 35.0995], [139.06863, 35.09931], [139.06856, 35.0993], [139.06811, 35.09924], [139.06778, 35.0992], [139.06687, 35.09909], [139.06571, 35.09894], [139.06505, 35.09885], [139.06433, 35.09876], [139.06397, 35.09874], [139.06357, 35.09873], [139.06318, 35.09873], [139.06268, 35.09876], [139.06234, 35.0988], [139.06032, 35.09902], [139.05969, 35.09908], [139.05867, 35.09919], [139.05756, 35.0993], [139.05593, 35.09948], [139.05451, 35.09965], [139.05384, 35.09973], [139.05219, 35.09994], [139.05136, 35.10003], [139.05016, 35.10017], [139.04897, 35.1003], [139.04687, 35.10053], [139.04513, 35.10072], [139.04401, 35.10085], [139.04349, 35.1009], [139.04246, 35.10102], [139.04129, 35.10115], [139.04038, 35.10125], [139.04021, 35.10127], [139.03899, 35.1014], [139.03745, 35.10157], [139.03576, 35.10176], [139.03523, 35.10183], [139.0352, 35.10183], [139.03351, 35.10199], [139.03247, 35.10211], [139.03089, 35.10228], [139.02973, 35.10242], [139.02864, 35.10254], [139.02698, 35.10271], [139.0259, 35.10283], [139.02439, 35.103], [139.02424, 35.10302], [139.02323, 35.10313], [139.02261, 35.1032], [139.02202, 35.10328], [139.01999, 35.10351], [139.01895, 35.10363], [139.01785, 35.10374], [139.01626, 35.10393], [139.01459, 35.1041], [139.01326, 35.10425], [139.01136, 35.10447], [139.00977, 35.10465], [139.00933, 35.10471], [139.00819, 35.10483], [139.00689, 35.10496], [139.00599, 35.10505], [139.00435, 35.10525], [139.00281, 35.10542], [139.00228, 35.10548], [139.00117, 35.10558], [138.99999, 35.10571], [138.9991, 35.10582], [138.99849, 35.10588], [138.99711, 35.10602], [138.99685, 35.10604], [138.99591, 35.10617], [138.9948, 35.1063], [138.99427, 35.10635], [138.99321, 35.10646], [138.99214, 35.10656], [138.99107, 35.10668], [138.99004, 35.1068], [138.98923, 35.10689], [138.98812, 35.10701], [138.986, 35.10724], [138.98587, 35.10725], [138.98358, 35.10751], [138.98247, 35.10759], [138.9819, 35.10764], [138.98129, 35.10771], [138.97969, 35.10789], [138.978, 35.10809], [138.97756, 35.10817], [138.97654, 35.10827], [138.97466, 35.10847], [138.97256, 35.10872]]}, "properties": {"id": "GEOM_TOKYO_1010", "route_id": "R_A38B6B65", "route_name": null, "route_color": "#F28E1C", "route_text_color": null, "line_name": "東海道線", "operator_id": "東海旅客鉄道", "representation": "service_path", "min_zoom": 0, "max_zoom": 24, "offset_rank": 0}}, {"type": "Feature", "bbox": [138.90887, 35.12585, 138.91276, 35.12654], "geometry": {"type": "LineString", "coordinates": [[138.90887, 35.12585], [138.91018, 35.12607], [138.91276, 35.12654]]}, "properties": {"id": "GEOM_TOKYO_1011", "route_id": "R_A38B6B65", "route_name": null, "route_color": "#F28E1C", "route_text_color": null, "line_name": "東海道線", "operator_id": "東海旅客鉄道", "representation": "service_path", "min_zoom": 0, "max_zoom": 24, "offset_rank": 0}}, {"type": "Feature", "bbox": [138.9699, 35.10865, 138.97256, 35.10878], "geometry": {"type": "LineString", "coordinates": [[138.9699, 35.10865], [138.97018, 35.10868], [138.97081, 35.10875], [138.97147, 35.10878], [138.97256, 35.10872]]}, "properties": {"id": "GEOM_TOKYO_1012", "route_id": "R_A38B6B65", "route_name": null, "route_color": "#F28E1C", "route_text_color": null, "line_name": "東海道線", "operator_id": "東海旅客鉄道", "representation": "service_path", "min_zoom": 0, "max_zoom": 24, "offset_rank": 0}}, {"type": "Feature", "bbox": [139.07621, 35.10266, 139.07967, 35.10512], "geometry": {"type": "LineString", "coordinates": [[139.07967, 35.10512], [139.07876, 35.10446], [139.07658, 35.10292], [139.07621, 35.10266]]}, "properties": {"id": "GEOM_TOKYO_1013", "route_id": "R_A38B6B65", "route_name": null, "route_color": "#F28E1C", "route_text_color": null, "line_name": "東海道線", "operator_id": "東海旅客鉄道", "representation": "service_path", "min_zoom": 0, "max_zoom": 24, "offset_rank": 0}}, {"type": "Feature", "bbox": [138.7947, 35.11872, 138.8179, 35.12445], "geometry": {"type": "LineString", "coordinates": [[138.7947, 35.12445], [138.79585, 35.1241], [138.79593, 35.12408], [138.79692, 35.12377], [138.79705, 35.12373], [138.80054, 35.12256], [138.80387, 35.12142], [138.80489, 35.12113], [138.80552, 35.12098], [138.80635, 35.12082], [138.80692, 35.12073], [138.8073, 35.12068], [138.80758, 35.12065], [138.80824, 35.12058], [138.8097, 35.12063], [138.81071, 35.12062], [138.81187, 35.12055], [138.81296, 35.12043], [138.81402, 35.12024], [138.8148, 35.12003], [138.8179, 35.11872]]}, "properties": {"id": "GEOM_TOKYO_1014", "route_id": "R_A38B6B65", "route_name": null, "route_color": "#F28E1C", "route_text_color": null, "line_name": "東海道線", "operator_id": "東海旅客鉄道", "representation": "service_path", "min_zoom": 0, "max_zoom": 24, "offset_rank": 0}}, {"type": "Feature", "bbox": [138.86288, 35.10321, 138.90887, 35.12585], "geometry": {"type": "LineString", "coordinates": [[138.86288, 35.10321], [138.86426, 35.1034], [138.86436, 35.10341], [138.86445, 35.10342], [138.86453, 35.10343], [138.86464, 35.10344], [138.86475, 35.10345], [138.86548, 35.1036], [138.86601, 35.10372], [138.86652, 35.10388], [138.86709, 35.10411], [138.86762, 35.10436], [138.86824, 35.10471], [138.86883, 35.10502], [138.86983, 35.10557], [138.87186, 35.1067], [138.87333, 35.10746], [138.87513, 35.10844], [138.87517, 35.10846], [138.87693, 35.10942], [138.87964, 35.11088], [138.88098, 35.11162], [138.88305, 35.11273], [138.88439, 35.11346], [138.88463, 35.11359], [138.8852, 35.1139], [138.88618, 35.11443], [138.88649, 35.1146], [138.88683, 35.11477], [138.88778, 35.11529], [138.8884, 35.11563], [138.88909, 35.116], [138.88916, 35.11604], [138.89005, 35.11653], [138.89028, 35.11665], [138.89256, 35.11787], [138.89279, 35.118], [138.89365, 35.11846], [138.89572, 35.11959], [138.89734, 35.12045], [138.8979, 35.12074], [138.89881, 35.12123], [138.90107, 35.12245], [138.90287, 35.12343], [138.90403, 35.12404], [138.90499, 35.12456], [138.90567, 35.1249], [138.90611, 35.1251], [138.90657, 35.12529], [138.90666, 35.12532], [138.90691, 35.1254], [138.90735, 35.12552], [138.90782, 35.12566], [138.90827, 35.12575], [138.90887, 35.12585]]}, "properties": {"id": "GEOM_TOKYO_1015", "route_id": "R_A38B6B65", "route_name": null, "route_color": "#F28E1C", "route_text_color": null, "line_name": "東海道線", "operator_id": "東海旅客鉄道", "representation": "service_path", "min_zoom": 0, "max_zoom": 24, "offset_rank": 0}}, {"type": "Feature", "bbox": [138.85896, 35.10298, 138.86215, 35.10312], "geometry": {"type": "LineString", "coordinates": [[138.85896, 35.10298], [138.86032, 35.10302], [138.86215, 35.10312]]}, "properties": {"id": "GEOM_TOKYO_1016", "route_id": "R_A38B6B65", "route_name": null, "route_color": "#F28E1C", "route_text_color": null, "line_name": "東海道線", "operator_id": "東海旅客鉄道", "representation": "service_path", "min_zoom": 0, "max_zoom": 24, "offset_rank": 0}}, {"type": "Feature", "bbox": [138.91276, 35.10715, 138.9699, 35.12757], "geometry": {"type": "LineString", "coordinates": [[138.91276, 35.12654], [138.91451, 35.12685], [138.91469, 35.12688], [138.91487, 35.12691], [138.91652, 35.12722], [138.91685, 35.12728], [138.91793, 35.12745], [138.91818, 35.12748], [138.91877, 35.12755], [138.91939, 35.12757], [138.92027, 35.12754], [138.92047, 35.12754], [138.92096, 35.12749], [138.9215, 35.1274], [138.92183, 35.12734], [138.92212, 35.12726], [138.92267, 35.12709], [138.92326, 35.12688], [138.92393, 35.12662], [138.9252, 35.12609], [138.92652, 35.12554], [138.9275, 35.12513], [138.92952, 35.12431], [138.92996, 35.12414], [138.93083, 35.12378], [138.93207, 35.12327], [138.93349, 35.12269], [138.93428, 35.12234], [138.93492, 35.12208], [138.93585, 35.12173], [138.9363, 35.12157], [138.93665, 35.12147], [138.93781, 35.1212], [138.93991, 35.12067], [138.94079, 35.12045], [138.94272, 35.11995], [138.9434, 35.11977], [138.94383, 35.11962], [138.94426, 35.11942], [138.94464, 35.11919], [138.94511, 35.11889], [138.94536, 35.11869], [138.94568, 35.11843], [138.94606, 35.11803], [138.94629, 35.11779], [138.94651, 35.11749], [138.94734, 35.11638], [138.94751, 35.11615], [138.9484, 35.11498], [138.94941, 35.11371], [138.94971, 35.11338], [138.95004, 35.11314], [138.95038, 35.11291], [138.95161, 35.11215], [138.9521, 35.11181], [138.95305, 35.11124], [138.95454, 35.11028], [138.95502, 35.10997], [138.95518, 35.10988], [138.95583, 35.10946], [138.95688, 35.10879], [138.9576, 35.10832], [138.95824, 35.10794], [138.95866, 35.10775], [138.95931, 35.10752], [138.95975, 35.10738], [138.96028, 35.10726], [138.96084, 35.10719], [138.96147, 35.10715], [138.96205, 35.10715], [138.96228, 35.10718], [138.963, 35.10727], [138.96365, 35.1074], [138.96492, 35.10765], [138.96731, 35.10814], [138.96852, 35.1084], [138.9699, 35.10865]]}, "properties": {"id": "GEOM_TOKYO_1017", "route_id": "R_A38B6B65", "route_name": null, "route_color": "#F28E1C", "route_text_color": null, "line_name": "東海道線", "operator_id": "東海旅客鉄道", "representation": "service_path", "min_zoom": 0, "max_zoom": 24, "offset_rank": 0}}, {"type": "Feature", "bbox": [138.86215, 35.10312, 138.86288, 35.10321], "geometry": {"type": "LineString", "coordinates": [[138.86215, 35.10312], [138.86288, 35.10321]]}, "properties": {"id": "GEOM_TOKYO_1018", "route_id": "R_A38B6B65", "route_name": null, "route_color": "#F28E1C", "route_text_color": null, "line_name": "東海道線", "operator_id": "東海旅客鉄道", "representation": "service_path", "min_zoom": 0, "max_zoom": 24, "offset_rank": 0}}, {"type": "Feature", "bbox": [138.65036, 35.15116, 138.65382, 35.15134], "geometry": {"type": "LineString", "coordinates": [[138.65382, 35.15116], [138.65294, 35.15122], [138.65125, 35.15131], [138.65087, 35.15132], [138.65036, 35.15134]]}, "properties": {"id": "GEOM_TOKYO_1019", "route_id": "R_A38B6B65", "route_name": null, "route_color": "#F28E1C", "route_text_color": null, "line_name": "東海道線", "operator_id": "東海旅客鉄道", "representation": "service_path", "min_zoom": 0, "max_zoom": 24, "offset_rank": 0}}, {"type": "Feature", "bbox": [138.64305, 35.15134, 138.65036, 35.15183], "geometry": {"type": "LineString", "coordinates": [[138.65036, 35.15134], [138.64986, 35.1514], [138.64937, 35.15144], [138.64732, 35.15154], [138.64604, 35.15166], [138.64459, 35.15172], [138.64305, 35.15183]]}, "properties": {"id": "GEOM_TOKYO_1020", "route_id": "R_A38B6B65", "route_name": null, "route_color": "#F28E1C", "route_text_color": null, "line_name": "東海道線", "operator_id": "東海旅客鉄道", "representation": "service_path", "min_zoom": 0, "max_zoom": 24, "offset_rank": 0}}, {"type": "Feature", "bbox": [138.42963, 34.99499, 138.43986, 35.00153], "geometry": {"type": "LineString", "coordinates": [[138.42963, 34.99499], [138.43092, 34.99581], [138.43236, 34.99674], [138.43404, 34.99783], [138.43444, 34.99807], [138.43536, 34.99867], [138.43559, 34.99882], [138.43676, 34.99953], [138.43795, 35.00031], [138.43882, 35.00085], [138.43986, 35.00153]]}, "properties": {"id": "GEOM_TOKYO_1027", "route_id": "R_A38B6B65", "route_name": null, "route_color": "#F28E1C", "route_text_color": null, "line_name": "東海道線", "operator_id": "東海旅客鉄道", "representation": "service_path", "min_zoom": 0, "max_zoom": 24, "offset_rank": 0}}, {"type": "Feature", "bbox": [138.61897, 35.14236, 138.64305, 35.15203], "geometry": {"type": "LineString", "coordinates": [[138.64305, 35.15183], [138.64013, 35.152], [138.63956, 35.15203], [138.63662, 35.15203], [138.63627, 35.15202], [138.6349, 35.15185], [138.63304, 35.15142], [138.63179, 35.15109], [138.63125, 35.15089], [138.62962, 35.15028], [138.62945, 35.15021], [138.62802, 35.14963], [138.62669, 35.1491], [138.62658, 35.14906], [138.62564, 35.14868], [138.62516, 35.14849], [138.62337, 35.14775], [138.62299, 35.14758], [138.62189, 35.14705], [138.62114, 35.14643], [138.62083, 35.14617], [138.62044, 35.14583], [138.6202, 35.14558], [138.62, 35.14532], [138.61975, 35.14492], [138.61965, 35.14472], [138.61953, 35.14444], [138.6194, 35.14396], [138.61921, 35.14331], [138.61897, 35.14236]]}, "properties": {"id": "GEOM_TOKYO_1028", "route_id": "R_A38B6B65", "route_name": null, "route_color": "#F28E1C", "route_text_color": null, "line_name": "東海道線", "operator_id": "東海旅客鉄道", "representation": "service_path", "min_zoom": 0, "max_zoom": 24, "offset_rank": 0}}, {"type": "Feature", "bbox": [138.43986, 35.00153, 138.44192, 35.00288], "geometry": {"type": "LineString", "coordinates": [[138.43986, 35.00153], [138.44129, 35.00247], [138.44192, 35.00288]]}, "properties": {"id": "GEOM_TOKYO_1030", "route_id": "R_A38B6B65", "route_name": null, "route_color": "#F28E1C", "route_text_color": null, "line_name": "東海道線", "operator_id": "東海旅客鉄道", "representation": "service_path", "min_zoom": 0, "max_zoom": 24, "offset_rank": 0}}, {"type": "Feature", "bbox": [138.74485, 35.13616, 138.74612, 35.13638], "geometry": {"type": "LineString", "coordinates": [[138.74612, 35.13616], [138.74485, 35.13638]]}, "properties": {"id": "GEOM_TOKYO_1032", "route_id": "R_A38B6B65", "route_name": null, "route_color": "#F28E1C", "route_text_color": null, "line_name": "東海道線", "operator_id": "東海旅客鉄道", "representation": "service_path", "min_zoom": 0, "max_zoom": 24, "offset_rank": 0}}, {"type": "Feature", "bbox": [138.60763, 35.11921, 138.60846, 35.11957], "geometry": {"type": "LineString", "coordinates": [[138.60846, 35.11957], [138.6083, 35.1195], [138.60814, 35.11943], [138.60798, 35.11936], [138.60763, 35.11921]]}, "properties": {"id": "GEOM_TOKYO_1033", "route_id": "R_A38B6B65", "route_name": null, "route_color": "#F28E1C", "route_text_color": null, "line_name": "東海道線", "operator_id": "東海旅客鉄道", "representation": "service_path", "min_zoom": 0, "max_zoom": 24, "offset_rank": 0}}, {"type": "Feature", "bbox": [138.41363, 34.98455, 138.41517, 34.98556], "geometry": {"type": "LineString", "coordinates": [[138.41363, 34.98455], [138.4144, 34.98504], [138.41517, 34.98556]]}, "properties": {"id": "GEOM_TOKYO_1035", "route_id": "R_A38B6B65", "route_name": null, "route_color": "#F28E1C", "route_text_color": null, "line_name": "東海道線", "operator_id": "東海旅客鉄道", "representation": "service_path", "min_zoom": 0, "max_zoom": 24, "offset_rank": 0}}, {"type": "Feature", "bbox": [138.52077, 35.05169, 138.52304, 35.05334], "geometry": {"type": "LineString", "coordinates": [[138.52077, 35.05169], [138.52304, 35.05334]]}, "properties": {"id": "GEOM_TOKYO_1036", "route_id": "R_A38B6B65", "route_name": null, "route_color": "#F28E1C", "route_text_color": null, "line_name": "東海道線", "operator_id": "東海旅客鉄道", "representation": "service_path", "min_zoom": 0, "max_zoom": 24, "offset_rank": 0}}, {"type": "Feature", "bbox": [138.70407, 35.13638, 138.74485, 35.14362], "geometry": {"type": "LineString", "coordinates": [[138.74485, 35.13638], [138.74308, 35.13668], [138.74187, 35.13689], [138.7402, 35.13717], [138.73882, 35.13743], [138.73831, 35.1375], [138.73505, 35.13809], [138.7346, 35.13814], [138.73323, 35.13838], [138.73106, 35.1388], [138.73047, 35.1389], [138.72809, 35.13932], [138.72499, 35.13987], [138.72056, 35.14067], [138.72, 35.14078], [138.71964, 35.14084], [138.7187, 35.141], [138.717, 35.14131], [138.71304, 35.14203], [138.71165, 35.1423], [138.70883, 35.14279], [138.70618, 35.14326], [138.70519, 35.14343], [138.70407, 35.14362]]}, "properties": {"id": "GEOM_TOKYO_1037", "route_id": "R_A38B6B65", "route_name": null, "route_color": "#F28E1C", "route_text_color": null, "line_name": "東海道線", "operator_id": "東海旅客鉄道", "representation": "service_path", "min_zoom": 0, "max_zoom": 24, "offset_rank": 0}}, {"type": "Feature", "bbox": [138.55321, 35.09771, 138.58206, 35.11382], "geometry": {"type": "LineString", "coordinates": [[138.58206, 35.11382], [138.57989, 35.11316], [138.57843, 35.11272], [138.57658, 35.11217], [138.57574, 35.11191], [138.57495, 35.11161], [138.57378, 35.11103], [138.57331, 35.11075], [138.57307, 35.1106], [138.57256, 35.11027], [138.57206, 35.10995], [138.57102, 35.10921], [138.57027, 35.10865], [138.56985, 35.10833], [138.56911, 35.10784], [138.56836, 35.10737], [138.56755, 35.10696], [138.56649, 35.10645], [138.56559, 35.10604], [138.56539, 35.10595], [138.56518, 35.10586], [138.56495, 35.10577], [138.56473, 35.10567], [138.56329, 35.10507], [138.56217, 35.10462], [138.56141, 35.10431], [138.56077, 35.10404], [138.56051, 35.10393], [138.55967, 35.10358], [138.5581, 35.1029], [138.55699, 35.10244], [138.55661, 35.10228], [138.55632, 35.10209], [138.55599, 35.10186], [138.55583, 35.10173], [138.55564, 35.10156], [138.55548, 35.10134], [138.55517, 35.10085], [138.55482, 35.10023], [138.55435, 35.09948], [138.55386, 35.09872], [138.55321, 35.09771]]}, "properties": {"id": "GEOM_TOKYO_1041", "route_id": "R_A38B6B65", "route_name": null, "route_color": "#F28E1C", "route_text_color": null, "line_name": "東海道線", "operator_id": "東海旅客鉄道", "representation": "service_path", "min_zoom": 0, "max_zoom": 24, "offset_rank": 0}}, {"type": "Feature", "bbox": [138.44192, 35.00288, 138.48906, 35.0226], "geometry": {"type": "LineString", "coordinates": [[138.44192, 35.00288], [138.4422, 35.00305], [138.44252, 35.00329], [138.44369, 35.00403], [138.44484, 35.00475], [138.44591, 35.00545], [138.44693, 35.00611], [138.44827, 35.00698], [138.44958, 35.00782], [138.44965, 35.00786], [138.45087, 35.00863], [138.45182, 35.00924], [138.45244, 35.00963], [138.45308, 35.01005], [138.45353, 35.01031], [138.45419, 35.01066], [138.4546, 35.01085], [138.45494, 35.011], [138.4552, 35.01109], [138.4556, 35.0112], [138.45644, 35.01135], [138.45686, 35.01142], [138.4576, 35.01149], [138.45917, 35.01159], [138.45929, 35.0116], [138.46062, 35.0117], [138.46211, 35.01181], [138.46357, 35.01191], [138.46481, 35.01201], [138.46625, 35.01211], [138.46786, 35.01223], [138.46944, 35.01234], [138.47033, 35.01241], [138.47069, 35.01243], [138.47101, 35.01246], [138.47218, 35.01254], [138.47307, 35.0126], [138.47378, 35.01266], [138.47468, 35.01273], [138.47529, 35.01277], [138.47552, 35.01279], [138.47592, 35.01283], [138.47632, 35.0129], [138.47674, 35.01302], [138.4771, 35.01314], [138.47743, 35.01328], [138.47781, 35.01344], [138.47821, 35.01366], [138.47847, 35.0138], [138.47924, 35.0142], [138.48043, 35.01482], [138.48136, 35.01531], [138.48259, 35.01595], [138.48359, 35.01646], [138.48482, 35.01714], [138.48505, 35.01727], [138.4857, 35.01762], [138.48578, 35.01766], [138.48666, 35.01818], [138.48756, 35.01874], [138.48797, 35.01903], [138.48819, 35.01926], [138.48838, 35.01949], [138.4885, 35.01966], [138.48863, 35.01987], [138.48873, 35.02012], [138.48881, 35.02036], [138.48889, 35.02069], [138.48895, 35.02097], [138.48899, 35.02152], [138.48902, 35.02191], [138.48906, 35.0226]]}, "properties": {"id": "GEOM_TOKYO_1042", "route_id": "R_A38B6B65", "route_name": null, "route_color": "#F28E1C", "route_text_color": null, "line_name": "東海道線", "operator_id": "東海旅客鉄道", "representation": "service_path", "min_zoom": 0, "max_zoom": 24, "offset_rank": 0}}, {"type": "Feature", "bbox": [138.74612, 35.12542, 138.79199, 35.13616], "geometry": {"type": "LineString", "coordinates": [[138.74612, 35.13616], [138.74687, 35.13604], [138.74956, 35.13554], [138.75265, 35.13497], [138.75389, 35.13475], [138.75571, 35.13444], [138.75817, 35.13398], [138.76079, 35.13352], [138.76351, 35.13302], [138.76399, 35.13293], [138.76622, 35.13252], [138.7698, 35.13187], [138.7715, 35.13155], [138.77372, 35.13116], [138.77478, 35.13097], [138.77481, 35.13097], [138.77605, 35.13066], [138.77812, 35.13006], [138.78207, 35.12873], [138.78514, 35.12771], [138.78557, 35.12756], [138.78558, 35.12756], [138.78989, 35.12613], [138.79003, 35.12608], [138.79199, 35.12542]]}, "properties": {"id": "GEOM_TOKYO_1043", "route_id": "R_A38B6B65", "route_name": null, "route_color": "#F28E1C", "route_text_color": null, "line_name": "東海道線", "operator_id": "東海旅客鉄道", "representation": "service_path", "min_zoom": 0, "max_zoom": 24, "offset_rank": 0}}, {"type": "Feature", "bbox": [138.60846, 35.11957, 138.61937, 35.1399], "geometry": {"type": "LineString", "coordinates": [[138.61845, 35.1399], [138.6182, 35.1388], [138.61792, 35.13777], [138.61775, 35.13709], [138.61771, 35.13691], [138.61768, 35.1367], [138.61764, 35.13601], [138.61766, 35.13557], [138.61768, 35.13535], [138.61772, 35.13515], [138.61796, 35.13445], [138.61842, 35.13316], [138.6186, 35.13263], [138.61884, 35.13185], [138.61918, 35.13082], [138.61932, 35.13029], [138.61937, 35.12994], [138.61937, 35.12958], [138.61934, 35.12929], [138.61926, 35.12896], [138.6191, 35.12845], [138.61896, 35.12815], [138.6189, 35.12805], [138.6188, 35.12791], [138.61824, 35.12708], [138.6175, 35.12607], [138.61719, 35.12561], [138.61697, 35.12542], [138.61622, 35.12483], [138.61542, 35.12426], [138.61413, 35.12334], [138.61321, 35.12265], [138.61196, 35.12177], [138.61136, 35.12136], [138.61117, 35.12122], [138.61092, 35.12106], [138.60989, 35.12032], [138.60956, 35.1201], [138.60926, 35.11992], [138.60846, 35.11957]]}, "properties": {"id": "GEOM_TOKYO_1045", "route_id": "R_A38B6B65", "route_name": null, "route_color": "#F28E1C", "route_text_color": null, "line_name": "東海道線", "operator_id": "東海旅客鉄道", "representation": "service_path", "min_zoom": 0, "max_zoom": 24, "offset_rank": 0}}, {"type": "Feature", "bbox": [138.41166, 34.98324, 138.41363, 34.98455], "geometry": {"type": "LineString", "coordinates": [[138.41363, 34.98455], [138.41347, 34.98444], [138.41166, 34.98324]]}, "properties": {"id": "GEOM_TOKYO_1047", "route_id": "R_A38B6B65", "route_name": null, "route_color": "#F28E1C", "route_text_color": null, "line_name": "東海道線", "operator_id": "東海旅客鉄道", "representation": "service_path", "min_zoom": 0, "max_zoom": 24, "offset_rank": 0}}, {"type": "Feature", "bbox": [138.70121, 35.14362, 138.70407, 35.14415], "geometry": {"type": "LineString", "coordinates": [[138.70407, 35.14362], [138.70121, 35.14415]]}, "properties": {"id": "GEOM_TOKYO_1049", "route_id": "R_A38B6B65", "route_name": null, "route_color": "#F28E1C", "route_text_color": null, "line_name": "東海道線", "operator_id": "東海旅客鉄道", "representation": "service_path", "min_zoom": 0, "max_zoom": 24, "offset_rank": 0}}, {"type": "Feature", "bbox": [138.48914, 35.0242, 138.52077, 35.05169], "geometry": {"type": "LineString", "coordinates": [[138.48914, 35.0242], [138.48917, 35.02466], [138.4892, 35.02509], [138.48925, 35.02577], [138.4893, 35.02668], [138.48932, 35.02689], [138.48939, 35.02764], [138.48944, 35.0283], [138.48951, 35.0287], [138.48964, 35.02922], [138.48974, 35.02954], [138.48991, 35.02992], [138.49004, 35.03014], [138.49026, 35.03052], [138.49067, 35.03107], [138.49156, 35.03219], [138.49242, 35.03327], [138.49316, 35.0342], [138.49368, 35.03484], [138.49377, 35.03495], [138.49408, 35.03531], [138.49458, 35.03582], [138.49492, 35.03616], [138.49547, 35.03664], [138.49623, 35.03729], [138.4969, 35.03787], [138.49782, 35.03878], [138.49789, 35.03885], [138.49832, 35.03924], [138.49977, 35.04057], [138.50067, 35.04138], [138.50219, 35.04273], [138.5025, 35.04302], [138.50326, 35.04372], [138.50467, 35.045], [138.50549, 35.04581], [138.50598, 35.04609], [138.50674, 35.04645], [138.5075, 35.04669], [138.50848, 35.04685], [138.50964, 35.04694], [138.51171, 35.04707], [138.5123, 35.0471], [138.51356, 35.04719], [138.51443, 35.04733], [138.51484, 35.04745], [138.51511, 35.04759], [138.51584, 35.0481], [138.51789, 35.04957], [138.52077, 35.05169]]}, "properties": {"id": "GEOM_TOKYO_1050", "route_id": "R_A38B6B65", "route_name": null, "route_color": "#F28E1C", "route_text_color": null, "line_name": "東海道線", "operator_id": "東海旅客鉄道", "representation": "service_path", "min_zoom": 0, "max_zoom": 24, "offset_rank": 0}}, {"type": "Feature", "bbox": [138.55243, 35.09654, 138.55321, 35.09771], "geometry": {"type": "LineString", "coordinates": [[138.55321, 35.09771], [138.55243, 35.09654]]}, "properties": {"id": "GEOM_TOKYO_1052", "route_id": "R_A38B6B65", "route_name": null, "route_color": "#F28E1C", "route_text_color": null, "line_name": "東海道線", "operator_id": "東海旅客鉄道", "representation": "service_path", "min_zoom": 0, "max_zoom": 24, "offset_rank": 0}}, {"type": "Feature", "bbox": [138.41517, 34.98556, 138.42963, 34.99499], "geometry": {"type": "LineString", "coordinates": [[138.41517, 34.98556], [138.41662, 34.98654], [138.41919, 34.98821], [138.42082, 34.98928], [138.42096, 34.98937], [138.42238, 34.99028], [138.42342, 34.99096], [138.4245, 34.99164], [138.42685, 34.99317], [138.42741, 34.99354], [138.42843, 34.99421], [138.42963, 34.99499]]}, "properties": {"id": "GEOM_TOKYO_1053", "route_id": "R_A38B6B65", "route_name": null, "route_color": "#F28E1C", "route_text_color": null, "line_name": "東海道線", "operator_id": "東海旅客鉄道", "representation": "service_path", "min_zoom": 0, "max_zoom": 24, "offset_rank": 0}}, {"type": "Feature", "bbox": [138.58206, 35.11382, 138.58371, 35.11426], "geometry": {"type": "LineString", "coordinates": [[138.58371, 35.11426], [138.58272, 35.11403], [138.58206, 35.11382]]}, "properties": {"id": "GEOM_TOKYO_1058", "route_id": "R_A38B6B65", "route_name": null, "route_color": "#F28E1C", "route_text_color": null, "line_name": "東海道線", "operator_id": "東海旅客鉄道", "representation": "service_path", "min_zoom": 0, "max_zoom": 24, "offset_rank": 0}}, {"type": "Feature", "bbox": [138.61845, 35.1399, 138.61897, 35.14236], "geometry": {"type": "LineString", "coordinates": [[138.61897, 35.14236], [138.61845, 35.1399]]}, "properties": {"id": "GEOM_TOKYO_1060", "route_id": "R_A38B6B65", "route_name": null, "route_color": "#F28E1C", "route_text_color": null, "line_name": "東海道線", "operator_id": "東海旅客鉄道", "representation": "service_path", "min_zoom": 0, "max_zoom": 24, "offset_rank": 0}}, {"type": "Feature", "bbox": [138.52304, 35.05334, 138.55243, 35.09654], "geometry": {"type": "LineString", "coordinates": [[138.52304, 35.05334], [138.52353, 35.05369], [138.52496, 35.05472], [138.52679, 35.05604], [138.52741, 35.05642], [138.53038, 35.05795], [138.53245, 35.059], [138.53418, 35.05989], [138.5353, 35.06049], [138.53615, 35.06093], [138.53711, 35.06157], [138.53766, 35.06202], [138.53817, 35.06251], [138.53852, 35.0629], [138.53878, 35.06326], [138.53894, 35.06352], [138.53919, 35.06387], [138.53949, 35.06431], [138.53966, 35.06459], [138.53986, 35.06505], [138.54006, 35.06556], [138.54018, 35.06593], [138.54017, 35.06613], [138.54021, 35.0663], [138.54043, 35.06708], [138.54081, 35.06802], [138.54093, 35.06821], [138.54105, 35.0684], [138.54158, 35.06907], [138.54178, 35.06945], [138.54188, 35.06963], [138.54207, 35.07025], [138.54209, 35.07051], [138.54229, 35.07136], [138.54262, 35.07238], [138.5428, 35.07301], [138.54334, 35.07408], [138.54393, 35.07506], [138.54471, 35.07617], [138.54556, 35.07755], [138.54571, 35.07781], [138.54582, 35.07801], [138.54629, 35.07921], [138.54661, 35.08027], [138.54704, 35.08233], [138.54724, 35.08321], [138.54764, 35.08512], [138.54788, 35.08628], [138.54796, 35.08662], [138.54833, 35.08767], [138.54853, 35.08834], [138.54875, 35.089], [138.54913, 35.09002], [138.54947, 35.0909], [138.54996, 35.0921], [138.55044, 35.09329], [138.55065, 35.09359], [138.55084, 35.09397], [138.55121, 35.09455], [138.55172, 35.09541], [138.55243, 35.09654]]}, "properties": {"id": "GEOM_TOKYO_1062", "route_id": "R_A38B6B65", "route_name": null, "route_color": "#F28E1C", "route_text_color": null, "line_name": "東海道線", "operator_id": "東海旅客鉄道", "representation": "service_path", "min_zoom": 0, "max_zoom": 24, "offset_rank": 0}}, {"type": "Feature", "bbox": [138.48906, 35.0226, 138.48914, 35.0242], "geometry": {"type": "LineString", "coordinates": [[138.48906, 35.0226], [138.48914, 35.0242]]}, "properties": {"id": "GEOM_TOKYO_1063", "route_id": "R_A38B6B65", "route_name": null, "route_color": "#F28E1C", "route_text_color": null, "line_name": "東海道線", "operator_id": "東海旅客鉄道", "representation": "service_path", "min_zoom": 0, "max_zoom": 24, "offset_rank": 0}}, {"type": "Feature", "bbox": [138.41517, 34.98556, 138.42963, 34.99499], "geometry": {"type": "LineString", "coordinates": [[138.41517, 34.98556], [138.41598, 34.98587], [138.41736, 34.98648], [138.41831, 34.98687], [138.41928, 34.98735], [138.42061, 34.98814], [138.42234, 34.98929], [138.4241, 34.99052], [138.42426, 34.99064], [138.42519, 34.99137], [138.42616, 34.99217], [138.42721, 34.993], [138.42794, 34.9936], [138.42963, 34.99499]]}, "properties": {"id": "GEOM_TOKYO_1064", "route_id": "R_A38B6B65", "route_name": null, "route_color": "#F28E1C", "route_text_color": null, "line_name": "東海道線", "operator_id": "東海旅客鉄道", "representation": "service_path", "min_zoom": 0, "max_zoom": 24, "offset_rank": 0}}, {"type": "Feature", "bbox": [138.65382, 35.14415, 138.70121, 35.15116], "geometry": {"type": "LineString", "coordinates": [[138.70121, 35.14415], [138.69951, 35.14445], [138.69809, 35.14469], [138.69474, 35.14529], [138.69111, 35.14592], [138.69071, 35.146], [138.68794, 35.14652], [138.68586, 35.14689], [138.68542, 35.14696], [138.68303, 35.1474], [138.68106, 35.14774], [138.67989, 35.14797], [138.67928, 35.14808], [138.67875, 35.14817], [138.67642, 35.14859], [138.67499, 35.14882], [138.67297, 35.14918], [138.67027, 35.14966], [138.67011, 35.14969], [138.66664, 35.15027], [138.6649, 35.15049], [138.66352, 35.15062], [138.65931, 35.15084], [138.65882, 35.15087], [138.65789, 35.15092], [138.6566, 35.151], [138.65629, 35.15103], [138.65382, 35.15116]]}, "properties": {"id": "GEOM_TOKYO_1066", "route_id": "R_A38B6B65", "route_name": null, "route_color": "#F28E1C", "route_text_color": null, "line_name": "東海道線", "operator_id": "東海旅客鉄道", "representation": "service_path", "min_zoom": 0, "max_zoom": 24, "offset_rank": 0}}, {"type": "Feature", "bbox": [138.58371, 35.11426, 138.60763, 35.11921], "geometry": {"type": "LineString", "coordinates": [[138.60763, 35.11921], [138.60741, 35.11913], [138.60716, 35.11903], [138.60689, 35.11893], [138.60536, 35.1184], [138.60515, 35.11832], [138.60365, 35.11779], [138.60232, 35.11732], [138.60115, 35.11694], [138.59979, 35.11648], [138.59902, 35.11624], [138.59853, 35.1161], [138.59802, 35.11598], [138.59714, 35.11581], [138.59661, 35.11572], [138.59556, 35.11561], [138.59468, 35.11552], [138.59342, 35.11539], [138.59141, 35.11518], [138.58898, 35.11492], [138.58715, 35.11473], [138.58522, 35.11451], [138.58441, 35.1144], [138.58371, 35.11426]]}, "properties": {"id": "GEOM_TOKYO_1068", "route_id": "R_A38B6B65", "route_name": null, "route_color": "#F28E1C", "route_text_color": null, "line_name": "東海道線", "operator_id": "東海旅客鉄道", "representation": "service_path", "min_zoom": 0, "max_zoom": 24, "offset_rank": 0}}, {"type": "Feature", "bbox": [138.39042, 34.97261, 138.41166, 34.98324], "geometry": {"type": "LineString", "coordinates": [[138.41166, 34.98324], [138.41125, 34.98296], [138.41092, 34.98275], [138.40882, 34.98132], [138.40636, 34.97969], [138.40572, 34.97932], [138.4052, 34.97907], [138.40466, 34.97888], [138.40342, 34.97848], [138.40208, 34.97805], [138.4019, 34.978], [138.40144, 34.97783], [138.40111, 34.9777], [138.40071, 34.97755], [138.39993, 34.97722], [138.3993, 34.97695], [138.39804, 34.97643], [138.39614, 34.97564], [138.39575, 34.97543], [138.39416, 34.97459], [138.39314, 34.974], [138.39153, 34.9732], [138.39042, 34.97261]]}, "properties": {"id": "GEOM_TOKYO_1069", "route_id": "R_A38B6B65", "route_name": null, "route_color": "#F28E1C", "route_text_color": null, "line_name": "東海道線", "operator_id": "東海旅客鉄道", "representation": "service_path", "min_zoom": 0, "max_zoom": 24, "offset_rank": 0}}, {"type": "Feature", "bbox": [139.07654, 35.10266, 139.07912, 35.10445], "geometry": {"type": "LineString", "coordinates": [[139.07912, 35.10445], [139.07909, 35.10443], [139.07892, 35.10432], [139.07672, 35.10279], [139.07654, 35.10266]]}, "properties": {"id": "GEOM_TOKYO_2957", "route_id": "R_09EB5226", "route_name": null, "route_color": "#F28E1C", "route_text_color": null, "line_name": "東海道線", "operator_id": "jr_east", "representation": "service_path", "min_zoom": 0, "max_zoom": 24, "offset_rank": 0}}, {"type": "Feature", "bbox": [139.07621, 35.10266, 139.07967, 35.10512], "geometry": {"type": "LineString", "coordinates": [[139.07967, 35.10512], [139.07876, 35.10446], [139.07658, 35.10292], [139.07621, 35.10266]]}, "properties": {"id": "GEOM_TOKYO_2958", "route_id": "R_09EB5226", "route_name": null, "route_color": "#F28E1C", "route_text_color": null, "line_name": "東海道線", "operator_id": "jr_east", "representation": "service_path", "min_zoom": 0, "max_zoom": 24, "offset_rank": 0}}, {"type": "Feature", "bbox": [139.08953, 35.116, 139.09685, 35.14325], "geometry": {"type": "LineString", "coordinates": [[139.08953, 35.116], [139.08964, 35.11627], [139.08974, 35.11655], [139.08996, 35.11711], [139.09002, 35.11733], [139.09014, 35.11781], [139.09027, 35.11835], [139.09036, 35.11875], [139.09047, 35.11924], [139.09058, 35.11963], [139.09078, 35.12052], [139.091, 35.12141], [139.09116, 35.12215], [139.09139, 35.12305], [139.09151, 35.12361], [139.09171, 35.12446], [139.09192, 35.12531], [139.09214, 35.12618], [139.09214, 35.1262], [139.09225, 35.12663], [139.09243, 35.12741], [139.09256, 35.12794], [139.09269, 35.1284], [139.09279, 35.12884], [139.09298, 35.12971], [139.0932, 35.13063], [139.09339, 35.13148], [139.09348, 35.13191], [139.09357, 35.13223], [139.09371, 35.13279], [139.0939, 35.13359], [139.09412, 35.13443], [139.09425, 35.13503], [139.09425, 35.13505], [139.09466, 35.13676], [139.09476, 35.13722], [139.09488, 35.1377], [139.09498, 35.13813], [139.0952, 35.139], [139.09528, 35.13915], [139.09535, 35.13947], [139.09549, 35.14007], [139.09556, 35.14034], [139.09562, 35.1406], [139.0957, 35.1409], [139.09572, 35.14101], [139.09587, 35.14163], [139.09596, 35.14189], [139.09605, 35.14212], [139.09614, 35.14233], [139.09619, 35.14243], [139.09622, 35.14249], [139.09631, 35.14263], [139.09637, 35.14272], [139.0965, 35.14288], [139.09664, 35.14304], [139.09685, 35.14325]]}, "properties": {"id": "GEOM_TOKYO_2963", "route_id": "R_09EB5226", "route_name": null, "route_color": "#F28E1C", "route_text_color": null, "line_name": "東海道線", "operator_id": "jr_east", "representation": "service_path", "min_zoom": 0, "max_zoom": 24, "offset_rank": 0}}, {"type": "Feature", "bbox": [139.08107, 35.10584, 139.08953, 35.116], "geometry": {"type": "LineString", "coordinates": [[139.08107, 35.10584], [139.0816, 35.10623], [139.08176, 35.10636], [139.08192, 35.10649], [139.0824, 35.10701], [139.08251, 35.10715], [139.0831, 35.1078], [139.08324, 35.10798], [139.08359, 35.10864], [139.08367, 35.10877], [139.08379, 35.10903], [139.08385, 35.1092], [139.08387, 35.10935], [139.08394, 35.11022], [139.08403, 35.11133], [139.08407, 35.11148], [139.08412, 35.11161], [139.0842, 35.11175], [139.08422, 35.1118], [139.08428, 35.11192], [139.08448, 35.11234], [139.08456, 35.11242], [139.08462, 35.11248], [139.08512, 35.11299], [139.08548, 35.11331], [139.08588, 35.11367], [139.0861, 35.11381], [139.08622, 35.11386], [139.08651, 35.11399], [139.08688, 35.1142], [139.08703, 35.11426], [139.08743, 35.11444], [139.08791, 35.1147], [139.08843, 35.115], [139.08858, 35.1151], [139.08901, 35.11544], [139.08936, 35.11584], [139.08953, 35.116]]}, "properties": {"id": "GEOM_TOKYO_2964", "route_id": "R_09EB5226", "route_name": null, "route_color": "#F28E1C", "route_text_color": null, "line_name": "東海道線", "operator_id": "jr_east", "representation": "service_path", "min_zoom": 0, "max_zoom": 24, "offset_rank": 0}}, {"type": "Feature", "bbox": [139.07967, 35.10512, 139.08107, 35.10584], "geometry": {"type": "LineString", "coordinates": [[139.07967, 35.10512], [139.07988, 35.10526], [139.08012, 35.10541], [139.08035, 35.10555], [139.08057, 35.10564], [139.08107, 35.10584]]}, "properties": {"id": "GEOM_TOKYO_2965", "route_id": "R_09EB5226", "route_name": null, "route_color": "#F28E1C", "route_text_color": null, "line_name": "東海道線", "operator_id": "jr_east", "representation": "service_path", "min_zoom": 0, "max_zoom": 24, "offset_rank": 0}}, {"type": "Feature", "bbox": [139.07912, 35.10445, 139.08107, 35.10584], "geometry": {"type": "LineString", "coordinates": [[139.08107, 35.10584], [139.08055, 35.10546], [139.07978, 35.10492], [139.07912, 35.10445]]}, "properties": {"id": "GEOM_TOKYO_2968", "route_id": "R_09EB5226", "route_name": null, "route_color": "#F28E1C", "route_text_color": null, "line_name": "東海道線", "operator_id": "jr_east", "representation": "service_path", "min_zoom": 0, "max_zoom": 24, "offset_rank": 0}}, {"type": "Feature", "bbox": [139.08953, 35.116, 139.09685, 35.14325], "geometry": {"type": "LineString", "coordinates": [[139.08953, 35.116], [139.08991, 35.11636], [139.09002, 35.11656], [139.09028, 35.11727], [139.09036, 35.11768], [139.09057, 35.11851], [139.09069, 35.11904], [139.09081, 35.11956], [139.09101, 35.12041], [139.09122, 35.12124], [139.09134, 35.12174], [139.09145, 35.12218], [139.09165, 35.12306], [139.09177, 35.12353], [139.09188, 35.12394], [139.09208, 35.12475], [139.0922, 35.12526], [139.0923, 35.12569], [139.09241, 35.12612], [139.09251, 35.12655], [139.09265, 35.12712], [139.09285, 35.12793], [139.09296, 35.12836], [139.09317, 35.12927], [139.09337, 35.13011], [139.0935, 35.13057], [139.09359, 35.13097], [139.0938, 35.13184], [139.09399, 35.13266], [139.09417, 35.13345], [139.09433, 35.1341], [139.09454, 35.13496], [139.09455, 35.13498], [139.0948, 35.13612], [139.09502, 35.137], [139.09517, 35.13761], [139.09538, 35.13854], [139.09548, 35.13892], [139.09553, 35.1391], [139.09558, 35.13933], [139.09575, 35.13998], [139.09584, 35.14033], [139.09588, 35.14051], [139.0959, 35.14058], [139.096, 35.141], [139.09601, 35.14105], [139.09623, 35.14184], [139.09644, 35.14248], [139.09646, 35.14251], [139.09655, 35.14273], [139.09657, 35.14277], [139.09668, 35.14294], [139.09685, 35.14325]]}, "properties": {"id": "GEOM_TOKYO_2969", "route_id": "R_09EB5226", "route_name": null, "route_color": "#F28E1C", "route_text_color": null, "line_name": "東海道線", "operator_id": "jr_east", "representation": "service_path", "min_zoom": 0, "max_zoom": 24, "offset_rank": 0}}, {"type": "Feature", "bbox": [139.13102, 35.15599, 139.13348, 35.15786], "geometry": {"type": "LineString", "coordinates": [[139.13102, 35.15599], [139.13128, 35.15612], [139.13148, 35.15624], [139.13182, 35.15645], [139.13214, 35.15667], [139.13275, 35.15719], [139.13309, 35.15751], [139.13348, 35.15786]]}, "properties": {"id": "GEOM_TOKYO_2970", "route_id": "R_09EB5226", "route_name": null, "route_color": "#F28E1C", "route_text_color": null, "line_name": "東海道線", "operator_id": "jr_east", "representation": "service_path", "min_zoom": 0, "max_zoom": 24, "offset_rank": 0}}, {"type": "Feature", "bbox": [139.10386, 35.1469, 139.13102, 35.15599], "geometry": {"type": "LineString", "coordinates": [[139.10386, 35.1469], [139.10392, 35.14694], [139.10417, 35.14707], [139.10451, 35.14725], [139.10549, 35.14778], [139.10581, 35.14797], [139.10641, 35.14834], [139.10692, 35.14875], [139.10729, 35.14908], [139.1075, 35.14934], [139.10792, 35.14998], [139.10826, 35.15058], [139.10884, 35.15156], [139.1093, 35.15234], [139.10947, 35.15263], [139.10958, 35.15279], [139.10972, 35.15298], [139.10988, 35.15318], [139.11005, 35.15336], [139.1102, 35.15351], [139.11033, 35.15361], [139.11044, 35.15369], [139.1105, 35.15372], [139.11063, 35.1538], [139.11075, 35.15387], [139.11096, 35.15397], [139.11115, 35.15406], [139.11143, 35.15416], [139.11157, 35.15421], [139.1118, 35.15428], [139.11204, 35.15436], [139.11227, 35.15441], [139.11254, 35.15445], [139.11292, 35.15448], [139.113, 35.15448], [139.11314, 35.15449], [139.11345, 35.15449], [139.11377, 35.15445], [139.11484, 35.15428], [139.1152, 35.15417], [139.11606, 35.15382], [139.11672, 35.15356], [139.11691, 35.15349], [139.11718, 35.15341], [139.11734, 35.15337], [139.11753, 35.15333], [139.11772, 35.15331], [139.11793, 35.15327], [139.11829, 35.15324], [139.11854, 35.15321], [139.11884, 35.15318], [139.11908, 35.15317], [139.11949, 35.15317], [139.11982, 35.15316], [139.12011, 35.15317], [139.12035, 35.15318], [139.12056, 35.1532], [139.12086, 35.15324], [139.12122, 35.15329], [139.12151, 35.15335], [139.12184, 35.15342], [139.12192, 35.15348], [139.12215, 35.15354], [139.1224, 35.15361], [139.12261, 35.15368], [139.12349, 35.15391], [139.12384, 35.15398], [139.12437, 35.15412], [139.1257, 35.15448], [139.12695, 35.15482], [139.12741, 35.15494], [139.12818, 35.15515], [139.12925, 35.15545], [139.12943, 35.15549], [139.12982, 35.15559], [139.13034, 35.15573], [139.13044, 35.15575], [139.13065, 35.15584], [139.13085, 35.15593], [139.13102, 35.15599]]}, "properties": {"id": "GEOM_TOKYO_2971", "route_id": "R_09EB5226", "route_name": null, "route_color": "#F28E1C", "route_text_color": null, "line_name": "東海道線", "operator_id": "jr_east", "representation": "service_path", "min_zoom": 0, "max_zoom": 24, "offset_rank": 0}}, {"type": "Feature", "bbox": [139.10054, 35.14535, 139.10386, 35.1469], "geometry": {"type": "LineString", "coordinates": [[139.10386, 35.1469], [139.10054, 35.14535]]}, "properties": {"id": "GEOM_TOKYO_2972", "route_id": "R_09EB5226", "route_name": null, "route_color": "#F28E1C", "route_text_color": null, "line_name": "東海道線", "operator_id": "jr_east", "representation": "service_path", "min_zoom": 0, "max_zoom": 24, "offset_rank": 0}}, {"type": "Feature", "bbox": [139.09685, 35.14325, 139.10054, 35.14535], "geometry": {"type": "LineString", "coordinates": [[139.10054, 35.14535], [139.09978, 35.14503], [139.09935, 35.14484], [139.09905, 35.14469], [139.09866, 35.14448], [139.09828, 35.14427], [139.09788, 35.144], [139.09758, 35.14379], [139.09711, 35.14344], [139.09685, 35.14325]]}, "properties": {"id": "GEOM_TOKYO_2973", "route_id": "R_09EB5226", "route_name": null, "route_color": "#F28E1C", "route_text_color": null, "line_name": "東海道線", "operator_id": "jr_east", "representation": "service_path", "min_zoom": 0, "max_zoom": 24, "offset_rank": 0}}]}