{"type": "FeatureCollection", "features": [{"type": "Feature", "bbox": [138.2363, 35.91175, 138.23943, 35.91278], "geometry": {"type": "LineString", "coordinates": [[138.23943, 35.91175], [138.2363, 35.91278]]}, "properties": {"id": "GEOM_TOKYO_2702", "route_id": "R_3F47F0D7", "route_name": null, "route_color": "#F15A24", "route_text_color": null, "line_name": "中央線", "operator_id": "jr_east", "representation": "service_path", "min_zoom": 0, "max_zoom": 24, "offset_rank": 0}}, {"type": "Feature", "bbox": [138.21089, 35.92955, 138.21271, 35.93125], "geometry": {"type": "LineString", "coordinates": [[138.21271, 35.92955], [138.21193, 35.93034], [138.21186, 35.93042], [138.21181, 35.93046], [138.21171, 35.93056], [138.21163, 35.93063], [138.21089, 35.93125]]}, "properties": {"id": "GEOM_TOKYO_2703", "route_id": "R_3F47F0D7", "route_name": null, "route_color": "#F15A24", "route_text_color": null, "line_name": "中央線", "operator_id": "jr_east", "representation": "service_path", "min_zoom": 0, "max_zoom": 24, "offset_rank": 0}}, {"type": "Feature", "bbox": [138.31431, 35.86334, 138.31854, 35.86428], "geometry": {"type": "LineString", "coordinates": [[138.31854, 35.86334], [138.31741, 35.86358], [138.31431, 35.86428]]}, "properties": {"id": "GEOM_TOKYO_2710", "route_id": "R_3F47F0D7", "route_name": null, "route_color": "#F15A24", "route_text_color": null, "line_name": "中央線", "operator_id": "jr_east", "representation": "service_path", "min_zoom": 0, "max_zoom": 24, "offset_rank": 0}}, {"type": "Feature", "bbox": [138.19652, 35.94167, 138.19841, 35.94389], "geometry": {"type": "LineString", "coordinates": [[138.19841, 35.94167], [138.19765, 35.94257], [138.19652, 35.94389]]}, "properties": {"id": "GEOM_TOKYO_2711", "route_id": "R_3F47F0D7", "route_name": null, "route_color": "#F15A24", "route_text_color": null, "line_name": "中央線", "operator_id": "jr_east", "representation": "service_path", "min_zoom": 0, "max_zoom": 24, "offset_rank": 0}}, {"type": "Feature", "bbox": [138.39348, 35.78987, 138.3951, 35.79153], "geometry": {"type": "LineString", "coordinates": [[138.3951, 35.78987], [138.39451, 35.79051], [138.39402, 35.791], [138.39348, 35.79153]]}, "properties": {"id": "GEOM_TOKYO_2717", "route_id": "R_3F47F0D7", "route_name": null, "route_color": "#F15A24", "route_text_color": null, "line_name": "中央線", "operator_id": "jr_east", "representation": "service_path", "min_zoom": 0, "max_zoom": 24, "offset_rank": 0}}, {"type": "Feature", "bbox": [138.08646, 36.0478, 138.11601, 36.07193], "geometry": {"type": "LineString", "coordinates": [[138.11601, 36.0478], [138.11595, 36.04807], [138.11566, 36.04925], [138.11557, 36.04959], [138.11556, 36.04966], [138.11553, 36.04975], [138.11536, 36.05044], [138.11506, 36.05163], [138.11481, 36.05263], [138.11474, 36.05293], [138.11464, 36.05341], [138.1146, 36.05352], [138.11455, 36.05364], [138.1144, 36.05396], [138.11386, 36.05506], [138.11331, 36.05614], [138.11275, 36.05726], [138.11219, 36.05836], [138.11159, 36.05945], [138.11128, 36.06001], [138.11105, 36.06041], [138.11072, 36.06093], [138.1106, 36.06106], [138.11047, 36.06116], [138.11042, 36.06119], [138.11027, 36.06129], [138.11007, 36.06142], [138.10979, 36.06159], [138.10945, 36.0618], [138.10918, 36.06197], [138.10888, 36.06213], [138.10883, 36.06215], [138.10858, 36.06227], [138.10823, 36.06243], [138.10755, 36.06277], [138.10731, 36.06289], [138.10696, 36.06306], [138.10671, 36.06317], [138.10654, 36.06325], [138.10648, 36.06328], [138.10623, 36.06343], [138.10595, 36.0636], [138.10578, 36.06372], [138.10565, 36.06382], [138.10557, 36.06389], [138.10538, 36.06406], [138.10529, 36.06416], [138.10451, 36.06515], [138.1039, 36.06592], [138.10351, 36.06638], [138.10326, 36.06662], [138.10307, 36.06675], [138.1029, 36.06685], [138.10259, 36.06702], [138.10209, 36.06724], [138.10158, 36.06744], [138.10123, 36.06757], [138.10074, 36.06773], [138.09945, 36.06813], [138.09807, 36.06858], [138.09701, 36.06893], [138.0967, 36.06903], [138.0959, 36.06929], [138.09536, 36.06946], [138.09507, 36.06955], [138.09466, 36.06969], [138.09427, 36.06981], [138.09399, 36.0699], [138.09384, 36.06995], [138.0925, 36.07037], [138.09117, 36.0708], [138.0906, 36.07098], [138.09024, 36.0711], [138.08928, 36.07141], [138.08784, 36.07186], [138.08769, 36.07188], [138.08754, 36.07189], [138.08723, 36.0719], [138.08646, 36.07193]]}, "properties": {"id": "GEOM_TOKYO_2721", "route_id": "R_3F47F0D7", "route_name": null, "route_color": "#F15A24", "route_text_color": null, "line_name": "中央線", "operator_id": "jr_east", "representation": "service_path", "min_zoom": 0, "max_zoom": 24, "offset_rank": 0}}, {"type": "Feature", "bbox": [138.2745, 35.88431, 138.27643, 35.88561], "geometry": {"type": "LineString", "coordinates": [[138.27643, 35.88431], [138.2759, 35.88463], [138.27529, 35.88505], [138.2745, 35.88561]]}, "properties": {"id": "GEOM_TOKYO_2722", "route_id": "R_3F47F0D7", "route_name": null, "route_color": "#F15A24", "route_text_color": null, "line_name": "中央線", "operator_id": "jr_east", "representation": "service_path", "min_zoom": 0, "max_zoom": 24, "offset_rank": 0}}, {"type": "Feature", "bbox": [138.11652, 35.99608, 138.15088, 36.04572], "geometry": {"type": "LineString", "coordinates": [[138.15088, 35.99608], [138.15068, 35.99634], [138.15064, 35.9964], [138.15046, 35.99662], [138.14978, 35.99748], [138.14893, 35.99853], [138.14819, 35.99945], [138.14805, 35.99962], [138.1479, 35.99981], [138.14737, 36.00045], [138.14651, 36.00153], [138.14636, 36.00172], [138.14628, 36.00182], [138.14523, 36.00316], [138.14492, 36.00355], [138.14456, 36.004], [138.1443, 36.00434], [138.14335, 36.00555], [138.14226, 36.00695], [138.14133, 36.00812], [138.14113, 36.00838], [138.1406, 36.00906], [138.14045, 36.00924], [138.1399, 36.00994], [138.13916, 36.0109], [138.13904, 36.01105], [138.13899, 36.01111], [138.13854, 36.01168], [138.13841, 36.01184], [138.13778, 36.01264], [138.13738, 36.01316], [138.13722, 36.01348], [138.13639, 36.01533], [138.13574, 36.01678], [138.13548, 36.01738], [138.13541, 36.01753], [138.13508, 36.01829], [138.13477, 36.01897], [138.13412, 36.02043], [138.13371, 36.02135], [138.13339, 36.02198], [138.13318, 36.02234], [138.13283, 36.02279], [138.13268, 36.02297], [138.13252, 36.02316], [138.13193, 36.02382], [138.13115, 36.02468], [138.13099, 36.02486], [138.13008, 36.02587], [138.12939, 36.02663], [138.12849, 36.02763], [138.12727, 36.02899], [138.12633, 36.03001], [138.12543, 36.03101], [138.12367, 36.03295], [138.12191, 36.03489], [138.12126, 36.03558], [138.1204, 36.03653], [138.11997, 36.037], [138.11962, 36.03736], [138.1195, 36.0375], [138.11917, 36.03782], [138.11905, 36.03796], [138.1189, 36.03816], [138.11867, 36.03846], [138.11861, 36.03857], [138.11849, 36.03877], [138.11828, 36.03917], [138.11814, 36.03947], [138.11807, 36.03967], [138.11805, 36.03974], [138.118, 36.03987], [138.11793, 36.04013], [138.11764, 36.04127], [138.11734, 36.04244], [138.11705, 36.04358], [138.11674, 36.0448], [138.11652, 36.04572]]}, "properties": {"id": "GEOM_TOKYO_2723", "route_id": "R_3F47F0D7", "route_name": null, "route_color": "#F15A24", "route_text_color": null, "line_name": "中央線", "operator_id": "jr_east", "representation": "service_path", "min_zoom": 0, "max_zoom": 24, "offset_rank": 0}}, {"type": "Feature", "bbox": [138.31854, 35.83681, 138.36898, 35.86334], "geometry": {"type": "LineString", "coordinates": [[138.31854, 35.86334], [138.31924, 35.86314], [138.3198, 35.86295], [138.32003, 35.86286], [138.32023, 35.86277], [138.32071, 35.86251], [138.32104, 35.86229], [138.32122, 35.86213], [138.32133, 35.86201], [138.32147, 35.86184], [138.32153, 35.86177], [138.32168, 35.86156], [138.32191, 35.86122], [138.32206, 35.86094], [138.32212, 35.86082], [138.32237, 35.86034], [138.32262, 35.85989], [138.32273, 35.85972], [138.32282, 35.85959], [138.32295, 35.85943], [138.32308, 35.85929], [138.32324, 35.85912], [138.3234, 35.85899], [138.32359, 35.85886], [138.32378, 35.85875], [138.32407, 35.85863], [138.32468, 35.8584], [138.3252, 35.8582], [138.32595, 35.8579], [138.3263, 35.85773], [138.3265, 35.85762], [138.32666, 35.85751], [138.32681, 35.85739], [138.32695, 35.85725], [138.32708, 35.8571], [138.32752, 35.85651], [138.32787, 35.85603], [138.3282, 35.85551], [138.32854, 35.85499], [138.32865, 35.85482], [138.32871, 35.85473], [138.3288, 35.8546], [138.32892, 35.85443], [138.32907, 35.85426], [138.3293, 35.85405], [138.32955, 35.85386], [138.32978, 35.85371], [138.33011, 35.85351], [138.33019, 35.85348], [138.33057, 35.85326], [138.33059, 35.85325], [138.33103, 35.853], [138.3314, 35.85281], [138.33166, 35.85267], [138.33188, 35.85254], [138.33216, 35.85235], [138.33242, 35.85216], [138.33272, 35.85191], [138.33295, 35.85173], [138.33306, 35.85162], [138.33317, 35.8515], [138.33326, 35.85137], [138.33345, 35.85102], [138.33359, 35.85074], [138.33368, 35.85057], [138.33374, 35.85039], [138.33395, 35.84975], [138.33407, 35.84919], [138.33419, 35.84861], [138.33427, 35.84828], [138.33433, 35.8481], [138.33443, 35.8479], [138.33455, 35.84769], [138.33469, 35.84751], [138.3349, 35.84728], [138.3351, 35.84708], [138.33543, 35.84678], [138.33569, 35.84657], [138.33592, 35.84639], [138.33666, 35.8459], [138.33711, 35.84563], [138.33748, 35.84541], [138.33784, 35.84521], [138.33805, 35.84511], [138.33829, 35.84501], [138.33856, 35.84493], [138.33882, 35.84487], [138.33904, 35.84484], [138.33953, 35.84477], [138.34005, 35.84473], [138.34024, 35.84471], [138.34089, 35.84467], [138.34205, 35.84463], [138.34391, 35.84456], [138.34595, 35.84452], [138.34718, 35.84452], [138.34733, 35.84453], [138.34753, 35.84457], [138.34786, 35.84464], [138.34825, 35.84477], [138.34897, 35.84504], [138.34979, 35.84538], [138.35039, 35.84563], [138.35079, 35.84575], [138.3508, 35.84575], [138.35107, 35.84581], [138.35151, 35.84585], [138.35204, 35.84588], [138.35267, 35.84588], [138.35429, 35.84585], [138.35533, 35.84582], [138.3559, 35.8458], [138.35752, 35.84574], [138.35829, 35.84571], [138.35913, 35.84569], [138.35976, 35.84567], [138.35995, 35.84567], [138.36007, 35.84566], [138.3603, 35.84563], [138.36053, 35.84558], [138.36077, 35.84553], [138.36099, 35.84545], [138.36118, 35.84537], [138.3614, 35.84526], [138.36167, 35.84511], [138.36207, 35.84488], [138.36236, 35.8447], [138.36282, 35.84442], [138.36316, 35.84419], [138.36339, 35.84403], [138.36375, 35.84378], [138.36406, 35.84356], [138.36441, 35.84331], [138.36472, 35.84308], [138.36533, 35.84264], [138.36608, 35.84211], [138.36664, 35.84169], [138.36686, 35.8415], [138.36701, 35.84134], [138.36716, 35.84119], [138.36731, 35.84099], [138.36743, 35.8408], [138.3675, 35.84067], [138.36758, 35.84041], [138.36767, 35.84013], [138.36786, 35.83947], [138.36814, 35.83836], [138.3682, 35.83817], [138.36829, 35.83793], [138.36837, 35.83777], [138.36844, 35.83767], [138.36855, 35.83748], [138.36879, 35.83711], [138.36892, 35.8369], [138.36898, 35.83681]]}, "properties": {"id": "GEOM_TOKYO_2729", "route_id": "R_3F47F0D7", "route_name": null, "route_color": "#F15A24", "route_text_color": null, "line_name": "中央線", "operator_id": "jr_east", "representation": "service_path", "min_zoom": 0, "max_zoom": 24, "offset_rank": 0}}, {"type": "Feature", "bbox": [138.36574, 35.82599, 138.36726, 35.82829], "geometry": {"type": "LineString", "coordinates": [[138.36574, 35.82599], [138.36633, 35.82698], [138.36685, 35.8278], [138.36707, 35.82809], [138.36726, 35.82829]]}, "properties": {"id": "GEOM_TOKYO_2732", "route_id": "R_3F47F0D7", "route_name": null, "route_color": "#F15A24", "route_text_color": null, "line_name": "中央線", "operator_id": "jr_east", "representation": "service_path", "min_zoom": 0, "max_zoom": 24, "offset_rank": 0}}, {"type": "Feature", "bbox": [138.11601, 36.04572, 138.11652, 36.0478], "geometry": {"type": "LineString", "coordinates": [[138.11652, 36.04572], [138.11601, 36.0478]]}, "properties": {"id": "GEOM_TOKYO_2734", "route_id": "R_3F47F0D7", "route_name": null, "route_color": "#F15A24", "route_text_color": null, "line_name": "中央線", "operator_id": "jr_east", "representation": "service_path", "min_zoom": 0, "max_zoom": 24, "offset_rank": 0}}, {"type": "Feature", "bbox": [138.21271, 35.91278, 138.2363, 35.92955], "geometry": {"type": "LineString", "coordinates": [[138.2363, 35.91278], [138.23542, 35.91309], [138.23437, 35.91341], [138.23428, 35.91344], [138.23257, 35.91402], [138.23201, 35.91419], [138.23133, 35.91441], [138.23101, 35.91453], [138.23031, 35.9148], [138.22983, 35.91501], [138.22945, 35.91519], [138.22919, 35.91537], [138.22854, 35.91592], [138.22838, 35.91607], [138.22812, 35.91635], [138.22802, 35.91646], [138.22754, 35.91702], [138.2274, 35.91719], [138.22733, 35.91727], [138.22687, 35.91782], [138.2264, 35.91842], [138.22618, 35.91868], [138.22601, 35.91884], [138.22588, 35.91895], [138.22569, 35.91909], [138.2255, 35.91924], [138.22534, 35.91936], [138.22471, 35.91984], [138.22293, 35.92096], [138.22126, 35.922], [138.22066, 35.92237], [138.22046, 35.92249], [138.21995, 35.92281], [138.21976, 35.92292], [138.2196, 35.92302], [138.21821, 35.92388], [138.21784, 35.9241], [138.21778, 35.92414], [138.21733, 35.92441], [138.21691, 35.92467], [138.21653, 35.92491], [138.21621, 35.92512], [138.21596, 35.92529], [138.21573, 35.92547], [138.21551, 35.92563], [138.21531, 35.9258], [138.21513, 35.92598], [138.21486, 35.9263], [138.21467, 35.92656], [138.21463, 35.92662], [138.2145, 35.92683], [138.21437, 35.92707], [138.21421, 35.92737], [138.21405, 35.92771], [138.21388, 35.92803], [138.2137, 35.92835], [138.21347, 35.92866], [138.21309, 35.92913], [138.21271, 35.92955]]}, "properties": {"id": "GEOM_TOKYO_2736", "route_id": "R_3F47F0D7", "route_name": null, "route_color": "#F15A24", "route_text_color": null, "line_name": "中央線", "operator_id": "jr_east", "representation": "service_path", "min_zoom": 0, "max_zoom": 24, "offset_rank": 0}}, {"type": "Feature", "bbox": [138.27643, 35.86497, 138.31248, 35.88431], "geometry": {"type": "LineString", "coordinates": [[138.31248, 35.86497], [138.31189, 35.8652], [138.31072, 35.86565], [138.30969, 35.86606], [138.30848, 35.86655], [138.30762, 35.86689], [138.307, 35.86713], [138.3065, 35.86733], [138.30621, 35.86745], [138.30561, 35.86772], [138.30492, 35.86807], [138.30447, 35.86834], [138.30357, 35.86898], [138.30284, 35.86954], [138.30192, 35.87027], [138.30095, 35.87104], [138.30004, 35.87177], [138.29917, 35.87246], [138.29831, 35.87314], [138.29819, 35.87324], [138.29744, 35.87384], [138.29665, 35.87446], [138.29574, 35.87519], [138.29482, 35.87593], [138.29388, 35.87668], [138.29302, 35.87735], [138.29238, 35.87786], [138.2914, 35.87864], [138.29097, 35.87899], [138.29063, 35.87927], [138.2905, 35.87937], [138.29024, 35.87955], [138.2901, 35.87965], [138.28993, 35.87975], [138.28947, 35.88002], [138.2888, 35.8804], [138.28837, 35.88065], [138.2879, 35.88089], [138.28702, 35.88124], [138.28605, 35.88165], [138.28586, 35.88173], [138.28571, 35.88179], [138.28562, 35.88181], [138.28461, 35.88212], [138.28342, 35.88243], [138.28263, 35.88263], [138.28171, 35.88284], [138.28101, 35.88298], [138.2799, 35.88319], [138.27902, 35.88339], [138.27848, 35.88351], [138.27794, 35.88366], [138.27744, 35.88383], [138.2771, 35.88396], [138.27682, 35.88408], [138.27643, 35.88431]]}, "properties": {"id": "GEOM_TOKYO_2737", "route_id": "R_3F47F0D7", "route_name": null, "route_color": "#F15A24", "route_text_color": null, "line_name": "中央線", "operator_id": "jr_east", "representation": "service_path", "min_zoom": 0, "max_zoom": 24, "offset_rank": 0}}, {"type": "Feature", "bbox": [138.31248, 35.86428, 138.31431, 35.86497], "geometry": {"type": "LineString", "coordinates": [[138.31431, 35.86428], [138.31415, 35.86432], [138.31375, 35.86447], [138.31343, 35.86459], [138.3131, 35.86472], [138.31248, 35.86497]]}, "properties": {"id": "GEOM_TOKYO_2738", "route_id": "R_3F47F0D7", "route_name": null, "route_color": "#F15A24", "route_text_color": null, "line_name": "中央線", "operator_id": "jr_east", "representation": "service_path", "min_zoom": 0, "max_zoom": 24, "offset_rank": 0}}, {"type": "Feature", "bbox": [138.36898, 35.83082, 138.37049, 35.83681], "geometry": {"type": "LineString", "coordinates": [[138.36898, 35.83681], [138.36915, 35.83652], [138.36931, 35.83617], [138.36944, 35.83589], [138.36956, 35.83566], [138.36979, 35.83518], [138.36991, 35.83491], [138.37005, 35.83462], [138.37016, 35.83437], [138.37028, 35.83409], [138.37037, 35.83387], [138.37043, 35.83367], [138.37046, 35.83348], [138.37048, 35.83331], [138.37049, 35.83312], [138.37049, 35.83289], [138.37046, 35.83262], [138.37041, 35.83238], [138.37035, 35.8322], [138.37027, 35.832], [138.37018, 35.83178], [138.37003, 35.83149], [138.36993, 35.83127], [138.36988, 35.83117], [138.36965, 35.83082]]}, "properties": {"id": "GEOM_TOKYO_2740", "route_id": "R_3F47F0D7", "route_name": null, "route_color": "#F15A24", "route_text_color": null, "line_name": "中央線", "operator_id": "jr_east", "representation": "service_path", "min_zoom": 0, "max_zoom": 24, "offset_rank": 0}}, {"type": "Feature", "bbox": [138.23943, 35.88561, 138.2745, 35.91175], "geometry": {"type": "LineString", "coordinates": [[138.2745, 35.88561], [138.27401, 35.88597], [138.27349, 35.88638], [138.27298, 35.88683], [138.27241, 35.8874], [138.27156, 35.88827], [138.27069, 35.88915], [138.27, 35.88986], [138.26938, 35.89048], [138.26924, 35.89062], [138.26872, 35.89117], [138.26789, 35.89208], [138.26724, 35.8928], [138.26644, 35.89373], [138.26581, 35.89449], [138.26541, 35.89493], [138.26502, 35.89536], [138.26482, 35.89558], [138.26444, 35.89591], [138.26393, 35.89629], [138.2635, 35.89656], [138.26275, 35.89703], [138.26227, 35.8973], [138.26147, 35.89776], [138.2602, 35.89848], [138.25889, 35.89922], [138.25777, 35.89986], [138.25655, 35.90056], [138.25575, 35.90102], [138.25515, 35.90137], [138.25474, 35.90165], [138.25437, 35.90192], [138.25396, 35.90227], [138.25353, 35.90272], [138.25349, 35.90276], [138.25328, 35.90301], [138.25326, 35.90305], [138.25296, 35.90349], [138.25275, 35.90385], [138.25243, 35.90448], [138.25222, 35.90489], [138.25209, 35.90516], [138.25185, 35.90557], [138.25165, 35.9059], [138.25143, 35.90623], [138.25123, 35.9065], [138.25103, 35.90673], [138.25058, 35.90715], [138.25009, 35.90757], [138.24982, 35.90777], [138.24943, 35.90805], [138.24883, 35.90844], [138.24862, 35.90857], [138.24837, 35.9087], [138.24732, 35.90919], [138.24716, 35.90927], [138.24705, 35.90933], [138.2469, 35.9094], [138.24557, 35.90982], [138.24462, 35.91012], [138.24446, 35.91017], [138.24408, 35.91029], [138.24402, 35.9103], [138.24253, 35.91077], [138.24113, 35.91121], [138.24098, 35.91126], [138.24002, 35.91156], [138.23943, 35.91175]]}, "properties": {"id": "GEOM_TOKYO_2743", "route_id": "R_3F47F0D7", "route_name": null, "route_color": "#F15A24", "route_text_color": null, "line_name": "中央線", "operator_id": "jr_east", "representation": "service_path", "min_zoom": 0, "max_zoom": 24, "offset_rank": 0}}, {"type": "Feature", "bbox": [138.36726, 35.82829, 138.36965, 35.83082], "geometry": {"type": "LineString", "coordinates": [[138.36726, 35.82829], [138.36729, 35.82832], [138.36771, 35.82871], [138.36775, 35.82875], [138.36814, 35.82913], [138.3685, 35.8295], [138.36897, 35.83], [138.36965, 35.83082]]}, "properties": {"id": "GEOM_TOKYO_2744", "route_id": "R_3F47F0D7", "route_name": null, "route_color": "#F15A24", "route_text_color": null, "line_name": "中央線", "operator_id": "jr_east", "representation": "service_path", "min_zoom": 0, "max_zoom": 24, "offset_rank": 0}}, {"type": "Feature", "bbox": [138.19841, 35.93125, 138.21089, 35.94167], "geometry": {"type": "LineString", "coordinates": [[138.21089, 35.93125], [138.21074, 35.93137], [138.21049, 35.93156], [138.21006, 35.93185], [138.20967, 35.93207], [138.20923, 35.9323], [138.2086, 35.93258], [138.20729, 35.93308], [138.20656, 35.93339], [138.20593, 35.93371], [138.20528, 35.93406], [138.20517, 35.93414], [138.20506, 35.93423], [138.20488, 35.93439], [138.20469, 35.93455], [138.20453, 35.93471], [138.20443, 35.93482], [138.20434, 35.93492], [138.20423, 35.93504], [138.2038, 35.93562], [138.2032, 35.93647], [138.20309, 35.93664], [138.20301, 35.93675], [138.20292, 35.93686], [138.20283, 35.93698], [138.20264, 35.93718], [138.20239, 35.93748], [138.20222, 35.93765], [138.20221, 35.93767], [138.20206, 35.93781], [138.20202, 35.93784], [138.20101, 35.93871], [138.20088, 35.93885], [138.20066, 35.93909], [138.19985, 35.93998], [138.19841, 35.94167]]}, "properties": {"id": "GEOM_TOKYO_2746", "route_id": "R_3F47F0D7", "route_name": null, "route_color": "#F15A24", "route_text_color": null, "line_name": "中央線", "operator_id": "jr_east", "representation": "service_path", "min_zoom": 0, "max_zoom": 24, "offset_rank": 0}}, {"type": "Feature", "bbox": [138.15088, 35.99392, 138.15264, 35.99608], "geometry": {"type": "LineString", "coordinates": [[138.15264, 35.99392], [138.15248, 35.99411], [138.1518, 35.99494], [138.15088, 35.99608]]}, "properties": {"id": "GEOM_TOKYO_2749", "route_id": "R_3F47F0D7", "route_name": null, "route_color": "#F15A24", "route_text_color": null, "line_name": "中央線", "operator_id": "jr_east", "representation": "service_path", "min_zoom": 0, "max_zoom": 24, "offset_rank": 0}}, {"type": "Feature", "bbox": [138.15264, 35.94389, 138.19652, 35.99392], "geometry": {"type": "LineString", "coordinates": [[138.19652, 35.94389], [138.1955, 35.94503], [138.19532, 35.94523], [138.19517, 35.94541], [138.19497, 35.94563], [138.1949, 35.9457], [138.19411, 35.94661], [138.19381, 35.94694], [138.19351, 35.94722], [138.19314, 35.94754], [138.19297, 35.94769], [138.19204, 35.94847], [138.19159, 35.9488], [138.19055, 35.94956], [138.1903, 35.94975], [138.19008, 35.94996], [138.18981, 35.95027], [138.1896, 35.95055], [138.18905, 35.95132], [138.18864, 35.95193], [138.18817, 35.95266], [138.1881, 35.95278], [138.18807, 35.95281], [138.18793, 35.95299], [138.18778, 35.95319], [138.18757, 35.95342], [138.18755, 35.95344], [138.18732, 35.95366], [138.18712, 35.95384], [138.18566, 35.9551], [138.1842, 35.95637], [138.18369, 35.95682], [138.18276, 35.95764], [138.18125, 35.95904], [138.18012, 35.96013], [138.17969, 35.96054], [138.17916, 35.96105], [138.17895, 35.96127], [138.17871, 35.96155], [138.17856, 35.96177], [138.17796, 35.96264], [138.17741, 35.96351], [138.1771, 35.96401], [138.17697, 35.96421], [138.17694, 35.96426], [138.17686, 35.96439], [138.17666, 35.9647], [138.17633, 35.96517], [138.17555, 35.96625], [138.1753, 35.96658], [138.17524, 35.96666], [138.17517, 35.96676], [138.17452, 35.96768], [138.17414, 35.96818], [138.1739, 35.96852], [138.17375, 35.96874], [138.17371, 35.9688], [138.17362, 35.96894], [138.17345, 35.9693], [138.17331, 35.96965], [138.17305, 35.97049], [138.17281, 35.97149], [138.17255, 35.97279], [138.17242, 35.97348], [138.17231, 35.974], [138.17223, 35.97422], [138.17211, 35.97444], [138.17189, 35.97474], [138.1717, 35.97495], [138.17144, 35.97526], [138.17115, 35.97559], [138.17081, 35.97595], [138.17041, 35.97638], [138.17027, 35.97652], [138.16985, 35.97699], [138.16978, 35.97706], [138.16961, 35.97726], [138.16939, 35.97749], [138.16907, 35.97786], [138.16871, 35.97825], [138.16847, 35.97851], [138.16748, 35.97959], [138.16734, 35.97974], [138.1671, 35.98], [138.16683, 35.98029], [138.16663, 35.98051], [138.16643, 35.98069], [138.16619, 35.98089], [138.16594, 35.98107], [138.16563, 35.98126], [138.1653, 35.98143], [138.16503, 35.98157], [138.16469, 35.98174], [138.16446, 35.98188], [138.16442, 35.9819], [138.16413, 35.9821], [138.16393, 35.98226], [138.16374, 35.98241], [138.16351, 35.98265], [138.16201, 35.98419], [138.16197, 35.98424], [138.16144, 35.9848], [138.1614, 35.98483], [138.16119, 35.98505], [138.16095, 35.9853], [138.16055, 35.98572], [138.16029, 35.986], [138.16008, 35.98621], [138.15966, 35.98658], [138.15939, 35.98677], [138.15919, 35.98692], [138.1589, 35.98709], [138.15865, 35.98723], [138.15843, 35.98735], [138.15811, 35.98751], [138.15777, 35.98766], [138.1575, 35.9878], [138.15744, 35.98784], [138.15723, 35.98797], [138.15718, 35.988], [138.15701, 35.98813], [138.15683, 35.98827], [138.15664, 35.98843], [138.15646, 35.98863], [138.15609, 35.98906], [138.15563, 35.98967], [138.15556, 35.98977], [138.15543, 35.98997], [138.15522, 35.99028], [138.15487, 35.99079], [138.15476, 35.99095], [138.15466, 35.99109], [138.15455, 35.99126], [138.15444, 35.99141], [138.15434, 35.99156], [138.15425, 35.99168], [138.15389, 35.99221], [138.15319, 35.99319], [138.15264, 35.99392]]}, "properties": {"id": "GEOM_TOKYO_2751", "route_id": "R_3F47F0D7", "route_name": null, "route_color": "#F15A24", "route_text_color": null, "line_name": "中央線", "operator_id": "jr_east", "representation": "service_path", "min_zoom": 0, "max_zoom": 24, "offset_rank": 0}}, {"type": "Feature", "bbox": [138.36498, 35.79153, 138.39348, 35.82599], "geometry": {"type": "LineString", "coordinates": [[138.39348, 35.79153], [138.39206, 35.79291], [138.39171, 35.79326], [138.39155, 35.79342], [138.39137, 35.79355], [138.39118, 35.79368], [138.39102, 35.79378], [138.39083, 35.79387], [138.39061, 35.79395], [138.39007, 35.79417], [138.38892, 35.79459], [138.38795, 35.79494], [138.38731, 35.79517], [138.38654, 35.79546], [138.3857, 35.79576], [138.3841, 35.79635], [138.38328, 35.79665], [138.3825, 35.79693], [138.38213, 35.79707], [138.3816, 35.79726], [138.38123, 35.7974], [138.3809, 35.79755], [138.38044, 35.79781], [138.38011, 35.79805], [138.37969, 35.79837], [138.37934, 35.79863], [138.3788, 35.79903], [138.37839, 35.79934], [138.37829, 35.79942], [138.37778, 35.7998], [138.37692, 35.80045], [138.37621, 35.80097], [138.37551, 35.80151], [138.37465, 35.80214], [138.37413, 35.80252], [138.37377, 35.8028], [138.37342, 35.80311], [138.37322, 35.80334], [138.37301, 35.80366], [138.37281, 35.80399], [138.37269, 35.80428], [138.3726, 35.80458], [138.37241, 35.80511], [138.37221, 35.8057], [138.37216, 35.80585], [138.3721, 35.806], [138.37204, 35.80612], [138.372, 35.80619], [138.37195, 35.80626], [138.37189, 35.80634], [138.37187, 35.80638], [138.37182, 35.80644], [138.37164, 35.80672], [138.37152, 35.80692], [138.37142, 35.80705], [138.37131, 35.80717], [138.37121, 35.80726], [138.37112, 35.80734], [138.37091, 35.80756], [138.37077, 35.80769], [138.37047, 35.80799], [138.37018, 35.8083], [138.36982, 35.80867], [138.36947, 35.80903], [138.36914, 35.80935], [138.36888, 35.80958], [138.36875, 35.80971], [138.36865, 35.80982], [138.36856, 35.80996], [138.36849, 35.81011], [138.36841, 35.81028], [138.36833, 35.81052], [138.36793, 35.81178], [138.3675, 35.81303], [138.36706, 35.81431], [138.3666, 35.81559], [138.36657, 35.81568], [138.36617, 35.81686], [138.36596, 35.81751], [138.36577, 35.81814], [138.36568, 35.81848], [138.36562, 35.81881], [138.36552, 35.81938], [138.36539, 35.82001], [138.36532, 35.82052], [138.36524, 35.82106], [138.36517, 35.82173], [138.36511, 35.8222], [138.36506, 35.82261], [138.36502, 35.82315], [138.36499, 35.82374], [138.36498, 35.82391], [138.36499, 35.82411], [138.36503, 35.82433], [138.36509, 35.82456], [138.36515, 35.82475], [138.36516, 35.82478], [138.36529, 35.82514], [138.36542, 35.82541], [138.36556, 35.82568], [138.36574, 35.82599]]}, "properties": {"id": "GEOM_TOKYO_2752", "route_id": "R_3F47F0D7", "route_name": null, "route_color": "#F15A24", "route_text_color": null, "line_name": "中央線", "operator_id": "jr_east", "representation": "service_path", "min_zoom": 0, "max_zoom": 24, "offset_rank": 0}}, {"type": "Feature", "bbox": [138.08353, 36.07193, 138.08646, 36.072], "geometry": {"type": "LineString", "coordinates": [[138.08646, 36.07193], [138.08635, 36.07194], [138.08616, 36.07194], [138.08353, 36.072]]}, "properties": {"id": "GEOM_TOKYO_2753", "route_id": "R_3F47F0D7", "route_name": null, "route_color": "#F15A24", "route_text_color": null, "line_name": "中央線", "operator_id": "jr_east", "representation": "service_path", "min_zoom": 0, "max_zoom": 24, "offset_rank": 0}}, {"type": "Feature", "bbox": [138.3951, 35.75225, 138.41574, 35.78987], "geometry": {"type": "LineString", "coordinates": [[138.41352, 35.75225], [138.41329, 35.75311], [138.41326, 35.7532], [138.41316, 35.75345], [138.41293, 35.75423], [138.41287, 35.75445], [138.41257, 35.75549], [138.41222, 35.75673], [138.41209, 35.75729], [138.412, 35.75781], [138.41199, 35.75789], [138.41193, 35.75845], [138.41188, 35.75896], [138.41185, 35.75942], [138.41186, 35.75965], [138.41188, 35.75987], [138.41194, 35.76052], [138.41201, 35.76111], [138.41214, 35.76171], [138.41224, 35.76206], [138.41238, 35.76241], [138.4125, 35.76269], [138.41252, 35.76274], [138.41257, 35.76284], [138.41263, 35.76296], [138.41266, 35.76301], [138.41276, 35.76316], [138.41284, 35.76327], [138.41327, 35.76376], [138.4137, 35.76423], [138.41412, 35.76468], [138.41432, 35.76489], [138.41441, 35.76498], [138.41464, 35.76524], [138.41484, 35.7655], [138.41502, 35.76578], [138.41517, 35.76605], [138.41532, 35.76635], [138.41545, 35.76665], [138.41556, 35.76694], [138.41565, 35.76724], [138.4157, 35.76747], [138.41573, 35.76771], [138.41574, 35.76804], [138.41572, 35.76846], [138.41569, 35.76875], [138.41565, 35.76896], [138.41558, 35.76917], [138.41546, 35.76949], [138.41533, 35.76981], [138.41498, 35.77059], [138.41489, 35.77077], [138.41468, 35.77126], [138.41438, 35.77193], [138.41434, 35.77203], [138.41429, 35.77213], [138.414, 35.77278], [138.41364, 35.7736], [138.41331, 35.77435], [138.41296, 35.77513], [138.41262, 35.77592], [138.41244, 35.77631], [138.41223, 35.77671], [138.41204, 35.77705], [138.41183, 35.77737], [138.41156, 35.77771], [138.41129, 35.77804], [138.41094, 35.77841], [138.41057, 35.77876], [138.41011, 35.77913], [138.40936, 35.77974], [138.40922, 35.77985], [138.40894, 35.78007], [138.40745, 35.78128], [138.40622, 35.78228], [138.40596, 35.78249], [138.40487, 35.78337], [138.40435, 35.78379], [138.40377, 35.78423], [138.40327, 35.78455], [138.40281, 35.78483], [138.40225, 35.7851], [138.40132, 35.78545], [138.39971, 35.78604], [138.39907, 35.7863], [138.39884, 35.78641], [138.39854, 35.78657], [138.39828, 35.78675], [138.3981, 35.78689], [138.39777, 35.78722], [138.39741, 35.78756], [138.39718, 35.78779], [138.39686, 35.7881], [138.39682, 35.78814], [138.39647, 35.7885], [138.39569, 35.78926], [138.3951, 35.78987]]}, "properties": {"id": "GEOM_TOKYO_2755", "route_id": "R_3F47F0D7", "route_name": null, "route_color": "#F15A24", "route_text_color": null, "line_name": "中央線", "operator_id": "jr_east", "representation": "service_path", "min_zoom": 0, "max_zoom": 24, "offset_rank": 0}}, {"type": "Feature", "bbox": [138.36898, 35.83082, 138.37093, 35.83681], "geometry": {"type": "LineString", "coordinates": [[138.36898, 35.83681], [138.36911, 35.83671], [138.36917, 35.83664], [138.36926, 35.83652], [138.36966, 35.83599], [138.36982, 35.83576], [138.37014, 35.83529], [138.37027, 35.83509], [138.37041, 35.83488], [138.37056, 35.83462], [138.37066, 35.83439], [138.37074, 35.83418], [138.37082, 35.83396], [138.37088, 35.83372], [138.37091, 35.83355], [138.37093, 35.83332], [138.37093, 35.8331], [138.37092, 35.83284], [138.37088, 35.83257], [138.37082, 35.83232], [138.37071, 35.83203], [138.37062, 35.83186], [138.3705, 35.83166], [138.37039, 35.83149], [138.37028, 35.83134], [138.37025, 35.83131], [138.37014, 35.83118], [138.37011, 35.83116], [138.37002, 35.83108], [138.36984, 35.83095], [138.36965, 35.83082]]}, "properties": {"id": "GEOM_TOKYO_2764", "route_id": "R_3F47F0D7", "route_name": null, "route_color": "#F15A24", "route_text_color": null, "line_name": "中央線", "operator_id": "jr_east", "representation": "service_path", "min_zoom": 0, "max_zoom": 24, "offset_rank": 0}}, {"type": "Feature", "bbox": [137.94783, 36.1139, 137.94792, 36.11571], "geometry": {"type": "LineString", "coordinates": [[137.94783, 36.1139], [137.94792, 36.11571]]}, "properties": {"id": "GEOM_TOKYO_2816", "route_id": "R_3F47F0D7", "route_name": null, "route_color": "#F15A24", "route_text_color": null, "line_name": "中央線", "operator_id": "jr_east", "representation": "service_path", "min_zoom": 0, "max_zoom": 24, "offset_rank": 0}}, {"type": "Feature", "bbox": [138.02215, 36.03335, 138.03884, 36.05327], "geometry": {"type": "LineString", "coordinates": [[138.02215, 36.03335], [138.02235, 36.03377], [138.02261, 36.03438], [138.02281, 36.03472], [138.02288, 36.03486], [138.02312, 36.03525], [138.02334, 36.03555], [138.02352, 36.03578], [138.02357, 36.03584], [138.02366, 36.03592], [138.02383, 36.03608], [138.02406, 36.03626], [138.02431, 36.03642], [138.02491, 36.0368], [138.02564, 36.03722], [138.02637, 36.03766], [138.02661, 36.03784], [138.02689, 36.03815], [138.02731, 36.0387], [138.02747, 36.03896], [138.0276, 36.03918], [138.02773, 36.03947], [138.02819, 36.04045], [138.02839, 36.04087], [138.02851, 36.04118], [138.02861, 36.04147], [138.02868, 36.04185], [138.02879, 36.0426], [138.02889, 36.0433], [138.02894, 36.04403], [138.02895, 36.04412], [138.029, 36.04485], [138.02907, 36.0459], [138.0292, 36.04643], [138.02927, 36.04664], [138.02939, 36.04687], [138.02956, 36.04713], [138.02981, 36.0474], [138.0299, 36.04751], [138.03032, 36.04783], [138.03144, 36.04862], [138.03255, 36.0494], [138.0336, 36.05016], [138.03467, 36.05092], [138.03494, 36.05111], [138.0358, 36.05172], [138.03616, 36.05195], [138.03646, 36.05216], [138.03715, 36.05241], [138.03771, 36.05263], [138.03884, 36.05327]]}, "properties": {"id": "GEOM_TOKYO_2817", "route_id": "R_3F47F0D7", "route_name": null, "route_color": "#F15A24", "route_text_color": null, "line_name": "中央線", "operator_id": "jr_east", "representation": "service_path", "min_zoom": 0, "max_zoom": 24, "offset_rank": 0}}, {"type": "Feature", "bbox": [138.03444, 36.05184, 138.03884, 36.05327], "geometry": {"type": "LineString", "coordinates": [[138.03444, 36.05187], [138.03471, 36.05184], [138.03498, 36.05184], [138.03541, 36.05185], [138.03578, 36.05188], [138.03605, 36.05193], [138.03616, 36.05195], [138.03632, 36.052], [138.03677, 36.05212], [138.037, 36.05219], [138.03719, 36.05226], [138.03753, 36.05239], [138.03775, 36.05251], [138.03791, 36.0526], [138.03816, 36.05275], [138.03884, 36.05327]]}, "properties": {"id": "GEOM_TOKYO_2818", "route_id": "R_3F47F0D7", "route_name": null, "route_color": "#F15A24", "route_text_color": null, "line_name": "中央線", "operator_id": "jr_east", "representation": "service_path", "min_zoom": 0, "max_zoom": 24, "offset_rank": 0}}, {"type": "Feature", "bbox": [137.98289, 36.05187, 138.03444, 36.09348], "geometry": {"type": "LineString", "coordinates": [[137.98289, 36.09348], [137.98391, 36.09258], [137.98497, 36.09161], [137.98576, 36.09097], [137.98646, 36.09036], [137.9866, 36.09026], [137.98717, 36.08976], [137.98773, 36.08929], [137.98877, 36.08847], [137.98922, 36.0881], [137.99041, 36.08711], [137.99121, 36.08648], [137.99223, 36.08563], [137.99278, 36.08519], [137.99366, 36.08445], [137.99473, 36.08357], [137.99582, 36.08267], [137.99649, 36.08212], [137.99692, 36.08177], [137.99774, 36.08112], [137.99777, 36.08109], [137.99847, 36.08052], [137.99988, 36.07934], [138.0007, 36.07866], [138.00192, 36.07766], [138.0027, 36.077], [138.00389, 36.07601], [138.00549, 36.07468], [138.00561, 36.07458], [138.006, 36.07426], [138.00768, 36.07285], [138.00816, 36.07244], [138.00942, 36.07139], [138.01031, 36.07064], [138.01167, 36.06952], [138.01292, 36.06846], [138.01321, 36.06821], [138.01404, 36.06751], [138.01445, 36.06719], [138.01528, 36.06649], [138.01612, 36.06578], [138.01614, 36.06576], [138.01694, 36.0651], [138.01781, 36.06438], [138.01896, 36.06342], [138.01975, 36.06273], [138.02057, 36.06207], [138.02184, 36.06099], [138.02266, 36.06032], [138.02381, 36.05937], [138.02388, 36.05931], [138.02453, 36.05875], [138.02491, 36.05845], [138.02561, 36.05786], [138.0263, 36.05727], [138.02742, 36.05634], [138.02857, 36.05536], [138.0293, 36.05474], [138.03046, 36.05378], [138.03158, 36.05283], [138.03189, 36.05261], [138.03195, 36.05257], [138.03216, 36.05245], [138.0324, 36.05233], [138.03261, 36.05224], [138.03292, 36.05214], [138.03318, 36.05207], [138.03344, 36.05199], [138.03366, 36.05195], [138.03393, 36.05192], [138.03434, 36.05187], [138.03444, 36.05187]]}, "properties": {"id": "GEOM_TOKYO_2819", "route_id": "R_3F47F0D7", "route_name": null, "route_color": "#F15A24", "route_text_color": null, "line_name": "中央線", "operator_id": "jr_east", "representation": "service_path", "min_zoom": 0, "max_zoom": 24, "offset_rank": 0}}, {"type": "Feature", "bbox": [138.04638, 36.05735, 138.08353, 36.07219], "geometry": {"type": "LineString", "coordinates": [[138.08353, 36.072], [138.08311, 36.072], [138.08163, 36.07203], [138.08045, 36.07205], [138.08026, 36.07205], [138.08, 36.07206], [138.07878, 36.07209], [138.07739, 36.07212], [138.07661, 36.07215], [138.07591, 36.07217], [138.07547, 36.07218], [138.07519, 36.07219], [138.07501, 36.07219], [138.07489, 36.07219], [138.07485, 36.07219], [138.07466, 36.07218], [138.0744, 36.07215], [138.07406, 36.07211], [138.07373, 36.07204], [138.07352, 36.07199], [138.0733, 36.0719], [138.07303, 36.07176], [138.07191, 36.07116], [138.07072, 36.0705], [138.06949, 36.06981], [138.06914, 36.06962], [138.06894, 36.06951], [138.06872, 36.06938], [138.06826, 36.06913], [138.06698, 36.06843], [138.06666, 36.06825], [138.06639, 36.0681], [138.06611, 36.06795], [138.06576, 36.06776], [138.06488, 36.06727], [138.06454, 36.06709], [138.06337, 36.06645], [138.06216, 36.06579], [138.06095, 36.06512], [138.05975, 36.06446], [138.05854, 36.06379], [138.05736, 36.06314], [138.05615, 36.06246], [138.05571, 36.06221], [138.05491, 36.06177], [138.05373, 36.06112], [138.05245, 36.06042], [138.05126, 36.05977], [138.05001, 36.05912], [138.04889, 36.05858], [138.0482, 36.05825], [138.04719, 36.05774], [138.04638, 36.05735]]}, "properties": {"id": "GEOM_TOKYO_2820", "route_id": "R_3F47F0D7", "route_name": null, "route_color": "#F15A24", "route_text_color": null, "line_name": "中央線", "operator_id": "jr_east", "representation": "service_path", "min_zoom": 0, "max_zoom": 24, "offset_rank": 0}}, {"type": "Feature", "bbox": [137.99494, 35.98338, 137.99601, 35.98394], "geometry": {"type": "LineString", "coordinates": [[137.99601, 35.98394], [137.99566, 35.98378], [137.9954, 35.98364], [137.9952, 35.98353], [137.99494, 35.98338]]}, "properties": {"id": "GEOM_TOKYO_2821", "route_id": "R_3F47F0D7", "route_name": null, "route_color": "#F15A24", "route_text_color": null, "line_name": "中央線", "operator_id": "jr_east", "representation": "service_path", "min_zoom": 0, "max_zoom": 24, "offset_rank": 0}}, {"type": "Feature", "bbox": [137.97251, 35.98289, 137.99494, 36.01279], "geometry": {"type": "LineString", "coordinates": [[137.99494, 35.98338], [137.99437, 35.98319], [137.99396, 35.98302], [137.99361, 35.98296], [137.99328, 35.98291], [137.99288, 35.98289], [137.99226, 35.98296], [137.99194, 35.98304], [137.99175, 35.98312], [137.99145, 35.98327], [137.99118, 35.98345], [137.99089, 35.98369], [137.99004, 35.98444], [137.989, 35.98543], [137.98789, 35.98647], [137.98751, 35.98684], [137.98718, 35.98714], [137.98618, 35.98807], [137.98592, 35.98831], [137.98532, 35.98887], [137.98475, 35.98938], [137.98436, 35.9897], [137.98404, 35.98992], [137.98376, 35.99006], [137.98341, 35.99019], [137.98287, 35.99039], [137.98208, 35.99067], [137.98169, 35.99083], [137.98131, 35.99107], [137.98113, 35.99122], [137.98102, 35.99133], [137.98083, 35.99153], [137.98068, 35.99169], [137.98014, 35.99237], [137.97928, 35.99348], [137.97839, 35.99463], [137.97817, 35.99492], [137.97779, 35.99541], [137.97722, 35.99615], [137.97695, 35.99653], [137.97677, 35.99685], [137.97668, 35.9971], [137.97664, 35.99728], [137.97661, 35.99746], [137.97652, 35.99843], [137.97643, 35.99945], [137.97634, 36.0006], [137.97625, 36.00196], [137.97626, 36.00316], [137.97626, 36.0036], [137.97623, 36.00393], [137.97619, 36.00424], [137.97614, 36.00444], [137.97612, 36.00452], [137.97603, 36.0048], [137.97592, 36.00503], [137.9758, 36.00526], [137.97533, 36.0061], [137.97445, 36.0074], [137.97405, 36.00812], [137.97387, 36.00852], [137.9738, 36.00878], [137.97373, 36.00964], [137.97373, 36.0102], [137.97375, 36.01053], [137.97372, 36.01085], [137.97363, 36.01113], [137.97347, 36.01148], [137.97326, 36.0118], [137.97251, 36.01279]]}, "properties": {"id": "GEOM_TOKYO_2822", "route_id": "R_3F47F0D7", "route_name": null, "route_color": "#F15A24", "route_text_color": null, "line_name": "中央線", "operator_id": "jr_east", "representation": "service_path", "min_zoom": 0, "max_zoom": 24, "offset_rank": 0}}, {"type": "Feature", "bbox": [137.95642, 36.04799, 137.97784, 36.10749], "geometry": {"type": "LineString", "coordinates": [[137.97081, 36.04799], [137.97084, 36.04885], [137.97084, 36.04888], [137.97085, 36.04933], [137.97092, 36.0515], [137.97093, 36.05171], [137.97096, 36.05259], [137.971, 36.05298], [137.97109, 36.0534], [137.97126, 36.05397], [137.9714, 36.05443], [137.97163, 36.05514], [137.97203, 36.05636], [137.97236, 36.05745], [137.97289, 36.05915], [137.97326, 36.06026], [137.97326, 36.06029], [137.97368, 36.06159], [137.97375, 36.06183], [137.97398, 36.06256], [137.97418, 36.06317], [137.97447, 36.06397], [137.97474, 36.06471], [137.97505, 36.0656], [137.97522, 36.06596], [137.97536, 36.06622], [137.97566, 36.06673], [137.97684, 36.06879], [137.97722, 36.06946], [137.97744, 36.06991], [137.97762, 36.07036], [137.97783, 36.07087], [137.97784, 36.07122], [137.97779, 36.07196], [137.97778, 36.07284], [137.97777, 36.07346], [137.97779, 36.07384], [137.97777, 36.07496], [137.97777, 36.07568], [137.97776, 36.07654], [137.97776, 36.07662], [137.97774, 36.07774], [137.97775, 36.07928], [137.97774, 36.08057], [137.97773, 36.08144], [137.97773, 36.08239], [137.97773, 36.08333], [137.97772, 36.08417], [137.97771, 36.08555], [137.97767, 36.08648], [137.97761, 36.08729], [137.9776, 36.08755], [137.97753, 36.08796], [137.97741, 36.08849], [137.97734, 36.08873], [137.97723, 36.08908], [137.97711, 36.08936], [137.97693, 36.08974], [137.97673, 36.09007], [137.97657, 36.09025], [137.9762, 36.0906], [137.97587, 36.09087], [137.97533, 36.0913], [137.97494, 36.09162], [137.97452, 36.09193], [137.97423, 36.09215], [137.97361, 36.09262], [137.97338, 36.09279], [137.97309, 36.09297], [137.9728, 36.09311], [137.97241, 36.09322], [137.97212, 36.09329], [137.97175, 36.09333], [137.97102, 36.09337], [137.97034, 36.09343], [137.96964, 36.09354], [137.96904, 36.09365], [137.96872, 36.09371], [137.96833, 36.09374], [137.96811, 36.09375], [137.96788, 36.09374], [137.96753, 36.0937], [137.96719, 36.09365], [137.96677, 36.09356], [137.96641, 36.09345], [137.96625, 36.09337], [137.96581, 36.0931], [137.96513, 36.09257], [137.96449, 36.09216], [137.96414, 36.09198], [137.96351, 36.09181], [137.96314, 36.09175], [137.96274, 36.09173], [137.96242, 36.09173], [137.96202, 36.09176], [137.96138, 36.09191], [137.96077, 36.09221], [137.96025, 36.09259], [137.96003, 36.09282], [137.95979, 36.09312], [137.95953, 36.09354], [137.95944, 36.09376], [137.95936, 36.09404], [137.95933, 36.09437], [137.95936, 36.09476], [137.95946, 36.09504], [137.95948, 36.09509], [137.95957, 36.09532], [137.9597, 36.09555], [137.95984, 36.09582], [137.96006, 36.09609], [137.96029, 36.09631], [137.96133, 36.09709], [137.96237, 36.09784], [137.96284, 36.09828], [137.96304, 36.09851], [137.9632, 36.09877], [137.96333, 36.09903], [137.96345, 36.09929], [137.96353, 36.09958], [137.96357, 36.09987], [137.96355, 36.10021], [137.96351, 36.10043], [137.96335, 36.10101], [137.96322, 36.10154], [137.96319, 36.10165], [137.96307, 36.10214], [137.96303, 36.1022], [137.96279, 36.10265], [137.96236, 36.10309], [137.96183, 36.10345], [137.96116, 36.10368], [137.96055, 36.10383], [137.96047, 36.10385], [137.96023, 36.10391], [137.95977, 36.10403], [137.95914, 36.10423], [137.95854, 36.10454], [137.95805, 36.10494], [137.95764, 36.10543], [137.95732, 36.1059], [137.95701, 36.10646], [137.95691, 36.10667], [137.95675, 36.10695], [137.95642, 36.10749]]}, "properties": {"id": "GEOM_TOKYO_2823", "route_id": "R_3F47F0D7", "route_name": null, "route_color": "#F15A24", "route_text_color": null, "line_name": "中央線", "operator_id": "jr_east", "representation": "service_path", "min_zoom": 0, "max_zoom": 24, "offset_rank": 0}}, {"type": "Feature", "bbox": [137.94782, 36.10749, 137.95642, 36.1139], "geometry": {"type": "LineString", "coordinates": [[137.94783, 36.1139], [137.94782, 36.11359], [137.94782, 36.11332], [137.94784, 36.11306], [137.94792, 36.11277], [137.948, 36.11261], [137.94808, 36.11248], [137.94824, 36.11225], [137.94844, 36.11202], [137.94896, 36.1116], [137.94953, 36.11125], [137.95015, 36.11095], [137.95134, 36.11037], [137.95322, 36.10945], [137.95407, 36.10902], [137.95426, 36.10892], [137.95441, 36.10883], [137.95541, 36.10825], [137.95596, 36.10792], [137.95598, 36.10791], [137.95613, 36.10779], [137.95623, 36.10772], [137.95642, 36.10749]]}, "properties": {"id": "GEOM_TOKYO_2824", "route_id": "R_3F47F0D7", "route_name": null, "route_color": "#F15A24", "route_text_color": null, "line_name": "中央線", "operator_id": "jr_east", "representation": "service_path", "min_zoom": 0, "max_zoom": 24, "offset_rank": 0}}, {"type": "Feature", "bbox": [137.99601, 35.98394, 137.99862, 35.98523], "geometry": {"type": "LineString", "coordinates": [[137.99601, 35.98394], [137.99692, 35.98438], [137.99862, 35.98523]]}, "properties": {"id": "GEOM_TOKYO_2825", "route_id": "R_3F47F0D7", "route_name": null, "route_color": "#F15A24", "route_text_color": null, "line_name": "中央線", "operator_id": "jr_east", "representation": "service_path", "min_zoom": 0, "max_zoom": 24, "offset_rank": 0}}, {"type": "Feature", "bbox": [137.9713, 36.01279, 137.97251, 36.0145], "geometry": {"type": "LineString", "coordinates": [[137.97251, 36.01279], [137.97199, 36.01353], [137.97173, 36.01389], [137.9713, 36.0145]]}, "properties": {"id": "GEOM_TOKYO_2826", "route_id": "R_3F47F0D7", "route_name": null, "route_color": "#F15A24", "route_text_color": null, "line_name": "中央線", "operator_id": "jr_east", "representation": "service_path", "min_zoom": 0, "max_zoom": 24, "offset_rank": 0}}, {"type": "Feature", "bbox": [137.97017, 36.0145, 137.97256, 36.04576], "geometry": {"type": "LineString", "coordinates": [[137.9713, 36.0145], [137.97122, 36.01463], [137.97118, 36.01476], [137.97114, 36.015], [137.97113, 36.01543], [137.97113, 36.01576], [137.97122, 36.01608], [137.97133, 36.01639], [137.97146, 36.01671], [137.97224, 36.01851], [137.97231, 36.0187], [137.97241, 36.01893], [137.97242, 36.01895], [137.97251, 36.01933], [137.97256, 36.01996], [137.9725, 36.02044], [137.97238, 36.02084], [137.97219, 36.02129], [137.9714, 36.02317], [137.97097, 36.02419], [137.97078, 36.02473], [137.97071, 36.02512], [137.97071, 36.0254], [137.97072, 36.02559], [137.97096, 36.0274], [137.97117, 36.02879], [137.97144, 36.03065], [137.9715, 36.03112], [137.9715, 36.0316], [137.97147, 36.03207], [137.97146, 36.03228], [137.97133, 36.03325], [137.97093, 36.03558], [137.97063, 36.03735], [137.97029, 36.0395], [137.9702, 36.0402], [137.97017, 36.04052], [137.97018, 36.04069], [137.97022, 36.04093], [137.97023, 36.04101], [137.97028, 36.04127], [137.9705, 36.04236], [137.97072, 36.04369], [137.97076, 36.04473], [137.97077, 36.04512], [137.97078, 36.04576]]}, "properties": {"id": "GEOM_TOKYO_2827", "route_id": "R_3F47F0D7", "route_name": null, "route_color": "#F15A24", "route_text_color": null, "line_name": "中央線", "operator_id": "jr_east", "representation": "service_path", "min_zoom": 0, "max_zoom": 24, "offset_rank": 0}}, {"type": "Feature", "bbox": [138.03444, 36.05187, 138.03884, 36.05327], "geometry": {"type": "LineString", "coordinates": [[138.03444, 36.05187], [138.03495, 36.05193], [138.03573, 36.05211], [138.03608, 36.0522], [138.037, 36.05249], [138.03759, 36.05272], [138.03775, 36.05278], [138.03785, 36.05282], [138.0383, 36.05301], [138.03884, 36.05327]]}, "properties": {"id": "GEOM_TOKYO_2828", "route_id": "R_3F47F0D7", "route_name": null, "route_color": "#F15A24", "route_text_color": null, "line_name": "中央線", "operator_id": "jr_east", "representation": "service_path", "min_zoom": 0, "max_zoom": 24, "offset_rank": 0}}, {"type": "Feature", "bbox": [137.97078, 36.04576, 137.97081, 36.04799], "geometry": {"type": "LineString", "coordinates": [[137.97078, 36.04576], [137.97081, 36.04799]]}, "properties": {"id": "GEOM_TOKYO_2829", "route_id": "R_3F47F0D7", "route_name": null, "route_color": "#F15A24", "route_text_color": null, "line_name": "中央線", "operator_id": "jr_east", "representation": "service_path", "min_zoom": 0, "max_zoom": 24, "offset_rank": 0}}, {"type": "Feature", "bbox": [137.98105, 36.09348, 137.98289, 36.09504], "geometry": {"type": "LineString", "coordinates": [[137.98289, 36.09348], [137.98105, 36.09504]]}, "properties": {"id": "GEOM_TOKYO_2830", "route_id": "R_3F47F0D7", "route_name": null, "route_color": "#F15A24", "route_text_color": null, "line_name": "中央線", "operator_id": "jr_east", "representation": "service_path", "min_zoom": 0, "max_zoom": 24, "offset_rank": 0}}, {"type": "Feature", "bbox": [138.03884, 36.05327, 138.04385, 36.05617], "geometry": {"type": "LineString", "coordinates": [[138.03884, 36.05327], [138.03917, 36.0535], [138.03976, 36.05395], [138.04011, 36.05419], [138.04035, 36.05436], [138.0408, 36.05463], [138.04172, 36.05508], [138.04194, 36.0552], [138.0424, 36.05545], [138.04279, 36.05564], [138.04321, 36.05585], [138.04385, 36.05617]]}, "properties": {"id": "GEOM_TOKYO_2831", "route_id": "R_3F47F0D7", "route_name": null, "route_color": "#F15A24", "route_text_color": null, "line_name": "中央線", "operator_id": "jr_east", "representation": "service_path", "min_zoom": 0, "max_zoom": 24, "offset_rank": 0}}, {"type": "Feature", "bbox": [138.04385, 36.05617, 138.04638, 36.05735], "geometry": {"type": "LineString", "coordinates": [[138.04638, 36.05735], [138.04385, 36.05617]]}, "properties": {"id": "GEOM_TOKYO_2832", "route_id": "R_3F47F0D7", "route_name": null, "route_color": "#F15A24", "route_text_color": null, "line_name": "中央線", "operator_id": "jr_east", "representation": "service_path", "min_zoom": 0, "max_zoom": 24, "offset_rank": 0}}, {"type": "Feature", "bbox": [137.99862, 35.98523, 138.02183, 36.03273], "geometry": {"type": "LineString", "coordinates": [[137.99862, 35.98523], [137.99964, 35.98573], [138.00031, 35.98607], [138.00061, 35.98628], [138.00101, 35.98675], [138.00129, 35.9872], [138.00158, 35.98771], [138.00188, 35.9882], [138.00209, 35.98853], [138.00221, 35.98868], [138.00231, 35.98879], [138.003, 35.98956], [138.00337, 35.98997], [138.00384, 35.9905], [138.00443, 35.99113], [138.00498, 35.99174], [138.00547, 35.99231], [138.00569, 35.99259], [138.00582, 35.99284], [138.006, 35.99353], [138.00618, 35.9943], [138.00621, 35.99443], [138.00636, 35.99503], [138.00646, 35.9956], [138.00657, 35.99616], [138.0067, 35.99673], [138.00682, 35.99704], [138.00691, 35.99731], [138.0071, 35.99774], [138.0073, 35.99809], [138.00765, 35.99873], [138.00781, 35.99914], [138.00786, 35.99939], [138.00798, 35.99998], [138.00801, 36.00045], [138.008, 36.00082], [138.00796, 36.00105], [138.00788, 36.00133], [138.00775, 36.00165], [138.00759, 36.00218], [138.00736, 36.00301], [138.0073, 36.00316], [138.00726, 36.0035], [138.0072, 36.00388], [138.0072, 36.00409], [138.00721, 36.00425], [138.00725, 36.00442], [138.00729, 36.00457], [138.00738, 36.00479], [138.00768, 36.00528], [138.00799, 36.00578], [138.0082, 36.00614], [138.0083, 36.00635], [138.00837, 36.00655], [138.00843, 36.00675], [138.00858, 36.00756], [138.00868, 36.00815], [138.00874, 36.00851], [138.00879, 36.00876], [138.00881, 36.00894], [138.00888, 36.00933], [138.00894, 36.00952], [138.009, 36.00965], [138.00911, 36.00992], [138.00944, 36.01068], [138.00961, 36.01106], [138.00991, 36.01177], [138.00994, 36.01182], [138.01011, 36.01216], [138.01029, 36.01252], [138.01041, 36.01273], [138.01109, 36.0138], [138.0113, 36.01412], [138.01145, 36.01436], [138.01178, 36.01488], [138.01185, 36.01505], [138.01188, 36.01514], [138.01192, 36.01525], [138.012, 36.01556], [138.01203, 36.01574], [138.01211, 36.01666], [138.01223, 36.01735], [138.01228, 36.01751], [138.01231, 36.01757], [138.0124, 36.01776], [138.01249, 36.01793], [138.01276, 36.01845], [138.01347, 36.01948], [138.01452, 36.02104], [138.0152, 36.02205], [138.0154, 36.02232], [138.01549, 36.02248], [138.01582, 36.02368], [138.01614, 36.02482], [138.01645, 36.02589], [138.01655, 36.02623], [138.01659, 36.02641], [138.01668, 36.0267], [138.01676, 36.02685], [138.01688, 36.02707], [138.01715, 36.02742], [138.01747, 36.02783], [138.01769, 36.02805], [138.01861, 36.02903], [138.01949, 36.02997], [138.02036, 36.03088], [138.02124, 36.03183], [138.0215, 36.0321], [138.02161, 36.03228], [138.02183, 36.03273]]}, "properties": {"id": "GEOM_TOKYO_2833", "route_id": "R_3F47F0D7", "route_name": null, "route_color": "#F15A24", "route_text_color": null, "line_name": "中央線", "operator_id": "jr_east", "representation": "service_path", "min_zoom": 0, "max_zoom": 24, "offset_rank": 0}}, {"type": "Feature", "bbox": [137.95642, 36.09504, 137.98105, 36.10749], "geometry": {"type": "LineString", "coordinates": [[137.98105, 36.09504], [137.98075, 36.09529], [137.97952, 36.09633], [137.9788, 36.09692], [137.97804, 36.09753], [137.97799, 36.09757], [137.97776, 36.09774], [137.97754, 36.09791], [137.97652, 36.09867], [137.9763, 36.0988], [137.97601, 36.09899], [137.97595, 36.09903], [137.97541, 36.09936], [137.97481, 36.09967], [137.97425, 36.09997], [137.97361, 36.10024], [137.97296, 36.10049], [137.97272, 36.10058], [137.97234, 36.10072], [137.97122, 36.10114], [137.97096, 36.10124], [137.97048, 36.10142], [137.969, 36.10197], [137.96872, 36.10208], [137.96829, 36.10224], [137.96799, 36.10235], [137.96769, 36.10247], [137.96671, 36.10284], [137.96596, 36.10312], [137.96543, 36.10331], [137.96537, 36.10333], [137.96349, 36.10404], [137.96301, 36.10423], [137.96194, 36.10463], [137.96131, 36.10489], [137.96069, 36.10514], [137.95975, 36.10553], [137.95916, 36.10582], [137.95856, 36.10613], [137.95802, 36.10645], [137.95695, 36.10716], [137.95642, 36.10749]]}, "properties": {"id": "GEOM_TOKYO_2834", "route_id": "R_3F47F0D7", "route_name": null, "route_color": "#F15A24", "route_text_color": null, "line_name": "中央線", "operator_id": "jr_east", "representation": "service_path", "min_zoom": 0, "max_zoom": 24, "offset_rank": 0}}, {"type": "Feature", "bbox": [138.02183, 36.03273, 138.02215, 36.03335], "geometry": {"type": "LineString", "coordinates": [[138.02215, 36.03335], [138.0219, 36.03287], [138.02183, 36.03273]]}, "properties": {"id": "GEOM_TOKYO_2835", "route_id": "R_3F47F0D7", "route_name": null, "route_color": "#F15A24", "route_text_color": null, "line_name": "中央線", "operator_id": "jr_east", "representation": "service_path", "min_zoom": 0, "max_zoom": 24, "offset_rank": 0}}]}