{"type": "FeatureCollection", "features": [{"type": "Feature", "bbox": [138.18749, 36.64188, 138.19025, 36.64375], "geometry": {"type": "LineString", "coordinates": [[138.18749, 36.64188], [138.19025, 36.64375]]}, "properties": {"id": "GEOM_TOKYO_3874", "route_id": "R_F3B5B6DF", "route_name": null, "route_color": "#2C62C9", "route_text_color": null, "line_name": "北陸新幹線", "operator_id": "jr_east", "representation": "service_path", "min_zoom": 0, "max_zoom": 24, "offset_rank": 0}}, {"type": "Feature", "bbox": [138.24913, 36.39518, 138.25133, 36.3971], "geometry": {"type": "LineString", "coordinates": [[138.25133, 36.39518], [138.25023, 36.39614], [138.24913, 36.3971]]}, "properties": {"id": "GEOM_TOKYO_3880", "route_id": "R_F3B5B6DF", "route_name": null, "route_color": "#2C62C9", "route_text_color": null, "line_name": "北陸新幹線", "operator_id": "jr_east", "representation": "service_path", "min_zoom": 0, "max_zoom": 24, "offset_rank": 0}}, {"type": "Feature", "bbox": [138.13063, 36.3971, 138.24913, 36.64188], "geometry": {"type": "LineString", "coordinates": [[138.24913, 36.3971], [138.24905, 36.39718], [138.2487, 36.3975], [138.24818, 36.398], [138.24762, 36.39856], [138.24688, 36.39928], [138.24636, 36.39973], [138.24596, 36.40004], [138.24549, 36.40038], [138.2452, 36.40059], [138.2449, 36.40078], [138.24458, 36.40098], [138.24407, 36.40129], [138.24288, 36.40192], [138.24232, 36.40221], [138.24154, 36.4026], [138.24095, 36.40288], [138.24032, 36.40318], [138.23936, 36.40363], [138.23853, 36.40402], [138.23781, 36.40439], [138.23771, 36.40444], [138.236, 36.4053], [138.23471, 36.40599], [138.23285, 36.407], [138.23117, 36.40798], [138.22991, 36.40878], [138.22877, 36.4095], [138.22872, 36.40953], [138.22775, 36.41026], [138.2262, 36.4115], [138.2248, 36.41271], [138.2227, 36.4146], [138.22188, 36.41548], [138.22127, 36.41619], [138.22096, 36.41655], [138.22048, 36.41718], [138.21921, 36.419], [138.21912, 36.41913], [138.21898, 36.41943], [138.21881, 36.41978], [138.21802, 36.42113], [138.21774, 36.42156], [138.21717, 36.42257], [138.21677, 36.42337], [138.21623, 36.42447], [138.21547, 36.42623], [138.21464, 36.42813], [138.2145, 36.42845], [138.21383, 36.42998], [138.21309, 36.43177], [138.21274, 36.43273], [138.21257, 36.4332], [138.21233, 36.43401], [138.21209, 36.43481], [138.2119, 36.43561], [138.21173, 36.43631], [138.21159, 36.4371], [138.21158, 36.43712], [138.21142, 36.438], [138.21107, 36.44008], [138.21077, 36.44168], [138.21055, 36.44299], [138.21038, 36.44394], [138.21014, 36.44559], [138.21006, 36.44605], [138.20975, 36.44785], [138.20944, 36.44994], [138.20913, 36.45167], [138.20881, 36.45318], [138.20832, 36.45495], [138.20831, 36.455], [138.208, 36.45593], [138.20726, 36.45787], [138.20647, 36.45964], [138.20601, 36.46051], [138.20579, 36.46091], [138.20484, 36.46257], [138.20435, 36.4633], [138.20433, 36.46334], [138.20346, 36.46461], [138.20297, 36.46528], [138.20167, 36.46688], [138.20037, 36.46831], [138.19906, 36.46968], [138.19867, 36.47003], [138.19795, 36.47068], [138.197, 36.47152], [138.19507, 36.47321], [138.19411, 36.47407], [138.19283, 36.47523], [138.19212, 36.47585], [138.19132, 36.47656], [138.19044, 36.47731], [138.18943, 36.47819], [138.1872, 36.48011], [138.18354, 36.48328], [138.18285, 36.48388], [138.18275, 36.48396], [138.18129, 36.48522], [138.17934, 36.48692], [138.17802, 36.48806], [138.17635, 36.48951], [138.17356, 36.49193], [138.17199, 36.4933], [138.17177, 36.4935], [138.17042, 36.49468], [138.16942, 36.49556], [138.16789, 36.49686], [138.16706, 36.4976], [138.16631, 36.49824], [138.16549, 36.49897], [138.1646, 36.49975], [138.16381, 36.50042], [138.16366, 36.50055], [138.16243, 36.50164], [138.16084, 36.5031], [138.16048, 36.50338], [138.16012, 36.5037], [138.15924, 36.50451], [138.15916, 36.50459], [138.15833, 36.50533], [138.1577, 36.5059], [138.15648, 36.507], [138.15576, 36.50763], [138.15501, 36.50828], [138.15399, 36.50916], [138.15311, 36.50993], [138.15224, 36.51071], [138.15173, 36.51114], [138.15162, 36.51123], [138.15109, 36.51169], [138.15043, 36.51227], [138.14961, 36.51299], [138.14873, 36.51374], [138.14781, 36.51454], [138.14691, 36.51535], [138.14595, 36.51619], [138.14504, 36.51698], [138.14476, 36.51724], [138.14419, 36.51775], [138.14388, 36.51802], [138.14292, 36.51884], [138.14232, 36.51935], [138.14157, 36.52003], [138.14073, 36.52087], [138.14002, 36.52159], [138.13947, 36.52219], [138.13881, 36.52291], [138.13823, 36.52358], [138.13775, 36.52415], [138.13733, 36.5247], [138.13727, 36.52477], [138.13704, 36.52508], [138.13643, 36.52592], [138.1358, 36.52686], [138.1355, 36.52729], [138.135, 36.52806], [138.13448, 36.52896], [138.13404, 36.52976], [138.13371, 36.53041], [138.13349, 36.53086], [138.13316, 36.53155], [138.1328, 36.53244], [138.13262, 36.53292], [138.13248, 36.53332], [138.13194, 36.53489], [138.13181, 36.53529], [138.13155, 36.53617], [138.13123, 36.53731], [138.1311, 36.53779], [138.13098, 36.53839], [138.13087, 36.53904], [138.13085, 36.53916], [138.13081, 36.53946], [138.13078, 36.53976], [138.1307, 36.54073], [138.13065, 36.54177], [138.13063, 36.54219], [138.13064, 36.54404], [138.13064, 36.54488], [138.13063, 36.54626], [138.13064, 36.54682], [138.13065, 36.54817], [138.13065, 36.54849], [138.13066, 36.54877], [138.13068, 36.5499], [138.13071, 36.55052], [138.13074, 36.55143], [138.13077, 36.55269], [138.1308, 36.55351], [138.13085, 36.55458], [138.13088, 36.55537], [138.13098, 36.55649], [138.1311, 36.55717], [138.13111, 36.55728], [138.13138, 36.55867], [138.13156, 36.55942], [138.13179, 36.56036], [138.1319, 36.56074], [138.1319, 36.56076], [138.13203, 36.56121], [138.13229, 36.56187], [138.13273, 36.56285], [138.13291, 36.56328], [138.13326, 36.564], [138.13357, 36.56468], [138.13372, 36.56507], [138.13402, 36.56582], [138.13459, 36.56729], [138.13487, 36.56799], [138.13538, 36.56931], [138.13545, 36.56946], [138.13572, 36.57015], [138.13625, 36.57142], [138.13651, 36.57213], [138.13702, 36.57343], [138.13713, 36.57373], [138.13749, 36.57468], [138.13788, 36.57571], [138.13821, 36.5766], [138.13824, 36.57669], [138.13853, 36.57745], [138.13879, 36.57815], [138.13928, 36.57944], [138.13957, 36.58019], [138.14001, 36.5814], [138.14027, 36.58206], [138.14081, 36.5834], [138.14115, 36.58418], [138.14158, 36.58519], [138.14207, 36.58643], [138.14261, 36.58778], [138.14305, 36.58887], [138.14381, 36.59076], [138.14464, 36.59285], [138.14537, 36.59468], [138.14601, 36.59636], [138.14606, 36.5965], [138.147, 36.59894], [138.14781, 36.60109], [138.14834, 36.60244], [138.14865, 36.60335], [138.14882, 36.6038], [138.14897, 36.60447], [138.14909, 36.60502], [138.14949, 36.60685], [138.15, 36.60912], [138.15052, 36.61161], [138.15101, 36.6139], [138.15102, 36.61393], [138.15141, 36.61571], [138.15195, 36.6179], [138.1524, 36.61964], [138.15266, 36.62049], [138.15296, 36.62134], [138.15319, 36.62191], [138.1535, 36.62267], [138.15354, 36.62277], [138.15365, 36.62304], [138.15388, 36.62348], [138.15417, 36.62394], [138.15457, 36.62453], [138.15512, 36.62525], [138.15555, 36.6257], [138.15597, 36.62614], [138.15655, 36.6267], [138.15721, 36.62729], [138.15788, 36.6278], [138.15831, 36.62807], [138.15881, 36.62834], [138.15958, 36.62877], [138.16046, 36.62922], [138.16064, 36.62931], [138.16325, 36.63073], [138.16642, 36.6325], [138.16758, 36.63315], [138.16834, 36.63356], [138.1689, 36.63391], [138.16977, 36.63442], [138.17177, 36.63559], [138.17314, 36.63639], [138.17422, 36.63691], [138.17484, 36.63717], [138.17565, 36.63747], [138.17612, 36.6376], [138.17713, 36.63786], [138.17942, 36.63824], [138.17961, 36.63829], [138.18028, 36.63844], [138.18103, 36.63864], [138.18146, 36.63878], [138.18228, 36.6391], [138.18279, 36.63933], [138.18341, 36.63965], [138.18431, 36.6401], [138.18576, 36.6409], [138.18651, 36.64134], [138.18749, 36.64188]]}, "properties": {"id": "GEOM_TOKYO_3882", "route_id": "R_F3B5B6DF", "route_name": null, "route_color": "#2C62C9", "route_text_color": null, "line_name": "北陸新幹線", "operator_id": "jr_east", "representation": "service_path", "min_zoom": 0, "max_zoom": 24, "offset_rank": 0}}, {"type": "Feature", "bbox": [138.25133, 36.27169, 138.46347, 36.39518], "geometry": {"type": "LineString", "coordinates": [[138.46347, 36.27763], [138.46265, 36.27725], [138.46253, 36.2772], [138.46188, 36.27691], [138.46153, 36.27675], [138.46025, 36.2762], [138.45872, 36.27553], [138.45859, 36.27548], [138.45681, 36.27476], [138.45554, 36.27428], [138.45421, 36.27383], [138.45308, 36.27349], [138.45148, 36.27308], [138.45032, 36.2728], [138.44882, 36.2725], [138.44821, 36.2724], [138.44697, 36.27219], [138.44589, 36.27204], [138.44444, 36.27187], [138.44359, 36.2718], [138.44285, 36.27174], [138.44222, 36.27171], [138.44165, 36.2717], [138.4406, 36.27169], [138.43888, 36.27172], [138.4372, 36.27178], [138.43718, 36.27178], [138.43632, 36.27181], [138.43617, 36.27183], [138.43558, 36.27188], [138.43488, 36.27196], [138.43384, 36.27208], [138.43371, 36.2721], [138.43314, 36.27218], [138.43301, 36.2722], [138.43224, 36.27233], [138.43086, 36.27259], [138.43031, 36.27271], [138.43013, 36.27275], [138.42969, 36.27285], [138.42774, 36.27335], [138.4267, 36.27364], [138.42503, 36.27416], [138.42418, 36.27445], [138.4233, 36.27478], [138.42254, 36.27509], [138.42126, 36.27565], [138.41996, 36.27626], [138.41941, 36.27652], [138.41885, 36.27682], [138.41779, 36.27738], [138.41686, 36.27791], [138.41673, 36.27799], [138.41524, 36.27887], [138.4131, 36.28015], [138.4113, 36.28125], [138.40953, 36.28234], [138.40798, 36.2833], [138.40747, 36.28361], [138.40638, 36.28428], [138.40593, 36.28454], [138.40415, 36.28564], [138.40355, 36.28601], [138.40234, 36.28674], [138.40055, 36.28783], [138.39922, 36.28866], [138.3969, 36.29006], [138.39511, 36.29116], [138.39469, 36.29142], [138.3933, 36.29227], [138.39152, 36.29335], [138.38583, 36.29684], [138.38568, 36.29693], [138.38515, 36.29725], [138.38392, 36.29801], [138.38212, 36.2991], [138.38122, 36.29965], [138.38074, 36.29994], [138.38032, 36.3002], [138.37897, 36.30102], [138.3775, 36.30192], [138.37676, 36.30237], [138.3754, 36.3032], [138.37361, 36.3043], [138.37187, 36.30535], [138.37154, 36.30555], [138.37107, 36.30581], [138.37074, 36.306], [138.37019, 36.30631], [138.36921, 36.30688], [138.36792, 36.30766], [138.36699, 36.30823], [138.36607, 36.30878], [138.36481, 36.30955], [138.36395, 36.31008], [138.36304, 36.31062], [138.36183, 36.31136], [138.36173, 36.31142], [138.36084, 36.31198], [138.35994, 36.31252], [138.35906, 36.31305], [138.35817, 36.3136], [138.35729, 36.31413], [138.3564, 36.31469], [138.35551, 36.31522], [138.35417, 36.31604], [138.35297, 36.31677], [138.35238, 36.31713], [138.35107, 36.31792], [138.35019, 36.31845], [138.34886, 36.31925], [138.3471, 36.32029], [138.34524, 36.32137], [138.344, 36.32207], [138.34161, 36.32339], [138.34031, 36.32412], [138.33891, 36.32491], [138.33845, 36.32516], [138.33661, 36.32619], [138.33526, 36.32694], [138.33433, 36.32746], [138.33389, 36.3277], [138.33341, 36.32798], [138.3325, 36.32848], [138.33248, 36.32849], [138.33169, 36.32893], [138.32976, 36.33], [138.32839, 36.33078], [138.32755, 36.33125], [138.32607, 36.33207], [138.32379, 36.33334], [138.32334, 36.33359], [138.3224, 36.33411], [138.32102, 36.33487], [138.32054, 36.33513], [138.3192, 36.33587], [138.31909, 36.33593], [138.31848, 36.33626], [138.31811, 36.33646], [138.31715, 36.33698], [138.31642, 36.33739], [138.31588, 36.33769], [138.31486, 36.33827], [138.31348, 36.33903], [138.31293, 36.33934], [138.31114, 36.34032], [138.30977, 36.34109], [138.30886, 36.34159], [138.30749, 36.34236], [138.30727, 36.34248], [138.30606, 36.34315], [138.30474, 36.34389], [138.30347, 36.34458], [138.30247, 36.34515], [138.302, 36.3454], [138.30044, 36.34628], [138.29917, 36.34699], [138.29813, 36.34758], [138.29776, 36.34778], [138.29677, 36.34833], [138.29592, 36.3488], [138.29497, 36.34931], [138.29258, 36.3506], [138.29021, 36.35193], [138.28913, 36.35253], [138.28897, 36.35265], [138.2889, 36.35269], [138.28832, 36.35305], [138.28699, 36.35387], [138.28586, 36.35458], [138.28442, 36.35549], [138.28326, 36.35623], [138.28288, 36.35649], [138.28281, 36.35654], [138.28172, 36.35724], [138.28077, 36.35793], [138.28022, 36.35838], [138.27947, 36.35903], [138.27842, 36.36005], [138.27774, 36.36074], [138.27707, 36.36145], [138.27676, 36.36181], [138.27613, 36.36253], [138.27553, 36.36326], [138.27495, 36.36401], [138.27468, 36.36439], [138.27413, 36.36516], [138.27384, 36.36563], [138.27336, 36.36645], [138.27126, 36.3702], [138.27082, 36.37105], [138.27066, 36.37136], [138.27018, 36.37232], [138.26979, 36.37318], [138.26944, 36.374], [138.26939, 36.37414], [138.26927, 36.37439], [138.26915, 36.37467], [138.26891, 36.3752], [138.26889, 36.37524], [138.26853, 36.37605], [138.26819, 36.37676], [138.26787, 36.37743], [138.26767, 36.37783], [138.26738, 36.37838], [138.26712, 36.37886], [138.26688, 36.37929], [138.26662, 36.37974], [138.26642, 36.38009], [138.26629, 36.38034], [138.26618, 36.38053], [138.26601, 36.38079], [138.26574, 36.38121], [138.26548, 36.38159], [138.26531, 36.38184], [138.26494, 36.38231], [138.2646, 36.3827], [138.26426, 36.3831], [138.26393, 36.38346], [138.26345, 36.38397], [138.26322, 36.38422], [138.2628, 36.38461], [138.2624, 36.38502], [138.26201, 36.38541], [138.26163, 36.38575], [138.26085, 36.38649], [138.26017, 36.38711], [138.25963, 36.38763], [138.25918, 36.38808], [138.25907, 36.38819], [138.25902, 36.38824], [138.25863, 36.38863], [138.25804, 36.38921], [138.25744, 36.38978], [138.25708, 36.39012], [138.25672, 36.39047], [138.25594, 36.39119], [138.25525, 36.39183], [138.25463, 36.39235], [138.25423, 36.39269], [138.2532, 36.39357], [138.25244, 36.39424], [138.25162, 36.39494], [138.25133, 36.39518]]}, "properties": {"id": "GEOM_TOKYO_3884", "route_id": "R_F3B5B6DF", "route_name": null, "route_color": "#2C62C9", "route_text_color": null, "line_name": "北陸新幹線", "operator_id": "jr_east", "representation": "service_path", "min_zoom": 0, "max_zoom": 24, "offset_rank": 0}}, {"type": "Feature", "bbox": [138.19025, 36.64375, 138.3740657, 36.8439844], "geometry": {"type": "LineString", "coordinates": [[138.19025, 36.64375], [138.19073342, 36.64407387], [138.19241094, 36.6454718], [138.19318724, 36.6461321], [138.19368395, 36.64650984], [138.19572957, 36.64784091], [138.19621926, 36.64817737], [138.19697439, 36.6487526], [138.19827714, 36.64978172], [138.19856178, 36.6499926], [138.1993946, 36.65056367], [138.20057957, 36.65131082], [138.20326931, 36.65310779], [138.20472554, 36.65411668], [138.20658152, 36.65531593], [138.21396213, 36.66004582], [138.22300329, 36.66568911], [138.23042721, 36.67049562], [138.23492439, 36.67332242], [138.23777974, 36.67504991], [138.24525482, 36.67940536], [138.24733685, 36.68078545], [138.24851468, 36.68163016], [138.25010892, 36.68286748], [138.25282151, 36.68524694], [138.26143991, 36.69309916], [138.26762651, 36.69863855], [138.26871155, 36.6995713], [138.27095776, 36.70126547], [138.27312783, 36.70265508], [138.28053271, 36.70731882], [138.29456201, 36.71617042], [138.29789326, 36.71824531], [138.30107222, 36.72014888], [138.30390853, 36.72167173], [138.30571692, 36.7225093], [138.31036163, 36.72452708], [138.31822337, 36.72801061], [138.32100258, 36.72955251], [138.32319169, 36.73103729], [138.326028, 36.73307411], [138.32901661, 36.73585332], [138.33086307, 36.73769978], [138.33312831, 36.74063128], [138.33444178, 36.74266809], [138.33615499, 36.74588513], [138.33691642, 36.74763641], [138.33773495, 36.75001587], [138.33826795, 36.75201462], [138.33859156, 36.75370879], [138.33899131, 36.7569639], [138.33958141, 36.76195125], [138.34001923, 36.76438781], [138.3405332, 36.76657692], [138.34114234, 36.76851856], [138.34201798, 36.77078381], [138.34340759, 36.77356302], [138.34487333, 36.77599958], [138.34668287, 36.77835411], [138.34821048, 36.7801387], [138.34996652, 36.78198041], [138.35199382, 36.78377928], [138.35393546, 36.78532117], [138.35807573, 36.78847634], [138.36080259, 36.79056074], [138.36210177, 36.79166005], [138.36335813, 36.79278792], [138.36482864, 36.79424415], [138.36634197, 36.79591453], [138.36742701, 36.79731365], [138.3684121, 36.79866995], [138.37002538, 36.80116838], [138.37078205, 36.80265316], [138.37172431, 36.80469474], [138.37273796, 36.8074216], [138.37336614, 36.80977727], [138.37378017, 36.81214721], [138.3740086, 36.81431728], [138.3740657, 36.81643024], [138.37392294, 36.81885729], [138.37375161, 36.82042774], [138.37338042, 36.82246932], [138.37285218, 36.82441096], [138.3724096, 36.82588146], [138.37165293, 36.82790876], [138.37008249, 36.83106393], [138.36886896, 36.83296274], [138.36819795, 36.83400494], [138.36568524, 36.83723149], [138.36181624, 36.84181433], [138.35998167, 36.8439844]]}, "properties": {"id": "GEOM_TOKYO_4527", "route_id": "R_F3B5B6DF", "route_name": null, "route_color": "#2C62C9", "route_text_color": null, "line_name": "北陸新幹線", "operator_id": "jr_east", "representation": "service_path", "min_zoom": 0, "max_zoom": 24, "offset_rank": 0}}, {"type": "Feature", "bbox": [138.35804003, 36.8439844, 138.35998167, 36.846302], "geometry": {"type": "LineString", "coordinates": [[138.35998167, 36.8439844], [138.35804003, 36.846302]]}, "properties": {"id": "GEOM_TOKYO_4528", "route_id": "R_F3B5B6DF", "route_name": null, "route_color": "#2C62C9", "route_text_color": null, "line_name": "北陸新幹線", "operator_id": "jr_east", "representation": "service_path", "min_zoom": 0, "max_zoom": 24, "offset_rank": 0}}, {"type": "Feature", "bbox": [138.24960275, 36.846302, 138.35804003, 37.08026308], "geometry": {"type": "LineString", "coordinates": [[138.35804003, 36.846302], [138.35162471, 36.85394869], [138.3448718, 36.86201507], [138.3398321, 36.86801131], [138.33096623, 36.87854756], [138.32381357, 36.88705651], [138.31499053, 36.89756421], [138.30710975, 36.9069726], [138.30562497, 36.9088143], [138.30375471, 36.91145551], [138.30172741, 36.91499614], [138.30067093, 36.9172376], [138.29947168, 36.92027855], [138.29874357, 36.92259138], [138.29824388, 36.92470434], [138.29768709, 36.92833064], [138.29745866, 36.93178562], [138.29713029, 36.93918099], [138.29671627, 36.94808969], [138.29625941, 36.95839751], [138.2961452, 36.96099588], [138.29613092, 36.96380841], [138.29625941, 36.96616407], [138.29655922, 36.96883383], [138.2978013, 36.97658611], [138.29947168, 36.98712237], [138.30168458, 37.00101366], [138.30328358, 37.01127865], [138.30348345, 37.01277771], [138.30354056, 37.01494778], [138.30348345, 37.01760326], [138.30314081, 37.02031585], [138.3024127, 37.02341391], [138.30164175, 37.02572674], [138.30035684, 37.02869631], [138.29865791, 37.03169443], [138.29601671, 37.03539211], [138.29056298, 37.0429588], [138.28606398, 37.04919505], [138.28397005, 37.05180056], [138.28166197, 37.05437038], [138.27913974, 37.05676173], [138.27553486, 37.05972416], [138.27026064, 37.06328413], [138.26330845, 37.0677947], [138.26146198, 37.06918431], [138.25896831, 37.0713163], [138.25559899, 37.07453333], [138.24960275, 37.08026308]]}, "properties": {"id": "GEOM_TOKYO_4529", "route_id": "R_F3B5B6DF", "route_name": null, "route_color": "#2C62C9", "route_text_color": null, "line_name": "北陸新幹線", "operator_id": "jr_east", "representation": "service_path", "min_zoom": 0, "max_zoom": 24, "offset_rank": 0}}, {"type": "Feature", "bbox": [138.24733988, 37.08026308, 138.24960275, 37.08247122], "geometry": {"type": "LineString", "coordinates": [[138.24960275, 37.08026308], [138.24733988, 37.08247122]]}, "properties": {"id": "GEOM_TOKYO_4530", "route_id": "R_F3B5B6DF", "route_name": null, "route_color": "#2C62C9", "route_text_color": null, "line_name": "北陸新幹線", "operator_id": "jr_east", "representation": "service_path", "min_zoom": 0, "max_zoom": 24, "offset_rank": 0}}, {"type": "Feature", "bbox": [137.86292785, 37.04357131, 138.24733988, 37.111691], "geometry": {"type": "LineString", "coordinates": [[138.24733988, 37.08247122], [138.24303008, 37.08659244], [138.24125025, 37.08824855], [138.23807129, 37.09084692], [138.23510172, 37.09303602], [138.22969559, 37.0968622], [138.22421331, 37.10076451], [138.22111049, 37.10270615], [138.21798864, 37.10447647], [138.21458125, 37.10607547], [138.21090736, 37.10756025], [138.2068718, 37.10889275], [138.20300755, 37.10990164], [138.19821056, 37.11087246], [138.19501256, 37.11127221], [138.18861657, 37.111691], [138.18494268, 37.11159582], [138.18227769, 37.11146257], [138.17843248, 37.11108185], [138.17202459, 37.11006107], [138.16374406, 37.10861435], [138.15491151, 37.10707246], [138.13695609, 37.10396917], [138.11475572, 37.10022152], [138.10212078, 37.09882953], [138.08398929, 37.09565295], [138.0667144, 37.09269052], [138.06007571, 37.09151269], [138.05707759, 37.091013], [138.03387784, 37.08865734], [138.00157666, 37.08540937], [137.9925466, 37.08451708], [137.98426608, 37.08358909], [137.97259482, 37.08144757], [137.96270816, 37.07969867], [137.95956727, 37.07902052], [137.9550344, 37.07787838], [137.95067999, 37.07612948], [137.94639696, 37.07398796], [137.94000811, 37.06981201], [137.93051406, 37.06328039], [137.92715902, 37.0610318], [137.92341136, 37.05871182], [137.91905695, 37.05649892], [137.9162016, 37.05532109], [137.91281087, 37.05421464], [137.90727862, 37.05282266], [137.90210329, 37.05214451], [137.89318031, 37.05100237], [137.88796929, 37.05032422], [137.88437155, 37.04958183], [137.88171607, 37.0489251], [137.86952371, 37.04545584], [137.86292785, 37.04357131]]}, "properties": {"id": "GEOM_TOKYO_4531", "route_id": "R_CC6EF6BA", "route_name": null, "route_color": "#2C62C9", "route_text_color": null, "line_name": "北陸新幹線", "operator_id": "西日本旅客鉄道", "representation": "service_path", "min_zoom": 0, "max_zoom": 24, "offset_rank": 0}}, {"type": "Feature", "bbox": [137.85965847, 37.0426576, 137.86292785, 37.04357131], "geometry": {"type": "LineString", "coordinates": [[137.86292785, 37.04357131], [137.85965847, 37.0426576]]}, "properties": {"id": "GEOM_TOKYO_4532", "route_id": "R_CC6EF6BA", "route_name": null, "route_color": "#2C62C9", "route_text_color": null, "line_name": "北陸新幹線", "operator_id": "西日本旅客鉄道", "representation": "service_path", "min_zoom": 0, "max_zoom": 24, "offset_rank": 0}}, {"type": "Feature", "bbox": [137.48227208, 36.8751489, 137.85965847, 37.0426576], "geometry": {"type": "LineString", "coordinates": [[137.85965847, 37.0426576], [137.85689591, 37.04187], [137.85249391, 37.04060888], [137.84991219, 37.03979987], [137.84704494, 37.03878859], [137.8398905, 37.03602455], [137.82791229, 37.03121328], [137.82243001, 37.02902894], [137.82008862, 37.02798673], [137.81149401, 37.02373226], [137.80806759, 37.02209043], [137.80665419, 37.02149081], [137.80498381, 37.02086263], [137.8025282, 37.0200203], [137.7991339, 37.01908041], [137.79523158, 37.01829995], [137.77880379, 37.01510195], [137.77421619, 37.01420727], [137.77128469, 37.01344585], [137.76791537, 37.01236081], [137.76258538, 37.01022882], [137.74332126, 37.00291911], [137.73789609, 37.00084422], [137.73587831, 37.00017797], [137.72902546, 36.99802694], [137.72483761, 36.99678962], [137.71461545, 36.99366777], [137.70713442, 36.99134541], [137.69849222, 36.98854717], [137.69044012, 36.98618674], [137.68309235, 36.98401667], [137.67372679, 36.98127553], [137.66491326, 36.9785915], [137.65948809, 36.97695443], [137.65431039, 36.9753364], [137.65006543, 36.97381354], [137.64580143, 36.97206226], [137.6300732, 36.96425049], [137.60849149, 36.95347153], [137.59057414, 36.94445338], [137.57168122, 36.9350783], [137.55133683, 36.924918], [137.52927923, 36.91382971], [137.51764366, 36.90804762], [137.51565681, 36.90695307], [137.51346771, 36.90557298], [137.51131787, 36.90407868], [137.50866239, 36.90196572], [137.50662081, 36.90002408], [137.50397961, 36.89714017], [137.49708393, 36.88934506], [137.49512117, 36.88719849], [137.49297966, 36.88502842], [137.48488473, 36.87750456], [137.48227208, 36.8751489]]}, "properties": {"id": "GEOM_TOKYO_4533", "route_id": "R_CC6EF6BA", "route_name": null, "route_color": "#2C62C9", "route_text_color": null, "line_name": "北陸新幹線", "operator_id": "西日本旅客鉄道", "representation": "service_path", "min_zoom": 0, "max_zoom": 24, "offset_rank": 0}}, {"type": "Feature", "bbox": [137.47997947, 36.87298002, 137.48227208, 36.8751489], "geometry": {"type": "LineString", "coordinates": [[137.48227208, 36.8751489], [137.47997947, 36.87298002]]}, "properties": {"id": "GEOM_TOKYO_4534", "route_id": "R_CC6EF6BA", "route_name": null, "route_color": "#2C62C9", "route_text_color": null, "line_name": "北陸新幹線", "operator_id": "西日本旅客鉄道", "representation": "service_path", "min_zoom": 0, "max_zoom": 24, "offset_rank": 0}}, {"type": "Feature", "bbox": [137.21489472, 36.69810703, 137.47997947, 36.87298002], "geometry": {"type": "LineString", "coordinates": [[137.47997947, 36.87298002], [137.47593365, 36.86925691], [137.47273327, 36.86629448], [137.4708535, 36.8644028], [137.46779589, 36.86102397], [137.46396496, 36.85662197], [137.45734609, 36.849041], [137.45546156, 36.84669961], [137.45435749, 36.84502447], [137.45123563, 36.83948509], [137.44794246, 36.83364113], [137.44306932, 36.82475147], [137.43709212, 36.81405341], [137.43467459, 36.8096752], [137.42671767, 36.7953794], [137.42447146, 36.79176262], [137.42277728, 36.78964966], [137.42138767, 36.78810777], [137.41872268, 36.78546181], [137.41660972, 36.78374859], [137.41415411, 36.78197828], [137.41034698, 36.77973206], [137.40052456, 36.77447821], [137.39058793, 36.76899594], [137.37730102, 36.76189562], [137.37349388, 36.75966845], [137.37124767, 36.75824077], [137.36898243, 36.75666081], [137.35145056, 36.74386883], [137.33332858, 36.73056288], [137.32156453, 36.72184454], [137.31830942, 36.71959833], [137.31613936, 36.71828486], [137.31356954, 36.7169714], [137.31130429, 36.71588637], [137.30791594, 36.71459194], [137.30450855, 36.71352594], [137.30062527, 36.7126503], [137.29700849, 36.71209826], [137.29348689, 36.71175562], [137.28929904, 36.71166044], [137.28591068, 36.7118508], [137.28343604, 36.71209826], [137.27921012, 36.71282162], [137.27228113, 36.71449676], [137.26276329, 36.71695237], [137.25922265, 36.71786608], [137.25735715, 36.71822776], [137.25551069, 36.71838004], [137.25309316, 36.71834197], [137.25113248, 36.71817065], [137.24890531, 36.71763765], [137.24736341, 36.71712369], [137.24509817, 36.71613383], [137.24367049, 36.71527722], [137.24224281, 36.71419219], [137.2404725, 36.71242187], [137.23957782, 36.71114648], [137.23803593, 36.70840534], [137.23586586, 36.7040652], [137.23512347, 36.70286596], [137.23424783, 36.70172381], [137.23272497, 36.70056264], [137.23143054, 36.69989639], [137.22979823, 36.6992349], [137.22835628, 36.69891367], [137.22292397, 36.69811417], [137.22263844, 36.69810703], [137.22205309, 36.69812488], [137.22152485, 36.69818199], [137.22098233, 36.69830334], [137.22005791, 36.69864598], [137.21644732, 36.70016289], [137.21489472, 36.70078155]]}, "properties": {"id": "GEOM_TOKYO_4535", "route_id": "R_CC6EF6BA", "route_name": null, "route_color": "#2C62C9", "route_text_color": null, "line_name": "北陸新幹線", "operator_id": "西日本旅客鉄道", "representation": "service_path", "min_zoom": 0, "max_zoom": 24, "offset_rank": 0}}, {"type": "Feature", "bbox": [138.24733988, 37.08026308, 138.24960275, 37.08247122], "geometry": {"type": "LineString", "coordinates": [[138.24960275, 37.08026308], [138.24733988, 37.08247122]]}, "properties": {"id": "GEOM_TOKYO_4542", "route_id": "R_CC6EF6BA", "route_name": null, "route_color": "#2C62C9", "route_text_color": null, "line_name": "北陸新幹線", "operator_id": "西日本旅客鉄道", "representation": "service_path", "min_zoom": 0, "max_zoom": 24, "offset_rank": 0}}]}