{"type": "FeatureCollection", "features": [{"type": "Feature", "bbox": [138.82801, 37.02875, 138.82801, 37.02875], "geometry": {"type": "Point", "coordinates": [138.82801, 37.02875]}, "properties": {"id": "PS_0AFEB7C5465D", "station_group_id": "SG_D4A4089D325E", "operator_id": "jr_east", "operator_ids": "jr_east", "name_en": "上越国際スキー場前", "name_ja": "上越国際スキー場前", "label_rank": 72, "tags": ["tokyo", "v3"]}}, {"type": "Feature", "bbox": [138.908435, 37.119945, 138.908435, 37.119945], "geometry": {"type": "Point", "coordinates": [138.908435, 37.119945]}, "properties": {"id": "PS_A683277EE12E", "station_group_id": "SG_06E8750CA486", "operator_id": "jr_east", "operator_ids": "jr_east", "name_en": "五日町", "name_ja": "五日町", "label_rank": 72, "tags": ["tokyo", "v3"]}}, {"type": "Feature", "bbox": [138.93511, 37.191755, 138.93511, 37.191755], "geometry": {"type": "Point", "coordinates": [138.93511, 37.191755]}, "properties": {"id": "PS_076C2EE397E5", "station_group_id": "SG_40E92CD9E431", "operator_id": "jr_east", "operator_ids": "jr_east", "name_en": "八色", "name_ja": "八色", "label_rank": 72, "tags": ["tokyo", "v3"]}}, {"type": "Feature", "bbox": [138.87566500000003, 37.066675000000004, 138.87566500000003, 37.066675000000004], "geometry": {"type": "Point", "coordinates": [138.87566500000003, 37.066675000000004]}, "properties": {"id": "PS_DFFD029A0C40", "station_group_id": "SG_3E8FCE0B0778", "operator_id": "jr_east", "operator_ids": "jr_east", "name_en": "六日町", "name_ja": "六日町", "label_rank": 72, "tags": ["tokyo", "v3"]}}, {"type": "Feature", "bbox": [138.84843, 37.041485, 138.84843, 37.041485], "geometry": {"type": "Point", "coordinates": [138.84843, 37.041485]}, "properties": {"id": "PS_537743F8C70A", "station_group_id": "SG_F2FC411E5C20", "operator_id": "jr_east", "operator_ids": "jr_east", "name_en": "塩沢", "name_ja": "塩沢", "label_rank": 72, "tags": ["tokyo", "v3"]}}, {"type": "Feature", "bbox": [138.82133, 37.02123, 138.82133, 37.02123], "geometry": {"type": "Point", "coordinates": [138.82133, 37.02123]}, "properties": {"id": "PS_996FDDA65768", "station_group_id": "SG_D30C9A50BCE5", "operator_id": "jr_east", "operator_ids": "jr_east", "name_en": "大沢", "name_ja": "大沢", "label_rank": 72, "tags": ["tokyo", "v3"]}}, {"type": "Feature", "bbox": [138.922735, 37.167585, 138.922735, 37.167585], "geometry": {"type": "Point", "coordinates": [138.922735, 37.167585]}, "properties": {"id": "PS_B3A04D264C2E", "station_group_id": "SG_7C332E71D678", "operator_id": "jr_east", "operator_ids": "jr_east", "name_en": "浦佐", "name_ja": "浦佐", "label_rank": 72, "tags": ["tokyo", "v3"]}}, {"type": "Feature", "bbox": [138.92304000000001, 37.167370000000005, 138.92304000000001, 37.167370000000005], "geometry": {"type": "Point", "coordinates": [138.92304000000001, 37.167370000000005]}, "properties": {"id": "PS_AC0FB1E3A4BB", "station_group_id": "SG_7C332E71D678", "operator_id": "jr_east", "operator_ids": "jr_east", "name_en": "浦佐", "name_ja": "浦佐", "label_rank": 72, "tags": ["tokyo", "v3"]}}, {"type": "Feature", "bbox": [138.80418, 36.988924999999995, 138.80418, 36.988924999999995], "geometry": {"type": "Point", "coordinates": [138.80418, 36.988924999999995]}, "properties": {"id": "PS_537A5587A003", "station_group_id": "SG_F312AE2833CF", "operator_id": "jr_east", "operator_ids": "jr_east", "name_en": "石打", "name_ja": "石打", "label_rank": 72, "tags": ["tokyo", "v3"]}}]}