{"type": "FeatureCollection", "features": [{"type": "Feature", "bbox": [138.79949499999998, 36.950165, 138.79949499999998, 36.950165], "geometry": {"type": "Point", "coordinates": [138.79949499999998, 36.950165]}, "properties": {"id": "PS_6B427EADB2AE", "station_group_id": "SG_E41D6756315D", "name_en": "ガーラ湯沢", "name_ja": "ガーラ湯沢", "label_rank": 72, "tags": ["tokyo", "v3"]}}, {"type": "Feature", "bbox": [138.96795, 36.830745, 138.96795, 36.830745], "geometry": {"type": "Point", "coordinates": [138.96795, 36.830745]}, "properties": {"id": "PS_4CBBC4F7251D", "station_group_id": "SG_B734B4939A5D", "name_en": "土合", "name_ja": "土合", "label_rank": 72, "tags": ["tokyo", "v3"]}}, {"type": "Feature", "bbox": [138.96218, 36.829965, 138.96218, 36.829965], "geometry": {"type": "Point", "coordinates": [138.96218, 36.829965]}, "properties": {"id": "PS_B2ED775717DD", "station_group_id": "SG_B734B4939A5D", "name_en": "土合", "name_ja": "土合", "label_rank": 72, "tags": ["tokyo", "v3"]}}, {"type": "Feature", "bbox": [138.86159, 36.875275, 138.86159, 36.875275], "geometry": {"type": "Point", "coordinates": [138.86159, 36.875275]}, "properties": {"id": "PS_589C46835B56", "station_group_id": "SG_87C0B757C136", "name_en": "土樽", "name_ja": "土樽", "label_rank": 72, "tags": ["tokyo", "v3"]}}, {"type": "Feature", "bbox": [138.839355, 36.924345, 138.839355, 36.924345], "geometry": {"type": "Point", "coordinates": [138.839355, 36.924345]}, "properties": {"id": "PS_E3184C244BF8", "station_group_id": "SG_C6F8840BE0AB", "name_en": "岩原スキー場前", "name_ja": "岩原スキー場前", "label_rank": 72, "tags": ["tokyo", "v3"]}}, {"type": "Feature", "bbox": [138.96930500000002, 36.779085, 138.96930500000002, 36.779085], "geometry": {"type": "Point", "coordinates": [138.96930500000002, 36.779085]}, "properties": {"id": "PS_ED212C8E2128", "station_group_id": "SG_84FEF923AA88", "name_en": "水上", "name_ja": "水上", "label_rank": 72, "tags": ["tokyo", "v3"]}}, {"type": "Feature", "bbox": [138.848515, 36.91032, 138.848515, 36.91032], "geometry": {"type": "Point", "coordinates": [138.848515, 36.91032]}, "properties": {"id": "PS_D9011FF57286", "station_group_id": "SG_8FFA5B4FAE41", "name_en": "越後中里", "name_ja": "越後中里", "label_rank": 72, "tags": ["tokyo", "v3"]}}, {"type": "Feature", "bbox": [138.809515, 36.935455000000005, 138.809515, 36.935455000000005], "geometry": {"type": "Point", "coordinates": [138.809515, 36.935455000000005]}, "properties": {"id": "PS_48827CDCDC33", "station_group_id": "SG_05102D3CF4B9", "name_en": "越後湯沢", "name_ja": "越後湯沢", "label_rank": 72, "tags": ["tokyo", "v3"]}}, {"type": "Feature", "bbox": [138.809515, 36.935455000000005, 138.809515, 36.935455000000005], "geometry": {"type": "Point", "coordinates": [138.809515, 36.935455000000005]}, "properties": {"id": "PS_877759227469", "station_group_id": "SG_05102D3CF4B9", "name_en": "越後湯沢", "name_ja": "越後湯沢", "label_rank": 72, "tags": ["tokyo", "v3"]}}, {"type": "Feature", "bbox": [138.80973, 36.936184999999995, 138.80973, 36.936184999999995], "geometry": {"type": "Point", "coordinates": [138.80973, 36.936184999999995]}, "properties": {"id": "PS_02894478C2A2", "station_group_id": "SG_05102D3CF4B9", "name_en": "越後湯沢", "name_ja": "越後湯沢", "label_rank": 72, "tags": ["tokyo", "v3"]}}]}