{"type": "FeatureCollection", "features": [{"type": "Feature", "bbox": [138.74328, 35.672839999999994, 138.74328, 35.672839999999994], "geometry": {"type": "Point", "coordinates": [138.74328, 35.672839999999994]}, "properties": {"id": "PS_1A87F6BB45B6", "station_group_id": "SG_C7BE79ACE24C", "operator_id": "jr_east", "operator_ids": "jr_east", "name_en": "勝沼ぶどう郷", "name_ja": "勝沼ぶどう郷", "label_rank": 72, "tags": ["tokyo", "v3"]}}, {"type": "Feature", "bbox": [138.734755, 35.705365, 138.734755, 35.705365], "geometry": {"type": "Point", "coordinates": [138.734755, 35.705365]}, "properties": {"id": "PS_1E9594EA3039", "station_group_id": "SG_C69D758CCDA5", "operator_id": "jr_east", "operator_ids": "jr_east", "name_en": "塩山", "name_ja": "塩山", "label_rank": 72, "tags": ["tokyo", "v3"]}}, {"type": "Feature", "bbox": [138.703055, 35.69434, 138.703055, 35.69434], "geometry": {"type": "Point", "coordinates": [138.703055, 35.69434]}, "properties": {"id": "PS_6B86FC13C389", "station_group_id": "SG_C87E6BE760A5", "operator_id": "jr_east", "operator_ids": "jr_east", "name_en": "東山梨", "name_ja": "東山梨", "label_rank": 72, "tags": ["tokyo", "v3"]}}]}