{"type": "FeatureCollection", "features": [{"type": "Feature", "bbox": [138.90969, 35.12671, 138.90969, 35.12671], "geometry": {"type": "Point", "coordinates": [138.90969, 35.12671]}, "properties": {"id": "PS_808B826D07F1", "station_group_id": "SG_D886D09536A0", "operator_id": "jr_central", "operator_ids": "jr_central", "name_en": "三島", "name_ja": "三島", "label_rank": 72, "tags": ["tokyo", "v3"]}}, {"type": "Feature", "bbox": [138.910815, 35.126194999999996, 138.910815, 35.126194999999996], "geometry": {"type": "Point", "coordinates": [138.910815, 35.126194999999996]}, "properties": {"id": "PS_4C7FDDDEAE37", "station_group_id": "SG_D886D09536A0", "operator_id": "jr_central", "operator_ids": "jr_central", "name_en": "三島", "name_ja": "三島", "label_rank": 72, "tags": ["tokyo", "v3"]}}, {"type": "Feature", "bbox": [138.97123, 35.108684999999994, 138.97123, 35.108684999999994], "geometry": {"type": "Point", "coordinates": [138.97123, 35.108684999999994]}, "properties": {"id": "PS_14F1BD5917B8", "station_group_id": "SG_6E425B0D196B", "operator_id": "jr_central", "operator_ids": "jr_central", "name_en": "函南", "name_ja": "函南", "label_rank": 72, "tags": ["tokyo", "v3"]}}, {"type": "Feature", "bbox": [138.793345, 35.124935, 138.793345, 35.124935], "geometry": {"type": "Point", "coordinates": [138.793345, 35.124935]}, "properties": {"id": "PS_383A02C6BC25", "station_group_id": "SG_FE70D21C8113", "operator_id": "jr_central", "operator_ids": "jr_central", "name_en": "原", "name_ja": "原", "label_rank": 72, "tags": ["tokyo", "v3"]}}, {"type": "Feature", "bbox": [138.70264, 35.143885, 138.70264, 35.143885], "geometry": {"type": "Point", "coordinates": [138.70264, 35.143885]}, "properties": {"id": "PS_2E9ABC3BE611", "station_group_id": "SG_65E2E9E7A61C", "operator_id": "jr_central", "operator_ids": "jr_central", "name_en": "吉原", "name_ja": "吉原", "label_rank": 72, "tags": ["tokyo", "v3"]}}, {"type": "Feature", "bbox": [138.745485, 35.136269999999996, 138.745485, 35.136269999999996], "geometry": {"type": "Point", "coordinates": [138.745485, 35.136269999999996]}, "properties": {"id": "PS_B8C811DA9D2C", "station_group_id": "SG_B05D149C22A1", "operator_id": "jr_central", "operator_ids": "jr_central", "name_en": "東田子の浦", "name_ja": "東田子の浦", "label_rank": 72, "tags": ["tokyo", "v3"]}}, {"type": "Feature", "bbox": [138.860555, 35.103049999999996, 138.860555, 35.103049999999996], "geometry": {"type": "Point", "coordinates": [138.860555, 35.103049999999996]}, "properties": {"id": "PS_D0ED0F1FFD8E", "station_group_id": "SG_84C29CFE6810", "operator_id": "jr_central", "operator_ids": "jr_central", "name_en": "沼津", "name_ja": "沼津", "label_rank": 72, "tags": ["tokyo", "v3"]}}, {"type": "Feature", "bbox": [138.818965, 35.11824, 138.818965, 35.11824], "geometry": {"type": "Point", "coordinates": [138.818965, 35.11824]}, "properties": {"id": "PS_9C390A446833", "station_group_id": "SG_6AFE756A05EC", "operator_id": "jr_central", "operator_ids": "jr_central", "name_en": "片浜", "name_ja": "片浜", "label_rank": 72, "tags": ["tokyo", "v3"]}}]}