{"type": "FeatureCollection", "features": [{"type": "Feature", "bbox": [136.88194, 34.97087, 137.0586, 35.16874], "geometry": {"type": "LineString", "coordinates": [[137.0586, 34.97087], [137.05796, 34.97157], [137.05775, 34.9718], [137.05754, 34.97203], [137.05729, 34.97229], [137.05658, 34.97304], [137.05641, 34.97325], [137.05622, 34.97346], [137.05596, 34.97375], [137.0558, 34.97392], [137.05516, 34.9746], [137.05435, 34.97549], [137.05366, 34.97624], [137.05348, 34.97643], [137.05337, 34.97654], [137.05267, 34.97733], [137.05209, 34.97797], [137.05198, 34.97809], [137.05187, 34.97821], [137.05173, 34.97835], [137.0511, 34.97907], [137.05074, 34.97945], [137.05049, 34.97972], [137.04992, 34.98033], [137.04971, 34.98054], [137.0494, 34.98088], [137.0493, 34.98097], [137.0487, 34.9816], [137.04819, 34.98213], [137.04804, 34.98227], [137.04788, 34.98241], [137.04729, 34.98295], [137.04671, 34.98346], [137.0465, 34.98364], [137.04621, 34.98388], [137.04531, 34.98467], [137.04376, 34.98595], [137.04358, 34.9861], [137.04297, 34.9866], [137.04279, 34.98674], [137.04239, 34.98705], [137.04233, 34.9871], [137.04227, 34.98714], [137.04149, 34.98777], [137.04134, 34.98789], [137.04106, 34.98812], [137.04064, 34.98846], [137.04018, 34.9888], [137.03948, 34.9893], [137.03923, 34.98946], [137.03904, 34.98959], [137.03885, 34.98972], [137.03807, 34.99024], [137.03727, 34.99078], [137.03695, 34.99098], [137.03667, 34.99116], [137.03601, 34.99159], [137.03431, 34.99272], [137.03407, 34.99288], [137.03359, 34.99318], [137.03335, 34.99334], [137.0333, 34.99337], [137.03253, 34.99389], [137.03189, 34.99431], [137.03134, 34.99467], [137.03085, 34.99499], [137.0307, 34.99509], [137.03053, 34.99521], [137.0299, 34.99563], [137.0297, 34.99576], [137.02957, 34.99585], [137.0288, 34.99634], [137.02866, 34.99644], [137.02847, 34.99658], [137.02813, 34.99678], [137.02798, 34.99688], [137.02791, 34.99694], [137.02716, 34.99743], [137.02686, 34.99762], [137.02578, 34.99831], [137.02502, 34.99881], [137.02484, 34.99893], [137.02398, 34.99949], [137.02307, 35.00007], [137.02178, 35.00092], [137.02138, 35.00117], [137.02044, 35.00178], [137.02024, 35.00191], [137.02003, 35.00205], [137.01955, 35.00236], [137.0186, 35.00296], [137.01814, 35.00325], [137.0153, 35.00508], [137.01487, 35.00538], [137.01406, 35.00591], [137.01358, 35.00622], [137.0116, 35.00751], [137.00695, 35.01057], [137.00637, 35.01095], [137.00546, 35.01153], [137.00507, 35.01179], [137.00427, 35.01233], [136.99807, 35.01638], [136.99704, 35.01704], [136.99406, 35.01895], [136.99301, 35.01963], [136.99295, 35.01967], [136.99263, 35.01987], [136.9907, 35.02112], [136.99059, 35.0212], [136.9901, 35.02151], [136.98953, 35.02188], [136.98849, 35.02255], [136.9865, 35.02384], [136.98088, 35.02746], [136.98023, 35.02788], [136.97945, 35.02839], [136.97913, 35.0286], [136.97769, 35.02954], [136.97725, 35.02983], [136.97561, 35.0309], [136.97371, 35.03211], [136.97098, 35.03386], [136.9708, 35.03398], [136.97012, 35.03442], [136.96872, 35.03534], [136.96854, 35.03545], [136.96846, 35.03551], [136.96829, 35.03562], [136.96811, 35.03574], [136.96788, 35.03589], [136.96722, 35.03633], [136.96589, 35.03722], [136.9651, 35.03776], [136.965, 35.03782], [136.96409, 35.03844], [136.96336, 35.03893], [136.96297, 35.03919], [136.96226, 35.03973], [136.96215, 35.03981], [136.96168, 35.04017], [136.96127, 35.04049], [136.96115, 35.04058], [136.9607, 35.04094], [136.96031, 35.04128], [136.96018, 35.04136], [136.95992, 35.04159], [136.95968, 35.04179], [136.959, 35.04237], [136.95841, 35.04292], [136.95819, 35.04312], [136.95786, 35.04343], [136.95673, 35.04463], [136.95611, 35.04528], [136.95515, 35.04636], [136.95487, 35.0467], [136.95457, 35.04706], [136.95358, 35.04834], [136.95328, 35.04877], [136.95299, 35.04919], [136.95278, 35.04949], [136.95231, 35.05017], [136.94977, 35.0541], [136.94832, 35.0564], [136.94786, 35.05712], [136.94771, 35.05737], [136.94721, 35.05816], [136.94694, 35.05859], [136.9468, 35.05882], [136.94529, 35.06119], [136.94514, 35.06144], [136.945, 35.06164], [136.94415, 35.06298], [136.94345, 35.06404], [136.94287, 35.06496], [136.94226, 35.06604], [136.94157, 35.06724], [136.94153, 35.0673], [136.94139, 35.06756], [136.94038, 35.0694], [136.93989, 35.07031], [136.93982, 35.07045], [136.93964, 35.07078], [136.93958, 35.07088], [136.9394, 35.07122], [136.93938, 35.07127], [136.93929, 35.07143], [136.93926, 35.07148], [136.93909, 35.0718], [136.9388, 35.07234], [136.93867, 35.07259], [136.93845, 35.07299], [136.93839, 35.0731], [136.93789, 35.07402], [136.93729, 35.07513], [136.93703, 35.0756], [136.93661, 35.07637], [136.93602, 35.07747], [136.93585, 35.07777], [136.93582, 35.07783], [136.93567, 35.0781], [136.93564, 35.07815], [136.93529, 35.07881], [136.93523, 35.07891], [136.93504, 35.07927], [136.93499, 35.07936], [136.9345, 35.08026], [136.93438, 35.08048], [136.93433, 35.08057], [136.93427, 35.08068], [136.93374, 35.08167], [136.93361, 35.08191], [136.93349, 35.08213], [136.93342, 35.08228], [136.93297, 35.08312], [136.93291, 35.08323], [136.93269, 35.08364], [136.93244, 35.08409], [136.93242, 35.08413], [136.93221, 35.08454], [136.93163, 35.08564], [136.93114, 35.08657], [136.93055, 35.08774], [136.92992, 35.08898], [136.92951, 35.08978], [136.92934, 35.09014], [136.9292, 35.09041], [136.92896, 35.09091], [136.92857, 35.09164], [136.92812, 35.09257], [136.92785, 35.09309], [136.92763, 35.09349], [136.92727, 35.09417], [136.92688, 35.09492], [136.92657, 35.09548], [136.92624, 35.09612], [136.92565, 35.09715], [136.92523, 35.09785], [136.92479, 35.09859], [136.92456, 35.09895], [136.92429, 35.0993], [136.92393, 35.09974], [136.92345, 35.10029], [136.92305, 35.10071], [136.92261, 35.10122], [136.92223, 35.1016], [136.92204, 35.10178], [136.92145, 35.10235], [136.92094, 35.10281], [136.9206, 35.10309], [136.91955, 35.10389], [136.91858, 35.1046], [136.91813, 35.10489], [136.91712, 35.10554], [136.91656, 35.1059], [136.91615, 35.10612], [136.91552, 35.10646], [136.91452, 35.10695], [136.91351, 35.10745], [136.91262, 35.10788], [136.91173, 35.10829], [136.91125, 35.1085], [136.91069, 35.10875], [136.90963, 35.10924], [136.90865, 35.1097], [136.90857, 35.10974], [136.90662, 35.11064], [136.90534, 35.11123], [136.90393, 35.11188], [136.90325, 35.11221], [136.90178, 35.11286], [136.9016, 35.11294], [136.90087, 35.11326], [136.89986, 35.11373], [136.89891, 35.11419], [136.89758, 35.11488], [136.89701, 35.1152], [136.89654, 35.11549], [136.89592, 35.11587], [136.89581, 35.11594], [136.89541, 35.11621], [136.89488, 35.11657], [136.89448, 35.11686], [136.89427, 35.11703], [136.89386, 35.11734], [136.89349, 35.11763], [136.89306, 35.118], [136.89278, 35.11823], [136.89254, 35.11846], [136.89232, 35.11867], [136.89171, 35.11926], [136.89118, 35.11978], [136.89088, 35.1201], [136.89045, 35.12057], [136.89005, 35.12108], [136.88966, 35.12157], [136.88946, 35.12184], [136.88924, 35.12215], [136.88904, 35.12244], [136.88876, 35.12282], [136.8886, 35.12306], [136.8884, 35.12339], [136.88821, 35.12369], [136.88806, 35.124], [136.88793, 35.12423], [136.88773, 35.12459], [136.88745, 35.12507], [136.88722, 35.12549], [136.88709, 35.12579], [136.88689, 35.12625], [136.88668, 35.12674], [136.88651, 35.12724], [136.88637, 35.12771], [136.88617, 35.1284], [136.88595, 35.12916], [136.88581, 35.12994], [136.88571, 35.1307], [136.88556, 35.13204], [136.88553, 35.13265], [136.88552, 35.13296], [136.88552, 35.13309], [136.88552, 35.13342], [136.88556, 35.13383], [136.88565, 35.13454], [136.88581, 35.13564], [136.88591, 35.13624], [136.88594, 35.13641], [136.88596, 35.13653], [136.88599, 35.13671], [136.88601, 35.1368], [136.88615, 35.13761], [136.88649, 35.13962], [136.88662, 35.14044], [136.88664, 35.14053], [136.88664, 35.14058], [136.88669, 35.14086], [136.88671, 35.14095], [136.88681, 35.14166], [136.88736, 35.14443], [136.88737, 35.14451], [136.88742, 35.14478], [136.88744, 35.14487], [136.88764, 35.14593], [136.88766, 35.14607], [136.88768, 35.14616], [136.88771, 35.14631], [136.88772, 35.14641], [136.88798, 35.14788], [136.88816, 35.14912], [136.88814, 35.15021], [136.88812, 35.15049], [136.88811, 35.15057], [136.88809, 35.15076], [136.88809, 35.15083], [136.88804, 35.15127], [136.88787, 35.15242], [136.88779, 35.15296], [136.88766, 35.15362], [136.8875, 35.15428], [136.88745, 35.15449], [136.88724, 35.15527], [136.88673, 35.15745], [136.88639, 35.15879], [136.8863, 35.15915], [136.88615, 35.15973], [136.8858, 35.16111], [136.8857, 35.16151], [136.88529, 35.16306], [136.88522, 35.16329], [136.88514, 35.16365], [136.88502, 35.16395], [136.88494, 35.16417], [136.88474, 35.16459], [136.88451, 35.16511], [136.88443, 35.16528], [136.88432, 35.16542], [136.88417, 35.16565], [136.88398, 35.16592], [136.88384, 35.1661], [136.88358, 35.16645], [136.88339, 35.16673], [136.88295, 35.16731], [136.88264, 35.16773], [136.88242, 35.16802], [136.88194, 35.16874]]}, "properties": {"id": "TRACK_TOKYO_0977", "line_name": "東海道新幹線", "station_group_ids": [], "mode": "shinkansen", "operator_id": "東海旅客鉄道", "line_color": "#1F78FF", "tags": ["tokyo", "track_centerline"]}}]}