{"type": "FeatureCollection", "features": [{"type": "Feature", "bbox": [130.88103, 33.88655, 130.88528, 33.88768], "geometry": {"type": "LineString", "coordinates": [[130.88528, 33.88655], [130.88441, 33.88694], [130.8831, 33.88731], [130.88103, 33.88768]]}, "properties": {"id": "TRACK_TOKYO_0686", "line_name": "山陽新幹線", "station_group_ids": [], "mode": "shinkansen", "operator_id": "西日本旅客鉄道", "tags": ["tokyo", "track_centerline"]}}, {"type": "Feature", "bbox": [130.42127, 33.59139, 130.88103, 33.89017], "geometry": {"type": "LineString", "coordinates": [[130.88103, 33.88768], [130.87581, 33.88864], [130.87262, 33.88929], [130.87159, 33.88945], [130.87084, 33.88955], [130.86951, 33.88974], [130.86895, 33.88983], [130.86851, 33.8899], [130.86815, 33.88995], [130.86799, 33.88997], [130.86777, 33.88999], [130.8673, 33.89004], [130.86695, 33.89007], [130.86659, 33.8901], [130.86583, 33.89014], [130.8649, 33.89017], [130.8639, 33.89013], [130.86284, 33.89004], [130.86147, 33.88981], [130.85973, 33.88939], [130.85931, 33.88928], [130.85847, 33.88902], [130.85678, 33.88852], [130.85431, 33.88749], [130.85353, 33.88717], [130.85325, 33.88706], [130.85077, 33.88596], [130.84981, 33.88544], [130.84859, 33.88479], [130.84658, 33.88328], [130.84236, 33.87996], [130.84136, 33.87917], [130.83717, 33.87587], [130.83464, 33.87391], [130.83438, 33.87371], [130.83351, 33.87304], [130.83092, 33.87101], [130.8299, 33.87021], [130.82872, 33.8693], [130.82677, 33.86791], [130.82491, 33.86666], [130.82399, 33.86606], [130.82144, 33.86443], [130.82142, 33.86442], [130.81701, 33.8618], [130.81438, 33.86027], [130.81244, 33.85913], [130.81061, 33.85805], [130.80657, 33.85569], [130.80374, 33.85402], [130.80346, 33.85385], [130.80103, 33.85241], [130.79825, 33.85077], [130.79449, 33.84854], [130.79411, 33.84831], [130.78918, 33.84543], [130.78563, 33.84313], [130.78548, 33.84303], [130.78465, 33.84249], [130.78152, 33.84026], [130.77888, 33.83832], [130.77718, 33.83705], [130.77659, 33.8366], [130.77564, 33.83591], [130.77303, 33.83376], [130.77124, 33.83228], [130.77035, 33.83151], [130.76884, 33.83017], [130.76789, 33.82933], [130.76677, 33.82827], [130.76495, 33.82643], [130.76355, 33.82498], [130.76181, 33.8232], [130.76174, 33.82312], [130.76134, 33.82273], [130.76108, 33.82246], [130.76028, 33.82163], [130.75981, 33.82113], [130.75887, 33.8201], [130.75699, 33.81794], [130.75608, 33.81689], [130.75593, 33.81671], [130.75576, 33.81653], [130.75559, 33.81633], [130.75475, 33.81538], [130.75346, 33.81394], [130.75259, 33.81297], [130.75212, 33.81244], [130.75019, 33.81025], [130.74789, 33.80764], [130.74764, 33.8073], [130.74674, 33.80628], [130.74598, 33.80528], [130.74574, 33.80495], [130.74483, 33.80373], [130.74418, 33.80286], [130.7435, 33.80195], [130.74199, 33.79993], [130.74136, 33.79907], [130.74083, 33.79839], [130.74023, 33.79759], [130.73965, 33.79689], [130.73948, 33.7967], [130.73935, 33.79653], [130.73832, 33.79535], [130.73791, 33.79487], [130.73773, 33.79466], [130.7368, 33.79359], [130.73658, 33.79333], [130.73639, 33.79311], [130.73604, 33.79272], [130.73514, 33.7918], [130.73475, 33.79146], [130.73458, 33.79133], [130.73434, 33.79114], [130.73388, 33.79079], [130.73332, 33.79037], [130.73292, 33.79009], [130.73267, 33.78991], [130.73241, 33.78974], [130.73165, 33.78926], [130.73137, 33.78909], [130.7309, 33.7888], [130.73034, 33.78845], [130.73, 33.78822], [130.72942, 33.78787], [130.72808, 33.78712], [130.72636, 33.78628], [130.72575, 33.78601], [130.72432, 33.78546], [130.72354, 33.78519], [130.72209, 33.78469], [130.72171, 33.78458], [130.72071, 33.78428], [130.71979, 33.78403], [130.7194, 33.78392], [130.71813, 33.78357], [130.71711, 33.78335], [130.71563, 33.78303], [130.71246, 33.78234], [130.71115, 33.78204], [130.70982, 33.78173], [130.7095, 33.78166], [130.70797, 33.7813], [130.7069, 33.78105], [130.70608, 33.78084], [130.70571, 33.78076], [130.70501, 33.78056], [130.70439, 33.78038], [130.70398, 33.78025], [130.70313, 33.77997], [130.70263, 33.77981], [130.70221, 33.77965], [130.70162, 33.77943], [130.7009, 33.77916], [130.69866, 33.77819], [130.69823, 33.77801], [130.69648, 33.77711], [130.69564, 33.77664], [130.69358, 33.77546], [130.69277, 33.775], [130.6916, 33.77435], [130.6899, 33.7734], [130.68788, 33.77224], [130.68686, 33.7716], [130.68582, 33.7709], [130.68382, 33.76946], [130.68316, 33.76897], [130.67853, 33.76503], [130.6762, 33.76297], [130.6752, 33.76206], [130.67491, 33.76179], [130.67417, 33.76112], [130.67384, 33.76083], [130.67249, 33.75961], [130.67021, 33.75758], [130.6692, 33.75666], [130.66819, 33.75576], [130.66723, 33.75487], [130.66645, 33.75418], [130.66612, 33.75392], [130.6658, 33.75363], [130.66545, 33.75332], [130.6654, 33.75328], [130.66508, 33.753], [130.66431, 33.75234], [130.66243, 33.75082], [130.66155, 33.75014], [130.66124, 33.7499], [130.66056, 33.7494], [130.66003, 33.74904], [130.65973, 33.74883], [130.65952, 33.74868], [130.65935, 33.74856], [130.65895, 33.74829], [130.65816, 33.74779], [130.65798, 33.74764], [130.65747, 33.74732], [130.65686, 33.74694], [130.65655, 33.74671], [130.65638, 33.7466], [130.65589, 33.7463], [130.65548, 33.74606], [130.65507, 33.74581], [130.65464, 33.74557], [130.65418, 33.74532], [130.65414, 33.7453], [130.6535, 33.74495], [130.65215, 33.74427], [130.6517, 33.74404], [130.65163, 33.744], [130.64693, 33.7419], [130.6464, 33.74165], [130.64616, 33.74159], [130.64478, 33.74108], [130.64438, 33.74092], [130.64379, 33.74071], [130.64326, 33.74051], [130.64303, 33.74044], [130.64079, 33.73966], [130.64026, 33.73948], [130.63975, 33.73929], [130.63935, 33.73917], [130.6388, 33.73902], [130.63762, 33.73872], [130.63734, 33.73864], [130.6362, 33.73835], [130.63531, 33.73811], [130.63468, 33.73795], [130.63356, 33.73766], [130.63119, 33.73703], [130.63077, 33.73693], [130.63004, 33.73673], [130.62982, 33.73668], [130.62838, 33.73629], [130.62265, 33.73478], [130.62125, 33.73442], [130.61921, 33.73388], [130.6176, 33.73342], [130.61642, 33.73305], [130.61575, 33.73285], [130.61432, 33.73235], [130.61408, 33.73226], [130.61401, 33.73224], [130.61293, 33.73183], [130.6127, 33.73174], [130.61191, 33.73145], [130.61107, 33.73112], [130.61021, 33.73077], [130.60948, 33.73047], [130.608, 33.72983], [130.60669, 33.72921], [130.60567, 33.72872], [130.60477, 33.72828], [130.60318, 33.72739], [130.60185, 33.72662], [130.60084, 33.72599], [130.60024, 33.72562], [130.59921, 33.72495], [130.59758, 33.72381], [130.59664, 33.72311], [130.59436, 33.72133], [130.59264, 33.71993], [130.59081, 33.71837], [130.58927, 33.71707], [130.58716, 33.71529], [130.58635, 33.71465], [130.5851, 33.71367], [130.58393, 33.71283], [130.58312, 33.71227], [130.58256, 33.71192], [130.5805, 33.71078], [130.57855, 33.7097], [130.57427, 33.70731], [130.57134, 33.7057], [130.57109, 33.70556], [130.56648, 33.70302], [130.56333, 33.70132], [130.56216, 33.70066], [130.56074, 33.69987], [130.55828, 33.69851], [130.55604, 33.69727], [130.55397, 33.69614], [130.55299, 33.69559], [130.55054, 33.69423], [130.5472, 33.69239], [130.54484, 33.69106], [130.54384, 33.69051], [130.54322, 33.69017], [130.5405, 33.68865], [130.53881, 33.68772], [130.53765, 33.68705], [130.53625, 33.68628], [130.53511, 33.68566], [130.53405, 33.68507], [130.5313, 33.68353], [130.52908, 33.68231], [130.52711, 33.68119], [130.5268, 33.68103], [130.52596, 33.68057], [130.52476, 33.67992], [130.52396, 33.67946], [130.52221, 33.67851], [130.52112, 33.67788], [130.52016, 33.67736], [130.51832, 33.67633], [130.51682, 33.67547], [130.51614, 33.67509], [130.51471, 33.67424], [130.51383, 33.67373], [130.51205, 33.67266], [130.50937, 33.67087], [130.50806, 33.66995], [130.5076, 33.66967], [130.50699, 33.66925], [130.50626, 33.66873], [130.50596, 33.6685], [130.50559, 33.66822], [130.50517, 33.66789], [130.50493, 33.6677], [130.50437, 33.66725], [130.50294, 33.66612], [130.50271, 33.66594], [130.50256, 33.66582], [130.50049, 33.66418], [130.50004, 33.66382], [130.49985, 33.66367], [130.49927, 33.66321], [130.49899, 33.66299], [130.49804, 33.66224], [130.49766, 33.66195], [130.49671, 33.6612], [130.49611, 33.6607], [130.49531, 33.66006], [130.49376, 33.65883], [130.4936, 33.65871], [130.49343, 33.65857], [130.491, 33.65665], [130.4877, 33.65405], [130.48676, 33.65333], [130.485, 33.65193], [130.48417, 33.65128], [130.48341, 33.65067], [130.48189, 33.64947], [130.48133, 33.64899], [130.48019, 33.64802], [130.47889, 33.64679], [130.47623, 33.64439], [130.475, 33.64329], [130.47352, 33.64194], [130.47259, 33.64113], [130.47054, 33.63926], [130.47035, 33.63909], [130.46802, 33.63701], [130.46783, 33.63684], [130.46593, 33.63517], [130.46347, 33.63296], [130.46039, 33.63027], [130.46032, 33.63021], [130.45965, 33.62968], [130.45879, 33.62904], [130.45795, 33.62848], [130.45715, 33.62795], [130.45502, 33.62669], [130.45346, 33.6258], [130.45156, 33.62472], [130.4496, 33.6236], [130.44826, 33.62283], [130.44621, 33.62166], [130.4453, 33.62115], [130.44249, 33.61954], [130.44224, 33.61939], [130.44025, 33.61825], [130.43823, 33.61709], [130.43658, 33.61617], [130.43405, 33.61472], [130.43341, 33.61436], [130.43273, 33.61396], [130.43169, 33.61336], [130.43101, 33.61294], [130.43035, 33.61253], [130.42974, 33.6121], [130.4289, 33.61149], [130.42851, 33.61118], [130.4283, 33.61103], [130.42728, 33.61017], [130.42666, 33.60957], [130.42587, 33.60872], [130.42544, 33.60819], [130.42513, 33.60781], [130.42441, 33.60681], [130.4236, 33.6056], [130.423, 33.60454], [130.4228, 33.6041], [130.42274, 33.60395], [130.42237, 33.6031], [130.42202, 33.60201], [130.42178, 33.60095], [130.42175, 33.60069], [130.42164, 33.59978], [130.42147, 33.59647], [130.42144, 33.59598], [130.42129, 33.5933], [130.42128, 33.59251], [130.42127, 33.59139]]}, "properties": {"id": "TRACK_TOKYO_0688", "line_name": "山陽新幹線", "station_group_ids": [], "mode": "shinkansen", "operator_id": "西日本旅客鉄道", "tags": ["tokyo", "track_centerline"]}}, {"type": "Feature", "bbox": [130.88528, 33.88273, 130.97871, 34.00525], "geometry": {"type": "LineString", "coordinates": [[130.94868, 34.00525], [130.94867, 34.00516], [130.94824, 34.00326], [130.94822, 34.00321], [130.9482, 34.00313], [130.94809, 34.00265], [130.9478, 34.00143], [130.94737, 33.9992], [130.94718, 33.99727], [130.94716, 33.99508], [130.94725, 33.99369], [130.94731, 33.99288], [130.94752, 33.99124], [130.94801, 33.98893], [130.94866, 33.98681], [130.94948, 33.9849], [130.95024, 33.98313], [130.9512, 33.98148], [130.9523, 33.9798], [130.95453, 33.97691], [130.96049, 33.96938], [130.96053, 33.96932], [130.96277, 33.96642], [130.96345, 33.96557], [130.96393, 33.96495], [130.96537, 33.96312], [130.96647, 33.96172], [130.96824, 33.95947], [130.9707, 33.95624], [130.97237, 33.95408], [130.97363, 33.95245], [130.97583, 33.94899], [130.97657, 33.94746], [130.97718, 33.94599], [130.9776, 33.9447], [130.97809, 33.94287], [130.97841, 33.94118], [130.97869, 33.93865], [130.97871, 33.93709], [130.97871, 33.9368], [130.97866, 33.93501], [130.97842, 33.93288], [130.978, 33.93075], [130.97727, 33.92829], [130.97723, 33.92819], [130.97639, 33.92598], [130.97543, 33.92394], [130.97434, 33.92205], [130.97288, 33.91993], [130.97232, 33.91915], [130.97107, 33.91768], [130.96779, 33.9145], [130.96703, 33.91375], [130.96404, 33.91085], [130.95991, 33.90684], [130.95835, 33.90532], [130.95381, 33.90088], [130.9528, 33.89993], [130.95091, 33.89812], [130.94628, 33.89358], [130.94565, 33.89304], [130.94441, 33.89195], [130.94141, 33.88979], [130.93853, 33.88808], [130.9371, 33.88735], [130.93627, 33.88693], [130.93324, 33.88566], [130.93083, 33.88488], [130.92692, 33.88388], [130.92661, 33.8838], [130.92407, 33.88337], [130.92176, 33.88311], [130.91992, 33.88298], [130.91593, 33.88292], [130.90956, 33.88283], [130.9029, 33.88273], [130.90012, 33.88276], [130.89849, 33.88288], [130.89661, 33.88316], [130.89565, 33.88341], [130.89471, 33.88365], [130.88929, 33.88511], [130.88745, 33.88569], [130.88528, 33.88655]]}, "properties": {"id": "TRACK_TOKYO_0692", "line_name": "山陽新幹線", "station_group_ids": [], "mode": "shinkansen", "operator_id": "西日本旅客鉄道", "tags": ["tokyo", "track_centerline"]}}]}