{"type": "FeatureCollection", "features": [{"type": "Feature", "bbox": [133.18824, 34.42934, 133.19219, 34.43082], "geometry": {"type": "LineString", "coordinates": [[133.18824, 34.42934], [133.19219, 34.43082]]}, "properties": {"id": "GEOM_TOKYO_0681", "route_id": "R_A02272B9", "route_name": null, "route_color": "#1263D6", "route_text_color": null, "line_name": "山陽新幹線", "operator_id": "西日本旅客鉄道", "representation": "service_path", "min_zoom": 0, "max_zoom": 24, "offset_rank": 0}}, {"type": "Feature", "bbox": [133.08543, 34.40068, 133.18824, 34.42934], "geometry": {"type": "LineString", "coordinates": [[133.18824, 34.42934], [133.18714, 34.42893], [133.18679, 34.42879], [133.18579, 34.42842], [133.185, 34.42811], [133.18441, 34.42789], [133.18383, 34.42767], [133.18261, 34.42722], [133.18068, 34.42652], [133.17348, 34.42379], [133.17105, 34.42286], [133.1671, 34.42137], [133.16411, 34.42021], [133.16348, 34.41992], [133.16266, 34.41959], [133.16015, 34.41865], [133.15008, 34.41488], [133.14902, 34.41448], [133.14039, 34.41123], [133.14003, 34.41109], [133.13385, 34.40876], [133.1325, 34.40825], [133.12265, 34.40459], [133.12242, 34.40451], [133.12195, 34.40433], [133.12081, 34.40391], [133.11885, 34.40331], [133.11764, 34.40298], [133.11643, 34.4027], [133.11433, 34.40232], [133.11426, 34.4023], [133.1121, 34.40195], [133.10991, 34.40165], [133.10762, 34.4014], [133.10533, 34.4012], [133.10336, 34.40105], [133.10306, 34.40103], [133.10081, 34.40089], [133.09858, 34.40075], [133.09796, 34.40073], [133.0962, 34.40069], [133.09413, 34.40068], [133.0923, 34.40072], [133.09213, 34.40073], [133.09042, 34.40074], [133.09012, 34.40075], [133.08905, 34.40076], [133.08543, 34.4008]]}, "properties": {"id": "GEOM_TOKYO_0682", "route_id": "R_A02272B9", "route_name": null, "route_color": "#1263D6", "route_text_color": null, "line_name": "山陽新幹線", "operator_id": "西日本旅客鉄道", "representation": "service_path", "min_zoom": 0, "max_zoom": 24, "offset_rank": 0}}, {"type": "Feature", "bbox": [133.19219, 34.43082, 133.35913, 34.48897], "geometry": {"type": "LineString", "coordinates": [[133.35913, 34.48897], [133.35809, 34.48886], [133.3571, 34.48878], [133.35578, 34.48872], [133.35407, 34.48865], [133.35101, 34.48855], [133.34858, 34.48846], [133.34825, 34.48844], [133.34733, 34.4884], [133.34563, 34.48831], [133.34492, 34.48828], [133.34418, 34.48822], [133.34353, 34.48816], [133.34266, 34.48807], [133.34199, 34.48799], [133.34153, 34.48793], [133.34095, 34.48783], [133.34016, 34.48767], [133.33948, 34.48755], [133.33841, 34.48734], [133.33732, 34.48711], [133.33671, 34.48698], [133.3356, 34.48675], [133.33517, 34.48666], [133.33293, 34.48619], [133.32761, 34.48508], [133.3252, 34.48459], [133.32486, 34.48452], [133.3224, 34.48402], [133.32107, 34.48376], [133.32045, 34.48361], [133.31946, 34.48336], [133.31784, 34.48295], [133.31709, 34.48273], [133.31624, 34.48248], [133.31561, 34.48227], [133.31429, 34.48184], [133.31422, 34.48181], [133.31149, 34.4809], [133.31145, 34.48089], [133.31069, 34.48064], [133.31051, 34.48058], [133.30946, 34.48025], [133.30938, 34.48023], [133.30745, 34.47958], [133.30457, 34.47863], [133.30359, 34.47829], [133.302, 34.47777], [133.29993, 34.47708], [133.29848, 34.47659], [133.29719, 34.47617], [133.29294, 34.47477], [133.28996, 34.47377], [133.28749, 34.47296], [133.28693, 34.47277], [133.28679, 34.47272], [133.28446, 34.47195], [133.27798, 34.46979], [133.27666, 34.46936], [133.27616, 34.46919], [133.26746, 34.4663], [133.26641, 34.46595], [133.26637, 34.46594], [133.26545, 34.46564], [133.2654, 34.46562], [133.26281, 34.46476], [133.26021, 34.4639], [133.25902, 34.4635], [133.25845, 34.4633], [133.25418, 34.46191], [133.25255, 34.46136], [133.2525, 34.46135], [133.25002, 34.46051], [133.24908, 34.4602], [133.24901, 34.46018], [133.2474, 34.45965], [133.24668, 34.45944], [133.24506, 34.45887], [133.24435, 34.45864], [133.24362, 34.45837], [133.2425, 34.45796], [133.24116, 34.45743], [133.23897, 34.45643], [133.23813, 34.45603], [133.23757, 34.45576], [133.23654, 34.45525], [133.23619, 34.45508], [133.23587, 34.45492], [133.23553, 34.45476], [133.23544, 34.45471], [133.23449, 34.45428], [133.23379, 34.45391], [133.23299, 34.45348], [133.23012, 34.45191], [133.22995, 34.45182], [133.22936, 34.45148], [133.22916, 34.45137], [133.22838, 34.4509], [133.22827, 34.45083], [133.22783, 34.45055], [133.2276, 34.45038], [133.2272, 34.45009], [133.226, 34.44912], [133.22501, 34.44839], [133.22315, 34.44696], [133.22099, 34.44538], [133.21938, 34.44434], [133.21516, 34.44161], [133.21234, 34.43994], [133.21052, 34.43894], [133.20801, 34.43755], [133.20602, 34.43654], [133.20375, 34.43546], [133.202, 34.43462], [133.20107, 34.43424], [133.19953, 34.43361], [133.19783, 34.43288], [133.19643, 34.43233], [133.19415, 34.43154], [133.19384, 34.43143], [133.19273, 34.43102], [133.19263, 34.43099], [133.19242, 34.43091], [133.19219, 34.43082]]}, "properties": {"id": "GEOM_TOKYO_0683", "route_id": "R_A02272B9", "route_name": null, "route_color": "#1263D6", "route_text_color": null, "line_name": "山陽新幹線", "operator_id": "西日本旅客鉄道", "representation": "service_path", "min_zoom": 0, "max_zoom": 24, "offset_rank": 0}}, {"type": "Feature", "bbox": [132.75783, 34.38816, 132.76159, 34.39054], "geometry": {"type": "LineString", "coordinates": [[132.76159, 34.39054], [132.75895, 34.38887], [132.75783, 34.38816]]}, "properties": {"id": "GEOM_TOKYO_0684", "route_id": "R_A02272B9", "route_name": null, "route_color": "#1263D6", "route_text_color": null, "line_name": "山陽新幹線", "operator_id": "西日本旅客鉄道", "representation": "service_path", "min_zoom": 0, "max_zoom": 24, "offset_rank": 0}}, {"type": "Feature", "bbox": [132.76159, 34.39054, 133.08115, 34.41821], "geometry": {"type": "LineString", "coordinates": [[133.08115, 34.40085], [133.08037, 34.40086], [133.07957, 34.40087], [133.07774, 34.40087], [133.07733, 34.40085], [133.07482, 34.40064], [133.07231, 34.40041], [133.06981, 34.40018], [133.06934, 34.40014], [133.06732, 34.39995], [133.06484, 34.3997], [133.06238, 34.39948], [133.05994, 34.39927], [133.05832, 34.39911], [133.0574, 34.39902], [133.05721, 34.399], [133.0563, 34.39891], [133.05605, 34.39889], [133.05487, 34.39877], [133.05413, 34.39872], [133.0531, 34.39865], [133.05285, 34.39864], [133.05207, 34.3986], [133.05119, 34.39858], [133.04921, 34.39858], [133.04702, 34.39863], [133.04487, 34.39877], [133.0437, 34.39884], [133.04233, 34.39902], [133.04181, 34.39909], [133.04113, 34.39917], [133.04047, 34.39929], [133.03987, 34.3994], [133.03894, 34.39958], [133.03789, 34.3998], [133.03689, 34.40003], [133.03604, 34.40024], [133.03559, 34.40035], [133.0355, 34.40038], [133.03353, 34.40095], [133.03158, 34.40155], [133.0303, 34.40197], [133.02948, 34.40226], [133.0275, 34.4031], [133.02667, 34.40344], [133.02563, 34.40388], [133.02375, 34.40468], [133.02198, 34.40543], [133.02157, 34.4056], [133.02127, 34.40573], [133.02104, 34.40583], [133.02079, 34.40593], [133.02078, 34.40594], [133.02046, 34.40608], [133.0198, 34.40637], [133.01912, 34.40665], [133.01887, 34.40675], [133.01854, 34.4069], [133.01826, 34.40701], [133.01795, 34.40715], [133.01493, 34.40844], [133.014, 34.40884], [133.01098, 34.41013], [133.00719, 34.41172], [133.00642, 34.41204], [133.00557, 34.4124], [133.00503, 34.41262], [133.00369, 34.41318], [133.00203, 34.4138], [133.00143, 34.41403], [132.99938, 34.41474], [132.99892, 34.41488], [132.99847, 34.41502], [132.99776, 34.41526], [132.9976, 34.41533], [132.99743, 34.41539], [132.99619, 34.4157], [132.99498, 34.41602], [132.99369, 34.41634], [132.99295, 34.41652], [132.99252, 34.41659], [132.99237, 34.41661], [132.99171, 34.41673], [132.98983, 34.41707], [132.98869, 34.41723], [132.98835, 34.41728], [132.98736, 34.41742], [132.98633, 34.41754], [132.98557, 34.41762], [132.98481, 34.4177], [132.98281, 34.4179], [132.98137, 34.41804], [132.98044, 34.4181], [132.97934, 34.41815], [132.97814, 34.41821], [132.97693, 34.41821], [132.9763, 34.41821], [132.97594, 34.41821], [132.97435, 34.41816], [132.97343, 34.41816], [132.97241, 34.41811], [132.97173, 34.41807], [132.97082, 34.41801], [132.96986, 34.41793], [132.96886, 34.41784], [132.96754, 34.41769], [132.96626, 34.41753], [132.96528, 34.41742], [132.96527, 34.41742], [132.96472, 34.41736], [132.96411, 34.41729], [132.9637, 34.41725], [132.96288, 34.41715], [132.96158, 34.417], [132.95986, 34.41679], [132.9543, 34.41613], [132.95362, 34.41605], [132.95087, 34.41573], [132.9495, 34.41558], [132.94806, 34.41542], [132.94693, 34.41531], [132.94546, 34.41514], [132.94397, 34.41497], [132.94333, 34.41489], [132.9427, 34.41482], [132.9415, 34.41469], [132.94097, 34.41462], [132.94089, 34.41461], [132.9403, 34.41454], [132.94022, 34.41453], [132.93894, 34.41438], [132.93866, 34.41435], [132.93789, 34.41426], [132.93675, 34.41415], [132.93612, 34.41407], [132.93565, 34.41401], [132.93448, 34.41387], [132.93362, 34.41376], [132.93251, 34.41362], [132.93143, 34.4135], [132.93017, 34.41334], [132.92962, 34.41328], [132.92902, 34.41322], [132.92818, 34.41313], [132.92727, 34.41303], [132.92652, 34.41293], [132.92566, 34.41283], [132.92494, 34.41274], [132.92403, 34.41263], [132.92327, 34.41254], [132.92249, 34.41245], [132.92161, 34.41235], [132.92089, 34.41226], [132.91946, 34.41211], [132.91865, 34.412], [132.91862, 34.412], [132.91808, 34.41193], [132.91688, 34.41179], [132.91556, 34.41165], [132.91443, 34.41151], [132.91342, 34.41141], [132.91287, 34.41133], [132.91229, 34.41127], [132.91155, 34.41116], [132.91016, 34.411], [132.90875, 34.41082], [132.90768, 34.4107], [132.90746, 34.41068], [132.90632, 34.41056], [132.90408, 34.4103], [132.90154, 34.41001], [132.89821, 34.40962], [132.89648, 34.40944], [132.8955, 34.40929], [132.89437, 34.40916], [132.89321, 34.40902], [132.89234, 34.40893], [132.89172, 34.40888], [132.89105, 34.40885], [132.89019, 34.40881], [132.88894, 34.40877], [132.88813, 34.40875], [132.88721, 34.40872], [132.88668, 34.40871], [132.88538, 34.40869], [132.88453, 34.40869], [132.88353, 34.4087], [132.88313, 34.4087], [132.88141, 34.40871], [132.8779, 34.40874], [132.87632, 34.40875], [132.87486, 34.40877], [132.87244, 34.40879], [132.87143, 34.40882], [132.86972, 34.40883], [132.86803, 34.40884], [132.86655, 34.40884], [132.86453, 34.40889], [132.86157, 34.40893], [132.86058, 34.40894], [132.85662, 34.40899], [132.85555, 34.40898], [132.85434, 34.40898], [132.85163, 34.40902], [132.8495, 34.40907], [132.84904, 34.40908], [132.84761, 34.40912], [132.84703, 34.40913], [132.84608, 34.40915], [132.84505, 34.40919], [132.84388, 34.40922], [132.84273, 34.40925], [132.84117, 34.40928], [132.8388, 34.40933], [132.83711, 34.40935], [132.83538, 34.40939], [132.83453, 34.40941], [132.83119, 34.4095], [132.83032, 34.40951], [132.83, 34.40951], [132.82896, 34.40952], [132.82797, 34.40954], [132.82595, 34.40957], [132.82067, 34.40967], [132.81612, 34.40977], [132.81353, 34.40982], [132.81143, 34.40984], [132.8096, 34.40972], [132.80691, 34.40954], [132.80452, 34.40934], [132.80281, 34.40916], [132.80051, 34.40883], [132.79911, 34.40857], [132.79864, 34.40846], [132.79837, 34.40841], [132.79657, 34.40803], [132.79518, 34.4077], [132.79449, 34.40754], [132.7941, 34.40744], [132.79409, 34.40743], [132.79383, 34.40736], [132.79304, 34.40715], [132.7918, 34.40677], [132.78912, 34.40589], [132.78641, 34.40478], [132.78451, 34.40393], [132.78402, 34.4037], [132.78379, 34.40359], [132.78219, 34.40281], [132.78021, 34.40182], [132.7795, 34.40145], [132.77796, 34.40062], [132.77704, 34.40018], [132.7757, 34.39942], [132.7747, 34.39883], [132.77412, 34.39848], [132.77259, 34.39752], [132.77242, 34.39741], [132.77185, 34.39705], [132.77173, 34.39698], [132.77137, 34.39675], [132.7713, 34.39671], [132.77119, 34.39664], [132.77047, 34.39619], [132.77036, 34.39612], [132.77004, 34.39591], [132.76979, 34.39575], [132.76968, 34.39568], [132.76881, 34.39514], [132.76827, 34.39479], [132.76676, 34.39384], [132.76656, 34.3937], [132.76604, 34.39337], [132.76547, 34.393], [132.76525, 34.39286], [132.7636, 34.39181], [132.76326, 34.39159], [132.76304, 34.39145], [132.76241, 34.39106], [132.76159, 34.39054]]}, "properties": {"id": "GEOM_TOKYO_0685", "route_id": "R_A02272B9", "route_name": null, "route_color": "#1263D6", "route_text_color": null, "line_name": "山陽新幹線", "operator_id": "西日本旅客鉄道", "representation": "service_path", "min_zoom": 0, "max_zoom": 24, "offset_rank": 0}}, {"type": "Feature", "bbox": [133.08115, 34.4008, 133.08543, 34.40085], "geometry": {"type": "LineString", "coordinates": [[133.08543, 34.4008], [133.08115, 34.40085]]}, "properties": {"id": "GEOM_TOKYO_0686", "route_id": "R_A02272B9", "route_name": null, "route_color": "#1263D6", "route_text_color": null, "line_name": "山陽新幹線", "operator_id": "西日本旅客鉄道", "representation": "service_path", "min_zoom": 0, "max_zoom": 24, "offset_rank": 0}}, {"type": "Feature", "bbox": [132.49261, 34.3427, 132.75783, 34.39321], "geometry": {"type": "LineString", "coordinates": [[132.75783, 34.38816], [132.75676, 34.38748], [132.75606, 34.38704], [132.75435, 34.38598], [132.75388, 34.38568], [132.75337, 34.38535], [132.75247, 34.38475], [132.75126, 34.38396], [132.74995, 34.38309], [132.74915, 34.38255], [132.74898, 34.38245], [132.74854, 34.38213], [132.74818, 34.38188], [132.74776, 34.38159], [132.74746, 34.38137], [132.74652, 34.38062], [132.74435, 34.37891], [132.74339, 34.37815], [132.74177, 34.37693], [132.74127, 34.37655], [132.7405, 34.37591], [132.73884, 34.37453], [132.73839, 34.37416], [132.73816, 34.37398], [132.73701, 34.37306], [132.73682, 34.37291], [132.73609, 34.37232], [132.73484, 34.37134], [132.73423, 34.37086], [132.73178, 34.3689], [132.73048, 34.36784], [132.72947, 34.36703], [132.72876, 34.36648], [132.72829, 34.36613], [132.72618, 34.36467], [132.72613, 34.36464], [132.72469, 34.3637], [132.72395, 34.36326], [132.72323, 34.36282], [132.72278, 34.36257], [132.72267, 34.36251], [132.71934, 34.36071], [132.71838, 34.3602], [132.71725, 34.35957], [132.71718, 34.35953], [132.71658, 34.3592], [132.71624, 34.35901], [132.71517, 34.35842], [132.71457, 34.35809], [132.71423, 34.3579], [132.71415, 34.35786], [132.71397, 34.35776], [132.71296, 34.35721], [132.711, 34.35618], [132.70988, 34.35559], [132.7084, 34.3548], [132.70808, 34.35463], [132.70673, 34.35388], [132.70634, 34.35368], [132.70576, 34.35334], [132.705, 34.3529], [132.70382, 34.35226], [132.70372, 34.3522], [132.70324, 34.35194], [132.70264, 34.35162], [132.70104, 34.35082], [132.70024, 34.35044], [132.6997, 34.3502], [132.69908, 34.34993], [132.69888, 34.34984], [132.69884, 34.34983], [132.69827, 34.34959], [132.69804, 34.34949], [132.69751, 34.34927], [132.69746, 34.34926], [132.69628, 34.34879], [132.69549, 34.3485], [132.69518, 34.34839], [132.69436, 34.3481], [132.69332, 34.34775], [132.69252, 34.34751], [132.6923, 34.34744], [132.69201, 34.34735], [132.69145, 34.34719], [132.69069, 34.34699], [132.69012, 34.34685], [132.68988, 34.34679], [132.68984, 34.34678], [132.6892, 34.34663], [132.68909, 34.34661], [132.68802, 34.34644], [132.68715, 34.3463], [132.6827, 34.34559], [132.67966, 34.34519], [132.67898, 34.34512], [132.67822, 34.34505], [132.67621, 34.34488], [132.6725, 34.34458], [132.66518, 34.34404], [132.66131, 34.34376], [132.6581, 34.34351], [132.65607, 34.34337], [132.65414, 34.34322], [132.64896, 34.34281], [132.64838, 34.34277], [132.64731, 34.34273], [132.64573, 34.3427], [132.64514, 34.34271], [132.64366, 34.34277], [132.64309, 34.34279], [132.64301, 34.34279], [132.6421, 34.34287], [132.64099, 34.34297], [132.63984, 34.34311], [132.63867, 34.34324], [132.63791, 34.34336], [132.63633, 34.34361], [132.63471, 34.34386], [132.63404, 34.34401], [132.63352, 34.34412], [132.63286, 34.34431], [132.63223, 34.34447], [132.63198, 34.34454], [132.63136, 34.34472], [132.63054, 34.34497], [132.62879, 34.34557], [132.62736, 34.34613], [132.62708, 34.34626], [132.62612, 34.34669], [132.62519, 34.34714], [132.62435, 34.34757], [132.62369, 34.34794], [132.62337, 34.34812], [132.62295, 34.34838], [132.62247, 34.34866], [132.62195, 34.34899], [132.6212, 34.34948], [132.62033, 34.34999], [132.61993, 34.35022], [132.61914, 34.35066], [132.61841, 34.35106], [132.61793, 34.35134], [132.61745, 34.35161], [132.61603, 34.3524], [132.61511, 34.35291], [132.61471, 34.35313], [132.61332, 34.35391], [132.61193, 34.35467], [132.61042, 34.35549], [132.60953, 34.35598], [132.6086, 34.35651], [132.60819, 34.35674], [132.60655, 34.35768], [132.60614, 34.35791], [132.60597, 34.35801], [132.60569, 34.35816], [132.60516, 34.35846], [132.60386, 34.35918], [132.60243, 34.35996], [132.60144, 34.36056], [132.60122, 34.36066], [132.60041, 34.36104], [132.59857, 34.36203], [132.5978, 34.36245], [132.5969, 34.36295], [132.59676, 34.36303], [132.59643, 34.36323], [132.5955, 34.36375], [132.59417, 34.36452], [132.59327, 34.36503], [132.59198, 34.36576], [132.59107, 34.36627], [132.59011, 34.36682], [132.58948, 34.36719], [132.58922, 34.36731], [132.5887, 34.36762], [132.58769, 34.3682], [132.58737, 34.36837], [132.58564, 34.36931], [132.58467, 34.36983], [132.58279, 34.37088], [132.58189, 34.37139], [132.58045, 34.3722], [132.5798, 34.37257], [132.57944, 34.37275], [132.57859, 34.37321], [132.57852, 34.37326], [132.57797, 34.37359], [132.5773, 34.37396], [132.57712, 34.37405], [132.57604, 34.37466], [132.57527, 34.3751], [132.57346, 34.37607], [132.57162, 34.37704], [132.57013, 34.37782], [132.56855, 34.37862], [132.56709, 34.3794], [132.56674, 34.37957], [132.56591, 34.37996], [132.56466, 34.38056], [132.56353, 34.38104], [132.56239, 34.38143], [132.56141, 34.38172], [132.56134, 34.38174], [132.56033, 34.38198], [132.5601, 34.38204], [132.55976, 34.38211], [132.55966, 34.38213], [132.5588, 34.38231], [132.55826, 34.38242], [132.55819, 34.38243], [132.55713, 34.38262], [132.55643, 34.38272], [132.55631, 34.38275], [132.55577, 34.38282], [132.55548, 34.38286], [132.55546, 34.38287], [132.55502, 34.38292], [132.55477, 34.38296], [132.55457, 34.38298], [132.55396, 34.38305], [132.55388, 34.38306], [132.55348, 34.38311], [132.55337, 34.38312], [132.55259, 34.38318], [132.55136, 34.38328], [132.55079, 34.38332], [132.55023, 34.38336], [132.54909, 34.38345], [132.54782, 34.38354], [132.54655, 34.38365], [132.54567, 34.3837], [132.544, 34.38384], [132.54334, 34.38389], [132.54269, 34.38394], [132.54192, 34.384], [132.54063, 34.38407], [132.53934, 34.38415], [132.53812, 34.38423], [132.53661, 34.38432], [132.53454, 34.38444], [132.53396, 34.38448], [132.53266, 34.38455], [132.53128, 34.38462], [132.5301, 34.38469], [132.52872, 34.38477], [132.52804, 34.38481], [132.52743, 34.38486], [132.5267, 34.3849], [132.52541, 34.38499], [132.52415, 34.38506], [132.52348, 34.38512], [132.52291, 34.38516], [132.52273, 34.38518], [132.52111, 34.38537], [132.52001, 34.38553], [132.51927, 34.38566], [132.51894, 34.38571], [132.51818, 34.38585], [132.51749, 34.38599], [132.51515, 34.38657], [132.5147, 34.38667], [132.51455, 34.3867], [132.51441, 34.38674], [132.51401, 34.38683], [132.51278, 34.38713], [132.51244, 34.38721], [132.51181, 34.38737], [132.51173, 34.38738], [132.51136, 34.38748], [132.51052, 34.38769], [132.51042, 34.38771], [132.50901, 34.38808], [132.50751, 34.38846], [132.50618, 34.38882], [132.50527, 34.38908], [132.50506, 34.38915], [132.50487, 34.38921], [132.50466, 34.38928], [132.50459, 34.3893], [132.50416, 34.38945], [132.50363, 34.38963], [132.50239, 34.39007], [132.50112, 34.39053], [132.50108, 34.39054], [132.50051, 34.39075], [132.50029, 34.39083], [132.49894, 34.3913], [132.49845, 34.39147], [132.49748, 34.39179], [132.49689, 34.39198], [132.49647, 34.39211], [132.49509, 34.39259], [132.49478, 34.39269], [132.49457, 34.39275], [132.4944, 34.39281], [132.49389, 34.39297], [132.49368, 34.39303], [132.49333, 34.39311], [132.49302, 34.39316], [132.4928, 34.3932], [132.49261, 34.39321]]}, "properties": {"id": "GEOM_TOKYO_0690", "route_id": "R_A02272B9", "route_name": null, "route_color": "#1263D6", "route_text_color": null, "line_name": "山陽新幹線", "operator_id": "西日本旅客鉄道", "representation": "service_path", "min_zoom": 0, "max_zoom": 24, "offset_rank": 0}}]}