{"type": "FeatureCollection", "features": [{"type": "Feature", "bbox": [131.16218, 34.03704, 131.3954, 34.09226], "geometry": {"type": "LineString", "coordinates": [[131.3954, 34.09226], [131.39433, 34.09166], [131.39269, 34.09061], [131.39078, 34.08932], [131.38871, 34.08784], [131.38698, 34.08659], [131.38591, 34.08588], [131.38482, 34.08524], [131.38394, 34.08471], [131.38029, 34.08229], [131.37952, 34.08176], [131.37922, 34.08157], [131.37487, 34.07862], [131.37323, 34.07737], [131.37258, 34.07686], [131.37162, 34.07599], [131.37085, 34.07527], [131.36962, 34.0739], [131.36867, 34.07289], [131.36854, 34.07276], [131.36519, 34.06912], [131.36421, 34.0681], [131.36321, 34.067], [131.36214, 34.06584], [131.36213, 34.06582], [131.36121, 34.06485], [131.35992, 34.06356], [131.3592, 34.06286], [131.35853, 34.06224], [131.35757, 34.06146], [131.35645, 34.06053], [131.35516, 34.05955], [131.35467, 34.0592], [131.35373, 34.0586], [131.35284, 34.05803], [131.35139, 34.0571], [131.3499, 34.05622], [131.34911, 34.05578], [131.34785, 34.05515], [131.34666, 34.05461], [131.34586, 34.05426], [131.34477, 34.05383], [131.34227, 34.05296], [131.34079, 34.05246], [131.33926, 34.05204], [131.33786, 34.05167], [131.33675, 34.05142], [131.33619, 34.05131], [131.33551, 34.05117], [131.3343, 34.05098], [131.33258, 34.05085], [131.33242, 34.05084], [131.33034, 34.05072], [131.32864, 34.05068], [131.32653, 34.05064], [131.32129, 34.05055], [131.31961, 34.05064], [131.31856, 34.0507], [131.31644, 34.05075], [131.3149, 34.05078], [131.31378, 34.05077], [131.31308, 34.05079], [131.31206, 34.05074], [131.31087, 34.05067], [131.30965, 34.05056], [131.30838, 34.05038], [131.30661, 34.05012], [131.30467, 34.0498], [131.30374, 34.04963], [131.30191, 34.04923], [131.30024, 34.04881], [131.29827, 34.04816], [131.29607, 34.04741], [131.29248, 34.0462], [131.28945, 34.04523], [131.28577, 34.04408], [131.2788, 34.0418], [131.27667, 34.04111], [131.27481, 34.04061], [131.27348, 34.04026], [131.27201, 34.03988], [131.27074, 34.03959], [131.26973, 34.03938], [131.26871, 34.03919], [131.26591, 34.03874], [131.26329, 34.03832], [131.26136, 34.03805], [131.25769, 34.03756], [131.25528, 34.0373], [131.25497, 34.03728], [131.25422, 34.03723], [131.25362, 34.0372], [131.25316, 34.03718], [131.25229, 34.03716], [131.24919, 34.03711], [131.24807, 34.0371], [131.24769, 34.03709], [131.24759, 34.03709], [131.24696, 34.03707], [131.24623, 34.03707], [131.24459, 34.03704], [131.243, 34.03707], [131.24191, 34.0371], [131.24135, 34.03715], [131.23919, 34.0373], [131.23863, 34.03736], [131.23766, 34.0375], [131.23647, 34.03767], [131.23489, 34.03788], [131.23359, 34.03807], [131.23279, 34.03821], [131.23219, 34.03831], [131.23122, 34.03848], [131.23054, 34.03858], [131.22939, 34.03872], [131.22778, 34.03893], [131.22691, 34.03907], [131.22633, 34.03917], [131.2259, 34.03923], [131.22515, 34.03935], [131.22398, 34.03953], [131.22239, 34.03978], [131.22103, 34.03999], [131.2193, 34.04026], [131.21582, 34.04082], [131.21436, 34.04106], [131.21392, 34.04113], [131.2101, 34.04172], [131.20728, 34.04217], [131.20449, 34.04264], [131.20411, 34.04271], [131.20373, 34.04276], [131.20258, 34.04293], [131.2018, 34.04306], [131.2006, 34.04322], [131.20028, 34.04326], [131.19792, 34.0436], [131.19534, 34.04398], [131.19487, 34.04405], [131.19426, 34.04414], [131.19383, 34.04421], [131.19228, 34.04445], [131.19072, 34.0447], [131.18967, 34.04487], [131.18846, 34.04507], [131.18787, 34.04516], [131.18547, 34.04556], [131.18487, 34.04566], [131.18364, 34.04589], [131.18342, 34.04594], [131.18132, 34.04635], [131.18097, 34.04642], [131.17926, 34.04681], [131.17724, 34.04729], [131.17582, 34.04761], [131.175, 34.04782], [131.17285, 34.0484], [131.17244, 34.04854], [131.17229, 34.04859], [131.17147, 34.04884], [131.17, 34.04931], [131.16876, 34.04973], [131.1675, 34.05017], [131.16601, 34.05073], [131.16473, 34.0512], [131.16377, 34.0516], [131.16218, 34.05227]]}, "properties": {"id": "GEOM_TOKYO_0696", "route_id": "R_A02272B9", "route_name": null, "route_color": "#1263D6", "route_text_color": null, "line_name": "山陽新幹線", "operator_id": "西日本旅客鉄道", "representation": "service_path", "min_zoom": 0, "max_zoom": 24, "offset_rank": 0}}, {"type": "Feature", "bbox": [131.15811, 34.05227, 131.16218, 34.05396], "geometry": {"type": "LineString", "coordinates": [[131.16218, 34.05227], [131.16093, 34.05279], [131.15811, 34.05396]]}, "properties": {"id": "GEOM_TOKYO_0699", "route_id": "R_A02272B9", "route_name": null, "route_color": "#1263D6", "route_text_color": null, "line_name": "山陽新幹線", "operator_id": "西日本旅客鉄道", "representation": "service_path", "min_zoom": 0, "max_zoom": 24, "offset_rank": 0}}, {"type": "Feature", "bbox": [130.94955, 34.00889, 131.15811, 34.07561], "geometry": {"type": "LineString", "coordinates": [[131.15811, 34.05396], [131.1565, 34.05462], [131.15404, 34.05564], [131.15255, 34.05628], [131.15052, 34.05714], [131.14855, 34.05794], [131.14792, 34.0582], [131.14642, 34.05881], [131.1461, 34.05894], [131.14556, 34.05917], [131.14389, 34.05984], [131.14184, 34.06068], [131.13944, 34.06168], [131.13716, 34.06261], [131.13458, 34.06356], [131.13321, 34.06401], [131.13187, 34.06445], [131.13065, 34.06483], [131.12846, 34.06549], [131.12809, 34.06559], [131.12666, 34.06599], [131.12638, 34.06606], [131.12585, 34.06621], [131.12494, 34.06645], [131.12383, 34.06669], [131.12324, 34.0668], [131.1226, 34.06692], [131.1222, 34.06697], [131.12058, 34.06717], [131.11806, 34.06753], [131.11125, 34.06833], [131.1091, 34.06856], [131.10576, 34.069], [131.10437, 34.06914], [131.1025, 34.06937], [131.1006, 34.06959], [131.09899, 34.06979], [131.09669, 34.07005], [131.09381, 34.07037], [131.0906, 34.07073], [131.08962, 34.07085], [131.0874, 34.0711], [131.08418, 34.07147], [131.08153, 34.07177], [131.07865, 34.07209], [131.07833, 34.07212], [131.07593, 34.07241], [131.07244, 34.07282], [131.06926, 34.0732], [131.06819, 34.07332], [131.0672, 34.07342], [131.06443, 34.07375], [131.0627, 34.07395], [131.06167, 34.07407], [131.05965, 34.07431], [131.05891, 34.07439], [131.05616, 34.0747], [131.05337, 34.07499], [131.05201, 34.07512], [131.05062, 34.07523], [131.04923, 34.07534], [131.04865, 34.07539], [131.04828, 34.07543], [131.04758, 34.07546], [131.04642, 34.07556], [131.04555, 34.07561], [131.04344, 34.07561], [131.043, 34.0756], [131.04296, 34.0756], [131.042, 34.07556], [131.04185, 34.07555], [131.04093, 34.07553], [131.03919, 34.07546], [131.0368, 34.07527], [131.03552, 34.07514], [131.03411, 34.07498], [131.03258, 34.07478], [131.03242, 34.07475], [131.03119, 34.07455], [131.02983, 34.07431], [131.02818, 34.07399], [131.02676, 34.0737], [131.0258, 34.07347], [131.02405, 34.073], [131.02263, 34.07264], [131.02173, 34.0724], [131.02064, 34.07211], [131.01995, 34.0719], [131.01777, 34.07124], [131.01645, 34.07085], [131.01593, 34.07068], [131.01171, 34.06929], [131.01069, 34.06895], [131.00634, 34.06754], [131.00482, 34.06703], [131.00222, 34.06617], [130.99964, 34.06531], [130.99761, 34.06461], [130.99492, 34.06371], [130.99485, 34.06366], [130.99463, 34.06357], [130.99311, 34.06308], [130.99062, 34.06224], [130.9891, 34.06172], [130.9881, 34.06134], [130.98697, 34.06088], [130.98596, 34.06049], [130.98594, 34.06049], [130.98496, 34.06007], [130.98359, 34.05944], [130.98223, 34.05873], [130.98123, 34.05816], [130.97988, 34.05735], [130.97894, 34.05676], [130.9782, 34.05624], [130.97752, 34.05573], [130.97708, 34.05539], [130.97695, 34.05529], [130.97635, 34.05481], [130.97561, 34.05421], [130.97502, 34.05373], [130.97405, 34.05283], [130.97331, 34.05215], [130.97268, 34.05151], [130.97204, 34.05084], [130.97162, 34.05035], [130.97099, 34.04962], [130.96998, 34.04832], [130.96992, 34.04824], [130.96895, 34.04697], [130.96889, 34.04689], [130.96867, 34.0466], [130.9686, 34.0465], [130.9683, 34.04606], [130.96804, 34.04569], [130.968, 34.04563], [130.96758, 34.04502], [130.96757, 34.045], [130.9675, 34.04491], [130.96733, 34.04466], [130.96726, 34.04456], [130.96723, 34.04452], [130.96636, 34.04322], [130.96627, 34.04312], [130.96601, 34.04274], [130.96509, 34.04138], [130.96391, 34.03969], [130.96286, 34.03812], [130.96282, 34.03806], [130.96265, 34.03781], [130.96253, 34.03762], [130.96238, 34.0374], [130.96188, 34.03665], [130.96172, 34.03642], [130.96052, 34.03461], [130.95854, 34.03167], [130.95776, 34.03049], [130.957, 34.02936], [130.95609, 34.02799], [130.9549, 34.0262], [130.95475, 34.02593], [130.95455, 34.02556], [130.95425, 34.02498], [130.95384, 34.0241], [130.9536, 34.02351], [130.9534, 34.02301], [130.95313, 34.02232], [130.9528, 34.02153], [130.95259, 34.02101], [130.95236, 34.02019], [130.95186, 34.01858], [130.95164, 34.01782], [130.95135, 34.01679], [130.95105, 34.01553], [130.95058, 34.01347], [130.95024, 34.01207], [130.95013, 34.01162], [130.94993, 34.01076], [130.94986, 34.01047], [130.9497, 34.00972], [130.94955, 34.00889]]}, "properties": {"id": "GEOM_TOKYO_0700", "route_id": "R_A02272B9", "route_name": null, "route_color": "#1263D6", "route_text_color": null, "line_name": "山陽新幹線", "operator_id": "西日本旅客鉄道", "representation": "service_path", "min_zoom": 0, "max_zoom": 24, "offset_rank": 0}}, {"type": "Feature", "bbox": [130.94868, 34.00525, 130.94955, 34.00889], "geometry": {"type": "LineString", "coordinates": [[130.94955, 34.00889], [130.94942, 34.00852], [130.94938, 34.00833], [130.94937, 34.00827], [130.94933, 34.00809], [130.94892, 34.00632], [130.94875, 34.00557], [130.94868, 34.00525]]}, "properties": {"id": "GEOM_TOKYO_0702", "route_id": "R_A02272B9", "route_name": null, "route_color": "#1263D6", "route_text_color": null, "line_name": "山陽新幹線", "operator_id": "西日本旅客鉄道", "representation": "service_path", "min_zoom": 0, "max_zoom": 24, "offset_rank": 0}}, {"type": "Feature", "bbox": [130.88528, 33.88273, 130.97871, 34.00525], "geometry": {"type": "LineString", "coordinates": [[130.94868, 34.00525], [130.94867, 34.00516], [130.94824, 34.00326], [130.94822, 34.00321], [130.9482, 34.00313], [130.94809, 34.00265], [130.9478, 34.00143], [130.94737, 33.9992], [130.94718, 33.99727], [130.94716, 33.99508], [130.94725, 33.99369], [130.94731, 33.99288], [130.94752, 33.99124], [130.94801, 33.98893], [130.94866, 33.98681], [130.94948, 33.9849], [130.95024, 33.98313], [130.9512, 33.98148], [130.9523, 33.9798], [130.95453, 33.97691], [130.96049, 33.96938], [130.96053, 33.96932], [130.96277, 33.96642], [130.96345, 33.96557], [130.96393, 33.96495], [130.96537, 33.96312], [130.96647, 33.96172], [130.96824, 33.95947], [130.9707, 33.95624], [130.97237, 33.95408], [130.97363, 33.95245], [130.97583, 33.94899], [130.97657, 33.94746], [130.97718, 33.94599], [130.9776, 33.9447], [130.97809, 33.94287], [130.97841, 33.94118], [130.97869, 33.93865], [130.97871, 33.93709], [130.97871, 33.9368], [130.97866, 33.93501], [130.97842, 33.93288], [130.978, 33.93075], [130.97727, 33.92829], [130.97723, 33.92819], [130.97639, 33.92598], [130.97543, 33.92394], [130.97434, 33.92205], [130.97288, 33.91993], [130.97232, 33.91915], [130.97107, 33.91768], [130.96779, 33.9145], [130.96703, 33.91375], [130.96404, 33.91085], [130.95991, 33.90684], [130.95835, 33.90532], [130.95381, 33.90088], [130.9528, 33.89993], [130.95091, 33.89812], [130.94628, 33.89358], [130.94565, 33.89304], [130.94441, 33.89195], [130.94141, 33.88979], [130.93853, 33.88808], [130.9371, 33.88735], [130.93627, 33.88693], [130.93324, 33.88566], [130.93083, 33.88488], [130.92692, 33.88388], [130.92661, 33.8838], [130.92407, 33.88337], [130.92176, 33.88311], [130.91992, 33.88298], [130.91593, 33.88292], [130.90956, 33.88283], [130.9029, 33.88273], [130.90012, 33.88276], [130.89849, 33.88288], [130.89661, 33.88316], [130.89565, 33.88341], [130.89471, 33.88365], [130.88929, 33.88511], [130.88745, 33.88569], [130.88528, 33.88655]]}, "properties": {"id": "GEOM_TOKYO_0707", "route_id": "R_A02272B9", "route_name": null, "route_color": "#1263D6", "route_text_color": null, "line_name": "山陽新幹線", "operator_id": "西日本旅客鉄道", "representation": "service_path", "min_zoom": 0, "max_zoom": 24, "offset_rank": 0}}]}