{"type": "FeatureCollection", "features": [{"type": "Feature", "bbox": [132.1507, 34.16656, 132.47351, 34.41005], "geometry": {"type": "LineString", "coordinates": [[132.47351, 34.39948], [132.47309, 34.39974], [132.47298, 34.39981], [132.47286, 34.39989], [132.47248, 34.40014], [132.47161, 34.40072], [132.47128, 34.40096], [132.47098, 34.40119], [132.47084, 34.4013], [132.47011, 34.40192], [132.46968, 34.40232], [132.4692, 34.40281], [132.46901, 34.40305], [132.46838, 34.40385], [132.46811, 34.40417], [132.46804, 34.40425], [132.46745, 34.40489], [132.46721, 34.40513], [132.46688, 34.40542], [132.46639, 34.40581], [132.46603, 34.40606], [132.46558, 34.40635], [132.46538, 34.40646], [132.46506, 34.40664], [132.4645, 34.40692], [132.46403, 34.40712], [132.46337, 34.40738], [132.46306, 34.4075], [132.46274, 34.40763], [132.46268, 34.40765], [132.46257, 34.40769], [132.46216, 34.40784], [132.46147, 34.40808], [132.46097, 34.40826], [132.46039, 34.40847], [132.45982, 34.40869], [132.4591, 34.40896], [132.45895, 34.40901], [132.45844, 34.4092], [132.45828, 34.40927], [132.45772, 34.40947], [132.45728, 34.40961], [132.45692, 34.4097], [132.45653, 34.4098], [132.45589, 34.4099], [132.45559, 34.40993], [132.45529, 34.40997], [132.4547, 34.41001], [132.45394, 34.41005], [132.45256, 34.41], [132.45125, 34.40989], [132.45117, 34.40988], [132.44937, 34.40975], [132.44852, 34.40971], [132.44796, 34.40968], [132.44751, 34.40965], [132.4469, 34.40959], [132.44612, 34.40953], [132.44536, 34.40945], [132.44455, 34.40936], [132.44444, 34.40935], [132.44383, 34.40929], [132.44336, 34.40925], [132.44311, 34.40921], [132.44166, 34.40907], [132.44072, 34.40897], [132.44015, 34.40891], [132.43928, 34.40883], [132.43888, 34.40879], [132.43704, 34.40862], [132.43682, 34.4086], [132.43649, 34.40856], [132.43564, 34.40849], [132.43473, 34.40841], [132.43466, 34.40841], [132.42778, 34.40777], [132.42689, 34.40769], [132.42612, 34.40761], [132.42183, 34.40713], [132.42021, 34.407], [132.41589, 34.4066], [132.41203, 34.40625], [132.40897, 34.40593], [132.40719, 34.40573], [132.40488, 34.40552], [132.40399, 34.40544], [132.39946, 34.40496], [132.398, 34.40477], [132.39763, 34.40471], [132.3945, 34.40424], [132.39397, 34.40416], [132.39368, 34.40412], [132.39129, 34.40382], [132.3902, 34.40365], [132.38872, 34.40338], [132.3853, 34.40274], [132.38394, 34.40246], [132.38284, 34.40223], [132.37249, 34.40006], [132.37115, 34.39979], [132.36902, 34.39935], [132.36901, 34.39935], [132.36692, 34.39894], [132.36441, 34.39841], [132.362, 34.39787], [132.36111, 34.39765], [132.35987, 34.39729], [132.35837, 34.39686], [132.35808, 34.39678], [132.35572, 34.39596], [132.35488, 34.39564], [132.35417, 34.39534], [132.35337, 34.39498], [132.35333, 34.39496], [132.34727, 34.39203], [132.34654, 34.39164], [132.34559, 34.39111], [132.34453, 34.39046], [132.344, 34.39011], [132.34321, 34.38957], [132.34104, 34.388], [132.3403, 34.3874], [132.33783, 34.38536], [132.33679, 34.38449], [132.33637, 34.38412], [132.33607, 34.38382], [132.33517, 34.38292], [132.33404, 34.38162], [132.33367, 34.38119], [132.33274, 34.37999], [132.33207, 34.37908], [132.33136, 34.37813], [132.33071, 34.37716], [132.33011, 34.37624], [132.33001, 34.37609], [132.3299, 34.37591], [132.3294, 34.37513], [132.32703, 34.37093], [132.32531, 34.36792], [132.32375, 34.3652], [132.32231, 34.36265], [132.32098, 34.3603], [132.32065, 34.35974], [132.3199, 34.35845], [132.31909, 34.35702], [132.31787, 34.35487], [132.31713, 34.35366], [132.3159, 34.35164], [132.31588, 34.35161], [132.31564, 34.35121], [132.31525, 34.35062], [132.31472, 34.34982], [132.31436, 34.3493], [132.31372, 34.34841], [132.31208, 34.34611], [132.31169, 34.34558], [132.31123, 34.34496], [132.31076, 34.34431], [132.30992, 34.34315], [132.30886, 34.34168], [132.30792, 34.3404], [132.30526, 34.33658], [132.3048, 34.33584], [132.30398, 34.33455], [132.30263, 34.33242], [132.30167, 34.3309], [132.30019, 34.32856], [132.29887, 34.32648], [132.29814, 34.32531], [132.29625, 34.32237], [132.29558, 34.32128], [132.29439, 34.31936], [132.29435, 34.31928], [132.29391, 34.31861], [132.29323, 34.31755], [132.2928, 34.31687], [132.29244, 34.31632], [132.29202, 34.31571], [132.29143, 34.31489], [132.29017, 34.31309], [132.28919, 34.31175], [132.28883, 34.31125], [132.28837, 34.31063], [132.28759, 34.30964], [132.28732, 34.30931], [132.28708, 34.309], [132.28681, 34.3087], [132.28647, 34.3083], [132.28527, 34.30695], [132.28497, 34.30666], [132.28415, 34.30585], [132.28339, 34.3051], [132.2831, 34.30484], [132.28169, 34.30362], [132.28158, 34.30353], [132.28135, 34.30333], [132.28049, 34.30265], [132.27995, 34.30221], [132.27922, 34.30162], [132.2785, 34.30105], [132.27798, 34.30067], [132.27771, 34.30049], [132.2757, 34.29906], [132.27488, 34.29849], [132.2741, 34.29794], [132.2734, 34.29746], [132.27201, 34.2965], [132.27068, 34.29558], [132.27004, 34.29515], [132.26962, 34.29487], [132.26958, 34.29484], [132.2685, 34.29411], [132.26104, 34.2891], [132.25908, 34.28778], [132.25691, 34.28634], [132.25553, 34.28541], [132.25324, 34.28384], [132.25252, 34.28333], [132.25229, 34.28317], [132.25175, 34.28277], [132.25072, 34.28199], [132.25002, 34.28145], [132.24914, 34.28073], [132.24867, 34.28036], [132.24833, 34.28008], [132.2475, 34.27941], [132.24483, 34.27723], [132.24243, 34.2753], [132.23852, 34.27215], [132.23455, 34.26896], [132.23374, 34.26832], [132.22968, 34.26506], [132.22739, 34.26322], [132.22582, 34.26201], [132.22547, 34.26173], [132.22479, 34.26116], [132.22415, 34.26065], [132.22351, 34.26015], [132.22264, 34.25946], [132.21498, 34.25326], [132.21311, 34.25175], [132.20826, 34.24786], [132.2071, 34.24691], [132.20368, 34.24414], [132.19922, 34.24057], [132.19918, 34.24054], [132.19571, 34.23772], [132.19519, 34.23728], [132.19439, 34.23657], [132.19388, 34.23611], [132.19279, 34.2351], [132.19167, 34.23398], [132.19138, 34.2337], [132.19113, 34.23345], [132.19092, 34.23321], [132.18984, 34.23185], [132.18959, 34.23154], [132.18936, 34.23122], [132.1892, 34.231], [132.18902, 34.23073], [132.18745, 34.22812], [132.18706, 34.2275], [132.18662, 34.22679], [132.18179, 34.21867], [132.1802, 34.21601], [132.17926, 34.21438], [132.17833, 34.21279], [132.177, 34.21054], [132.17515, 34.20744], [132.17421, 34.20588], [132.1725, 34.20297], [132.17216, 34.20243], [132.17128, 34.20098], [132.17081, 34.20018], [132.17006, 34.19898], [132.16765, 34.195], [132.16726, 34.19434], [132.16697, 34.19385], [132.16396, 34.18874], [132.1624, 34.18624], [132.16179, 34.18525], [132.16102, 34.1839], [132.16013, 34.18242], [132.1581, 34.17908], [132.15618, 34.17579], [132.15507, 34.17388], [132.15272, 34.16993], [132.15188, 34.16854], [132.15074, 34.16661], [132.1507, 34.16656]]}, "properties": {"id": "TRACK_TOKYO_0672", "line_name": "山陽新幹線", "station_group_ids": [], "mode": "shinkansen", "operator_id": "西日本旅客鉄道", "tags": ["tokyo", "track_centerline"]}}, {"type": "Feature", "bbox": [132.47351, 34.39738, 132.47692, 34.39948], "geometry": {"type": "LineString", "coordinates": [[132.47692, 34.39738], [132.47607, 34.39792], [132.47418, 34.39908], [132.47351, 34.39948]]}, "properties": {"id": "TRACK_TOKYO_0673", "line_name": "山陽新幹線", "station_group_ids": [], "mode": "shinkansen", "operator_id": "西日本旅客鉄道", "tags": ["tokyo", "track_centerline"]}}, {"type": "Feature", "bbox": [132.48586, 34.39321, 132.49261, 34.39405], "geometry": {"type": "LineString", "coordinates": [[132.48586, 34.39405], [132.48664, 34.39399], [132.48707, 34.39397], [132.4879, 34.39388], [132.4881, 34.39386], [132.48815, 34.39385], [132.48889, 34.39377], [132.48944, 34.3937], [132.4897, 34.39366], [132.48989, 34.39363], [132.49012, 34.39359], [132.49035, 34.39357], [132.49056, 34.39353], [132.49073, 34.39351], [132.49107, 34.39345], [132.49155, 34.39337], [132.49197, 34.39332], [132.49222, 34.39328], [132.4926, 34.39321], [132.49261, 34.39321]]}, "properties": {"id": "TRACK_TOKYO_0674", "line_name": "山陽新幹線", "station_group_ids": [], "mode": "shinkansen", "operator_id": "西日本旅客鉄道", "tags": ["tokyo", "track_centerline"]}}, {"type": "Feature", "bbox": [132.49261, 34.3427, 132.75783, 34.39321], "geometry": {"type": "LineString", "coordinates": [[132.75783, 34.38816], [132.75676, 34.38748], [132.75606, 34.38704], [132.75435, 34.38598], [132.75388, 34.38568], [132.75337, 34.38535], [132.75247, 34.38475], [132.75126, 34.38396], [132.74995, 34.38309], [132.74915, 34.38255], [132.74898, 34.38245], [132.74854, 34.38213], [132.74818, 34.38188], [132.74776, 34.38159], [132.74746, 34.38137], [132.74652, 34.38062], [132.74435, 34.37891], [132.74339, 34.37815], [132.74177, 34.37693], [132.74127, 34.37655], [132.7405, 34.37591], [132.73884, 34.37453], [132.73839, 34.37416], [132.73816, 34.37398], [132.73701, 34.37306], [132.73682, 34.37291], [132.73609, 34.37232], [132.73484, 34.37134], [132.73423, 34.37086], [132.73178, 34.3689], [132.73048, 34.36784], [132.72947, 34.36703], [132.72876, 34.36648], [132.72829, 34.36613], [132.72618, 34.36467], [132.72613, 34.36464], [132.72469, 34.3637], [132.72395, 34.36326], [132.72323, 34.36282], [132.72278, 34.36257], [132.72267, 34.36251], [132.71934, 34.36071], [132.71838, 34.3602], [132.71725, 34.35957], [132.71718, 34.35953], [132.71658, 34.3592], [132.71624, 34.35901], [132.71517, 34.35842], [132.71457, 34.35809], [132.71423, 34.3579], [132.71415, 34.35786], [132.71397, 34.35776], [132.71296, 34.35721], [132.711, 34.35618], [132.70988, 34.35559], [132.7084, 34.3548], [132.70808, 34.35463], [132.70673, 34.35388], [132.70634, 34.35368], [132.70576, 34.35334], [132.705, 34.3529], [132.70382, 34.35226], [132.70372, 34.3522], [132.70324, 34.35194], [132.70264, 34.35162], [132.70104, 34.35082], [132.70024, 34.35044], [132.6997, 34.3502], [132.69908, 34.34993], [132.69888, 34.34984], [132.69884, 34.34983], [132.69827, 34.34959], [132.69804, 34.34949], [132.69751, 34.34927], [132.69746, 34.34926], [132.69628, 34.34879], [132.69549, 34.3485], [132.69518, 34.34839], [132.69436, 34.3481], [132.69332, 34.34775], [132.69252, 34.34751], [132.6923, 34.34744], [132.69201, 34.34735], [132.69145, 34.34719], [132.69069, 34.34699], [132.69012, 34.34685], [132.68988, 34.34679], [132.68984, 34.34678], [132.6892, 34.34663], [132.68909, 34.34661], [132.68802, 34.34644], [132.68715, 34.3463], [132.6827, 34.34559], [132.67966, 34.34519], [132.67898, 34.34512], [132.67822, 34.34505], [132.67621, 34.34488], [132.6725, 34.34458], [132.66518, 34.34404], [132.66131, 34.34376], [132.6581, 34.34351], [132.65607, 34.34337], [132.65414, 34.34322], [132.64896, 34.34281], [132.64838, 34.34277], [132.64731, 34.34273], [132.64573, 34.3427], [132.64514, 34.34271], [132.64366, 34.34277], [132.64309, 34.34279], [132.64301, 34.34279], [132.6421, 34.34287], [132.64099, 34.34297], [132.63984, 34.34311], [132.63867, 34.34324], [132.63791, 34.34336], [132.63633, 34.34361], [132.63471, 34.34386], [132.63404, 34.34401], [132.63352, 34.34412], [132.63286, 34.34431], [132.63223, 34.34447], [132.63198, 34.34454], [132.63136, 34.34472], [132.63054, 34.34497], [132.62879, 34.34557], [132.62736, 34.34613], [132.62708, 34.34626], [132.62612, 34.34669], [132.62519, 34.34714], [132.62435, 34.34757], [132.62369, 34.34794], [132.62337, 34.34812], [132.62295, 34.34838], [132.62247, 34.34866], [132.62195, 34.34899], [132.6212, 34.34948], [132.62033, 34.34999], [132.61993, 34.35022], [132.61914, 34.35066], [132.61841, 34.35106], [132.61793, 34.35134], [132.61745, 34.35161], [132.61603, 34.3524], [132.61511, 34.35291], [132.61471, 34.35313], [132.61332, 34.35391], [132.61193, 34.35467], [132.61042, 34.35549], [132.60953, 34.35598], [132.6086, 34.35651], [132.60819, 34.35674], [132.60655, 34.35768], [132.60614, 34.35791], [132.60597, 34.35801], [132.60569, 34.35816], [132.60516, 34.35846], [132.60386, 34.35918], [132.60243, 34.35996], [132.60144, 34.36056], [132.60122, 34.36066], [132.60041, 34.36104], [132.59857, 34.36203], [132.5978, 34.36245], [132.5969, 34.36295], [132.59676, 34.36303], [132.59643, 34.36323], [132.5955, 34.36375], [132.59417, 34.36452], [132.59327, 34.36503], [132.59198, 34.36576], [132.59107, 34.36627], [132.59011, 34.36682], [132.58948, 34.36719], [132.58922, 34.36731], [132.5887, 34.36762], [132.58769, 34.3682], [132.58737, 34.36837], [132.58564, 34.36931], [132.58467, 34.36983], [132.58279, 34.37088], [132.58189, 34.37139], [132.58045, 34.3722], [132.5798, 34.37257], [132.57944, 34.37275], [132.57859, 34.37321], [132.57852, 34.37326], [132.57797, 34.37359], [132.5773, 34.37396], [132.57712, 34.37405], [132.57604, 34.37466], [132.57527, 34.3751], [132.57346, 34.37607], [132.57162, 34.37704], [132.57013, 34.37782], [132.56855, 34.37862], [132.56709, 34.3794], [132.56674, 34.37957], [132.56591, 34.37996], [132.56466, 34.38056], [132.56353, 34.38104], [132.56239, 34.38143], [132.56141, 34.38172], [132.56134, 34.38174], [132.56033, 34.38198], [132.5601, 34.38204], [132.55976, 34.38211], [132.55966, 34.38213], [132.5588, 34.38231], [132.55826, 34.38242], [132.55819, 34.38243], [132.55713, 34.38262], [132.55643, 34.38272], [132.55631, 34.38275], [132.55577, 34.38282], [132.55548, 34.38286], [132.55546, 34.38287], [132.55502, 34.38292], [132.55477, 34.38296], [132.55457, 34.38298], [132.55396, 34.38305], [132.55388, 34.38306], [132.55348, 34.38311], [132.55337, 34.38312], [132.55259, 34.38318], [132.55136, 34.38328], [132.55079, 34.38332], [132.55023, 34.38336], [132.54909, 34.38345], [132.54782, 34.38354], [132.54655, 34.38365], [132.54567, 34.3837], [132.544, 34.38384], [132.54334, 34.38389], [132.54269, 34.38394], [132.54192, 34.384], [132.54063, 34.38407], [132.53934, 34.38415], [132.53812, 34.38423], [132.53661, 34.38432], [132.53454, 34.38444], [132.53396, 34.38448], [132.53266, 34.38455], [132.53128, 34.38462], [132.5301, 34.38469], [132.52872, 34.38477], [132.52804, 34.38481], [132.52743, 34.38486], [132.5267, 34.3849], [132.52541, 34.38499], [132.52415, 34.38506], [132.52348, 34.38512], [132.52291, 34.38516], [132.52273, 34.38518], [132.52111, 34.38537], [132.52001, 34.38553], [132.51927, 34.38566], [132.51894, 34.38571], [132.51818, 34.38585], [132.51749, 34.38599], [132.51515, 34.38657], [132.5147, 34.38667], [132.51455, 34.3867], [132.51441, 34.38674], [132.51401, 34.38683], [132.51278, 34.38713], [132.51244, 34.38721], [132.51181, 34.38737], [132.51173, 34.38738], [132.51136, 34.38748], [132.51052, 34.38769], [132.51042, 34.38771], [132.50901, 34.38808], [132.50751, 34.38846], [132.50618, 34.38882], [132.50527, 34.38908], [132.50506, 34.38915], [132.50487, 34.38921], [132.50466, 34.38928], [132.50459, 34.3893], [132.50416, 34.38945], [132.50363, 34.38963], [132.50239, 34.39007], [132.50112, 34.39053], [132.50108, 34.39054], [132.50051, 34.39075], [132.50029, 34.39083], [132.49894, 34.3913], [132.49845, 34.39147], [132.49748, 34.39179], [132.49689, 34.39198], [132.49647, 34.39211], [132.49509, 34.39259], [132.49478, 34.39269], [132.49457, 34.39275], [132.4944, 34.39281], [132.49389, 34.39297], [132.49368, 34.39303], [132.49333, 34.39311], [132.49302, 34.39316], [132.4928, 34.3932], [132.49261, 34.39321]]}, "properties": {"id": "TRACK_TOKYO_0675", "line_name": "山陽新幹線", "station_group_ids": [], "mode": "shinkansen", "operator_id": "西日本旅客鉄道", "tags": ["tokyo", "track_centerline"]}}, {"type": "Feature", "bbox": [132.48586, 34.39321, 132.49261, 34.39405], "geometry": {"type": "LineString", "coordinates": [[132.48586, 34.39405], [132.48608, 34.39398], [132.48661, 34.39385], [132.48684, 34.39379], [132.4877, 34.39361], [132.48843, 34.39352], [132.48863, 34.3935], [132.48915, 34.39344], [132.48972, 34.39337], [132.49024, 34.39332], [132.49036, 34.3933], [132.49071, 34.39327], [132.49153, 34.39324], [132.49235, 34.39322], [132.49261, 34.39321]]}, "properties": {"id": "TRACK_TOKYO_0676", "line_name": "山陽新幹線", "station_group_ids": [], "mode": "shinkansen", "operator_id": "西日本旅客鉄道", "tags": ["tokyo", "track_centerline"]}}, {"type": "Feature", "bbox": [132.14869, 34.16314, 132.1507, 34.16656], "geometry": {"type": "LineString", "coordinates": [[132.1507, 34.16656], [132.14869, 34.16314]]}, "properties": {"id": "TRACK_TOKYO_0677", "line_name": "山陽新幹線", "station_group_ids": [], "mode": "shinkansen", "operator_id": "西日本旅客鉄道", "tags": ["tokyo", "track_centerline"]}}, {"type": "Feature", "bbox": [132.47692, 34.39405, 132.48586, 34.39738], "geometry": {"type": "LineString", "coordinates": [[132.47692, 34.39738], [132.47704, 34.39731], [132.47864, 34.39625], [132.47937, 34.39577], [132.48002, 34.39536], [132.48036, 34.3952], [132.48068, 34.39507], [132.48104, 34.39493], [132.48111, 34.39492], [132.48125, 34.39487], [132.48138, 34.39483], [132.48151, 34.3948], [132.48164, 34.39477], [132.48226, 34.39464], [132.48261, 34.39459], [132.48316, 34.3945], [132.48402, 34.39436], [132.48432, 34.3943], [132.48481, 34.39422], [132.48502, 34.39419], [132.4856, 34.39408], [132.48586, 34.39405]]}, "properties": {"id": "TRACK_TOKYO_0678", "line_name": "山陽新幹線", "station_group_ids": [], "mode": "shinkansen", "operator_id": "西日本旅客鉄道", "tags": ["tokyo", "track_centerline"]}}, {"type": "Feature", "bbox": [131.80401, 34.03371, 132.14869, 34.16314], "geometry": {"type": "LineString", "coordinates": [[132.14869, 34.16314], [132.14866, 34.16308], [132.14731, 34.16085], [132.14599, 34.1586], [132.14592, 34.1585], [132.14543, 34.1577], [132.1449, 34.15686], [132.14405, 34.15544], [132.14396, 34.1553], [132.14332, 34.15425], [132.14319, 34.15404], [132.14265, 34.15302], [132.14184, 34.15166], [132.14122, 34.1506], [132.1401, 34.14881], [132.13896, 34.14696], [132.13865, 34.14645], [132.13773, 34.14493], [132.13697, 34.14369], [132.1359, 34.14195], [132.13523, 34.14088], [132.13474, 34.14009], [132.1342, 34.1393], [132.13364, 34.13841], [132.13343, 34.13809], [132.13268, 34.13693], [132.1317, 34.13533], [132.13089, 34.13411], [132.12983, 34.13259], [132.12908, 34.1314], [132.12844, 34.13045], [132.12803, 34.12984], [132.12714, 34.12857], [132.12626, 34.12735], [132.12539, 34.12621], [132.12492, 34.12564], [132.12368, 34.12413], [132.12252, 34.12284], [132.12159, 34.12197], [132.12149, 34.12188], [132.12056, 34.121], [132.11939, 34.11991], [132.11858, 34.11918], [132.11761, 34.11838], [132.11654, 34.11753], [132.11577, 34.1169], [132.11489, 34.11625], [132.11449, 34.11597], [132.11374, 34.11545], [132.11288, 34.11486], [132.11009, 34.11308], [132.10799, 34.11184], [132.10768, 34.11166], [132.10564, 34.11053], [132.10322, 34.1094], [132.10153, 34.10869], [132.09996, 34.10807], [132.09798, 34.10734], [132.09783, 34.10731], [132.09739, 34.10715], [132.09678, 34.10693], [132.09662, 34.10688], [132.09617, 34.10674], [132.09597, 34.10668], [132.09408, 34.10603], [132.09233, 34.1055], [132.08961, 34.10478], [132.08751, 34.10429], [132.08624, 34.10406], [132.08535, 34.10389], [132.08355, 34.10354], [132.08173, 34.10319], [132.08139, 34.10312], [132.08101, 34.10306], [132.07756, 34.10236], [132.07475, 34.10185], [132.07185, 34.1013], [132.07057, 34.10106], [132.07031, 34.10101], [132.06888, 34.10073], [132.06768, 34.10052], [132.06632, 34.10024], [132.06393, 34.09978], [132.06168, 34.09936], [132.06004, 34.09907], [132.0595, 34.09897], [132.05936, 34.09894], [132.05904, 34.09889], [132.05871, 34.09881], [132.05818, 34.09873], [132.05624, 34.09837], [132.05424, 34.09799], [132.05366, 34.09788], [132.05027, 34.09725], [132.04774, 34.09677], [132.04246, 34.09582], [132.04164, 34.09567], [132.04129, 34.09561], [132.04034, 34.09543], [132.03993, 34.09535], [132.03784, 34.09497], [132.03521, 34.09449], [132.0341, 34.09427], [132.03299, 34.09408], [132.03224, 34.09393], [132.0312, 34.0937], [132.03011, 34.09344], [132.02843, 34.09294], [132.02762, 34.0927], [132.02499, 34.09181], [132.02462, 34.09167], [132.02367, 34.0913], [132.02247, 34.09083], [132.02236, 34.09079], [132.02002, 34.08985], [132.01804, 34.08903], [132.01654, 34.08841], [132.01505, 34.08774], [132.01368, 34.08708], [132.01269, 34.0866], [132.01164, 34.086], [132.0102, 34.08512], [132.00855, 34.08405], [132.00682, 34.08292], [132.00579, 34.08223], [132.00513, 34.0818], [132.00355, 34.08076], [132.00134, 34.0793], [131.99966, 34.07818], [131.99753, 34.07678], [131.99673, 34.07619], [131.99557, 34.07543], [131.99497, 34.07505], [131.99338, 34.07398], [131.99207, 34.07315], [131.99058, 34.07214], [131.98887, 34.07102], [131.98741, 34.07006], [131.98694, 34.06977], [131.98594, 34.06914], [131.98486, 34.06846], [131.9834, 34.06759], [131.98171, 34.06671], [131.98036, 34.06598], [131.97893, 34.06529], [131.97777, 34.06473], [131.97729, 34.0645], [131.97653, 34.06414], [131.97401, 34.06297], [131.97293, 34.06248], [131.97288, 34.06246], [131.97149, 34.06186], [131.96993, 34.06122], [131.96825, 34.0605], [131.96642, 34.05967], [131.96469, 34.05891], [131.96376, 34.05851], [131.96335, 34.05827], [131.96284, 34.05798], [131.96107, 34.05698], [131.9602, 34.05649], [131.95849, 34.05543], [131.95715, 34.05443], [131.95658, 34.05402], [131.95603, 34.05362], [131.9555, 34.05323], [131.95377, 34.05191], [131.95208, 34.05061], [131.951, 34.0498], [131.95026, 34.04924], [131.94935, 34.04857], [131.9488, 34.04815], [131.94674, 34.0466], [131.94578, 34.04591], [131.94413, 34.04483], [131.94325, 34.04428], [131.94219, 34.04365], [131.94114, 34.04304], [131.94052, 34.04273], [131.93983, 34.04239], [131.93807, 34.04153], [131.93686, 34.04099], [131.93526, 34.04049], [131.93291, 34.03995], [131.9328, 34.03993], [131.9309, 34.03953], [131.92859, 34.03903], [131.92618, 34.03863], [131.92498, 34.0385], [131.92353, 34.03843], [131.92207, 34.03839], [131.9206, 34.03835], [131.91882, 34.03835], [131.91776, 34.03827], [131.916, 34.03827], [131.91525, 34.0383], [131.91403, 34.03839], [131.91194, 34.0384], [131.91, 34.03833], [131.90862, 34.03826], [131.90765, 34.03818], [131.90456, 34.03789], [131.90448, 34.03787], [131.90222, 34.03757], [131.89953, 34.03717], [131.89692, 34.03679], [131.896, 34.03668], [131.8932, 34.03623], [131.89115, 34.03589], [131.88935, 34.03556], [131.8876, 34.03528], [131.88592, 34.03508], [131.88512, 34.03501], [131.88425, 34.03494], [131.88193, 34.03482], [131.88026, 34.03483], [131.87785, 34.03498], [131.87548, 34.03512], [131.87406, 34.03522], [131.87332, 34.03527], [131.87254, 34.03529], [131.86941, 34.03544], [131.86828, 34.03548], [131.86805, 34.03549], [131.86754, 34.03549], [131.86675, 34.03551], [131.86552, 34.03557], [131.86432, 34.03563], [131.863, 34.03566], [131.86219, 34.03569], [131.86133, 34.0357], [131.86008, 34.0357], [131.85931, 34.03567], [131.85869, 34.03561], [131.85809, 34.03555], [131.85722, 34.03545], [131.8562, 34.03531], [131.85471, 34.03511], [131.85332, 34.03486], [131.85253, 34.03471], [131.85096, 34.03445], [131.85016, 34.03433], [131.84937, 34.03421], [131.84779, 34.03402], [131.8471, 34.03394], [131.84604, 34.03387], [131.8448, 34.03381], [131.84475, 34.03381], [131.84287, 34.03374], [131.84169, 34.03371], [131.84032, 34.03372], [131.83893, 34.03378], [131.83769, 34.03388], [131.83592, 34.03413], [131.83479, 34.03431], [131.8338, 34.03449], [131.83344, 34.03455], [131.83233, 34.03479], [131.83118, 34.03505], [131.82958, 34.03551], [131.82833, 34.03584], [131.82772, 34.03605], [131.82706, 34.03627], [131.82437, 34.03731], [131.82289, 34.03791], [131.8218, 34.03846], [131.82174, 34.03849], [131.81938, 34.03973], [131.81779, 34.04053], [131.81592, 34.04147], [131.81363, 34.04266], [131.81243, 34.04328], [131.81189, 34.04356], [131.81024, 34.04443], [131.8087, 34.04523], [131.80738, 34.04595], [131.80672, 34.04638], [131.80598, 34.04691], [131.80528, 34.04761], [131.80401, 34.04899]]}, "properties": {"id": "TRACK_TOKYO_0679", "line_name": "山陽新幹線", "station_group_ids": [], "mode": "shinkansen", "operator_id": "西日本旅客鉄道", "tags": ["tokyo", "track_centerline"]}}]}