{"type": "FeatureCollection", "features": [{"type": "Feature", "bbox": [138.98456499999998, 36.73563, 138.98456499999998, 36.73563], "geometry": {"type": "Point", "coordinates": [138.98456499999998, 36.73563]}, "properties": {"id": "PS_0210CCADE90B", "station_group_id": "SG_C6051568418D", "name_en": "上牧", "name_ja": "上牧", "label_rank": 72, "tags": ["tokyo", "v3"]}}, {"type": "Feature", "bbox": [138.98545687500007, 36.803084450000085, 138.98545687500007, 36.803084450000085], "geometry": {"type": "Point", "coordinates": [138.98545687500007, 36.803084450000085]}, "properties": {"id": "PS_C9A91C831AD5", "station_group_id": "SG_B712138F7278", "name_en": "湯檜曽", "name_ja": "湯檜曽", "label_rank": 72, "tags": ["tokyo", "v3"]}}, {"type": "Feature", "bbox": [138.986235, 36.802705, 138.986235, 36.802705], "geometry": {"type": "Point", "coordinates": [138.986235, 36.802705]}, "properties": {"id": "PS_E4033C4BE8B9", "station_group_id": "SG_B712138F7278", "name_en": "湯檜曽", "name_ja": "湯檜曽", "label_rank": 72, "tags": ["tokyo", "v3"]}}]}