{"type": "FeatureCollection", "features": [{"type": "Feature", "bbox": [139.01925, 36.46379, 139.01925, 36.46379], "geometry": {"type": "Point", "coordinates": [139.01925, 36.46379]}, "properties": {"id": "PS_0CF1777285F3", "station_group_id": "SG_A49EDE0D78C9", "operator_id": "jr_east", "operator_ids": "jr_east", "name_en": "八木原", "name_ja": "八木原", "label_rank": 72, "tags": ["tokyo", "v3"]}}, {"type": "Feature", "bbox": [139.04753, 36.60216, 139.04753, 36.60216], "geometry": {"type": "Point", "coordinates": [139.04753, 36.60216]}, "properties": {"id": "PS_689C8F56E81D", "station_group_id": "SG_7CB4484D22F7", "operator_id": "jr_east", "operator_ids": "jr_east", "name_en": "岩本", "name_ja": "岩本", "label_rank": 72, "tags": ["tokyo", "v3"]}}, {"type": "Feature", "bbox": [139.000115, 36.67955, 139.000115, 36.67955], "geometry": {"type": "Point", "coordinates": [139.000115, 36.67955]}, "properties": {"id": "PS_B8138D4B8481", "station_group_id": "SG_1748A6A7C881", "operator_id": "jr_east", "operator_ids": "jr_east", "name_en": "後閑", "name_ja": "後閑", "label_rank": 72, "tags": ["tokyo", "v3"]}}, {"type": "Feature", "bbox": [139.03393499999999, 36.537555, 139.03393499999999, 36.537555], "geometry": {"type": "Point", "coordinates": [139.03393499999999, 36.537555]}, "properties": {"id": "PS_A58DFE439582", "station_group_id": "SG_36EC752AFCDE", "operator_id": "jr_east", "operator_ids": "jr_east", "name_en": "敷島", "name_ja": "敷島", "label_rank": 72, "tags": ["tokyo", "v3"]}}, {"type": "Feature", "bbox": [139.035645, 36.642295000000004, 139.035645, 36.642295000000004], "geometry": {"type": "Point", "coordinates": [139.035645, 36.642295000000004]}, "properties": {"id": "PS_2C398CC8AC52", "station_group_id": "SG_BDADF07D2126", "operator_id": "jr_east", "operator_ids": "jr_east", "name_en": "沼田", "name_ja": "沼田", "label_rank": 72, "tags": ["tokyo", "v3"]}}, {"type": "Feature", "bbox": [139.042865, 36.56103, 139.042865, 36.56103], "geometry": {"type": "Point", "coordinates": [139.042865, 36.56103]}, "properties": {"id": "PS_75EC0EB7AD90", "station_group_id": "SG_E6A557F81543", "operator_id": "jr_east", "operator_ids": "jr_east", "name_en": "津久田", "name_ja": "津久田", "label_rank": 72, "tags": ["tokyo", "v3"]}}, {"type": "Feature", "bbox": [139.00878999999998, 36.49123, 139.00878999999998, 36.49123], "geometry": {"type": "Point", "coordinates": [139.00878999999998, 36.49123]}, "properties": {"id": "PS_64935E3E374D", "station_group_id": "SG_1332B7B67946", "operator_id": "jr_east", "operator_ids": "jr_east", "name_en": "渋川", "name_ja": "渋川", "label_rank": 72, "tags": ["tokyo", "v3"]}}]}