{"type": "FeatureCollection", "features": [{"type": "Feature", "bbox": [139.02327000000002, 36.35744, 139.02327000000002, 36.35744], "geometry": {"type": "Point", "coordinates": [139.02327000000002, 36.35744]}, "properties": {"id": "PS_0632A1DFA68F", "station_group_id": "SG_941EDC31A627", "name_en": "井野", "name_ja": "井野", "label_rank": 72, "tags": ["tokyo", "v3"]}}, {"type": "Feature", "bbox": [139.194955, 36.32642, 139.194955, 36.32642], "geometry": {"type": "Point", "coordinates": [139.194955, 36.32642]}, "properties": {"id": "PS_B6C2F8EE60C6", "station_group_id": "SG_E9272B699544", "name_en": "伊勢崎", "name_ja": "伊勢崎", "label_rank": 72, "tags": ["tokyo", "v3"]}}, {"type": "Feature", "bbox": [139.04944, 36.300305, 139.04944, 36.300305], "geometry": {"type": "Point", "coordinates": [139.04944, 36.300305]}, "properties": {"id": "PS_538286A34DBD", "station_group_id": "SG_6E89F2028AA7", "name_en": "倉賀野", "name_ja": "倉賀野", "label_rank": 72, "tags": ["tokyo", "v3"]}}, {"type": "Feature", "bbox": [139.07337, 36.38347, 139.07337, 36.38347], "geometry": {"type": "Point", "coordinates": [139.07337, 36.38347]}, "properties": {"id": "PS_0EC0E1B5E169", "station_group_id": "SG_6D78F7A2A8F5", "name_en": "前橋", "name_ja": "前橋", "label_rank": 72, "tags": ["tokyo", "v3"]}}, {"type": "Feature", "bbox": [139.22388, 36.295415, 139.22388, 36.295415], "geometry": {"type": "Point", "coordinates": [139.22388, 36.295415]}, "properties": {"id": "PS_6E285DAAF9ED", "station_group_id": "SG_7E1E507175E8", "name_en": "剛志", "name_ja": "剛志", "label_rank": 72, "tags": ["tokyo", "v3"]}}, {"type": "Feature", "bbox": [139.256255, 36.277165, 139.256255, 36.277165], "geometry": {"type": "Point", "coordinates": [139.256255, 36.277165]}, "properties": {"id": "PS_9679CEC6C81D", "station_group_id": "SG_04B57260A556", "name_en": "境町", "name_ja": "境町", "label_rank": 72, "tags": ["tokyo", "v3"]}}, {"type": "Feature", "bbox": [139.23748999999998, 36.20574, 139.23748999999998, 36.20574], "geometry": {"type": "Point", "coordinates": [139.23748999999998, 36.20574]}, "properties": {"id": "PS_2135BBC96651", "station_group_id": "SG_51875232B285", "name_en": "岡部", "name_ja": "岡部", "label_rank": 72, "tags": ["tokyo", "v3"]}}, {"type": "Feature", "bbox": [139.201815, 36.318084999999996, 139.201815, 36.318084999999996], "geometry": {"type": "Point", "coordinates": [139.201815, 36.318084999999996]}, "properties": {"id": "PS_D6E84F1D62AE", "station_group_id": "SG_417579E1B479", "name_en": "新伊勢崎", "name_ja": "新伊勢崎", "label_rank": 72, "tags": ["tokyo", "v3"]}}, {"type": "Feature", "bbox": [139.04700000000003, 36.379005, 139.04700000000003, 36.379005], "geometry": {"type": "Point", "coordinates": [139.04700000000003, 36.379005]}, "properties": {"id": "PS_42D473A6D540", "station_group_id": "SG_5A31788EC418", "name_en": "新前橋", "name_ja": "新前橋", "label_rank": 72, "tags": ["tokyo", "v3"]}}, {"type": "Feature", "bbox": [139.04700000000003, 36.379005, 139.04700000000003, 36.379005], "geometry": {"type": "Point", "coordinates": [139.04700000000003, 36.379005]}, "properties": {"id": "PS_E0E9B227F2A4", "station_group_id": "SG_5A31788EC418", "name_en": "新前橋", "name_ja": "新前橋", "label_rank": 72, "tags": ["tokyo", "v3"]}}, {"type": "Feature", "bbox": [139.105315, 36.273105, 139.105315, 36.273105], "geometry": {"type": "Point", "coordinates": [139.105315, 36.273105]}, "properties": {"id": "PS_7AA41C8F2322", "station_group_id": "SG_7E79D1535AB9", "name_en": "新町", "name_ja": "新町", "label_rank": 72, "tags": ["tokyo", "v3"]}}, {"type": "Feature", "bbox": [139.188135, 36.2363, 139.188135, 36.2363], "geometry": {"type": "Point", "coordinates": [139.188135, 36.2363]}, "properties": {"id": "PS_B3039FD7998A", "station_group_id": "SG_3DA37292FC17", "name_en": "本庄", "name_ja": "本庄", "label_rank": 72, "tags": ["tokyo", "v3"]}}, {"type": "Feature", "bbox": [139.179725, 36.218685, 139.179725, 36.218685], "geometry": {"type": "Point", "coordinates": [139.179725, 36.218685]}, "properties": {"id": "PS_7C83BD9C1BFA", "station_group_id": "SG_4F2B0C0E0DBC", "name_en": "本庄早稲田", "name_ja": "本庄早稲田", "label_rank": 72, "tags": ["tokyo", "v3"]}}, {"type": "Feature", "bbox": [139.149015, 36.253625, 139.149015, 36.253625], "geometry": {"type": "Point", "coordinates": [139.149015, 36.253625]}, "properties": {"id": "PS_E4B0E9C52212", "station_group_id": "SG_E27E3958D46E", "name_en": "神保原", "name_ja": "神保原", "label_rank": 72, "tags": ["tokyo", "v3"]}}, {"type": "Feature", "bbox": [139.01234, 36.32227, 139.01234, 36.32227], "geometry": {"type": "Point", "coordinates": [139.01234, 36.32227]}, "properties": {"id": "PS_BC86762CE6E6", "station_group_id": "SG_30CB898DCA41", "name_en": "高崎", "name_ja": "高崎", "label_rank": 72, "tags": ["tokyo", "v3"]}}, {"type": "Feature", "bbox": [139.01298500000001, 36.322955, 139.01298500000001, 36.322955], "geometry": {"type": "Point", "coordinates": [139.01298500000001, 36.322955]}, "properties": {"id": "PS_CA59D6C2C0FC", "station_group_id": "SG_30CB898DCA41", "name_en": "高崎", "name_ja": "高崎", "label_rank": 72, "tags": ["tokyo", "v3"]}}, {"type": "Feature", "bbox": [139.01298500000001, 36.322955, 139.01298500000001, 36.322955], "geometry": {"type": "Point", "coordinates": [139.01298500000001, 36.322955]}, "properties": {"id": "PS_594B5DBD4291", "station_group_id": "SG_30CB898DCA41", "name_en": "高崎", "name_ja": "高崎", "label_rank": 72, "tags": ["tokyo", "v3"]}}, {"type": "Feature", "bbox": [139.01723, 36.346135000000004, 139.01723, 36.346135000000004], "geometry": {"type": "Point", "coordinates": [139.01723, 36.346135000000004]}, "properties": {"id": "PS_63955149E987", "station_group_id": "SG_D8AB86BACFD9", "name_en": "高崎問屋町", "name_ja": "高崎問屋町", "label_rank": 72, "tags": ["tokyo", "v3"]}}]}