{"type": "FeatureCollection", "features": [{"type": "Feature", "bbox": [139.23646688181645, 36.09138313331536, 139.23646688181645, 36.09138313331536], "geometry": {"type": "Point", "coordinates": [139.23646688181645, 36.09138313331536]}, "properties": {"id": "PS_122D8C6C1249", "station_group_id": "SG_66D717A3FCB5", "name_en": "みなみ寄居", "name_ja": "みなみ寄居", "label_rank": 72, "tags": ["tokyo", "v3"]}}, {"type": "Feature", "bbox": [139.19368, 36.11731, 139.19368, 36.11731], "geometry": {"type": "Point", "coordinates": [139.19368, 36.11731]}, "properties": {"id": "PS_9BCFF5131650", "station_group_id": "SG_F5E32B3E2387", "name_en": "寄居", "name_ja": "寄居", "label_rank": 72, "tags": ["tokyo", "v3"]}}, {"type": "Feature", "bbox": [139.26065, 36.05873, 139.26065, 36.05873], "geometry": {"type": "Point", "coordinates": [139.26065, 36.05873]}, "properties": {"id": "PS_F552507FCDA8", "station_group_id": "SG_3EABE9D84F14", "name_en": "小川町", "name_ja": "小川町", "label_rank": 72, "tags": ["tokyo", "v3"]}}, {"type": "Feature", "bbox": [139.23762, 36.07537000000001, 139.23762, 36.07537000000001], "geometry": {"type": "Point", "coordinates": [139.23762, 36.07537000000001]}, "properties": {"id": "PS_F64B0D0E9485", "station_group_id": "SG_1ACAA31D9301", "name_en": "東武竹沢", "name_ja": "東武竹沢", "label_rank": 72, "tags": ["tokyo", "v3"]}}, {"type": "Feature", "bbox": [139.098275, 35.9845, 139.098275, 35.9845], "geometry": {"type": "Point", "coordinates": [139.098275, 35.9845]}, "properties": {"id": "PS_AF8BA9810ADE", "station_group_id": "SG_68B309CFA566", "name_en": "横瀬", "name_ja": "横瀬", "label_rank": 72, "tags": ["tokyo", "v3"]}}, {"type": "Feature", "bbox": [139.181485, 35.9383, 139.181485, 35.9383], "geometry": {"type": "Point", "coordinates": [139.181485, 35.9383]}, "properties": {"id": "PS_C019DA005159", "station_group_id": "SG_05DF836F1D5A", "name_en": "正丸", "name_ja": "正丸", "label_rank": 72, "tags": ["tokyo", "v3"]}}, {"type": "Feature", "bbox": [139.25951, 36.13538, 139.25951, 36.13538], "geometry": {"type": "Point", "coordinates": [139.25951, 36.13538]}, "properties": {"id": "PS_568374F19C05", "station_group_id": "SG_B25C84AEEBC5", "name_en": "永田", "name_ja": "永田", "label_rank": 72, "tags": ["tokyo", "v3"]}}, {"type": "Feature", "bbox": [139.20021, 36.116945, 139.20021, 36.116945], "geometry": {"type": "Point", "coordinates": [139.20021, 36.116945]}, "properties": {"id": "PS_5BB37A7810C2", "station_group_id": "SG_F29814CC4410", "name_en": "玉淀", "name_ja": "玉淀", "label_rank": 72, "tags": ["tokyo", "v3"]}}, {"type": "Feature", "bbox": [139.23399999999998, 36.107865000000004, 139.23399999999998, 36.107865000000004], "geometry": {"type": "Point", "coordinates": [139.23399999999998, 36.107865000000004]}, "properties": {"id": "PS_7FB909BE5920", "station_group_id": "SG_B7D1A9C07DC0", "name_en": "男衾", "name_ja": "男衾", "label_rank": 72, "tags": ["tokyo", "v3"]}}, {"type": "Feature", "bbox": [139.13600000000002, 35.976405, 139.13600000000002, 35.976405], "geometry": {"type": "Point", "coordinates": [139.13600000000002, 35.976405]}, "properties": {"id": "PS_2B86619E084A", "station_group_id": "SG_E87EBE5E2FAB", "name_en": "芦ヶ久保", "name_ja": "芦ヶ久保", "label_rank": 72, "tags": ["tokyo", "v3"]}}, {"type": "Feature", "bbox": [139.08299499999998, 35.99001, 139.08299499999998, 35.99001], "geometry": {"type": "Point", "coordinates": [139.08299499999998, 35.99001]}, "properties": {"id": "PS_F1A6B73B2ADB", "station_group_id": "SG_D5B9E8B2C060", "name_en": "西武秩父", "name_ja": "西武秩父", "label_rank": 72, "tags": ["tokyo", "v3"]}}, {"type": "Feature", "bbox": [139.20863500000002, 36.113725, 139.20863500000002, 36.113725], "geometry": {"type": "Point", "coordinates": [139.20863500000002, 36.113725]}, "properties": {"id": "PS_E00E32D36270", "station_group_id": "SG_BB09B8A8D681", "name_en": "鉢形", "name_ja": "鉢形", "label_rank": 72, "tags": ["tokyo", "v3"]}}]}