{"type": "FeatureCollection", "features": [{"type": "Feature", "bbox": [139.225905, 35.908325000000005, 139.225905, 35.908325000000005], "geometry": {"type": "Point", "coordinates": [139.225905, 35.908325000000005]}, "properties": {"id": "PS_A73A72DD21E3", "station_group_id": "SG_3AA533FE9ECE", "name_en": "吾野", "name_ja": "吾野", "label_rank": 72, "tags": ["tokyo", "v3"]}}, {"type": "Feature", "bbox": [139.225905, 35.908325000000005, 139.225905, 35.908325000000005], "geometry": {"type": "Point", "coordinates": [139.225905, 35.908325000000005]}, "properties": {"id": "PS_DA0E56386C1B", "station_group_id": "SG_3AA533FE9ECE", "name_en": "吾野", "name_ja": "吾野", "label_rank": 72, "tags": ["tokyo", "v3"]}}, {"type": "Feature", "bbox": [139.26027499999998, 35.89247, 139.26027499999998, 35.89247], "geometry": {"type": "Point", "coordinates": [139.26027499999998, 35.89247]}, "properties": {"id": "PS_E1D055973A5C", "station_group_id": "SG_43864BB7180A", "name_en": "東吾野", "name_ja": "東吾野", "label_rank": 72, "tags": ["tokyo", "v3"]}}, {"type": "Feature", "bbox": [139.272805, 35.789815000000004, 139.272805, 35.789815000000004], "geometry": {"type": "Point", "coordinates": [139.272805, 35.789815000000004]}, "properties": {"id": "PS_2F3714378710", "station_group_id": "SG_22EC62CDDC3C", "name_en": "東青梅", "name_ja": "東青梅", "label_rank": 72, "tags": ["tokyo", "v3"]}}, {"type": "Feature", "bbox": [139.202415, 35.926995000000005, 139.202415, 35.926995000000005], "geometry": {"type": "Point", "coordinates": [139.202415, 35.926995000000005]}, "properties": {"id": "PS_C0E98FC224EA", "station_group_id": "SG_7E0BF5720E58", "name_en": "西吾野", "name_ja": "西吾野", "label_rank": 72, "tags": ["tokyo", "v3"]}}, {"type": "Feature", "bbox": [139.258125, 35.790545, 139.258125, 35.790545], "geometry": {"type": "Point", "coordinates": [139.258125, 35.790545]}, "properties": {"id": "PS_C61D44F4D615", "station_group_id": "SG_C41314B866A9", "name_en": "青梅", "name_ja": "青梅", "label_rank": 72, "tags": ["tokyo", "v3"]}}]}