{"type": "FeatureCollection", "features": [{"type": "Feature", "bbox": [139.25675, 35.29867, 139.25675, 35.29867], "geometry": {"type": "Point", "coordinates": [139.25675, 35.29867]}, "properties": {"id": "PS_A66D2454FDCC", "station_group_id": "SG_B078E48C366C", "operator_id": "jr_east", "operator_ids": "jr_east", "name_en": "二宮", "name_ja": "二宮", "label_rank": 72, "tags": ["tokyo", "v3"]}}, {"type": "Feature", "bbox": [139.21495499999997, 35.281395, 139.21495499999997, 35.281395], "geometry": {"type": "Point", "coordinates": [139.21495499999997, 35.281395]}, "properties": {"id": "PS_83A84BE2FA62", "station_group_id": "SG_5448BC2D55B9", "operator_id": "jr_east", "operator_ids": "jr_east", "name_en": "国府津", "name_ja": "国府津", "label_rank": 72, "tags": ["tokyo", "v3"]}}, {"type": "Feature", "bbox": [139.14516, 35.29677, 139.14516, 35.29677], "geometry": {"type": "Point", "coordinates": [139.14516, 35.29677]}, "properties": {"id": "PS_41694F52E391", "station_group_id": "SG_934189C77F11", "operator_id": "odakyu", "operator_ids": "odakyu", "name_en": "富水", "name_ja": "富水", "label_rank": 72, "tags": ["tokyo", "v3"]}}, {"type": "Feature", "bbox": [139.15543, 35.256355, 139.15543, 35.256355], "geometry": {"type": "Point", "coordinates": [139.15543, 35.256355]}, "properties": {"id": "PS_F486A33E4BA3", "station_group_id": "SG_8009ABA7B52D", "operator_id": "odakyu", "operator_ids": "odakyu", "name_en": "小田原", "name_ja": "小田原", "label_rank": 92, "tags": ["tokyo", "v3"]}}, {"type": "Feature", "bbox": [139.154765, 35.256209999999996, 139.154765, 35.256209999999996], "geometry": {"type": "Point", "coordinates": [139.154765, 35.256209999999996]}, "properties": {"id": "PS_024D750590C9", "station_group_id": "SG_8009ABA7B52D", "operator_id": "jr_central", "operator_ids": "jr_central", "name_en": "小田原", "name_ja": "小田原", "label_rank": 92, "tags": ["tokyo", "v3"]}}, {"type": "Feature", "bbox": [139.15577000000002, 35.256095, 139.15577000000002, 35.256095], "geometry": {"type": "Point", "coordinates": [139.15577000000002, 35.256095]}, "properties": {"id": "PS_5D2D025B1593", "station_group_id": "SG_8009ABA7B52D", "operator_id": "jr_east", "operator_ids": "jr_east", "name_en": "小田原", "name_ja": "小田原", "label_rank": 92, "tags": ["tokyo", "v3"]}}, {"type": "Feature", "bbox": [139.13945, 35.34461, 139.13945, 35.34461], "geometry": {"type": "Point", "coordinates": [139.13945, 35.34461]}, "properties": {"id": "PS_D459E9A34B16", "station_group_id": "SG_4EE2D97083C1", "operator_id": "odakyu", "operator_ids": "odakyu", "name_en": "新松田", "name_ja": "新松田", "label_rank": 72, "tags": ["tokyo", "v3"]}}, {"type": "Feature", "bbox": [139.14499999999998, 35.238715, 139.14499999999998, 35.238715], "geometry": {"type": "Point", "coordinates": [139.14499999999998, 35.238715]}, "properties": {"id": "PS_326230A9D2F3", "station_group_id": "SG_BD1EFAECC3BD", "operator_id": "jr_east", "operator_ids": "jr_east", "name_en": "早川", "name_ja": "早川", "label_rank": 72, "tags": ["tokyo", "v3"]}}, {"type": "Feature", "bbox": [139.27094, 35.372915000000006, 139.27094, 35.372915000000006], "geometry": {"type": "Point", "coordinates": [139.27094, 35.372915000000006]}, "properties": {"id": "PS_EA0E39FAE000", "station_group_id": "SG_F274D66DAB8B", "operator_id": "odakyu", "operator_ids": "odakyu", "name_en": "東海大学前", "name_ja": "東海大学前", "label_rank": 72, "tags": ["tokyo", "v3"]}}, {"type": "Feature", "bbox": [139.142575, 35.310649999999995, 139.142575, 35.310649999999995], "geometry": {"type": "Point", "coordinates": [139.142575, 35.310649999999995]}, "properties": {"id": "PS_2BCE50F66CFA", "station_group_id": "SG_74601B2C7ECB", "operator_id": "odakyu", "operator_ids": "odakyu", "name_en": "栢山", "name_ja": "栢山", "label_rank": 72, "tags": ["tokyo", "v3"]}}, {"type": "Feature", "bbox": [139.13862999999998, 35.202574999999996, 139.13862999999998, 35.202574999999996], "geometry": {"type": "Point", "coordinates": [139.13862999999998, 35.202574999999996]}, "properties": {"id": "PS_B30119C5C461", "station_group_id": "SG_2C254A397E62", "operator_id": "jr_east", "operator_ids": "jr_east", "name_en": "根府川", "name_ja": "根府川", "label_rank": 72, "tags": ["tokyo", "v3"]}}, {"type": "Feature", "bbox": [139.184495, 35.374044999999995, 139.184495, 35.374044999999995], "geometry": {"type": "Point", "coordinates": [139.184495, 35.374044999999995]}, "properties": {"id": "PS_C8AE2EDD45F7", "station_group_id": "SG_7DE28E2DA5E2", "operator_id": "odakyu", "operator_ids": "odakyu", "name_en": "渋沢", "name_ja": "渋沢", "label_rank": 72, "tags": ["tokyo", "v3"]}}, {"type": "Feature", "bbox": [139.13225, 35.156925, 139.13225, 35.156925], "geometry": {"type": "Point", "coordinates": [139.13225, 35.156925]}, "properties": {"id": "PS_AC50E405CCCA", "station_group_id": "SG_916AD3F5D297", "operator_id": "jr_east", "operator_ids": "jr_east", "name_en": "真鶴", "name_ja": "真鶴", "label_rank": 72, "tags": ["tokyo", "v3"]}}, {"type": "Feature", "bbox": [139.22608000000002, 35.37007, 139.22608000000002, 35.37007], "geometry": {"type": "Point", "coordinates": [139.22608000000002, 35.37007]}, "properties": {"id": "PS_DDE0ABF9C21F", "station_group_id": "SG_BE635FE5C927", "operator_id": "odakyu", "operator_ids": "odakyu", "name_en": "秦野", "name_ja": "秦野", "label_rank": 72, "tags": ["tokyo", "v3"]}}, {"type": "Feature", "bbox": [139.10395, 35.23354, 139.10395, 35.23354], "geometry": {"type": "Point", "coordinates": [139.10395, 35.23354]}, "properties": {"id": "PS_99CF33438C6F", "station_group_id": "SG_3A9873E209B6", "operator_id": "小田急箱根", "operator_ids": "小田急箱根", "name_en": "箱根湯本", "name_ja": "箱根湯本", "label_rank": 72, "tags": ["tokyo", "v3"]}}, {"type": "Feature", "bbox": [139.151955, 35.28507, 139.151955, 35.28507], "geometry": {"type": "Point", "coordinates": [139.151955, 35.28507]}, "properties": {"id": "PS_DE1E078EA268", "station_group_id": "SG_229B5BC9B1D5", "operator_id": "odakyu", "operator_ids": "odakyu", "name_en": "螢田", "name_ja": "螢田", "label_rank": 72, "tags": ["tokyo", "v3"]}}, {"type": "Feature", "bbox": [139.154505, 35.271770000000004, 139.154505, 35.271770000000004], "geometry": {"type": "Point", "coordinates": [139.154505, 35.271770000000004]}, "properties": {"id": "PS_BCBCE8CA7699", "station_group_id": "SG_4B96F3F3C627", "operator_id": "odakyu", "operator_ids": "odakyu", "name_en": "足柄", "name_ja": "足柄", "label_rank": 72, "tags": ["tokyo", "v3"]}}, {"type": "Feature", "bbox": [139.13581, 35.326495, 139.13581, 35.326495], "geometry": {"type": "Point", "coordinates": [139.13581, 35.326495]}, "properties": {"id": "PS_4A5B75181F6B", "station_group_id": "SG_F6381223F77B", "operator_id": "odakyu", "operator_ids": "odakyu", "name_en": "開成", "name_ja": "開成", "label_rank": 72, "tags": ["tokyo", "v3"]}}, {"type": "Feature", "bbox": [139.180165, 35.275729999999996, 139.180165, 35.275729999999996], "geometry": {"type": "Point", "coordinates": [139.180165, 35.275729999999996]}, "properties": {"id": "PS_23DE9BCC3FA7", "station_group_id": "SG_E26B09974CA7", "operator_id": "jr_east", "operator_ids": "jr_east", "name_en": "鴨宮", "name_ja": "鴨宮", "label_rank": 72, "tags": ["tokyo", "v3"]}}]}