{"type": "FeatureCollection", "features": [{"type": "Feature", "bbox": [139.092105, 34.974835, 139.092105, 34.974835], "geometry": {"type": "Point", "coordinates": [139.092105, 34.974835]}, "properties": {"id": "PS_55C83E0CD04F", "station_group_id": "SG_32213E085149", "operator_id": "jr_east", "operator_ids": "jr_east", "name_en": "伊東", "name_ja": "伊東", "label_rank": 72, "tags": ["tokyo", "v3"]}}, {"type": "Feature", "bbox": [139.0669, 35.059445, 139.0669, 35.059445], "geometry": {"type": "Point", "coordinates": [139.0669, 35.059445]}, "properties": {"id": "PS_F4BAA14CC59D", "station_group_id": "SG_10771ECA3E84", "operator_id": "jr_east", "operator_ids": "jr_east", "name_en": "伊豆多賀", "name_ja": "伊豆多賀", "label_rank": 72, "tags": ["tokyo", "v3"]}}, {"type": "Feature", "bbox": [139.079785, 35.005635, 139.079785, 35.005635], "geometry": {"type": "Point", "coordinates": [139.079785, 35.005635]}, "properties": {"id": "PS_8B5FF86A6EEA", "station_group_id": "SG_BCFF3E7AB43F", "operator_id": "jr_east", "operator_ids": "jr_east", "name_en": "宇佐美", "name_ja": "宇佐美", "label_rank": 72, "tags": ["tokyo", "v3"]}}, {"type": "Feature", "bbox": [139.06556999999998, 35.09872, 139.06556999999998, 35.09872], "geometry": {"type": "Point", "coordinates": [139.06556999999998, 35.09872]}, "properties": {"id": "PS_3AD910E0FB08", "station_group_id": "SG_BEB6B2FB4FA3", "operator_id": "jr_east", "operator_ids": "jr_east", "name_en": "来宮", "name_ja": "来宮", "label_rank": 72, "tags": ["tokyo", "v3"]}}, {"type": "Feature", "bbox": [139.10219999999998, 35.146125, 139.10219999999998, 35.146125], "geometry": {"type": "Point", "coordinates": [139.10219999999998, 35.146125]}, "properties": {"id": "PS_D7CC16833200", "station_group_id": "SG_B2D385A3C74C", "operator_id": "jr_east", "operator_ids": "jr_east", "name_en": "湯河原", "name_ja": "湯河原", "label_rank": 72, "tags": ["tokyo", "v3"]}}, {"type": "Feature", "bbox": [139.07791, 35.104265, 139.07791, 35.104265], "geometry": {"type": "Point", "coordinates": [139.07791, 35.104265]}, "properties": {"id": "PS_1AD885A2C504", "station_group_id": "SG_C4617FB0A5BB", "operator_id": "jr_central", "operator_ids": "jr_central", "name_en": "熱海", "name_ja": "熱海", "label_rank": 72, "tags": ["tokyo", "v3"]}}, {"type": "Feature", "bbox": [139.07794, 35.10389, 139.07794, 35.10389], "geometry": {"type": "Point", "coordinates": [139.07794, 35.10389]}, "properties": {"id": "PS_D583B490E9BE", "station_group_id": "SG_C4617FB0A5BB", "operator_id": "jr_central", "operator_ids": "jr_central", "name_en": "熱海", "name_ja": "熱海", "label_rank": 72, "tags": ["tokyo", "v3"]}}, {"type": "Feature", "bbox": [139.07783, 35.103555, 139.07783, 35.103555], "geometry": {"type": "Point", "coordinates": [139.07783, 35.103555]}, "properties": {"id": "PS_CEB3740B29C6", "station_group_id": "SG_C4617FB0A5BB", "operator_id": "jr_east", "operator_ids": "jr_east", "name_en": "熱海", "name_ja": "熱海", "label_rank": 72, "tags": ["tokyo", "v3"]}}, {"type": "Feature", "bbox": [139.07783, 35.103555, 139.07783, 35.103555], "geometry": {"type": "Point", "coordinates": [139.07783, 35.103555]}, "properties": {"id": "PS_75DD31DA32EC", "station_group_id": "SG_C4617FB0A5BB", "operator_id": "jr_east", "operator_ids": "jr_east", "name_en": "熱海", "name_ja": "熱海", "label_rank": 72, "tags": ["tokyo", "v3"]}}, {"type": "Feature", "bbox": [139.07794, 35.10389, 139.07794, 35.10389], "geometry": {"type": "Point", "coordinates": [139.07794, 35.10389]}, "properties": {"id": "PS_13DB320E163A", "station_group_id": "SG_C4617FB0A5BB", "operator_id": "jr_east", "operator_ids": "jr_east", "name_en": "熱海", "name_ja": "熱海", "label_rank": 72, "tags": ["tokyo", "v3"]}}, {"type": "Feature", "bbox": [139.08100000000002, 35.043455, 139.08100000000002, 35.043455], "geometry": {"type": "Point", "coordinates": [139.08100000000002, 35.043455]}, "properties": {"id": "PS_1AE457CA9A73", "station_group_id": "SG_FD0EFE0EBA94", "operator_id": "jr_east", "operator_ids": "jr_east", "name_en": "網代", "name_ja": "網代", "label_rank": 72, "tags": ["tokyo", "v3"]}}]}