{"type": "FeatureCollection", "features": [{"type": "Feature", "bbox": [135.50412, 34.73509, 135.75684, 34.98481], "geometry": {"type": "LineString", "coordinates": [[135.50412, 34.73509], [135.5058, 34.73587], [135.50593, 34.73593], [135.50612, 34.73602], [135.50654, 34.73621], [135.50688, 34.73637], [135.50772, 34.73676], [135.50798, 34.73688], [135.50832, 34.73708], [135.5084, 34.73713], [135.50963, 34.73828], [135.51054, 34.73914], [135.51066, 34.73925], [135.51119, 34.73974], [135.51173, 34.74027], [135.51175, 34.74029], [135.51179, 34.74032], [135.51218, 34.74068], [135.5124, 34.74089], [135.51265, 34.74113], [135.5129, 34.74137], [135.51315, 34.74159], [135.5137, 34.74209], [135.51385, 34.74222], [135.51391, 34.74227], [135.51394, 34.74229], [135.51421, 34.74255], [135.51472, 34.74295], [135.51552, 34.74351], [135.51555, 34.74353], [135.51617, 34.74386], [135.51677, 34.74413], [135.51714, 34.74428], [135.51751, 34.74443], [135.51805, 34.74458], [135.51884, 34.74477], [135.51941, 34.74489], [135.52011, 34.745], [135.52098, 34.74514], [135.52169, 34.74524], [135.52219, 34.74531], [135.52652, 34.74589], [135.52962, 34.7463], [135.53081, 34.74648], [135.53194, 34.74668], [135.53259, 34.74683], [135.53318, 34.74696], [135.53416, 34.74725], [135.53518, 34.74757], [135.53608, 34.74786], [135.53718, 34.74831], [135.53838, 34.74883], [135.53937, 34.74933], [135.54089, 34.75018], [135.54186, 34.75076], [135.5423, 34.75105], [135.54251, 34.75119], [135.54309, 34.75165], [135.54377, 34.75215], [135.54427, 34.75259], [135.54458, 34.75287], [135.54497, 34.75325], [135.54575, 34.75399], [135.5478, 34.75586], [135.54894, 34.75693], [135.54949, 34.75744], [135.54958, 34.75754], [135.55047, 34.75836], [135.55113, 34.75897], [135.5515, 34.75932], [135.55204, 34.75984], [135.55251, 34.76024], [135.55256, 34.7603], [135.55324, 34.76091], [135.55396, 34.76153], [135.55571, 34.76297], [135.55573, 34.76298], [135.55613, 34.76331], [135.5581, 34.76489], [135.55843, 34.76515], [135.55914, 34.76572], [135.56095, 34.76715], [135.56173, 34.76779], [135.56175, 34.76779], [135.56237, 34.76831], [135.56434, 34.76987], [135.56479, 34.77025], [135.56537, 34.7707], [135.56598, 34.77121], [135.56605, 34.77127], [135.56703, 34.77207], [135.56724, 34.77224], [135.56745, 34.77241], [135.56772, 34.77264], [135.56805, 34.7729], [135.5687, 34.77343], [135.57135, 34.77558], [135.57159, 34.77579], [135.57169, 34.77586], [135.5732, 34.77708], [135.57339, 34.77725], [135.57467, 34.77828], [135.57551, 34.77894], [135.57632, 34.7796], [135.57639, 34.77964], [135.57656, 34.77978], [135.57664, 34.77985], [135.57809, 34.78103], [135.57898, 34.78176], [135.57957, 34.78224], [135.58038, 34.78289], [135.58081, 34.78325], [135.58127, 34.78362], [135.58253, 34.78462], [135.58295, 34.78496], [135.583, 34.78499], [135.58389, 34.78574], [135.58519, 34.78682], [135.58761, 34.78891], [135.58772, 34.78901], [135.58773, 34.78903], [135.58776, 34.78904], [135.58898, 34.79009], [135.58999, 34.79097], [135.59053, 34.79144], [135.59104, 34.79184], [135.59126, 34.79202], [135.59309, 34.79348], [135.59351, 34.79381], [135.59404, 34.79423], [135.59462, 34.79469], [135.59682, 34.79646], [135.59737, 34.7969], [135.59839, 34.7977], [135.59857, 34.79785], [135.59876, 34.798], [135.60137, 34.80007], [135.60207, 34.80069], [135.60247, 34.80104], [135.60315, 34.80168], [135.60409, 34.80258], [135.60463, 34.80312], [135.60511, 34.80363], [135.6053, 34.80381], [135.60597, 34.80454], [135.6062, 34.8048], [135.60685, 34.80559], [135.60778, 34.80673], [135.60864, 34.80779], [135.60871, 34.80789], [135.60883, 34.80804], [135.60919, 34.80847], [135.61049, 34.8101], [135.61133, 34.81114], [135.61172, 34.81163], [135.6118, 34.81173], [135.61207, 34.81207], [135.61219, 34.81223], [135.6124, 34.81248], [135.61269, 34.81284], [135.61293, 34.81313], [135.6131, 34.81335], [135.61317, 34.81343], [135.61353, 34.81388], [135.61357, 34.81391], [135.61369, 34.81408], [135.61372, 34.8141], [135.61405, 34.81452], [135.61412, 34.81461], [135.61497, 34.81567], [135.61528, 34.81606], [135.61532, 34.81609], [135.61598, 34.81692], [135.61675, 34.8179], [135.61683, 34.81799], [135.61747, 34.81878], [135.61814, 34.81961], [135.61876, 34.82039], [135.62004, 34.82195], [135.62117, 34.82334], [135.62131, 34.82352], [135.6216, 34.82386], [135.62218, 34.82459], [135.62413, 34.82705], [135.62522, 34.82843], [135.62568, 34.82903], [135.62574, 34.82909], [135.62728, 34.83103], [135.62742, 34.83119], [135.6278, 34.83167], [135.62789, 34.83177], [135.62923, 34.83345], [135.62928, 34.83351], [135.63111, 34.83579], [135.63174, 34.83657], [135.63265, 34.83777], [135.6334, 34.83875], [135.63412, 34.8397], [135.63564, 34.84164], [135.63588, 34.84196], [135.63709, 34.84354], [135.63859, 34.84551], [135.6401, 34.84746], [135.6416, 34.84941], [135.64176, 34.8496], [135.64311, 34.85136], [135.64462, 34.85331], [135.6461, 34.85526], [135.64757, 34.8572], [135.64761, 34.85726], [135.64901, 34.8591], [135.64934, 34.85954], [135.64974, 34.86005], [135.6501, 34.86051], [135.65051, 34.861], [135.65088, 34.86144], [135.65129, 34.86192], [135.65169, 34.86234], [135.6521, 34.86279], [135.65405, 34.86457], [135.65424, 34.86474], [135.65444, 34.86493], [135.65459, 34.86506], [135.65636, 34.86669], [135.65842, 34.86863], [135.6605, 34.87058], [135.66071, 34.87079], [135.66088, 34.87094], [135.66095, 34.87101], [135.66257, 34.87255], [135.66278, 34.87275], [135.66307, 34.87303], [135.66465, 34.87451], [135.66515, 34.875], [135.66666, 34.87647], [135.66741, 34.87717], [135.66786, 34.8776], [135.66871, 34.87843], [135.67023, 34.87989], [135.67074, 34.88038], [135.67277, 34.88231], [135.67482, 34.88426], [135.67528, 34.8847], [135.67545, 34.88486], [135.67689, 34.88623], [135.67725, 34.88657], [135.67768, 34.88699], [135.67799, 34.88729], [135.67817, 34.88746], [135.67886, 34.88816], [135.67993, 34.8893], [135.67997, 34.88935], [135.6807, 34.89012], [135.68115, 34.89064], [135.68162, 34.89114], [135.68204, 34.89161], [135.68211, 34.89167], [135.68228, 34.89183], [135.68252, 34.89207], [135.68299, 34.89248], [135.68394, 34.89334], [135.68448, 34.89385], [135.68461, 34.89398], [135.68485, 34.8942], [135.68533, 34.89467], [135.68576, 34.89512], [135.68656, 34.89594], [135.68711, 34.89653], [135.68753, 34.89698], [135.68836, 34.89789], [135.68921, 34.89881], [135.68966, 34.8993], [135.6902, 34.89983], [135.69055, 34.90016], [135.69103, 34.90057], [135.69141, 34.90088], [135.69204, 34.90139], [135.6926, 34.90179], [135.69371, 34.90256], [135.69426, 34.90289], [135.69484, 34.90324], [135.6954, 34.90357], [135.69575, 34.90376], [135.69918, 34.9055], [135.6996, 34.9057], [135.7004, 34.90611], [135.70138, 34.90661], [135.70204, 34.90698], [135.70257, 34.90728], [135.7032, 34.90766], [135.70414, 34.90828], [135.70476, 34.90873], [135.70481, 34.90876], [135.70547, 34.90925], [135.70636, 34.90995], [135.70683, 34.91034], [135.7073, 34.91078], [135.70777, 34.9112], [135.70823, 34.91169], [135.7084, 34.91186], [135.70865, 34.91211], [135.70909, 34.91261], [135.70954, 34.91315], [135.70987, 34.91359], [135.71024, 34.91408], [135.7106, 34.9146], [135.71092, 34.9151], [135.71153, 34.91616], [135.71201, 34.91704], [135.71213, 34.91727], [135.71292, 34.919], [135.71316, 34.91956], [135.71325, 34.9199], [135.71341, 34.92032], [135.71364, 34.9212], [135.71375, 34.92175], [135.71386, 34.92234], [135.71395, 34.92291], [135.71404, 34.92352], [135.7141, 34.92406], [135.71415, 34.92496], [135.71417, 34.92583], [135.71415, 34.9264], [135.71415, 34.9267], [135.71416, 34.92885], [135.71416, 34.92907], [135.71416, 34.92928], [135.71419, 34.93073], [135.71423, 34.93251], [135.71425, 34.93334], [135.71425, 34.93418], [135.71426, 34.93449], [135.71433, 34.93597], [135.71435, 34.9362], [135.71438, 34.93711], [135.71445, 34.93973], [135.71451, 34.94237], [135.71458, 34.94498], [135.71458, 34.94502], [135.71466, 34.94768], [135.71472, 34.95033], [135.71477, 34.95174], [135.71482, 34.95297], [135.71487, 34.95561], [135.71495, 34.95815], [135.71497, 34.95852], [135.71499, 34.95891], [135.71503, 34.95924], [135.71508, 34.95966], [135.71522, 34.96053], [135.71525, 34.96074], [135.71525, 34.9608], [135.71542, 34.96195], [135.71559, 34.96309], [135.71565, 34.96342], [135.71581, 34.96418], [135.71601, 34.96506], [135.71612, 34.96561], [135.71623, 34.96607], [135.71643, 34.96697], [135.71659, 34.96755], [135.71671, 34.96796], [135.71687, 34.96838], [135.71698, 34.96863], [135.71701, 34.96868], [135.71737, 34.96939], [135.71776, 34.97011], [135.718, 34.97056], [135.71827, 34.97099], [135.7185, 34.97133], [135.71877, 34.97173], [135.71913, 34.97226], [135.71945, 34.97269], [135.72005, 34.97342], [135.72053, 34.97397], [135.7209, 34.97437], [135.72106, 34.97452], [135.72126, 34.97473], [135.72179, 34.97516], [135.72248, 34.97564], [135.72306, 34.97602], [135.7239, 34.97653], [135.72505, 34.97715], [135.72621, 34.97778], [135.7279, 34.9787], [135.72999, 34.97982], [135.73136, 34.98055], [135.73221, 34.981], [135.73313, 34.98144], [135.73396, 34.98178], [135.73406, 34.98182], [135.73471, 34.98208], [135.73562, 34.98245], [135.73626, 34.98266], [135.73748, 34.983], [135.74034, 34.98379], [135.74268, 34.9844], [135.74345, 34.98457], [135.74426, 34.98472], [135.74451, 34.98474], [135.74461, 34.98475], [135.74516, 34.9848], [135.74542, 34.9848], [135.74579, 34.98481], [135.74717, 34.98479], [135.7474, 34.98481], [135.74896, 34.9846], [135.74952, 34.98454], [135.75531, 34.98458], [135.75684, 34.98459]]}, "properties": {"id": "TRACK_TOKYO_0986", "line_name": "東海道新幹線", "station_group_ids": [], "mode": "shinkansen", "operator_id": "東海旅客鉄道", "line_color": "#1F78FF", "tags": ["tokyo", "track_centerline"]}}]}