{"type": "FeatureCollection", "features": [{"type": "Feature", "bbox": [141.155455, 40.51043, 141.446781, 40.719403], "geometry": {"type": "LineString", "coordinates": [[141.43206, 40.51043], [141.432718, 40.511139], [141.436337, 40.514894], [141.437838, 40.516438], [141.439308, 40.518082], [141.440109, 40.519104], [141.440877, 40.520112], [141.441894, 40.521584], [141.442784, 40.523036], [141.443811, 40.524944], [141.44456, 40.52666], [141.445415, 40.528897], [141.446029, 40.531106], [141.446402, 40.532964], [141.446608, 40.534465], [141.446724, 40.535802], [141.446781, 40.537031], [141.446778, 40.538597], [141.446602, 40.540963], [141.446216, 40.543114], [141.445932, 40.544401], [141.445586, 40.545638], [141.444892, 40.547625], [141.444235, 40.549233], [141.443588, 40.55057], [141.442768, 40.552092], [141.441988, 40.5534], [141.441006, 40.55478], [141.440182, 40.555923], [141.438314, 40.558325], [141.436301, 40.560841], [141.434443, 40.563157], [141.433645, 40.564094], [141.432961, 40.564837], [141.431677, 40.566159], [141.43019, 40.567546], [141.429121, 40.568461], [141.427394, 40.569791], [141.426044, 40.570777], [141.425245, 40.571327], [141.423361, 40.572478], [141.421575, 40.573515], [141.4136, 40.577918], [141.406159, 40.582028], [141.40308, 40.583822], [141.402048, 40.584415], [141.400483, 40.585416], [141.398271, 40.586788], [141.39596, 40.588254], [141.392367, 40.590498], [141.385716, 40.594658], [141.378127, 40.599419], [141.376183, 40.600648], [141.372066, 40.603221], [141.36757, 40.606052], [141.363059, 40.608868], [141.360276, 40.610655], [141.354058, 40.614558], [141.347828, 40.618468], [141.340665, 40.622921], [141.336633, 40.625423], [141.331107, 40.629297], [141.327394, 40.631913], [141.322647, 40.635258], [141.318208, 40.638368], [141.311958, 40.642735], [141.307226, 40.64603], [141.305227, 40.647446], [141.302696, 40.649182], [141.299622, 40.65137], [141.295537, 40.654165], [141.294052, 40.655244], [141.288299, 40.659218], [141.281346, 40.664043], [141.274508, 40.668803], [141.271659, 40.670755], [141.26981, 40.671948], [141.2683, 40.672892], [141.266385, 40.674007], [141.263681, 40.675494], [141.261634, 40.676566], [141.259065, 40.677817], [141.255835, 40.679268], [141.251095, 40.681326], [141.243865, 40.684443], [141.235979, 40.687845], [141.2295, 40.690633], [141.221136, 40.694207], [141.213778, 40.697337], [141.204139, 40.701476], [141.195035, 40.70535], [141.191791, 40.70673], [141.188927, 40.707866], [141.185461, 40.709117], [141.182267, 40.710211], [141.174367, 40.712912], [141.167615, 40.715221], [141.158683, 40.718302], [141.155455, 40.719403]]}, "properties": {"id": "GEOM_TOKYO_4478", "route_id": "R_86450D72", "route_name": null, "route_color": "#2D9C5B", "route_text_color": null, "line_name": "東北新幹線", "operator_id": "jr_east", "representation": "service_path", "min_zoom": 0, "max_zoom": 24, "offset_rank": 0}}]}