{"type": "FeatureCollection", "features": [{"type": "Feature", "bbox": [141.28627, 40.26107, 141.42981, 40.50822], "geometry": {"type": "LineString", "coordinates": [[141.28627, 40.26107], [141.28767, 40.2638], [141.28833, 40.26509], [141.28889, 40.26625], [141.28987, 40.26868], [141.29019, 40.26959], [141.29037, 40.27017], [141.29069, 40.27136], [141.29101, 40.27271], [141.29135, 40.27505], [141.29152, 40.27739], [141.29143, 40.27997], [141.29075, 40.28548], [141.29012, 40.2897], [141.28946, 40.29433], [141.28929, 40.29591], [141.28922, 40.29778], [141.2894, 40.30074], [141.28967, 40.30285], [141.2902, 40.30542], [141.29112, 40.30828], [141.29189, 40.31012], [141.29273, 40.31172], [141.294, 40.3139], [141.29623, 40.31702], [141.29773, 40.31897], [141.30181, 40.32438], [141.30268, 40.3255], [141.30474, 40.32828], [141.30668, 40.3309], [141.3092, 40.3342], [141.31154, 40.33729], [141.31285, 40.33904], [141.31657, 40.344], [141.3198, 40.34822], [141.32241, 40.35165], [141.32614, 40.35661], [141.33012, 40.36185], [141.33695, 40.37092], [141.34136, 40.37676], [141.34585, 40.38272], [141.34929, 40.38729], [141.35604, 40.39632], [141.35681, 40.39741], [141.36123, 40.40338], [141.36427, 40.4074], [141.36767, 40.41188], [141.36977, 40.41469], [141.37326, 40.41924], [141.37521, 40.42173], [141.3765, 40.42349], [141.37909, 40.42692], [141.38241, 40.43132], [141.38498, 40.43473], [141.38988, 40.44123], [141.39447, 40.44735], [141.39639, 40.45017], [141.39823, 40.45326], [141.39938, 40.45542], [141.40089, 40.45865], [141.40169, 40.4605], [141.40251, 40.46251], [141.40424, 40.46732], [141.40728, 40.47557], [141.40964, 40.48189], [141.41133, 40.48559], [141.41247, 40.48772], [141.4147, 40.49136], [141.4176, 40.49536], [141.41959, 40.49777], [141.42402, 40.50248], [141.42981, 40.50822]]}, "properties": {"id": "GEOM_TOKYO_2978", "route_id": "R_86450D72", "route_name": null, "route_color": "#2D9C5B", "route_text_color": null, "line_name": "東北新幹線", "operator_id": "jr_east", "representation": "service_path", "min_zoom": 0, "max_zoom": 24, "offset_rank": 0}}]}