{"type": "FeatureCollection", "features": [{"type": "Feature", "bbox": [131.16218, 34.03704, 131.3954, 34.09226], "geometry": {"type": "LineString", "coordinates": [[131.3954, 34.09226], [131.39433, 34.09166], [131.39269, 34.09061], [131.39078, 34.08932], [131.38871, 34.08784], [131.38698, 34.08659], [131.38591, 34.08588], [131.38482, 34.08524], [131.38394, 34.08471], [131.38029, 34.08229], [131.37952, 34.08176], [131.37922, 34.08157], [131.37487, 34.07862], [131.37323, 34.07737], [131.37258, 34.07686], [131.37162, 34.07599], [131.37085, 34.07527], [131.36962, 34.0739], [131.36867, 34.07289], [131.36854, 34.07276], [131.36519, 34.06912], [131.36421, 34.0681], [131.36321, 34.067], [131.36214, 34.06584], [131.36213, 34.06582], [131.36121, 34.06485], [131.35992, 34.06356], [131.3592, 34.06286], [131.35853, 34.06224], [131.35757, 34.06146], [131.35645, 34.06053], [131.35516, 34.05955], [131.35467, 34.0592], [131.35373, 34.0586], [131.35284, 34.05803], [131.35139, 34.0571], [131.3499, 34.05622], [131.34911, 34.05578], [131.34785, 34.05515], [131.34666, 34.05461], [131.34586, 34.05426], [131.34477, 34.05383], [131.34227, 34.05296], [131.34079, 34.05246], [131.33926, 34.05204], [131.33786, 34.05167], [131.33675, 34.05142], [131.33619, 34.05131], [131.33551, 34.05117], [131.3343, 34.05098], [131.33258, 34.05085], [131.33242, 34.05084], [131.33034, 34.05072], [131.32864, 34.05068], [131.32653, 34.05064], [131.32129, 34.05055], [131.31961, 34.05064], [131.31856, 34.0507], [131.31644, 34.05075], [131.3149, 34.05078], [131.31378, 34.05077], [131.31308, 34.05079], [131.31206, 34.05074], [131.31087, 34.05067], [131.30965, 34.05056], [131.30838, 34.05038], [131.30661, 34.05012], [131.30467, 34.0498], [131.30374, 34.04963], [131.30191, 34.04923], [131.30024, 34.04881], [131.29827, 34.04816], [131.29607, 34.04741], [131.29248, 34.0462], [131.28945, 34.04523], [131.28577, 34.04408], [131.2788, 34.0418], [131.27667, 34.04111], [131.27481, 34.04061], [131.27348, 34.04026], [131.27201, 34.03988], [131.27074, 34.03959], [131.26973, 34.03938], [131.26871, 34.03919], [131.26591, 34.03874], [131.26329, 34.03832], [131.26136, 34.03805], [131.25769, 34.03756], [131.25528, 34.0373], [131.25497, 34.03728], [131.25422, 34.03723], [131.25362, 34.0372], [131.25316, 34.03718], [131.25229, 34.03716], [131.24919, 34.03711], [131.24807, 34.0371], [131.24769, 34.03709], [131.24759, 34.03709], [131.24696, 34.03707], [131.24623, 34.03707], [131.24459, 34.03704], [131.243, 34.03707], [131.24191, 34.0371], [131.24135, 34.03715], [131.23919, 34.0373], [131.23863, 34.03736], [131.23766, 34.0375], [131.23647, 34.03767], [131.23489, 34.03788], [131.23359, 34.03807], [131.23279, 34.03821], [131.23219, 34.03831], [131.23122, 34.03848], [131.23054, 34.03858], [131.22939, 34.03872], [131.22778, 34.03893], [131.22691, 34.03907], [131.22633, 34.03917], [131.2259, 34.03923], [131.22515, 34.03935], [131.22398, 34.03953], [131.22239, 34.03978], [131.22103, 34.03999], [131.2193, 34.04026], [131.21582, 34.04082], [131.21436, 34.04106], [131.21392, 34.04113], [131.2101, 34.04172], [131.20728, 34.04217], [131.20449, 34.04264], [131.20411, 34.04271], [131.20373, 34.04276], [131.20258, 34.04293], [131.2018, 34.04306], [131.2006, 34.04322], [131.20028, 34.04326], [131.19792, 34.0436], [131.19534, 34.04398], [131.19487, 34.04405], [131.19426, 34.04414], [131.19383, 34.04421], [131.19228, 34.04445], [131.19072, 34.0447], [131.18967, 34.04487], [131.18846, 34.04507], [131.18787, 34.04516], [131.18547, 34.04556], [131.18487, 34.04566], [131.18364, 34.04589], [131.18342, 34.04594], [131.18132, 34.04635], [131.18097, 34.04642], [131.17926, 34.04681], [131.17724, 34.04729], [131.17582, 34.04761], [131.175, 34.04782], [131.17285, 34.0484], [131.17244, 34.04854], [131.17229, 34.04859], [131.17147, 34.04884], [131.17, 34.04931], [131.16876, 34.04973], [131.1675, 34.05017], [131.16601, 34.05073], [131.16473, 34.0512], [131.16377, 34.0516], [131.16218, 34.05227]]}, "properties": {"id": "GEOM_TOKYO_0681", "route_id": "R_A02272B9", "route_name": null, "route_color": "#1263D6", "route_text_color": null, "line_name": "山陽新幹線", "operator_id": "西日本旅客鉄道", "representation": "service_path", "min_zoom": 0, "max_zoom": 24, "offset_rank": 0}}, {"type": "Feature", "bbox": [131.39907, 34.05277, 131.80082, 34.10351], "geometry": {"type": "LineString", "coordinates": [[131.80082, 34.05277], [131.80059, 34.05311], [131.80031, 34.05357], [131.79999, 34.05413], [131.79955, 34.05506], [131.79922, 34.05588], [131.79884, 34.05711], [131.79841, 34.05837], [131.79803, 34.05959], [131.79798, 34.05976], [131.7976, 34.06085], [131.79726, 34.06183], [131.79703, 34.06247], [131.79685, 34.06303], [131.79654, 34.06399], [131.79615, 34.06514], [131.79596, 34.06572], [131.79559, 34.06692], [131.79514, 34.06829], [131.79492, 34.06894], [131.79477, 34.06936], [131.79458, 34.06991], [131.7942, 34.07061], [131.79387, 34.07123], [131.79362, 34.07173], [131.79328, 34.07239], [131.79299, 34.07294], [131.79275, 34.07339], [131.79242, 34.07401], [131.7922, 34.07449], [131.79198, 34.07494], [131.79183, 34.07523], [131.79158, 34.07564], [131.79126, 34.07622], [131.79098, 34.07668], [131.79065, 34.07724], [131.79021, 34.07789], [131.78965, 34.07868], [131.78922, 34.07926], [131.78877, 34.07981], [131.78833, 34.08031], [131.78766, 34.08095], [131.78713, 34.08139], [131.78649, 34.08194], [131.78588, 34.08236], [131.78543, 34.08269], [131.78495, 34.08304], [131.78438, 34.08343], [131.78373, 34.08393], [131.78315, 34.08433], [131.78262, 34.08472], [131.78189, 34.08524], [131.78117, 34.08578], [131.78071, 34.08609], [131.7802, 34.08641], [131.77985, 34.0866], [131.77872, 34.08738], [131.77785, 34.08783], [131.77631, 34.08853], [131.77622, 34.08858], [131.77449, 34.08925], [131.77326, 34.08963], [131.77158, 34.09013], [131.76962, 34.09065], [131.76698, 34.09112], [131.76581, 34.0913], [131.76479, 34.09146], [131.76319, 34.09165], [131.76255, 34.09171], [131.76205, 34.09175], [131.76083, 34.09184], [131.75962, 34.09193], [131.75811, 34.09199], [131.75686, 34.09197], [131.75578, 34.09194], [131.75512, 34.0919], [131.75413, 34.0918], [131.75338, 34.0917], [131.75149, 34.09137], [131.75036, 34.09119], [131.74934, 34.09102], [131.7483, 34.09084], [131.74755, 34.0907], [131.746, 34.09042], [131.74438, 34.0901], [131.74345, 34.08989], [131.74224, 34.08957], [131.73926, 34.08887], [131.73687, 34.0883], [131.73664, 34.08825], [131.73587, 34.08807], [131.7325, 34.08727], [131.73043, 34.0868], [131.72956, 34.0866], [131.72921, 34.08655], [131.7287, 34.08642], [131.72824, 34.08633], [131.72795, 34.08627], [131.72735, 34.08616], [131.72636, 34.08597], [131.72536, 34.08577], [131.72428, 34.08556], [131.72319, 34.08536], [131.72211, 34.08518], [131.72077, 34.0849], [131.71961, 34.08471], [131.71908, 34.08461], [131.71773, 34.08436], [131.71599, 34.08405], [131.71412, 34.0837], [131.71322, 34.08353], [131.71159, 34.08321], [131.7094, 34.08276], [131.70822, 34.08256], [131.70697, 34.08231], [131.70656, 34.08224], [131.70605, 34.08215], [131.70529, 34.082], [131.70466, 34.08187], [131.70404, 34.08176], [131.70343, 34.08165], [131.70264, 34.08153], [131.70187, 34.08139], [131.7011, 34.08129], [131.70025, 34.08119], [131.69944, 34.08112], [131.69909, 34.08109], [131.69841, 34.08103], [131.69762, 34.08096], [131.69684, 34.08093], [131.69593, 34.08092], [131.6951, 34.08089], [131.69501, 34.08089], [131.69403, 34.08088], [131.69264, 34.08086], [131.69255, 34.08087], [131.69225, 34.08087], [131.69204, 34.08087], [131.69167, 34.08087], [131.69043, 34.08088], [131.68991, 34.08089], [131.68879, 34.08089], [131.68768, 34.0809], [131.68657, 34.08091], [131.68546, 34.08092], [131.68427, 34.08093], [131.68367, 34.08093], [131.68234, 34.08093], [131.68171, 34.08093], [131.67957, 34.08087], [131.67902, 34.08083], [131.6784, 34.08078], [131.67779, 34.08071], [131.67729, 34.08068], [131.67618, 34.08059], [131.67509, 34.08054], [131.67399, 34.08046], [131.67288, 34.08037], [131.67178, 34.08025], [131.67068, 34.08011], [131.67067, 34.08011], [131.66957, 34.07996], [131.66846, 34.07983], [131.66736, 34.07969], [131.66626, 34.07954], [131.66517, 34.07939], [131.66407, 34.07922], [131.66297, 34.07907], [131.66187, 34.07891], [131.66078, 34.07875], [131.65976, 34.0786], [131.65968, 34.07859], [131.65858, 34.07844], [131.65749, 34.07831], [131.65639, 34.07816], [131.65529, 34.07801], [131.65419, 34.07786], [131.65309, 34.07772], [131.65199, 34.07756], [131.65089, 34.07741], [131.64979, 34.07727], [131.64882, 34.07715], [131.64868, 34.07713], [131.64758, 34.07698], [131.64647, 34.07684], [131.64537, 34.07669], [131.64426, 34.07653], [131.64314, 34.07638], [131.64203, 34.07624], [131.64198, 34.07623], [131.64091, 34.07609], [131.6398, 34.07595], [131.63869, 34.0758], [131.63758, 34.07564], [131.63647, 34.07548], [131.63536, 34.07534], [131.63426, 34.0752], [131.63316, 34.07506], [131.63205, 34.07491], [131.63104, 34.07477], [131.63095, 34.07476], [131.62984, 34.07461], [131.62874, 34.07446], [131.62763, 34.07435], [131.62685, 34.07424], [131.62587, 34.07412], [131.62489, 34.074], [131.62386, 34.07387], [131.62287, 34.07375], [131.62256, 34.07371], [131.62146, 34.07357], [131.61998, 34.07338], [131.61325, 34.07248], [131.61049, 34.0723], [131.60953, 34.07227], [131.60923, 34.07226], [131.60904, 34.07225], [131.60874, 34.07224], [131.60746, 34.07219], [131.60696, 34.07217], [131.60666, 34.07216], [131.60627, 34.07215], [131.60601, 34.07214], [131.60562, 34.07212], [131.60525, 34.07211], [131.60507, 34.0721], [131.6031, 34.07204], [131.60299, 34.07204], [131.60154, 34.07203], [131.60106, 34.07205], [131.59984, 34.07209], [131.59943, 34.0721], [131.5991, 34.07212], [131.59896, 34.07212], [131.59862, 34.07215], [131.59831, 34.07217], [131.59798, 34.0722], [131.59732, 34.07225], [131.59693, 34.07228], [131.59631, 34.07234], [131.59624, 34.07234], [131.59569, 34.07239], [131.5956, 34.0724], [131.59102, 34.07278], [131.58933, 34.07293], [131.58094, 34.07365], [131.57831, 34.07388], [131.57792, 34.07391], [131.57479, 34.07419], [131.57461, 34.07421], [131.57075, 34.07455], [131.57065, 34.07456], [131.57025, 34.0746], [131.57015, 34.07461], [131.56828, 34.07478], [131.56821, 34.07479], [131.56791, 34.07481], [131.56785, 34.07482], [131.56591, 34.075], [131.56577, 34.07502], [131.56554, 34.07503], [131.56546, 34.07504], [131.565, 34.07508], [131.56483, 34.0751], [131.56447, 34.07514], [131.56434, 34.07515], [131.56199, 34.07536], [131.56189, 34.07537], [131.55213, 34.07628], [131.55179, 34.07631], [131.55002, 34.07647], [131.54672, 34.07679], [131.54086, 34.07735], [131.53902, 34.07754], [131.53748, 34.07769], [131.52806, 34.07887], [131.52797, 34.07889], [131.52707, 34.07901], [131.52701, 34.07901], [131.52194, 34.07964], [131.51769, 34.08019], [131.51726, 34.08024], [131.51454, 34.08057], [131.50977, 34.08118], [131.50631, 34.08162], [131.50594, 34.08167], [131.50514, 34.08177], [131.5051, 34.08178], [131.5047, 34.08183], [131.50465, 34.08184], [131.50399, 34.08193], [131.5039, 34.08194], [131.50305, 34.08205], [131.50296, 34.08206], [131.50278, 34.08209], [131.50233, 34.08215], [131.50112, 34.08231], [131.50108, 34.08231], [131.49849, 34.08266], [131.49757, 34.08279], [131.49556, 34.08304], [131.49377, 34.08333], [131.493, 34.08349], [131.4923, 34.08365], [131.49151, 34.08387], [131.49078, 34.08413], [131.48941, 34.0847], [131.4856, 34.08591], [131.48349, 34.08659], [131.48187, 34.08706], [131.4794, 34.08791], [131.47786, 34.08845], [131.47752, 34.08857], [131.47553, 34.0892], [131.47458, 34.08951], [131.47147, 34.09063], [131.46702, 34.09223], [131.46659, 34.09238], [131.46214, 34.09395], [131.46186, 34.09405], [131.45697, 34.09577], [131.45374, 34.09691], [131.45169, 34.09764], [131.44958, 34.09839], [131.44866, 34.09872], [131.44721, 34.09923], [131.44291, 34.10076], [131.44264, 34.10083], [131.44194, 34.10102], [131.44102, 34.10125], [131.43827, 34.10194], [131.43557, 34.10255], [131.43308, 34.10298], [131.43192, 34.10318], [131.43076, 34.10333], [131.43026, 34.10338], [131.42769, 34.1035], [131.42738, 34.10351], [131.42466, 34.10333], [131.42317, 34.10315], [131.42037, 34.10269], [131.41849, 34.10238], [131.41643, 34.1019], [131.41411, 34.10128], [131.41314, 34.10094], [131.41, 34.09964], [131.40978, 34.09955], [131.40929, 34.09931], [131.409, 34.09917], [131.40857, 34.09897], [131.40718, 34.0983], [131.40283, 34.09624], [131.39988, 34.0948], [131.39907, 34.09434]]}, "properties": {"id": "GEOM_TOKYO_0682", "route_id": "R_A02272B9", "route_name": null, "route_color": "#1263D6", "route_text_color": null, "line_name": "山陽新幹線", "operator_id": "西日本旅客鉄道", "representation": "service_path", "min_zoom": 0, "max_zoom": 24, "offset_rank": 0}}, {"type": "Feature", "bbox": [131.3954, 34.09226, 131.39907, 34.09434], "geometry": {"type": "LineString", "coordinates": [[131.39907, 34.09434], [131.3954, 34.09226]]}, "properties": {"id": "GEOM_TOKYO_0683", "route_id": "R_A02272B9", "route_name": null, "route_color": "#1263D6", "route_text_color": null, "line_name": "山陽新幹線", "operator_id": "西日本旅客鉄道", "representation": "service_path", "min_zoom": 0, "max_zoom": 24, "offset_rank": 0}}, {"type": "Feature", "bbox": [131.15811, 34.05227, 131.16218, 34.05396], "geometry": {"type": "LineString", "coordinates": [[131.16218, 34.05227], [131.16093, 34.05279], [131.15811, 34.05396]]}, "properties": {"id": "GEOM_TOKYO_0684", "route_id": "R_A02272B9", "route_name": null, "route_color": "#1263D6", "route_text_color": null, "line_name": "山陽新幹線", "operator_id": "西日本旅客鉄道", "representation": "service_path", "min_zoom": 0, "max_zoom": 24, "offset_rank": 0}}, {"type": "Feature", "bbox": [130.94955, 34.00889, 131.15811, 34.07561], "geometry": {"type": "LineString", "coordinates": [[131.15811, 34.05396], [131.1565, 34.05462], [131.15404, 34.05564], [131.15255, 34.05628], [131.15052, 34.05714], [131.14855, 34.05794], [131.14792, 34.0582], [131.14642, 34.05881], [131.1461, 34.05894], [131.14556, 34.05917], [131.14389, 34.05984], [131.14184, 34.06068], [131.13944, 34.06168], [131.13716, 34.06261], [131.13458, 34.06356], [131.13321, 34.06401], [131.13187, 34.06445], [131.13065, 34.06483], [131.12846, 34.06549], [131.12809, 34.06559], [131.12666, 34.06599], [131.12638, 34.06606], [131.12585, 34.06621], [131.12494, 34.06645], [131.12383, 34.06669], [131.12324, 34.0668], [131.1226, 34.06692], [131.1222, 34.06697], [131.12058, 34.06717], [131.11806, 34.06753], [131.11125, 34.06833], [131.1091, 34.06856], [131.10576, 34.069], [131.10437, 34.06914], [131.1025, 34.06937], [131.1006, 34.06959], [131.09899, 34.06979], [131.09669, 34.07005], [131.09381, 34.07037], [131.0906, 34.07073], [131.08962, 34.07085], [131.0874, 34.0711], [131.08418, 34.07147], [131.08153, 34.07177], [131.07865, 34.07209], [131.07833, 34.07212], [131.07593, 34.07241], [131.07244, 34.07282], [131.06926, 34.0732], [131.06819, 34.07332], [131.0672, 34.07342], [131.06443, 34.07375], [131.0627, 34.07395], [131.06167, 34.07407], [131.05965, 34.07431], [131.05891, 34.07439], [131.05616, 34.0747], [131.05337, 34.07499], [131.05201, 34.07512], [131.05062, 34.07523], [131.04923, 34.07534], [131.04865, 34.07539], [131.04828, 34.07543], [131.04758, 34.07546], [131.04642, 34.07556], [131.04555, 34.07561], [131.04344, 34.07561], [131.043, 34.0756], [131.04296, 34.0756], [131.042, 34.07556], [131.04185, 34.07555], [131.04093, 34.07553], [131.03919, 34.07546], [131.0368, 34.07527], [131.03552, 34.07514], [131.03411, 34.07498], [131.03258, 34.07478], [131.03242, 34.07475], [131.03119, 34.07455], [131.02983, 34.07431], [131.02818, 34.07399], [131.02676, 34.0737], [131.0258, 34.07347], [131.02405, 34.073], [131.02263, 34.07264], [131.02173, 34.0724], [131.02064, 34.07211], [131.01995, 34.0719], [131.01777, 34.07124], [131.01645, 34.07085], [131.01593, 34.07068], [131.01171, 34.06929], [131.01069, 34.06895], [131.00634, 34.06754], [131.00482, 34.06703], [131.00222, 34.06617], [130.99964, 34.06531], [130.99761, 34.06461], [130.99492, 34.06371], [130.99485, 34.06366], [130.99463, 34.06357], [130.99311, 34.06308], [130.99062, 34.06224], [130.9891, 34.06172], [130.9881, 34.06134], [130.98697, 34.06088], [130.98596, 34.06049], [130.98594, 34.06049], [130.98496, 34.06007], [130.98359, 34.05944], [130.98223, 34.05873], [130.98123, 34.05816], [130.97988, 34.05735], [130.97894, 34.05676], [130.9782, 34.05624], [130.97752, 34.05573], [130.97708, 34.05539], [130.97695, 34.05529], [130.97635, 34.05481], [130.97561, 34.05421], [130.97502, 34.05373], [130.97405, 34.05283], [130.97331, 34.05215], [130.97268, 34.05151], [130.97204, 34.05084], [130.97162, 34.05035], [130.97099, 34.04962], [130.96998, 34.04832], [130.96992, 34.04824], [130.96895, 34.04697], [130.96889, 34.04689], [130.96867, 34.0466], [130.9686, 34.0465], [130.9683, 34.04606], [130.96804, 34.04569], [130.968, 34.04563], [130.96758, 34.04502], [130.96757, 34.045], [130.9675, 34.04491], [130.96733, 34.04466], [130.96726, 34.04456], [130.96723, 34.04452], [130.96636, 34.04322], [130.96627, 34.04312], [130.96601, 34.04274], [130.96509, 34.04138], [130.96391, 34.03969], [130.96286, 34.03812], [130.96282, 34.03806], [130.96265, 34.03781], [130.96253, 34.03762], [130.96238, 34.0374], [130.96188, 34.03665], [130.96172, 34.03642], [130.96052, 34.03461], [130.95854, 34.03167], [130.95776, 34.03049], [130.957, 34.02936], [130.95609, 34.02799], [130.9549, 34.0262], [130.95475, 34.02593], [130.95455, 34.02556], [130.95425, 34.02498], [130.95384, 34.0241], [130.9536, 34.02351], [130.9534, 34.02301], [130.95313, 34.02232], [130.9528, 34.02153], [130.95259, 34.02101], [130.95236, 34.02019], [130.95186, 34.01858], [130.95164, 34.01782], [130.95135, 34.01679], [130.95105, 34.01553], [130.95058, 34.01347], [130.95024, 34.01207], [130.95013, 34.01162], [130.94993, 34.01076], [130.94986, 34.01047], [130.9497, 34.00972], [130.94955, 34.00889]]}, "properties": {"id": "GEOM_TOKYO_0685", "route_id": "R_A02272B9", "route_name": null, "route_color": "#1263D6", "route_text_color": null, "line_name": "山陽新幹線", "operator_id": "西日本旅客鉄道", "representation": "service_path", "min_zoom": 0, "max_zoom": 24, "offset_rank": 0}}, {"type": "Feature", "bbox": [130.88103, 33.88655, 130.88528, 33.88768], "geometry": {"type": "LineString", "coordinates": [[130.88528, 33.88655], [130.88441, 33.88694], [130.8831, 33.88731], [130.88103, 33.88768]]}, "properties": {"id": "GEOM_TOKYO_0686", "route_id": "R_A02272B9", "route_name": null, "route_color": "#1263D6", "route_text_color": null, "line_name": "山陽新幹線", "operator_id": "西日本旅客鉄道", "representation": "service_path", "min_zoom": 0, "max_zoom": 24, "offset_rank": 0}}, {"type": "Feature", "bbox": [130.94868, 34.00525, 130.94955, 34.00889], "geometry": {"type": "LineString", "coordinates": [[130.94955, 34.00889], [130.94942, 34.00852], [130.94938, 34.00833], [130.94937, 34.00827], [130.94933, 34.00809], [130.94892, 34.00632], [130.94875, 34.00557], [130.94868, 34.00525]]}, "properties": {"id": "GEOM_TOKYO_0687", "route_id": "R_A02272B9", "route_name": null, "route_color": "#1263D6", "route_text_color": null, "line_name": "山陽新幹線", "operator_id": "西日本旅客鉄道", "representation": "service_path", "min_zoom": 0, "max_zoom": 24, "offset_rank": 0}}, {"type": "Feature", "bbox": [130.42127, 33.59139, 130.88103, 33.89017], "geometry": {"type": "LineString", "coordinates": [[130.88103, 33.88768], [130.87581, 33.88864], [130.87262, 33.88929], [130.87159, 33.88945], [130.87084, 33.88955], [130.86951, 33.88974], [130.86895, 33.88983], [130.86851, 33.8899], [130.86815, 33.88995], [130.86799, 33.88997], [130.86777, 33.88999], [130.8673, 33.89004], [130.86695, 33.89007], [130.86659, 33.8901], [130.86583, 33.89014], [130.8649, 33.89017], [130.8639, 33.89013], [130.86284, 33.89004], [130.86147, 33.88981], [130.85973, 33.88939], [130.85931, 33.88928], [130.85847, 33.88902], [130.85678, 33.88852], [130.85431, 33.88749], [130.85353, 33.88717], [130.85325, 33.88706], [130.85077, 33.88596], [130.84981, 33.88544], [130.84859, 33.88479], [130.84658, 33.88328], [130.84236, 33.87996], [130.84136, 33.87917], [130.83717, 33.87587], [130.83464, 33.87391], [130.83438, 33.87371], [130.83351, 33.87304], [130.83092, 33.87101], [130.8299, 33.87021], [130.82872, 33.8693], [130.82677, 33.86791], [130.82491, 33.86666], [130.82399, 33.86606], [130.82144, 33.86443], [130.82142, 33.86442], [130.81701, 33.8618], [130.81438, 33.86027], [130.81244, 33.85913], [130.81061, 33.85805], [130.80657, 33.85569], [130.80374, 33.85402], [130.80346, 33.85385], [130.80103, 33.85241], [130.79825, 33.85077], [130.79449, 33.84854], [130.79411, 33.84831], [130.78918, 33.84543], [130.78563, 33.84313], [130.78548, 33.84303], [130.78465, 33.84249], [130.78152, 33.84026], [130.77888, 33.83832], [130.77718, 33.83705], [130.77659, 33.8366], [130.77564, 33.83591], [130.77303, 33.83376], [130.77124, 33.83228], [130.77035, 33.83151], [130.76884, 33.83017], [130.76789, 33.82933], [130.76677, 33.82827], [130.76495, 33.82643], [130.76355, 33.82498], [130.76181, 33.8232], [130.76174, 33.82312], [130.76134, 33.82273], [130.76108, 33.82246], [130.76028, 33.82163], [130.75981, 33.82113], [130.75887, 33.8201], [130.75699, 33.81794], [130.75608, 33.81689], [130.75593, 33.81671], [130.75576, 33.81653], [130.75559, 33.81633], [130.75475, 33.81538], [130.75346, 33.81394], [130.75259, 33.81297], [130.75212, 33.81244], [130.75019, 33.81025], [130.74789, 33.80764], [130.74764, 33.8073], [130.74674, 33.80628], [130.74598, 33.80528], [130.74574, 33.80495], [130.74483, 33.80373], [130.74418, 33.80286], [130.7435, 33.80195], [130.74199, 33.79993], [130.74136, 33.79907], [130.74083, 33.79839], [130.74023, 33.79759], [130.73965, 33.79689], [130.73948, 33.7967], [130.73935, 33.79653], [130.73832, 33.79535], [130.73791, 33.79487], [130.73773, 33.79466], [130.7368, 33.79359], [130.73658, 33.79333], [130.73639, 33.79311], [130.73604, 33.79272], [130.73514, 33.7918], [130.73475, 33.79146], [130.73458, 33.79133], [130.73434, 33.79114], [130.73388, 33.79079], [130.73332, 33.79037], [130.73292, 33.79009], [130.73267, 33.78991], [130.73241, 33.78974], [130.73165, 33.78926], [130.73137, 33.78909], [130.7309, 33.7888], [130.73034, 33.78845], [130.73, 33.78822], [130.72942, 33.78787], [130.72808, 33.78712], [130.72636, 33.78628], [130.72575, 33.78601], [130.72432, 33.78546], [130.72354, 33.78519], [130.72209, 33.78469], [130.72171, 33.78458], [130.72071, 33.78428], [130.71979, 33.78403], [130.7194, 33.78392], [130.71813, 33.78357], [130.71711, 33.78335], [130.71563, 33.78303], [130.71246, 33.78234], [130.71115, 33.78204], [130.70982, 33.78173], [130.7095, 33.78166], [130.70797, 33.7813], [130.7069, 33.78105], [130.70608, 33.78084], [130.70571, 33.78076], [130.70501, 33.78056], [130.70439, 33.78038], [130.70398, 33.78025], [130.70313, 33.77997], [130.70263, 33.77981], [130.70221, 33.77965], [130.70162, 33.77943], [130.7009, 33.77916], [130.69866, 33.77819], [130.69823, 33.77801], [130.69648, 33.77711], [130.69564, 33.77664], [130.69358, 33.77546], [130.69277, 33.775], [130.6916, 33.77435], [130.6899, 33.7734], [130.68788, 33.77224], [130.68686, 33.7716], [130.68582, 33.7709], [130.68382, 33.76946], [130.68316, 33.76897], [130.67853, 33.76503], [130.6762, 33.76297], [130.6752, 33.76206], [130.67491, 33.76179], [130.67417, 33.76112], [130.67384, 33.76083], [130.67249, 33.75961], [130.67021, 33.75758], [130.6692, 33.75666], [130.66819, 33.75576], [130.66723, 33.75487], [130.66645, 33.75418], [130.66612, 33.75392], [130.6658, 33.75363], [130.66545, 33.75332], [130.6654, 33.75328], [130.66508, 33.753], [130.66431, 33.75234], [130.66243, 33.75082], [130.66155, 33.75014], [130.66124, 33.7499], [130.66056, 33.7494], [130.66003, 33.74904], [130.65973, 33.74883], [130.65952, 33.74868], [130.65935, 33.74856], [130.65895, 33.74829], [130.65816, 33.74779], [130.65798, 33.74764], [130.65747, 33.74732], [130.65686, 33.74694], [130.65655, 33.74671], [130.65638, 33.7466], [130.65589, 33.7463], [130.65548, 33.74606], [130.65507, 33.74581], [130.65464, 33.74557], [130.65418, 33.74532], [130.65414, 33.7453], [130.6535, 33.74495], [130.65215, 33.74427], [130.6517, 33.74404], [130.65163, 33.744], [130.64693, 33.7419], [130.6464, 33.74165], [130.64616, 33.74159], [130.64478, 33.74108], [130.64438, 33.74092], [130.64379, 33.74071], [130.64326, 33.74051], [130.64303, 33.74044], [130.64079, 33.73966], [130.64026, 33.73948], [130.63975, 33.73929], [130.63935, 33.73917], [130.6388, 33.73902], [130.63762, 33.73872], [130.63734, 33.73864], [130.6362, 33.73835], [130.63531, 33.73811], [130.63468, 33.73795], [130.63356, 33.73766], [130.63119, 33.73703], [130.63077, 33.73693], [130.63004, 33.73673], [130.62982, 33.73668], [130.62838, 33.73629], [130.62265, 33.73478], [130.62125, 33.73442], [130.61921, 33.73388], [130.6176, 33.73342], [130.61642, 33.73305], [130.61575, 33.73285], [130.61432, 33.73235], [130.61408, 33.73226], [130.61401, 33.73224], [130.61293, 33.73183], [130.6127, 33.73174], [130.61191, 33.73145], [130.61107, 33.73112], [130.61021, 33.73077], [130.60948, 33.73047], [130.608, 33.72983], [130.60669, 33.72921], [130.60567, 33.72872], [130.60477, 33.72828], [130.60318, 33.72739], [130.60185, 33.72662], [130.60084, 33.72599], [130.60024, 33.72562], [130.59921, 33.72495], [130.59758, 33.72381], [130.59664, 33.72311], [130.59436, 33.72133], [130.59264, 33.71993], [130.59081, 33.71837], [130.58927, 33.71707], [130.58716, 33.71529], [130.58635, 33.71465], [130.5851, 33.71367], [130.58393, 33.71283], [130.58312, 33.71227], [130.58256, 33.71192], [130.5805, 33.71078], [130.57855, 33.7097], [130.57427, 33.70731], [130.57134, 33.7057], [130.57109, 33.70556], [130.56648, 33.70302], [130.56333, 33.70132], [130.56216, 33.70066], [130.56074, 33.69987], [130.55828, 33.69851], [130.55604, 33.69727], [130.55397, 33.69614], [130.55299, 33.69559], [130.55054, 33.69423], [130.5472, 33.69239], [130.54484, 33.69106], [130.54384, 33.69051], [130.54322, 33.69017], [130.5405, 33.68865], [130.53881, 33.68772], [130.53765, 33.68705], [130.53625, 33.68628], [130.53511, 33.68566], [130.53405, 33.68507], [130.5313, 33.68353], [130.52908, 33.68231], [130.52711, 33.68119], [130.5268, 33.68103], [130.52596, 33.68057], [130.52476, 33.67992], [130.52396, 33.67946], [130.52221, 33.67851], [130.52112, 33.67788], [130.52016, 33.67736], [130.51832, 33.67633], [130.51682, 33.67547], [130.51614, 33.67509], [130.51471, 33.67424], [130.51383, 33.67373], [130.51205, 33.67266], [130.50937, 33.67087], [130.50806, 33.66995], [130.5076, 33.66967], [130.50699, 33.66925], [130.50626, 33.66873], [130.50596, 33.6685], [130.50559, 33.66822], [130.50517, 33.66789], [130.50493, 33.6677], [130.50437, 33.66725], [130.50294, 33.66612], [130.50271, 33.66594], [130.50256, 33.66582], [130.50049, 33.66418], [130.50004, 33.66382], [130.49985, 33.66367], [130.49927, 33.66321], [130.49899, 33.66299], [130.49804, 33.66224], [130.49766, 33.66195], [130.49671, 33.6612], [130.49611, 33.6607], [130.49531, 33.66006], [130.49376, 33.65883], [130.4936, 33.65871], [130.49343, 33.65857], [130.491, 33.65665], [130.4877, 33.65405], [130.48676, 33.65333], [130.485, 33.65193], [130.48417, 33.65128], [130.48341, 33.65067], [130.48189, 33.64947], [130.48133, 33.64899], [130.48019, 33.64802], [130.47889, 33.64679], [130.47623, 33.64439], [130.475, 33.64329], [130.47352, 33.64194], [130.47259, 33.64113], [130.47054, 33.63926], [130.47035, 33.63909], [130.46802, 33.63701], [130.46783, 33.63684], [130.46593, 33.63517], [130.46347, 33.63296], [130.46039, 33.63027], [130.46032, 33.63021], [130.45965, 33.62968], [130.45879, 33.62904], [130.45795, 33.62848], [130.45715, 33.62795], [130.45502, 33.62669], [130.45346, 33.6258], [130.45156, 33.62472], [130.4496, 33.6236], [130.44826, 33.62283], [130.44621, 33.62166], [130.4453, 33.62115], [130.44249, 33.61954], [130.44224, 33.61939], [130.44025, 33.61825], [130.43823, 33.61709], [130.43658, 33.61617], [130.43405, 33.61472], [130.43341, 33.61436], [130.43273, 33.61396], [130.43169, 33.61336], [130.43101, 33.61294], [130.43035, 33.61253], [130.42974, 33.6121], [130.4289, 33.61149], [130.42851, 33.61118], [130.4283, 33.61103], [130.42728, 33.61017], [130.42666, 33.60957], [130.42587, 33.60872], [130.42544, 33.60819], [130.42513, 33.60781], [130.42441, 33.60681], [130.4236, 33.6056], [130.423, 33.60454], [130.4228, 33.6041], [130.42274, 33.60395], [130.42237, 33.6031], [130.42202, 33.60201], [130.42178, 33.60095], [130.42175, 33.60069], [130.42164, 33.59978], [130.42147, 33.59647], [130.42144, 33.59598], [130.42129, 33.5933], [130.42128, 33.59251], [130.42127, 33.59139]]}, "properties": {"id": "GEOM_TOKYO_0688", "route_id": "R_A02272B9", "route_name": null, "route_color": "#1263D6", "route_text_color": null, "line_name": "山陽新幹線", "operator_id": "西日本旅客鉄道", "representation": "service_path", "min_zoom": 0, "max_zoom": 24, "offset_rank": 0}}, {"type": "Feature", "bbox": [130.42108, 33.58776, 130.42127, 33.59139], "geometry": {"type": "LineString", "coordinates": [[130.42127, 33.59139], [130.42108, 33.58776]]}, "properties": {"id": "GEOM_TOKYO_0689", "route_id": "R_A02272B9", "route_name": null, "route_color": "#1263D6", "route_text_color": null, "line_name": "山陽新幹線", "operator_id": "西日本旅客鉄道", "representation": "service_path", "min_zoom": 0, "max_zoom": 24, "offset_rank": 0}}, {"type": "Feature", "bbox": [130.88528, 33.88273, 130.97871, 34.00525], "geometry": {"type": "LineString", "coordinates": [[130.94868, 34.00525], [130.94867, 34.00516], [130.94824, 34.00326], [130.94822, 34.00321], [130.9482, 34.00313], [130.94809, 34.00265], [130.9478, 34.00143], [130.94737, 33.9992], [130.94718, 33.99727], [130.94716, 33.99508], [130.94725, 33.99369], [130.94731, 33.99288], [130.94752, 33.99124], [130.94801, 33.98893], [130.94866, 33.98681], [130.94948, 33.9849], [130.95024, 33.98313], [130.9512, 33.98148], [130.9523, 33.9798], [130.95453, 33.97691], [130.96049, 33.96938], [130.96053, 33.96932], [130.96277, 33.96642], [130.96345, 33.96557], [130.96393, 33.96495], [130.96537, 33.96312], [130.96647, 33.96172], [130.96824, 33.95947], [130.9707, 33.95624], [130.97237, 33.95408], [130.97363, 33.95245], [130.97583, 33.94899], [130.97657, 33.94746], [130.97718, 33.94599], [130.9776, 33.9447], [130.97809, 33.94287], [130.97841, 33.94118], [130.97869, 33.93865], [130.97871, 33.93709], [130.97871, 33.9368], [130.97866, 33.93501], [130.97842, 33.93288], [130.978, 33.93075], [130.97727, 33.92829], [130.97723, 33.92819], [130.97639, 33.92598], [130.97543, 33.92394], [130.97434, 33.92205], [130.97288, 33.91993], [130.97232, 33.91915], [130.97107, 33.91768], [130.96779, 33.9145], [130.96703, 33.91375], [130.96404, 33.91085], [130.95991, 33.90684], [130.95835, 33.90532], [130.95381, 33.90088], [130.9528, 33.89993], [130.95091, 33.89812], [130.94628, 33.89358], [130.94565, 33.89304], [130.94441, 33.89195], [130.94141, 33.88979], [130.93853, 33.88808], [130.9371, 33.88735], [130.93627, 33.88693], [130.93324, 33.88566], [130.93083, 33.88488], [130.92692, 33.88388], [130.92661, 33.8838], [130.92407, 33.88337], [130.92176, 33.88311], [130.91992, 33.88298], [130.91593, 33.88292], [130.90956, 33.88283], [130.9029, 33.88273], [130.90012, 33.88276], [130.89849, 33.88288], [130.89661, 33.88316], [130.89565, 33.88341], [130.89471, 33.88365], [130.88929, 33.88511], [130.88745, 33.88569], [130.88528, 33.88655]]}, "properties": {"id": "GEOM_TOKYO_0692", "route_id": "R_A02272B9", "route_name": null, "route_color": "#1263D6", "route_text_color": null, "line_name": "山陽新幹線", "operator_id": "西日本旅客鉄道", "representation": "service_path", "min_zoom": 0, "max_zoom": 24, "offset_rank": 0}}, {"type": "Feature", "bbox": [130.42081, 33.526592, 130.43689, 33.58776], "geometry": {"type": "LineString", "coordinates": [[130.42108, 33.58776], [130.42107, 33.58769], [130.42099, 33.58662], [130.42088, 33.5852], [130.42083, 33.58458], [130.42082, 33.58404], [130.42081, 33.5833], [130.42081, 33.58295], [130.42086, 33.58248], [130.42095, 33.58208], [130.42097, 33.58193], [130.42111, 33.58147], [130.42126, 33.58103], [130.42151, 33.58044], [130.42175, 33.57997], [130.42197, 33.57959], [130.4222, 33.57926], [130.42252, 33.57881], [130.42286, 33.57841], [130.42508, 33.57593], [130.42599, 33.57491], [130.42647, 33.57437], [130.4267, 33.57411], [130.42749, 33.57323], [130.4282, 33.57248], [130.42831, 33.57236], [130.42875, 33.57194], [130.42926, 33.57141], [130.42971, 33.57096], [130.43066, 33.56999], [130.43129, 33.56937], [130.43165, 33.56899], [130.43207, 33.56856], [130.4326, 33.56787], [130.43281, 33.56757], [130.43329, 33.56688], [130.4336, 33.5664], [130.434, 33.56564], [130.43432, 33.56502], [130.43434, 33.56498], [130.43484, 33.56381], [130.43496, 33.56355], [130.43557, 33.56219], [130.43588, 33.56141], [130.43598, 33.56119], [130.43633, 33.56015], [130.43637, 33.56003], [130.43641, 33.55983], [130.43655, 33.55932], [130.43665, 33.55874], [130.43674, 33.55832], [130.43682, 33.55763], [130.43686, 33.55712], [130.43688, 33.55645], [130.43689, 33.55591], [130.43685, 33.55532], [130.43678, 33.55475], [130.43676, 33.55453], [130.43671, 33.55416], [130.43668, 33.55399], [130.43664, 33.55377], [130.43654, 33.55327], [130.43644, 33.55284], [130.43641, 33.55273], [130.43625, 33.55217], [130.43607, 33.55166], [130.43586, 33.55096], [130.43541, 33.54949], [130.43477, 33.54722], [130.43439, 33.54578], [130.43421, 33.54498], [130.43421, 33.54495], [130.43395, 33.54357], [130.43329, 33.53974], [130.43286, 33.5371], [130.43274, 33.53633], [130.43271, 33.53605], [130.43264, 33.53529], [130.4326, 33.53371], [130.432603, 33.533255], [130.432701, 33.531977], [130.432831, 33.53096], [130.432906, 33.530482], [130.432958, 33.530128], [130.43303, 33.529762], [130.433149, 33.529292], [130.433294, 33.528739], [130.433445, 33.52829], [130.433749, 33.527254], [130.433941, 33.526592]]}, "properties": {"id": "GEOM_TOKYO_4019", "route_id": "R_059A5F85", "route_name": null, "route_color": "#DE4B39", "route_text_color": null, "line_name": "九州新幹線", "operator_id": "九州旅客鉄道", "representation": "service_path", "min_zoom": 0, "max_zoom": 24, "offset_rank": 0}}, {"type": "Feature", "bbox": [130.48587, 33.072257, 130.494065, 33.176724], "geometry": {"type": "LineString", "coordinates": [[130.492272, 33.176724], [130.492266, 33.176683], [130.492211, 33.175975], [130.492169, 33.174305], [130.492194, 33.172725], [130.492272, 33.171201], [130.492391, 33.169733], [130.492484, 33.168366], [130.49263, 33.166888], [130.492737, 33.165465], [130.492769, 33.164981], [130.492809, 33.164422], [130.492879, 33.163772], [130.492902, 33.163055], [130.492983, 33.162326], [130.493027, 33.161676], [130.49309, 33.160881], [130.493139, 33.160208], [130.493215, 33.159402], [130.493264, 33.158606], [130.493327, 33.157945], [130.493363, 33.157183], [130.493439, 33.156432], [130.493488, 33.155704], [130.493551, 33.154886], [130.493633, 33.153945], [130.493701, 33.15307], [130.493752, 33.15241], [130.493796, 33.151838], [130.493845, 33.151177], [130.493902, 33.150539], [130.493951, 33.149799], [130.494006, 33.148735], [130.494061, 33.147961], [130.494037, 33.147042], [130.494065, 33.146112], [130.49404, 33.145294], [130.49401, 33.144521], [130.493962, 33.143735], [130.493852, 33.142638], [130.493647, 33.140924], [130.493488, 33.139535], [130.49318, 33.137315], [130.492398, 33.131304], [130.490788, 33.118862], [130.49018, 33.114388], [130.487083, 33.099973], [130.486327, 33.0959], [130.48587, 33.091305], [130.485908, 33.087216], [130.486323, 33.082952], [130.487127, 33.078479], [130.488349, 33.073167], [130.488548, 33.072257]]}, "properties": {"id": "GEOM_TOKYO_4026", "route_id": "R_059A5F85", "route_name": null, "route_color": "#DE4B39", "route_text_color": null, "line_name": "九州新幹線", "operator_id": "九州旅客鉄道", "representation": "service_path", "min_zoom": 0, "max_zoom": 24, "offset_rank": 0}}, {"type": "Feature", "bbox": [130.492272, 33.176724, 130.492523, 33.178664], "geometry": {"type": "LineString", "coordinates": [[130.492523, 33.178664], [130.492504, 33.178544], [130.492272, 33.176724]]}, "properties": {"id": "GEOM_TOKYO_4027", "route_id": "R_059A5F85", "route_name": null, "route_color": "#DE4B39", "route_text_color": null, "line_name": "九州新幹線", "operator_id": "九州旅客鉄道", "representation": "service_path", "min_zoom": 0, "max_zoom": 24, "offset_rank": 0}}, {"type": "Feature", "bbox": [130.500891, 33.319649, 130.501298, 33.321526], "geometry": {"type": "LineString", "coordinates": [[130.500891, 33.321526], [130.501048, 33.320784], [130.501298, 33.319649]]}, "properties": {"id": "GEOM_TOKYO_4028", "route_id": "R_059A5F85", "route_name": null, "route_color": "#DE4B39", "route_text_color": null, "line_name": "九州新幹線", "operator_id": "九州旅客鉄道", "representation": "service_path", "min_zoom": 0, "max_zoom": 24, "offset_rank": 0}}, {"type": "Feature", "bbox": [130.492523, 33.178664, 130.503621, 33.319649], "geometry": {"type": "LineString", "coordinates": [[130.501298, 33.319649], [130.501413, 33.319126], [130.501822, 33.317177], [130.502108, 33.315718], [130.50222, 33.315214], [130.502537, 33.313707], [130.502597, 33.313395], [130.50276, 33.312671], [130.502837, 33.312208], [130.503065, 33.311102], [130.50321, 33.31025], [130.50331, 33.309375], [130.503407, 33.308491], [130.503521, 33.307023], [130.503589, 33.305632], [130.503621, 33.304243], [130.50362, 33.303122], [130.503612, 33.301822], [130.503604, 33.300667], [130.503609, 33.299333], [130.503609, 33.298167], [130.503606, 33.296666], [130.503606, 33.295187], [130.503615, 33.293472], [130.50361, 33.291623], [130.503608, 33.290054], [130.503611, 33.288943], [130.503611, 33.288059], [130.503599, 33.287104], [130.503572, 33.286087], [130.503566, 33.285053], [130.503499, 33.283812], [130.503394, 33.282242], [130.503289, 33.280247], [130.503236, 33.279028], [130.503115, 33.277569], [130.503023, 33.27573], [130.502916, 33.273871], [130.502902, 33.272714], [130.502879, 33.271271], [130.502877, 33.269814], [130.502907, 33.268367], [130.502897, 33.26701], [130.50291, 33.265822], [130.502896, 33.264623], [130.502882, 33.263972], [130.502865, 33.262964], [130.502793, 33.262123], [130.502707, 33.261316], [130.502607, 33.260519], [130.502562, 33.259857], [130.50244, 33.258895], [130.502261, 33.25783], [130.502088, 33.256667], [130.501872, 33.255266], [130.50157, 33.253017], [130.501452, 33.251928], [130.501366, 33.251221], [130.501311, 33.250002], [130.501247, 33.24907], [130.501215, 33.24758], [130.501165, 33.245854], [130.501147, 33.245067], [130.501138, 33.24425], [130.501084, 33.243065], [130.501042, 33.241552], [130.500973, 33.239938], [130.500931, 33.238246], [130.500874, 33.236229], [130.500858, 33.234526], [130.500833, 33.233403], [130.500779, 33.232204], [130.500718, 33.230792], [130.500689, 33.229458], [130.500663, 33.22901], [130.500659, 33.228595], [130.500632, 33.228136], [130.500609, 33.227677], [130.500567, 33.227329], [130.500567, 33.227061], [130.500539, 33.226566], [130.500499, 33.226118], [130.500432, 33.22557], [130.500379, 33.225145], [130.500293, 33.224584], [130.500213, 33.224036], [130.500082, 33.223196], [130.499977, 33.222545], [130.499858, 33.222053], [130.499755, 33.221493], [130.499639, 33.220865], [130.499542, 33.220126], [130.499391, 33.219286], [130.499281, 33.218591], [130.499157, 33.217818], [130.49902, 33.2171], [130.498876, 33.21626], [130.498739, 33.215543], [130.498668, 33.214904], [130.498471, 33.21394], [130.498313, 33.212842], [130.498018, 33.211285], [130.497879, 33.210421], [130.497694, 33.209357], [130.497544, 33.208472], [130.497379, 33.207385], [130.497187, 33.206287], [130.496981, 33.205189], [130.496789, 33.204057], [130.496603, 33.202835], [130.496308, 33.201244], [130.495324, 33.195438], [130.494766, 33.192274], [130.494027, 33.187782], [130.493603, 33.185222], [130.493031, 33.1818], [130.492523, 33.178664]]}, "properties": {"id": "GEOM_TOKYO_4029", "route_id": "R_059A5F85", "route_name": null, "route_color": "#DE4B39", "route_text_color": null, "line_name": "九州新幹線", "operator_id": "九州旅客鉄道", "representation": "service_path", "min_zoom": 0, "max_zoom": 24, "offset_rank": 0}}, {"type": "Feature", "bbox": [130.490587, 33.369566, 130.491608, 33.371307], "geometry": {"type": "LineString", "coordinates": [[130.490587, 33.371307], [130.490932, 33.370707], [130.491608, 33.369566]]}, "properties": {"id": "GEOM_TOKYO_4030", "route_id": "R_059A5F85", "route_name": null, "route_color": "#DE4B39", "route_text_color": null, "line_name": "九州新幹線", "operator_id": "九州旅客鉄道", "representation": "service_path", "min_zoom": 0, "max_zoom": 24, "offset_rank": 0}}, {"type": "Feature", "bbox": [130.491608, 33.321526, 130.500891, 33.369566], "geometry": {"type": "LineString", "coordinates": [[130.491608, 33.369566], [130.492074, 33.36878], [130.49322, 33.366778], [130.493818, 33.365764], [130.494418, 33.364724], [130.494865, 33.363892], [130.495251, 33.363008], [130.495624, 33.362125], [130.495931, 33.361174], [130.496132, 33.360432], [130.496319, 33.35947], [130.496439, 33.358754], [130.496497, 33.357865], [130.496537, 33.357038], [130.496568, 33.355769], [130.496475, 33.354617], [130.496462, 33.353812], [130.496392, 33.352609], [130.496365, 33.351703], [130.496309, 33.350221], [130.496231, 33.348676], [130.496212, 33.347668], [130.496183, 33.346703], [130.496183, 33.345741], [130.496239, 33.343219], [130.496329, 33.341244], [130.496409, 33.339489], [130.496439, 33.338266], [130.49652, 33.336059], [130.496642, 33.333348], [130.49673, 33.331778], [130.49684, 33.331126], [130.497, 33.330366], [130.497293, 33.329538], [130.497525, 33.329043], [130.497938, 33.328283], [130.498238, 33.327777], [130.498744, 33.326939], [130.499128, 33.326343], [130.499568, 33.325582], [130.499901, 33.324967], [130.500145, 33.324456], [130.500372, 33.323818], [130.500531, 33.323069], [130.500665, 33.322655], [130.500758, 33.322152], [130.500891, 33.321526]]}, "properties": {"id": "GEOM_TOKYO_4031", "route_id": "R_059A5F85", "route_name": null, "route_color": "#DE4B39", "route_text_color": null, "line_name": "九州新幹線", "operator_id": "九州旅客鉄道", "representation": "service_path", "min_zoom": 0, "max_zoom": 24, "offset_rank": 0}}, {"type": "Feature", "bbox": [130.42108, 33.58776, 130.42127, 33.59139], "geometry": {"type": "LineString", "coordinates": [[130.42108, 33.58776], [130.42127, 33.59139]]}, "properties": {"id": "GEOM_TOKYO_4032", "route_id": "R_059A5F85", "route_name": null, "route_color": "#DE4B39", "route_text_color": null, "line_name": "九州新幹線", "operator_id": "九州旅客鉄道", "representation": "service_path", "min_zoom": 0, "max_zoom": 24, "offset_rank": 0}}, {"type": "Feature", "bbox": [130.433941, 33.371307, 130.490587, 33.526592], "geometry": {"type": "LineString", "coordinates": [[130.433941, 33.526592], [130.434276, 33.525416], [130.435165, 33.522417], [130.435334, 33.521768], [130.438125, 33.512269], [130.440399, 33.504604], [130.441385, 33.501847], [130.442043, 33.500416], [130.442967, 33.498411], [130.443701, 33.496923], [130.444329, 33.495637], [130.444676, 33.49491], [130.445009, 33.494172], [130.445328, 33.493439], [130.445795, 33.492332], [130.446142, 33.491449], [130.446436, 33.490588], [130.446796, 33.489475], [130.447157, 33.48812], [130.447348, 33.487233], [130.447508, 33.48617], [130.44779, 33.484064], [130.447857, 33.483113], [130.447933, 33.482002], [130.447933, 33.481141], [130.447916, 33.479862], [130.44776, 33.477611], [130.447511, 33.475896], [130.447261, 33.474506], [130.446998, 33.473328], [130.446678, 33.471863], [130.446242, 33.469956], [130.445345, 33.465868], [130.445189, 33.465132], [130.445002, 33.463935], [130.444789, 33.462504], [130.44466, 33.461024], [130.444579, 33.460096], [130.444528, 33.459119], [130.444479, 33.457572], [130.444466, 33.456431], [130.444415, 33.454101], [130.444387, 33.450156], [130.444361, 33.447599], [130.444361, 33.445396], [130.444434, 33.44406], [130.444527, 33.442704], [130.444647, 33.441508], [130.444745, 33.440632], [130.444891, 33.439592], [130.444987, 33.438961], [130.445174, 33.43791], [130.445506, 33.436341], [130.445737, 33.435342], [130.446017, 33.434313], [130.446474, 33.432733], [130.447029, 33.431098], [130.447342, 33.430245], [130.447675, 33.429328], [130.448241, 33.428014], [130.448681, 33.427008], [130.449186, 33.425954], [130.4498, 33.424701], [130.45021, 33.423968], [130.450637, 33.423185], [130.451063, 33.422458], [130.45157, 33.421642], [130.451915, 33.421099], [130.452235, 33.420573], [130.452662, 33.419981], [130.453195, 33.419176], [130.453609, 33.4186], [130.454129, 33.417884], [130.454701, 33.417154], [130.455341, 33.416327], [130.455644, 33.415906], [130.456343, 33.41512], [130.45701, 33.414326], [130.45765, 33.413588], [130.45801, 33.413164], [130.458583, 33.412526], [130.459682, 33.411248], [130.460536, 33.410287], [130.461618, 33.409041], [130.462524, 33.40799], [130.463404, 33.407006], [130.464574, 33.405666], [130.46568, 33.40438], [130.466534, 33.403396], [130.467534, 33.402278], [130.468069, 33.401655], [130.468789, 33.400839], [130.469002, 33.40056], [130.469428, 33.400101], [130.470188, 33.399218], [130.471028, 33.398267], [130.472262, 33.396848], [130.473182, 33.395808], [130.473755, 33.395126], [130.474262, 33.394545], [130.474755, 33.393997], [130.475179, 33.393532], [130.475793, 33.392839], [130.476419, 33.392123], [130.477392, 33.390977], [130.478192, 33.390072], [130.478592, 33.389568], [130.479233, 33.388826], [130.47994, 33.387954], [130.480593, 33.387137], [130.4814, 33.386068], [130.482079, 33.385184], [130.482559, 33.384468], [130.483092, 33.383753], [130.484716, 33.381354], [130.485916, 33.379408], [130.487046, 33.377501], [130.48822, 33.375459], [130.489113, 33.373871], [130.490587, 33.371307]]}, "properties": {"id": "GEOM_TOKYO_4042", "route_id": "R_059A5F85", "route_name": null, "route_color": "#DE4B39", "route_text_color": null, "line_name": "九州新幹線", "operator_id": "九州旅客鉄道", "representation": "service_path", "min_zoom": 0, "max_zoom": 24, "offset_rank": 0}}]}