{"type": "FeatureCollection", "features": [{"type": "Feature", "bbox": [140.23155, 41.14581862, 140.51482012, 41.66529], "geometry": {"type": "LineString", "coordinates": [[140.51482012, 41.14581862], [140.51465, 41.14601], [140.51358, 41.1472], [140.51302, 41.14782], [140.51284, 41.14801], [140.51281, 41.14805], [140.51201, 41.14894], [140.51096, 41.15011], [140.51041, 41.15071], [140.50945, 41.1518], [140.50876, 41.15256], [140.50781, 41.15365], [140.50732, 41.15418], [140.50649, 41.15498], [140.50546, 41.1559], [140.50442, 41.15683], [140.50434, 41.1569], [140.50316, 41.15793], [140.50117, 41.15957], [140.50066, 41.16], [140.49994, 41.16056], [140.49907, 41.16123], [140.49773, 41.16222], [140.49691, 41.16284], [140.49648, 41.16311], [140.49557, 41.16377], [140.49458, 41.16436], [140.49418, 41.16462], [140.49367, 41.16494], [140.49308, 41.16526], [140.49211, 41.16582], [140.49134, 41.16625], [140.48973, 41.16712], [140.48902, 41.16746], [140.487, 41.16843], [140.48523, 41.16929], [140.48464, 41.16957], [140.48372, 41.17], [140.48293, 41.17036], [140.48183, 41.17077], [140.48153, 41.17088], [140.48052, 41.17127], [140.47944, 41.17167], [140.47772, 41.17228], [140.47685, 41.17257], [140.47572, 41.17296], [140.47401, 41.17349], [140.47295, 41.17381], [140.47069, 41.17441], [140.47012, 41.17454], [140.46872, 41.1749], [140.46542, 41.17575], [140.46501, 41.17586], [140.46299, 41.1764], [140.46168, 41.17672], [140.45998, 41.17717], [140.45919, 41.17739], [140.45819, 41.17765], [140.45563, 41.1783], [140.45285, 41.17901], [140.45088, 41.17951], [140.44808, 41.18023], [140.44764, 41.18034], [140.44542, 41.18092], [140.44437, 41.18119], [140.44102, 41.18213], [140.43855, 41.18286], [140.43765, 41.18315], [140.43557, 41.18391], [140.43506, 41.1841], [140.43391, 41.18451], [140.43195, 41.18526], [140.43054, 41.1858], [140.4291, 41.18642], [140.42823, 41.18682], [140.42745, 41.18721], [140.42599, 41.18795], [140.42529, 41.18832], [140.42396, 41.18903], [140.42173, 41.19024], [140.42021, 41.19114], [140.41758, 41.19269], [140.41621, 41.1935], [140.41591, 41.19368], [140.41312, 41.1953], [140.41066, 41.19676], [140.40853, 41.19799], [140.40722, 41.19877], [140.40652, 41.19919], [140.405, 41.20008], [140.40359, 41.20092], [140.40184, 41.20195], [140.39984, 41.20314], [140.39825, 41.20406], [140.39773, 41.20436], [140.39582, 41.20549], [140.39459, 41.20622], [140.39371, 41.20672], [140.3915, 41.20803], [140.38962, 41.20915], [140.38927, 41.20935], [140.38743, 41.21044], [140.38514, 41.21177], [140.38381, 41.21257], [140.38176, 41.21376], [140.38029, 41.21463], [140.37945, 41.21513], [140.3777, 41.21614], [140.37633, 41.21697], [140.37533, 41.21759], [140.37429, 41.21824], [140.37308, 41.21903], [140.37193, 41.21982], [140.37149, 41.22011], [140.37037, 41.22099], [140.36971, 41.2215], [140.36885, 41.22217], [140.36707, 41.22367], [140.36598, 41.22464], [140.36495, 41.22559], [140.36434, 41.22617], [140.3639, 41.22657], [140.36293, 41.22756], [140.36231, 41.2282], [140.36198, 41.22854], [140.36172, 41.22884], [140.36129, 41.22929], [140.36038, 41.23031], [140.35986, 41.23094], [140.35899, 41.23199], [140.35881, 41.23221], [140.35835, 41.23277], [140.35747, 41.23395], [140.35694, 41.23467], [140.35663, 41.2351], [140.35629, 41.23555], [140.35584, 41.23625], [140.35553, 41.23673], [140.35513, 41.23736], [140.35404, 41.23919], [140.35351, 41.24012], [140.3534, 41.24032], [140.35278, 41.24152], [140.35219, 41.24277], [140.35175, 41.24374], [140.35145, 41.2445], [140.35108, 41.24535], [140.35058, 41.24667], [140.35022, 41.24769], [140.34991, 41.24863], [140.34972, 41.2492], [140.34941, 41.25023], [140.34915, 41.25115], [140.34881, 41.25261], [140.34849, 41.25406], [140.34816, 41.25579], [140.34787, 41.25808], [140.34776, 41.25936], [140.34771, 41.26029], [140.34768, 41.26162], [140.3477, 41.26271], [140.3477, 41.26348], [140.34773, 41.26411], [140.34808, 41.27312], [140.34842, 41.28194], [140.34841, 41.28213], [140.34823, 41.28645], [140.34762, 41.29083], [140.34754, 41.29111], [140.34652, 41.2952], [140.345, 41.29962], [140.34489, 41.29986], [140.34307, 41.30383], [140.34067, 41.30796], [140.34054, 41.30814], [140.33788, 41.31192], [140.33465, 41.31577], [140.32976, 41.3213], [140.32329, 41.32862], [140.31682, 41.33595], [140.31204, 41.34135], [140.30555, 41.34866], [140.3041, 41.35034], [140.30224, 41.35269], [140.25553, 41.41926], [140.2553, 41.41956], [140.25487, 41.42016], [140.2539, 41.42153], [140.25303, 41.42278], [140.25233, 41.42378], [140.252, 41.42427], [140.25163, 41.42478], [140.25094, 41.42577], [140.25037, 41.42658], [140.24949, 41.42782], [140.24824, 41.4296], [140.24716, 41.43115], [140.24649, 41.43209], [140.24624, 41.4324], [140.24577, 41.433], [140.24542, 41.4335], [140.24492, 41.43425], [140.24473, 41.43448], [140.24445, 41.43488], [140.2433, 41.43653], [140.24249, 41.43771], [140.24073, 41.44022], [140.23935, 41.4423], [140.23891, 41.44297], [140.23855, 41.44359], [140.23829, 41.44406], [140.238, 41.44451], [140.23755, 41.44531], [140.23653, 41.44726], [140.23569, 41.44907], [140.23505, 41.4506], [140.23505, 41.45061], [140.2345, 41.45202], [140.23429, 41.4526], [140.23399, 41.45349], [140.23364, 41.45457], [140.23318, 41.45619], [140.23269, 41.45832], [140.23248, 41.45935], [140.2323, 41.46027], [140.2321, 41.46139], [140.23198, 41.46216], [140.23182, 41.46335], [140.23174, 41.46429], [140.23168, 41.465], [140.23164, 41.46587], [140.23159, 41.46682], [140.23155, 41.46774], [140.23156, 41.46833], [140.23156, 41.46853], [140.23159, 41.4694], [140.23165, 41.47067], [140.2317, 41.4715], [140.23181, 41.47246], [140.23192, 41.47327], [140.23201, 41.4738], [140.23213, 41.47458], [140.23225, 41.47528], [140.23236, 41.47581], [140.23253, 41.4766], [140.2327, 41.47728], [140.23277, 41.47756], [140.23309, 41.47892], [140.23324, 41.47952], [140.23332, 41.47982], [140.23385, 41.48153], [140.23466, 41.48388], [140.23538, 41.48562], [140.23554, 41.48598], [140.23616, 41.48738], [140.23689, 41.48884], [140.23755, 41.4901], [140.23878, 41.49224], [140.23994, 41.49396], [140.2401, 41.49419], [140.24121, 41.49577], [140.24272, 41.49768], [140.2451, 41.50074], [140.24595, 41.50184], [140.24648, 41.50255], [140.2465, 41.50257], [140.24651, 41.50258], [140.24747, 41.50376], [140.24769, 41.50404], [140.24996, 41.50687], [140.25354, 41.51136], [140.25373, 41.5116], [140.25616, 41.51463], [140.2576, 41.51645], [140.25978, 41.51916], [140.26048, 41.52004], [140.26265, 41.52279], [140.26514, 41.52587], [140.26581, 41.52672], [140.26853, 41.53014], [140.27072, 41.53285], [140.27184, 41.53428], [140.27248, 41.53509], [140.27515, 41.53843], [140.27716, 41.54097], [140.27787, 41.54185], [140.27895, 41.5432], [140.28107, 41.54586], [140.28265, 41.54783], [140.28391, 41.54941], [140.28434, 41.54995], [140.28602, 41.55209], [140.28705, 41.55337], [140.28862, 41.55533], [140.28972, 41.55673], [140.28993, 41.55698], [140.29081, 41.55809], [140.29212, 41.55977], [140.29381, 41.56183], [140.29577, 41.56433], [140.29595, 41.56455], [140.2973, 41.56623], [140.29864, 41.56792], [140.29985, 41.56944], [140.30115, 41.57107], [140.30198, 41.57211], [140.30267, 41.57298], [140.30394, 41.57459], [140.30503, 41.57595], [140.30617, 41.57737], [140.30732, 41.57883], [140.30802, 41.57967], [140.30835, 41.58006], [140.3089, 41.58067], [140.30972, 41.58157], [140.31057, 41.58241], [140.31142, 41.58324], [140.3128, 41.58451], [140.31317, 41.58482], [140.31393, 41.58552], [140.31442, 41.58591], [140.3145, 41.58597], [140.31953, 41.59037], [140.32185, 41.59226], [140.32314, 41.59322], [140.32523, 41.59477], [140.3266, 41.59565], [140.32798, 41.59655], [140.32951, 41.59752], [140.33034, 41.59805], [140.33148, 41.59877], [140.33202, 41.59911], [140.33341, 41.59999], [140.33462, 41.60076], [140.33518, 41.60113], [140.33687, 41.60219], [140.33835, 41.60315], [140.34021, 41.60433], [140.34102, 41.60484], [140.34212, 41.60555], [140.34433, 41.60695], [140.34687, 41.60857], [140.34738, 41.60887], [140.34905, 41.60993], [140.35052, 41.61086], [140.35335, 41.61268], [140.35463, 41.61348], [140.35611, 41.61443], [140.35726, 41.61516], [140.35915, 41.61636], [140.36188, 41.61811], [140.36235, 41.61846], [140.36423, 41.61964], [140.36842, 41.62229], [140.37147, 41.62423], [140.37162, 41.62433], [140.37211, 41.62464], [140.37306, 41.62524], [140.37437, 41.6261], [140.37532, 41.62672], [140.37638, 41.62741], [140.37801, 41.62855], [140.37958, 41.62975], [140.38051, 41.63051], [140.38064, 41.63061], [140.38184, 41.63163], [140.3826, 41.63228], [140.3827, 41.63236], [140.38552, 41.63488], [140.38593, 41.63525], [140.38697, 41.6362], [140.3884, 41.63749], [140.38932, 41.63831], [140.39081, 41.63965], [140.39183, 41.64057], [140.39337, 41.64193], [140.39345, 41.64201], [140.39423, 41.6427], [140.395, 41.64338], [140.39571, 41.64402], [140.39673, 41.64493], [140.39762, 41.64572], [140.39842, 41.64646], [140.39982, 41.6477], [140.40108, 41.64882], [140.40186, 41.64954], [140.40266, 41.65025], [140.40357, 41.65104], [140.40426, 41.65165], [140.40459, 41.65196], [140.40556, 41.65283], [140.40688, 41.65402], [140.40763, 41.65469], [140.4077, 41.65475], [140.40819, 41.6552], [140.40904, 41.65596], [140.40953, 41.6564], [140.41006, 41.65687], [140.41017, 41.65697], [140.41114, 41.65783], [140.41201, 41.65862], [140.41256, 41.65911], [140.41318, 41.65966], [140.41369, 41.66014], [140.41422, 41.6606], [140.41495, 41.66124], [140.41537, 41.66162], [140.41587, 41.66207], [140.41655, 41.6627], [140.41705, 41.66314], [140.4176, 41.66365], [140.41844, 41.6644], [140.41945, 41.66529]]}, "properties": {"id": "GEOM_TOKYO_4543", "route_id": "R_3BC39710", "route_name": null, "route_color": "#3F8BD8", "route_text_color": null, "line_name": "北海道新幹線", "operator_id": "jr_hokkaido", "representation": "service_path", "min_zoom": 0, "max_zoom": 24, "offset_rank": 0}}, {"type": "Feature", "bbox": [140.41945, 41.66529, 140.43315833, 41.67758401], "geometry": {"type": "LineString", "coordinates": [[140.41945, 41.66529], [140.42365, 41.6691], [140.42417126, 41.66956865], [140.42821171, 41.67320132], [140.43114835, 41.67582554], [140.43315833, 41.67758401]]}, "properties": {"id": "GEOM_TOKYO_4544", "route_id": "R_3BC39710", "route_name": null, "route_color": "#3F8BD8", "route_text_color": null, "line_name": "北海道新幹線", "operator_id": "jr_hokkaido", "representation": "service_path", "min_zoom": 0, "max_zoom": 24, "offset_rank": 0}}, {"type": "Feature", "bbox": [140.43514568, 41.67937263, 140.68288069, 41.9042318], "geometry": {"type": "LineString", "coordinates": [[140.43514568, 41.67937263], [140.43793243, 41.68189612], [140.44034879, 41.68404685], [140.44750826, 41.69045772], [140.45515665, 41.69728239], [140.45971591, 41.70136282], [140.46936822, 41.70999045], [140.4717952, 41.71215214], [140.47820493, 41.717876], [140.47961481, 41.71914635], [140.48052095, 41.71997769], [140.48136202, 41.72076386], [140.48272775, 41.72207802], [140.48422254, 41.7235651], [140.48563633, 41.7250113], [140.48878569, 41.72821789], [140.4911382, 41.73061792], [140.49596859, 41.73552751], [140.49693395, 41.73648576], [140.49772152, 41.73723982], [140.49830319, 41.73778828], [140.49943077, 41.7388103], [140.50029179, 41.73955185], [140.50088691, 41.74005662], [140.50162966, 41.74067247], [140.50259647, 41.74144321], [140.50319107, 41.74190294], [140.50401862, 41.74252509], [140.50481594, 41.74310796], [140.50578236, 41.74379849], [140.50662937, 41.74438124], [140.50770586, 41.74509685], [140.50833021, 41.74549169], [140.50903225, 41.74594739], [140.51006106, 41.74657246], [140.51056914, 41.74687675], [140.51150603, 41.7474219], [140.51260447, 41.74804577], [140.51340594, 41.74847672], [140.51425094, 41.74892572], [140.51501493, 41.74932883], [140.51564381, 41.74963852], [140.51638524, 41.75001319], [140.51791854, 41.75073618], [140.51900354, 41.75123334], [140.52066046, 41.75195234], [140.52179157, 41.75241687], [140.52338381, 41.75305376], [140.52461138, 41.75351224], [140.52583242, 41.75395362], [140.5279592, 41.75468617], [140.52950171, 41.755212], [140.5304307, 41.75552389], [140.53295213, 41.75638486], [140.53463262, 41.75694761], [140.5366429, 41.75763245], [140.5396359, 41.75864803], [140.54488871, 41.76042797], [140.54608524, 41.76084221], [140.54732139, 41.76128695], [140.54923695, 41.76200325], [140.55080192, 41.76263426], [140.55234011, 41.76328117], [140.55350552, 41.76379444], [140.55501576, 41.76449146], [140.55649676, 41.76520878], [140.55837541, 41.76617502], [140.55970279, 41.76689366], [140.56119244, 41.76774373], [140.5619152, 41.76816768], [140.56336236, 41.76904852], [140.56504448, 41.77013625], [140.56602977, 41.77079548], [140.5670203, 41.77149524], [140.5679798, 41.77219028], [140.56917154, 41.77308136], [140.57009015, 41.77379717], [140.57067001, 41.7742647], [140.57127533, 41.77476278], [140.57186943, 41.77526105], [140.57303166, 41.77626914], [140.57383586, 41.77699894], [140.57450625, 41.77762627], [140.57540084, 41.77848432], [140.57613748, 41.77921645], [140.57681285, 41.77991927], [140.57727822, 41.78040551], [140.57761647, 41.78077387], [140.57795627, 41.78115108], [140.57914852, 41.78250328], [140.58007205, 41.78361664], [140.58075009, 41.78446713], [140.58142818, 41.78535437], [140.58206635, 41.78621557], [140.58291683, 41.78736982], [140.58377548, 41.78854853], [140.58544698, 41.79083443], [140.58761449, 41.79380567], [140.58923687, 41.79603259], [140.5908103, 41.79818593], [140.59167603, 41.79938022], [140.59280614, 41.80092411], [140.59367514, 41.80211033], [140.59542292, 41.80450498], [140.59689108, 41.80651877], [140.59804103, 41.80807461], [140.59850903, 41.80869421], [140.59889496, 41.80918977], [140.59938666, 41.80981519], [140.60020306, 41.81082069], [140.60097572, 41.81172672], [140.60148057, 41.81229657], [140.60192232, 41.81279286], [140.60257929, 41.81350422], [140.60313525, 41.8140802], [140.60386041, 41.81482652], [140.6046985, 41.81564998], [140.60549505, 41.81641117], [140.60638721, 41.81722439], [140.60697799, 41.81774981], [140.60748687, 41.81818816], [140.608371, 41.81894438], [140.60875888, 41.81925429], [140.60944129, 41.81981403], [140.61021167, 41.82041371], [140.61100846, 41.82103288], [140.61195209, 41.82172919], [140.61262997, 41.82221545], [140.61356867, 41.82287701], [140.61465688, 41.82361], [140.61571835, 41.82429671], [140.61659567, 41.82484945], [140.61790903, 41.82565366], [140.61958103, 41.82663655], [140.62123008, 41.82759259], [140.62286279, 41.82853644], [140.62464049, 41.82956803], [140.6265385, 41.83066752], [140.62913541, 41.83217282], [140.63084549, 41.8331605], [140.64038688, 41.83868797], [140.64685285, 41.84243365], [140.65051948, 41.84456023], [140.65401018, 41.84657727], [140.65953872, 41.84977937], [140.66333091, 41.85197558], [140.66652759, 41.85382754], [140.66863541, 41.85505659], [140.66937104, 41.85550126], [140.67000793, 41.85589684], [140.67064593, 41.85630674], [140.67126872, 41.85673127], [140.67185885, 41.85714337], [140.67250355, 41.85762088], [140.67320385, 41.85816572], [140.67409691, 41.85891161], [140.67463528, 41.85939297], [140.67503431, 41.85975902], [140.67546629, 41.86017003], [140.67620408, 41.86092086], [140.67664406, 41.86140008], [140.6771122, 41.86192658], [140.67746757, 41.86234329], [140.67797985, 41.86298372], [140.67864451, 41.86387334], [140.67897976, 41.86435781], [140.6794248, 41.86503325], [140.67990988, 41.86584375], [140.68021479, 41.86637522], [140.68059831, 41.86712016], [140.68085112, 41.86764724], [140.68121192, 41.86845466], [140.68151829, 41.86920078], [140.68180612, 41.87002966], [140.68199244, 41.87062408], [140.68217198, 41.87124601], [140.68231869, 41.87182042], [140.68242496, 41.87229322], [140.6825841, 41.87311215], [140.68270198, 41.87388852], [140.68278741, 41.87455435], [140.68284971, 41.87530714], [140.68287713, 41.87605529], [140.68288069, 41.87694584], [140.68284678, 41.87782193], [140.68278379, 41.87857794], [140.68271438, 41.8791876], [140.68259081, 41.87999203], [140.68241148, 41.88091171], [140.68225228, 41.88159713], [140.68207595, 41.8822526], [140.68180308, 41.88312162], [140.68157589, 41.88377518], [140.6811743, 41.88478164], [140.68077759, 41.88565962], [140.68047071, 41.88627698], [140.68013309, 41.88690388], [140.67963695, 41.88775324], [140.67936882, 41.88818576], [140.67889316, 41.88890635], [140.67860493, 41.88932508], [140.6783357, 41.88968055], [140.67786561, 41.89029674], [140.6773596, 41.89092283], [140.676614, 41.89176982], [140.67624396, 41.89217593], [140.67557264, 41.89285295], [140.67508549, 41.89332907], [140.67456484, 41.89381139], [140.673734, 41.8945299], [140.67310378, 41.89504178], [140.67272066, 41.89534541], [140.67183796, 41.89600645], [140.67090318, 41.89665864], [140.66983702, 41.89734405], [140.66913098, 41.89776585], [140.66840416, 41.89818593], [140.667989, 41.89841919], [140.66758665, 41.89863203], [140.6669254, 41.89897384], [140.66599996, 41.89942329], [140.66530657, 41.89973981], [140.66462741, 41.90003479], [140.6638669, 41.90035268], [140.66281159, 41.90076065], [140.66155085, 41.90120268], [140.66089566, 41.90142212], [140.65999613, 41.90169611], [140.6591292, 41.90194247], [140.65823284, 41.90218541], [140.65705638, 41.90249776], [140.65553526, 41.90288921], [140.6538913, 41.90330907], [140.65241332, 41.90368887], [140.65151111, 41.90392076], [140.65020234, 41.9042318]]}, "properties": {"id": "GEOM_TOKYO_4545", "route_id": "R_3BC39710", "route_name": null, "route_color": "#3F8BD8", "route_text_color": null, "line_name": "北海道新幹線", "operator_id": "jr_hokkaido", "representation": "service_path", "min_zoom": 0, "max_zoom": 24, "offset_rank": 0}}, {"type": "Feature", "bbox": [140.43315833, 41.67758401, 140.43514568, 41.67937263], "geometry": {"type": "LineString", "coordinates": [[140.43315833, 41.67758401], [140.43514568, 41.67937263]]}, "properties": {"id": "GEOM_TOKYO_4546", "route_id": "R_3BC39710", "route_name": null, "route_color": "#3F8BD8", "route_text_color": null, "line_name": "北海道新幹線", "operator_id": "jr_hokkaido", "representation": "service_path", "min_zoom": 0, "max_zoom": 24, "offset_rank": 0}}]}