{"type": "FeatureCollection", "features": [{"type": "Feature", "bbox": [140.38904, 37.40043, 140.4759, 37.75232], "geometry": {"type": "LineString", "coordinates": [[140.45857, 37.75232], [140.45856, 37.74868], [140.45855, 37.74455], [140.45854, 37.74453], [140.45854, 37.74435], [140.45851, 37.74002], [140.45848, 37.73967], [140.45843, 37.73914], [140.45842, 37.73901], [140.45841, 37.73895], [140.4584, 37.73882], [140.45836, 37.73852], [140.45823, 37.7378], [140.45811, 37.73718], [140.45769, 37.73488], [140.45763, 37.73463], [140.45741, 37.73343], [140.45732, 37.73294], [140.45728, 37.73273], [140.45723, 37.73246], [140.45698, 37.73119], [140.45689, 37.7307], [140.45672, 37.72985], [140.45657, 37.72911], [140.45642, 37.72835], [140.45638, 37.72823], [140.45637, 37.72817], [140.45631, 37.72785], [140.45618, 37.72725], [140.45597, 37.72619], [140.45563, 37.72451], [140.45555, 37.72404], [140.45548, 37.72363], [140.4552, 37.72214], [140.45509, 37.72155], [140.45467, 37.71931], [140.45448, 37.71833], [140.45444, 37.71811], [140.4543, 37.71734], [140.45409, 37.71622], [140.454, 37.71572], [140.45392, 37.71532], [140.45389, 37.71513], [140.45386, 37.71497], [140.4538, 37.71462], [140.45379, 37.71459], [140.45368, 37.71385], [140.45362, 37.71343], [140.45355, 37.71294], [140.45346, 37.71186], [140.45339, 37.71037], [140.45336, 37.7097], [140.45334, 37.70947], [140.45333, 37.70884], [140.45337, 37.708], [140.45342, 37.70736], [140.45343, 37.70729], [140.45355, 37.70614], [140.45355, 37.7061], [140.45359, 37.70565], [140.45361, 37.70559], [140.45366, 37.70504], [140.45374, 37.70434], [140.45388, 37.70365], [140.45398, 37.70327], [140.45413, 37.70274], [140.45428, 37.70231], [140.45453, 37.7016], [140.45488, 37.70067], [140.45516, 37.7], [140.45537, 37.69958], [140.45563, 37.69907], [140.45586, 37.69867], [140.45639, 37.69769], [140.45671, 37.69712], [140.45715, 37.69634], [140.45741, 37.69587], [140.45748, 37.69573], [140.4579, 37.69495], [140.45814, 37.69452], [140.45843, 37.69396], [140.45873, 37.69346], [140.45902, 37.6929], [140.45924, 37.69248], [140.45967, 37.69169], [140.46024, 37.69066], [140.4605, 37.69019], [140.46086, 37.68953], [140.46115, 37.68901], [140.46154, 37.68829], [140.46187, 37.68768], [140.46189, 37.68763], [140.4621, 37.68724], [140.46271, 37.68613], [140.46304, 37.68555], [140.46378, 37.68417], [140.46395, 37.6839], [140.46427, 37.6833], [140.4645, 37.68287], [140.46489, 37.68218], [140.46509, 37.68166], [140.46525, 37.68134], [140.46566, 37.68072], [140.46615, 37.67982], [140.46637, 37.67939], [140.46646, 37.67923], [140.46682, 37.67864], [140.46705, 37.67816], [140.46749, 37.67728], [140.46771, 37.67684], [140.46782, 37.67665], [140.46818, 37.67595], [140.46857, 37.67522], [140.46879, 37.6748], [140.46929, 37.67385], [140.46949, 37.6735], [140.46965, 37.6732], [140.46988, 37.67274], [140.47015, 37.67226], [140.47042, 37.67172], [140.47075, 37.67111], [140.47089, 37.67083], [140.4713, 37.67009], [140.47151, 37.66969], [140.4728, 37.66739], [140.47331, 37.66639], [140.4734, 37.66617], [140.47384, 37.66512], [140.47404, 37.66463], [140.47443, 37.66333], [140.47496, 37.66165], [140.4753, 37.66005], [140.47561, 37.65829], [140.4757, 37.65738], [140.47572, 37.65708], [140.47589, 37.65544], [140.4759, 37.65441], [140.47577, 37.653], [140.47564, 37.65125], [140.47537, 37.64839], [140.47534, 37.64818], [140.47532, 37.64798], [140.47529, 37.64764], [140.47523, 37.64708], [140.47504, 37.64535], [140.47457, 37.64045], [140.47439, 37.63882], [140.47433, 37.63809], [140.47412, 37.63591], [140.47391, 37.6342], [140.47379, 37.63325], [140.47358, 37.63083], [140.47339, 37.62911], [140.47329, 37.62817], [140.4732, 37.62718], [140.47307, 37.62567], [140.47301, 37.62499], [140.4727, 37.62203], [140.4725, 37.62012], [140.47238, 37.61908], [140.47183, 37.61318], [140.47161, 37.61114], [140.47151, 37.61021], [140.47096, 37.60533], [140.47073, 37.60215], [140.47048, 37.59966], [140.47035, 37.59832], [140.46982, 37.59319], [140.46981, 37.59305], [140.4697, 37.59209], [140.46968, 37.59195], [140.4694, 37.58937], [140.46897, 37.58657], [140.46892, 37.58636], [140.46859, 37.58507], [140.46825, 37.58381], [140.46814, 37.58349], [140.46804, 37.5832], [140.46794, 37.58291], [140.46716, 37.58078], [140.46692, 37.58023], [140.46599, 37.57853], [140.46525, 37.57717], [140.46478, 37.57631], [140.46439, 37.57561], [140.46415, 37.5752], [140.46296, 37.57307], [140.46287, 37.57289], [140.46247, 37.57215], [140.46187, 37.57104], [140.46101, 37.56946], [140.45945, 37.56657], [140.45898, 37.56571], [140.4584, 37.56464], [140.45822, 37.56429], [140.4571, 37.56225], [140.45483, 37.55809], [140.45371, 37.55603], [140.45343, 37.55552], [140.45269, 37.55417], [140.45244, 37.55372], [140.45127, 37.55155], [140.45062, 37.55038], [140.45047, 37.55011], [140.44974, 37.54875], [140.44905, 37.54746], [140.44822, 37.54596], [140.44732, 37.54427], [140.44683, 37.5434], [140.44626, 37.54231], [140.44523, 37.54041], [140.4448, 37.53962], [140.44358, 37.5374], [140.44333, 37.5369], [140.44196, 37.53438], [140.44079, 37.53221], [140.44061, 37.5319], [140.43967, 37.53013], [140.43895, 37.52877], [140.43814, 37.5273], [140.43705, 37.52528], [140.43648, 37.52424], [140.43551, 37.52244], [140.4352, 37.52189], [140.43489, 37.5213], [140.43453, 37.52062], [140.43391, 37.51949], [140.43341, 37.51857], [140.43193, 37.51592], [140.43151, 37.51513], [140.43099, 37.51415], [140.43081, 37.51375], [140.4305, 37.51307], [140.43023, 37.51235], [140.42988, 37.51151], [140.42944, 37.51044], [140.429, 37.50935], [140.42814, 37.50724], [140.42736, 37.50536], [140.42675, 37.50385], [140.42641, 37.50304], [140.42626, 37.50266], [140.42613, 37.50234], [140.42559, 37.50093], [140.42547, 37.50063], [140.42515, 37.49981], [140.42461, 37.49841], [140.42428, 37.49749], [140.42414, 37.49717], [140.42391, 37.49661], [140.42367, 37.49599], [140.42327, 37.495], [140.42274, 37.49365], [140.42213, 37.49207], [140.42178, 37.49118], [140.42104, 37.48929], [140.42064, 37.48824], [140.41935, 37.48487], [140.4185, 37.48265], [140.41792, 37.48119], [140.41775, 37.48076], [140.41733, 37.47966], [140.41684, 37.47838], [140.41553, 37.47501], [140.41545, 37.4748], [140.41534, 37.4745], [140.41448, 37.4723], [140.41431, 37.47184], [140.41312, 37.4688], [140.41216, 37.46635], [140.41211, 37.4662], [140.411, 37.46335], [140.41057, 37.46224], [140.41001, 37.46078], [140.40875, 37.45761], [140.40816, 37.45603], [140.40798, 37.45559], [140.40679, 37.45251], [140.40653, 37.45183], [140.40622, 37.45104], [140.40551, 37.44922], [140.40522, 37.44844], [140.40423, 37.4459], [140.40404, 37.44539], [140.40385, 37.44489], [140.40345, 37.44387], [140.40274, 37.44203], [140.40254, 37.44148], [140.40176, 37.43934], [140.40147, 37.43856], [140.40114, 37.43769], [140.40081, 37.43677], [140.40053, 37.43599], [140.4, 37.4345], [140.3995, 37.43305], [140.39939, 37.43272], [140.39897, 37.4314], [140.39867, 37.43042], [140.39809, 37.4287], [140.39763, 37.42722], [140.39747, 37.42671], [140.39728, 37.42615], [140.39667, 37.42434], [140.39636, 37.42335], [140.39623, 37.42298], [140.39513, 37.41971], [140.39468, 37.41848], [140.39385, 37.41582], [140.39324, 37.41391], [140.39223, 37.41077], [140.39151, 37.4086], [140.39122, 37.40779], [140.39039, 37.4052], [140.39024, 37.40473], [140.39007, 37.40421], [140.38904, 37.40043]]}, "properties": {"id": "GEOM_TOKYO_2992", "route_id": "R_86450D72", "route_name": null, "route_color": null, "route_text_color": null, "representation": "service_path", "min_zoom": 0, "max_zoom": 24, "offset_rank": 0}}, {"type": "Feature", "bbox": [140.44474, 37.68304, 140.44913, 37.68898], "geometry": {"type": "LineString", "coordinates": [[140.4448, 37.68898], [140.44475, 37.6886], [140.44474, 37.68835], [140.44475, 37.68784], [140.44478, 37.68755], [140.44482, 37.68724], [140.44486, 37.68694], [140.44488, 37.6869], [140.44491, 37.68681], [140.445, 37.68656], [140.44514, 37.68617], [140.4453, 37.6859], [140.44546, 37.68558], [140.4456, 37.68538], [140.44582, 37.68512], [140.44614, 37.68478], [140.44631, 37.68461], [140.44667, 37.68434], [140.44803, 37.68353], [140.44834, 37.68338], [140.44855, 37.68329], [140.44913, 37.68304]]}, "properties": {"id": "GEOM_TOKYO_3144", "route_id": "R_20E64CE3", "route_name": null, "route_color": null, "route_text_color": null, "representation": "service_path", "min_zoom": 0, "max_zoom": 24, "offset_rank": 0}}, {"type": "Feature", "bbox": [140.45249, 37.67729, 140.46035, 37.68007], "geometry": {"type": "LineString", "coordinates": [[140.45249, 37.68007], [140.45268, 37.6798], [140.45281, 37.67964], [140.453, 37.67935], [140.45313, 37.67918], [140.45323, 37.67908], [140.45347, 37.6789], [140.45451, 37.67816], [140.45487, 37.67793], [140.45524, 37.67774], [140.45529, 37.67772], [140.45549, 37.67765], [140.45568, 37.67759], [140.45593, 37.67751], [140.45635, 37.6774], [140.45638, 37.67739], [140.45668, 37.67734], [140.45714, 37.67729], [140.45744, 37.67729], [140.45838, 37.67731], [140.45897, 37.67734], [140.45915, 37.67735], [140.45972, 37.67739], [140.46035, 37.67737]]}, "properties": {"id": "GEOM_TOKYO_3146", "route_id": "R_20E64CE3", "route_name": null, "route_color": null, "route_text_color": null, "representation": "service_path", "min_zoom": 0, "max_zoom": 24, "offset_rank": 0}}, {"type": "Feature", "bbox": [140.45604, 37.72487, 140.46051, 37.74959], "geometry": {"type": "LineString", "coordinates": [[140.45604, 37.72487], [140.45611, 37.72522], [140.45621, 37.72571], [140.45629, 37.72607], [140.45631, 37.72616], [140.45638, 37.72652], [140.45641, 37.72669], [140.45648, 37.72699], [140.4566, 37.7276], [140.45665, 37.72787], [140.45676, 37.72841], [140.45684, 37.72882], [140.45694, 37.72937], [140.45697, 37.72948], [140.45706, 37.72991], [140.4573, 37.73116], [140.45738, 37.73153], [140.45741, 37.73174], [140.45757, 37.73252], [140.4576, 37.73263], [140.45764, 37.73283], [140.45769, 37.73305], [140.45781, 37.7337], [140.45784, 37.73384], [140.45791, 37.73412], [140.45798, 37.73452], [140.45815, 37.73536], [140.45837, 37.73646], [140.45853, 37.73732], [140.45855, 37.73741], [140.45871, 37.73821], [140.45874, 37.73838], [140.45877, 37.73857], [140.45883, 37.73889], [140.45904, 37.73994], [140.45915, 37.74048], [140.45932, 37.74138], [140.45934, 37.74142], [140.45942, 37.74181], [140.45947, 37.74213], [140.45962, 37.74289], [140.45966, 37.74306], [140.45966, 37.74309], [140.45969, 37.74326], [140.45973, 37.74349], [140.45975, 37.74359], [140.4598, 37.7438], [140.45984, 37.74405], [140.4599, 37.74437], [140.46001, 37.74498], [140.46017, 37.74572], [140.46018, 37.74576], [140.46022, 37.74597], [140.46034, 37.74661], [140.46043, 37.74703], [140.46047, 37.74735], [140.46049, 37.74751], [140.46051, 37.74787], [140.46049, 37.74857], [140.46049, 37.74871], [140.46048, 37.74877], [140.4604, 37.74959]]}, "properties": {"id": "GEOM_TOKYO_3148", "route_id": "R_20E64CE3", "route_name": null, "route_color": null, "route_text_color": null, "representation": "service_path", "min_zoom": 0, "max_zoom": 24, "offset_rank": 0}}, {"type": "Feature", "bbox": [140.44913, 37.68135, 140.45152, 37.68304], "geometry": {"type": "LineString", "coordinates": [[140.44913, 37.68304], [140.44973, 37.68279], [140.44997, 37.68268], [140.45016, 37.68258], [140.45019, 37.68256], [140.45057, 37.68227], [140.45105, 37.68187], [140.45123, 37.6817], [140.45152, 37.68135]]}, "properties": {"id": "GEOM_TOKYO_3152", "route_id": "R_20E64CE3", "route_name": null, "route_color": null, "route_text_color": null, "representation": "service_path", "min_zoom": 0, "max_zoom": 24, "offset_rank": 0}}, {"type": "Feature", "bbox": [140.45563, 37.72276, 140.45604, 37.72487], "geometry": {"type": "LineString", "coordinates": [[140.45563, 37.72276], [140.45604, 37.72487]]}, "properties": {"id": "GEOM_TOKYO_3153", "route_id": "R_20E64CE3", "route_name": null, "route_color": null, "route_text_color": null, "representation": "service_path", "min_zoom": 0, "max_zoom": 24, "offset_rank": 0}}, {"type": "Feature", "bbox": [140.44429, 37.68304, 140.44913, 37.68898], "geometry": {"type": "LineString", "coordinates": [[140.4448, 37.68898], [140.44459, 37.68838], [140.44452, 37.6882], [140.4444, 37.68779], [140.44437, 37.68757], [140.44429, 37.68703], [140.44429, 37.68651], [140.44431, 37.68616], [140.44436, 37.68602], [140.44443, 37.68586], [140.44452, 37.68562], [140.44471, 37.68518], [140.44492, 37.68485], [140.44509, 37.68464], [140.44525, 37.68447], [140.44549, 37.68424], [140.44569, 37.68412], [140.4459, 37.684], [140.44641, 37.68374], [140.4467, 37.68362], [140.44678, 37.68358], [140.447, 37.68349], [140.44728, 37.68342], [140.44729, 37.6834], [140.44742, 37.68338], [140.44758, 37.68334], [140.44851, 37.68314], [140.44885, 37.68309], [140.44913, 37.68304]]}, "properties": {"id": "GEOM_TOKYO_3154", "route_id": "R_20E64CE3", "route_name": null, "route_color": null, "route_text_color": null, "representation": "service_path", "min_zoom": 0, "max_zoom": 24, "offset_rank": 0}}, {"type": "Feature", "bbox": [140.45152, 37.68007, 140.45249, 37.68135], "geometry": {"type": "LineString", "coordinates": [[140.45152, 37.68135], [140.45249, 37.68007]]}, "properties": {"id": "GEOM_TOKYO_3158", "route_id": "R_20E64CE3", "route_name": null, "route_color": null, "route_text_color": null, "representation": "service_path", "min_zoom": 0, "max_zoom": 24, "offset_rank": 0}}, {"type": "Feature", "bbox": [140.44513, 37.68985, 140.46044, 37.71951], "geometry": {"type": "LineString", "coordinates": [[140.44513, 37.68985], [140.44589, 37.69119], [140.44639, 37.69208], [140.44737, 37.69388], [140.44779, 37.69466], [140.44782, 37.6947], [140.44993, 37.69861], [140.44995, 37.69864], [140.45025, 37.69914], [140.45029, 37.6992], [140.45048, 37.69944], [140.45083, 37.69985], [140.4509, 37.6999], [140.45101, 37.69998], [140.45171, 37.70052], [140.45214, 37.70079], [140.45235, 37.7009], [140.45279, 37.70115], [140.45292, 37.70122], [140.45316, 37.70131], [140.45353, 37.70146], [140.45387, 37.70159], [140.45419, 37.70172], [140.45492, 37.70203], [140.45515, 37.7021], [140.45529, 37.70217], [140.45536, 37.70221], [140.4557, 37.7024], [140.45585, 37.70248], [140.45623, 37.70274], [140.45638, 37.70284], [140.45673, 37.70313], [140.45689, 37.70326], [140.45711, 37.70351], [140.45716, 37.70355], [140.4573, 37.70369], [140.45782, 37.7043], [140.4582, 37.70482], [140.45843, 37.70518], [140.45872, 37.7056], [140.45891, 37.7059], [140.45924, 37.70641], [140.4594, 37.70668], [140.45969, 37.70717], [140.45991, 37.70756], [140.45999, 37.70772], [140.46008, 37.70789], [140.46023, 37.70824], [140.46024, 37.70829], [140.46027, 37.70844], [140.46033, 37.70872], [140.46037, 37.70902], [140.46041, 37.70932], [140.46043, 37.70956], [140.46044, 37.70961], [140.46043, 37.70981], [140.46039, 37.71011], [140.46037, 37.71019], [140.46031, 37.71039], [140.46028, 37.71051], [140.46013, 37.71092], [140.46003, 37.71116], [140.45988, 37.71148], [140.45963, 37.71189], [140.45955, 37.71204], [140.4593, 37.71238], [140.45911, 37.7126], [140.45886, 37.71288], [140.45881, 37.71292], [140.45861, 37.71312], [140.45841, 37.71331], [140.45812, 37.71355], [140.45747, 37.71405], [140.45735, 37.71416], [140.45648, 37.71486], [140.4564, 37.71493], [140.45619, 37.71511], [140.45594, 37.71539], [140.45568, 37.71574], [140.45562, 37.71585], [140.45557, 37.71591], [140.45538, 37.71626], [140.4553, 37.71647], [140.45527, 37.71655], [140.45517, 37.71685], [140.45508, 37.71726], [140.45503, 37.71757], [140.45503, 37.71809], [140.45503, 37.71816], [140.45504, 37.71839], [140.45504, 37.71895], [140.45507, 37.71951]]}, "properties": {"id": "GEOM_TOKYO_3160", "route_id": "R_20E64CE3", "route_name": null, "route_color": null, "route_text_color": null, "representation": "service_path", "min_zoom": 0, "max_zoom": 24, "offset_rank": 0}}, {"type": "Feature", "bbox": [140.45507, 37.71951, 140.45563, 37.72276], "geometry": {"type": "LineString", "coordinates": [[140.45563, 37.72276], [140.4555, 37.72204], [140.45541, 37.72163], [140.4554, 37.72158], [140.45534, 37.72125], [140.45524, 37.72071], [140.45521, 37.72053], [140.45521, 37.72046], [140.45514, 37.71999], [140.45507, 37.71951]]}, "properties": {"id": "GEOM_TOKYO_3163", "route_id": "R_20E64CE3", "route_name": null, "route_color": null, "route_text_color": null, "representation": "service_path", "min_zoom": 0, "max_zoom": 24, "offset_rank": 0}}, {"type": "Feature", "bbox": [140.4448, 37.68898, 140.44513, 37.68985], "geometry": {"type": "LineString", "coordinates": [[140.4448, 37.68898], [140.44491, 37.68926], [140.44503, 37.68966], [140.44513, 37.68985]]}, "properties": {"id": "GEOM_TOKYO_3164", "route_id": "R_20E64CE3", "route_name": null, "route_color": null, "route_text_color": null, "representation": "service_path", "min_zoom": 0, "max_zoom": 24, "offset_rank": 0}}, {"type": "Feature", "bbox": [140.44513, 37.68985, 140.45507, 37.71951], "geometry": {"type": "LineString", "coordinates": [[140.44513, 37.68985], [140.4454, 37.69053], [140.44541, 37.69057], [140.44559, 37.69096], [140.44582, 37.69143], [140.44601, 37.69179], [140.44626, 37.6923], [140.44716, 37.69409], [140.44887, 37.69751], [140.44888, 37.69752], [140.44923, 37.69823], [140.44931, 37.69841], [140.44957, 37.69892], [140.4496, 37.69897], [140.44979, 37.69928], [140.44993, 37.69948], [140.45019, 37.69975], [140.45055, 37.70009], [140.45074, 37.70026], [140.45109, 37.70057], [140.45124, 37.70071], [140.45138, 37.70085], [140.45142, 37.70089], [140.45161, 37.70112], [140.45201, 37.70171], [140.45215, 37.70198], [140.45226, 37.70217], [140.45252, 37.70273], [140.45284, 37.70368], [140.45296, 37.70413], [140.45312, 37.70468], [140.45317, 37.70496], [140.4532, 37.70504], [140.45324, 37.70555], [140.45324, 37.70611], [140.45322, 37.70657], [140.45312, 37.70711], [140.45286, 37.70826], [140.45283, 37.70838], [140.45277, 37.70863], [140.4526, 37.70938], [140.45255, 37.70967], [140.45231, 37.7108], [140.45228, 37.71095], [140.45227, 37.71096], [140.45225, 37.71109], [140.4522, 37.71149], [140.45216, 37.71209], [140.45217, 37.71257], [140.45222, 37.71302], [140.45231, 37.71351], [140.45241, 37.71384], [140.45254, 37.7142], [140.45271, 37.71461], [140.45273, 37.71463], [140.45273, 37.71467], [140.45278, 37.71474], [140.45285, 37.7149], [140.45331, 37.71585], [140.45339, 37.71604], [140.45341, 37.71605], [140.45361, 37.71648], [140.45399, 37.71722], [140.45495, 37.71913], [140.45507, 37.71951]]}, "properties": {"id": "GEOM_TOKYO_3167", "route_id": "R_20E64CE3", "route_name": null, "route_color": null, "route_text_color": null, "representation": "service_path", "min_zoom": 0, "max_zoom": 24, "offset_rank": 0}}, {"type": "Feature", "bbox": [140.48364, 37.65404, 140.4841, 37.65592], "geometry": {"type": "LineString", "coordinates": [[140.48364, 37.65592], [140.48388, 37.65517], [140.48401, 37.65461], [140.4841, 37.65404]]}, "properties": {"id": "GEOM_TOKYO_3171", "route_id": "R_20E64CE3", "route_name": null, "route_color": null, "route_text_color": null, "representation": "service_path", "min_zoom": 0, "max_zoom": 24, "offset_rank": 0}}, {"type": "Feature", "bbox": [140.46035, 37.65592, 140.48364, 37.67737], "geometry": {"type": "LineString", "coordinates": [[140.46035, 37.67737], [140.46142, 37.67715], [140.46181, 37.67703], [140.46201, 37.67698], [140.46208, 37.67696], [140.46235, 37.67687], [140.46288, 37.67666], [140.46327, 37.67646], [140.46356, 37.6763], [140.46382, 37.67613], [140.46405, 37.67594], [140.46409, 37.6759], [140.46417, 37.67583], [140.46442, 37.67557], [140.46465, 37.67529], [140.46492, 37.67492], [140.46516, 37.67448], [140.46526, 37.67428], [140.46541, 37.67385], [140.46542, 37.67382], [140.46566, 37.67292], [140.46576, 37.67246], [140.46581, 37.67223], [140.46614, 37.67079], [140.4662, 37.67064], [140.46632, 37.67039], [140.46642, 37.67025], [140.46674, 37.66969], [140.467, 37.66938], [140.46737, 37.66906], [140.46789, 37.66868], [140.46827, 37.66845], [140.46879, 37.6682], [140.46884, 37.66818], [140.46929, 37.66802], [140.47102, 37.66757], [140.47413, 37.66678], [140.47462, 37.66659], [140.47494, 37.66643], [140.47531, 37.66616], [140.47564, 37.66587], [140.4767, 37.66477], [140.47785, 37.66354], [140.47858, 37.66276], [140.4803, 37.66094], [140.48149, 37.65959], [140.48199, 37.65894], [140.48263, 37.65799], [140.48309, 37.6572], [140.48364, 37.65592]]}, "properties": {"id": "GEOM_TOKYO_3176", "route_id": "R_20E64CE3", "route_name": null, "route_color": null, "route_text_color": null, "representation": "service_path", "min_zoom": 0, "max_zoom": 24, "offset_rank": 0}}, {"type": "Feature", "bbox": [140.46689, 37.61312, 140.46837, 37.61659], "geometry": {"type": "LineString", "coordinates": [[140.46689, 37.61312], [140.46837, 37.61659]]}, "properties": {"id": "GEOM_TOKYO_3189", "route_id": "R_20E64CE3", "route_name": null, "route_color": null, "route_text_color": null, "representation": "service_path", "min_zoom": 0, "max_zoom": 24, "offset_rank": 0}}, {"type": "Feature", "bbox": [140.4841, 37.65297, 140.48423, 37.65404], "geometry": {"type": "LineString", "coordinates": [[140.4841, 37.65404], [140.48423, 37.65297]]}, "properties": {"id": "GEOM_TOKYO_3191", "route_id": "R_20E64CE3", "route_name": null, "route_color": null, "route_text_color": null, "representation": "service_path", "min_zoom": 0, "max_zoom": 24, "offset_rank": 0}}, {"type": "Feature", "bbox": [140.46837, 37.61659, 140.47627, 37.63294], "geometry": {"type": "LineString", "coordinates": [[140.46837, 37.61659], [140.46865, 37.61712], [140.46901, 37.61762], [140.46928, 37.61811], [140.47076, 37.62115], [140.47172, 37.62315], [140.47257, 37.62492], [140.47364, 37.62715], [140.47548, 37.63106], [140.4755, 37.63112], [140.4756, 37.63134], [140.47561, 37.63137], [140.47627, 37.63294]]}, "properties": {"id": "GEOM_TOKYO_3194", "route_id": "R_20E64CE3", "route_name": null, "route_color": null, "route_text_color": null, "representation": "service_path", "min_zoom": 0, "max_zoom": 24, "offset_rank": 0}}, {"type": "Feature", "bbox": [140.43627, 37.58963, 140.46647, 37.61216], "geometry": {"type": "LineString", "coordinates": [[140.46647, 37.61216], [140.46623, 37.61157], [140.46612, 37.61121], [140.46568, 37.60957], [140.46505, 37.60703], [140.465, 37.60681], [140.46441, 37.60431], [140.46399, 37.60284], [140.4636, 37.60177], [140.46353, 37.60157], [140.46325, 37.60088], [140.46282, 37.60002], [140.4627, 37.5998], [140.46196, 37.59853], [140.46137, 37.59771], [140.46058, 37.59678], [140.4595, 37.59568], [140.45837, 37.59465], [140.457, 37.5934], [140.45647, 37.59298], [140.45604, 37.59266], [140.45525, 37.59223], [140.4548, 37.59201], [140.45403, 37.59173], [140.45336, 37.59154], [140.45225, 37.59132], [140.45134, 37.59121], [140.45068, 37.59116], [140.45042, 37.59115], [140.44957, 37.59116], [140.44516, 37.59127], [140.44448, 37.59125], [140.44385, 37.5912], [140.44315, 37.59111], [140.44281, 37.59105], [140.44193, 37.59089], [140.44064, 37.59062], [140.43781, 37.58998], [140.43627, 37.58963]]}, "properties": {"id": "GEOM_TOKYO_3195", "route_id": "R_20E64CE3", "route_name": null, "route_color": null, "route_text_color": null, "representation": "service_path", "min_zoom": 0, "max_zoom": 24, "offset_rank": 0}}, {"type": "Feature", "bbox": [140.46647, 37.61216, 140.46689, 37.61312], "geometry": {"type": "LineString", "coordinates": [[140.46689, 37.61312], [140.46647, 37.61216]]}, "properties": {"id": "GEOM_TOKYO_3199", "route_id": "R_20E64CE3", "route_name": null, "route_color": null, "route_text_color": null, "representation": "service_path", "min_zoom": 0, "max_zoom": 24, "offset_rank": 0}}, {"type": "Feature", "bbox": [140.46035, 37.65592, 140.48364, 37.67737], "geometry": {"type": "LineString", "coordinates": [[140.46035, 37.67737], [140.46145, 37.67727], [140.4617, 37.67725], [140.46198, 37.67723], [140.46203, 37.67723], [140.46269, 37.67715], [140.46333, 37.67709], [140.46354, 37.67706], [140.46386, 37.67702], [140.46426, 37.67696], [140.46459, 37.67691], [140.46513, 37.67685], [140.4652, 37.67683], [140.46576, 37.67675], [140.46617, 37.67669], [140.46703, 37.67657], [140.46724, 37.67654], [140.46758, 37.67649], [140.4677, 37.67647], [140.46776, 37.67646], [140.4678, 37.67645], [140.46801, 37.67641], [140.46823, 37.67637], [140.46826, 37.67636], [140.46849, 37.67632], [140.46909, 37.67615], [140.4693, 37.67607], [140.46941, 37.67604], [140.46978, 37.67588], [140.47031, 37.67565], [140.47072, 37.67543], [140.47099, 37.67526], [140.47131, 37.67504], [140.47139, 37.67497], [140.47162, 37.67477], [140.47176, 37.67465], [140.47198, 37.67444], [140.47212, 37.67427], [140.47239, 37.67393], [140.47253, 37.67374], [140.47268, 37.67351], [140.47322, 37.67244], [140.47366, 37.67158], [140.47388, 37.67116], [140.47439, 37.67019], [140.47464, 37.66969], [140.47493, 37.66905], [140.475, 37.66888], [140.47562, 37.66751], [140.47603, 37.66675], [140.47627, 37.66639], [140.47655, 37.66602], [140.47721, 37.66525], [140.47741, 37.66502], [140.47863, 37.66362], [140.48081, 37.66111], [140.48096, 37.66092], [140.4819, 37.65985], [140.48234, 37.65928], [140.48253, 37.65897], [140.48266, 37.6587], [140.4829, 37.65809], [140.48338, 37.65682], [140.48364, 37.65592]]}, "properties": {"id": "GEOM_TOKYO_3207", "route_id": "R_20E64CE3", "route_name": null, "route_color": null, "route_text_color": null, "representation": "service_path", "min_zoom": 0, "max_zoom": 24, "offset_rank": 0}}, {"type": "Feature", "bbox": [140.47627, 37.63294, 140.48424, 37.65297], "geometry": {"type": "LineString", "coordinates": [[140.48423, 37.65297], [140.48424, 37.65229], [140.48422, 37.65169], [140.48417, 37.65091], [140.48415, 37.65073], [140.48413, 37.65049], [140.48406, 37.64983], [140.48403, 37.64957], [140.4838, 37.64797], [140.48375, 37.64755], [140.48371, 37.64731], [140.48369, 37.64717], [140.48356, 37.64636], [140.48344, 37.64582], [140.48333, 37.64533], [140.48329, 37.64516], [140.48307, 37.64442], [140.48283, 37.64359], [140.48259, 37.64294], [140.48209, 37.64183], [140.48208, 37.6418], [140.48181, 37.64123], [140.48152, 37.6407], [140.4809, 37.6397], [140.4807, 37.6394], [140.47845, 37.63616], [140.47827, 37.63589], [140.4776, 37.63491], [140.47696, 37.63396], [140.4768, 37.63374], [140.47665, 37.63352], [140.47627, 37.63294]]}, "properties": {"id": "GEOM_TOKYO_3213", "route_id": "R_20E64CE3", "route_name": null, "route_color": null, "route_text_color": null, "representation": "service_path", "min_zoom": 0, "max_zoom": 24, "offset_rank": 0}}, {"type": "Feature", "bbox": [140.43477, 37.5893, 140.43627, 37.58963], "geometry": {"type": "LineString", "coordinates": [[140.43627, 37.58963], [140.43477, 37.5893]]}, "properties": {"id": "GEOM_TOKYO_3215", "route_id": "R_20E64CE3", "route_name": null, "route_color": null, "route_text_color": null, "representation": "service_path", "min_zoom": 0, "max_zoom": 24, "offset_rank": 0}}, {"type": "Feature", "bbox": [140.46837, 37.61659, 140.47627, 37.63294], "geometry": {"type": "LineString", "coordinates": [[140.46837, 37.61659], [140.46845, 37.61679], [140.46906, 37.61815], [140.46993, 37.62015], [140.47082, 37.62211], [140.47105, 37.6225], [140.47153, 37.6233], [140.47229, 37.62494], [140.47232, 37.625], [140.47375, 37.62805], [140.47498, 37.63071], [140.47518, 37.63105], [140.47531, 37.63126], [140.47554, 37.63166], [140.47627, 37.63294]]}, "properties": {"id": "GEOM_TOKYO_3218", "route_id": "R_20E64CE3", "route_name": null, "route_color": null, "route_text_color": null, "representation": "service_path", "min_zoom": 0, "max_zoom": 24, "offset_rank": 0}}, {"type": "Feature", "bbox": [140.4146, 37.56424, 140.43477, 37.5893], "geometry": {"type": "LineString", "coordinates": [[140.43477, 37.5893], [140.43319, 37.58895], [140.43138, 37.58852], [140.4304, 37.58823], [140.42968, 37.58799], [140.429, 37.58774], [140.4283, 37.58744], [140.42775, 37.58717], [140.42716, 37.58685], [140.42635, 37.58636], [140.42555, 37.58588], [140.42467, 37.58531], [140.42404, 37.58485], [140.42349, 37.58438], [140.42295, 37.58385], [140.42256, 37.58342], [140.42229, 37.58314], [140.42192, 37.58271], [140.42135, 37.58202], [140.42109, 37.5816], [140.42062, 37.5808], [140.42046, 37.58051], [140.41867, 37.57733], [140.41859, 37.57718], [140.41851, 37.57704], [140.41794, 37.57608], [140.41746, 37.57522], [140.41699, 37.57438], [140.41673, 37.5739], [140.41657, 37.57352], [140.41638, 37.57303], [140.41629, 37.57271], [140.41619, 37.57233], [140.41612, 37.57198], [140.41603, 37.57152], [140.41599, 37.57129], [140.41588, 37.57051], [140.41564, 37.56905], [140.41543, 37.56757], [140.41517, 37.566], [140.41479, 37.5647], [140.4146, 37.56424]]}, "properties": {"id": "GEOM_TOKYO_3219", "route_id": "R_20E64CE3", "route_name": null, "route_color": null, "route_text_color": null, "representation": "service_path", "min_zoom": 0, "max_zoom": 24, "offset_rank": 0}}]}