{"type": "FeatureCollection", "features": [{"type": "Feature", "bbox": [140.52441, 36.39505, 140.54016, 36.42961], "geometry": {"type": "LineString", "coordinates": [[140.52441, 36.39505], [140.52461, 36.39612], [140.52476, 36.39689], [140.52495, 36.39786], [140.52506, 36.39836], [140.52512, 36.39861], [140.52528, 36.39913], [140.52553, 36.39973], [140.52605, 36.4008], [140.52673, 36.40223], [140.52705, 36.40289], [140.52738, 36.40357], [140.52754, 36.40389], [140.52907, 36.40705], [140.52945, 36.4078], [140.53018, 36.40921], [140.53025, 36.40934], [140.53064, 36.41006], [140.53079, 36.41033], [140.53121, 36.41121], [140.5317, 36.41221], [140.53285, 36.41458], [140.53333, 36.41555], [140.53386, 36.41667], [140.53459, 36.41811], [140.53543, 36.41983], [140.53625, 36.42152], [140.5365, 36.42201], [140.53702, 36.42307], [140.53766, 36.42436], [140.53848, 36.42608], [140.53874, 36.42663], [140.53919, 36.42757], [140.53995, 36.42916], [140.54016, 36.42961]]}, "properties": {"id": "GEOM_TOKYO_2605", "route_id": "R_06E4D384", "route_name": null, "route_color": "#22A6B3", "route_text_color": null, "line_name": "常磐線", "operator_id": "jr_east", "representation": "service_path", "min_zoom": 0, "max_zoom": 24, "offset_rank": 0}}, {"type": "Feature", "bbox": [140.45772, 36.37043, 140.47567, 36.37295], "geometry": {"type": "LineString", "coordinates": [[140.47567, 36.37075], [140.47362, 36.37061], [140.47291, 36.37056], [140.47124, 36.37043], [140.47071, 36.37048], [140.47023, 36.37056], [140.46886, 36.37092], [140.46741, 36.37131], [140.46477, 36.37204], [140.46341, 36.37244], [140.46213, 36.37271], [140.46173, 36.37276], [140.46121, 36.3728], [140.45772, 36.37295]]}, "properties": {"id": "GEOM_TOKYO_2610", "route_id": "R_06E4D384", "route_name": null, "route_color": "#22A6B3", "route_text_color": null, "line_name": "常磐線", "operator_id": "jr_east", "representation": "service_path", "min_zoom": 0, "max_zoom": 24, "offset_rank": 0}}, {"type": "Feature", "bbox": [140.49304, 36.36932, 140.52402, 36.3931], "geometry": {"type": "LineString", "coordinates": [[140.49304, 36.36932], [140.49668, 36.36993], [140.49717, 36.37008], [140.49816, 36.37035], [140.49948, 36.37073], [140.50022, 36.37094], [140.5016, 36.37148], [140.50299, 36.37211], [140.50504, 36.37308], [140.5062, 36.37362], [140.50714, 36.37405], [140.5078, 36.37438], [140.50793, 36.37445], [140.50817, 36.37456], [140.5096, 36.37534], [140.51155, 36.37638], [140.51201, 36.37663], [140.51458, 36.37802], [140.5157, 36.37864], [140.5178, 36.38002], [140.51832, 36.38041], [140.51873, 36.38072], [140.51913, 36.3811], [140.52059, 36.38287], [140.52147, 36.38391], [140.52193, 36.38457], [140.5222, 36.38497], [140.5225, 36.38546], [140.52277, 36.38611], [140.52295, 36.38673], [140.52315, 36.38798], [140.5233, 36.38878], [140.52366, 36.39097], [140.52382, 36.39197], [140.52402, 36.3931]]}, "properties": {"id": "GEOM_TOKYO_2614", "route_id": "R_06E4D384", "route_name": null, "route_color": "#22A6B3", "route_text_color": null, "line_name": "常磐線", "operator_id": "jr_east", "representation": "service_path", "min_zoom": 0, "max_zoom": 24, "offset_rank": 0}}, {"type": "Feature", "bbox": [140.47875, 36.36857, 140.49304, 36.37098], "geometry": {"type": "LineString", "coordinates": [[140.47875, 36.37098], [140.47923, 36.37097], [140.47987, 36.37085], [140.4809, 36.3706], [140.48321, 36.36985], [140.48589, 36.36899], [140.48687, 36.36868], [140.48725, 36.36862], [140.48781, 36.36857], [140.48868, 36.36865], [140.48988, 36.3688], [140.49304, 36.36932]]}, "properties": {"id": "GEOM_TOKYO_2615", "route_id": "R_06E4D384", "route_name": null, "route_color": "#22A6B3", "route_text_color": null, "line_name": "常磐線", "operator_id": "jr_east", "representation": "service_path", "min_zoom": 0, "max_zoom": 24, "offset_rank": 0}}, {"type": "Feature", "bbox": [140.47567, 36.37075, 140.47875, 36.37098], "geometry": {"type": "LineString", "coordinates": [[140.47875, 36.37098], [140.47827, 36.37093], [140.47567, 36.37075]]}, "properties": {"id": "GEOM_TOKYO_2626", "route_id": "R_06E4D384", "route_name": null, "route_color": "#22A6B3", "route_text_color": null, "line_name": "常磐線", "operator_id": "jr_east", "representation": "service_path", "min_zoom": 0, "max_zoom": 24, "offset_rank": 0}}, {"type": "Feature", "bbox": [140.41699, 36.37311, 140.45496, 36.38452], "geometry": {"type": "LineString", "coordinates": [[140.45496, 36.37311], [140.45367, 36.37323], [140.45319, 36.37332], [140.45266, 36.37346], [140.45187, 36.37373], [140.45164, 36.37383], [140.45129, 36.374], [140.45091, 36.37429], [140.45057, 36.37461], [140.44522, 36.37973], [140.44407, 36.38081], [140.44292, 36.3819], [140.44153, 36.38293], [140.44094, 36.3833], [140.44031, 36.38363], [140.44018, 36.38368], [140.43965, 36.38388], [140.43872, 36.38417], [140.43822, 36.38429], [140.4372, 36.38447], [140.43635, 36.38452], [140.43579, 36.3845], [140.43488, 36.38441], [140.42701, 36.38336], [140.41902, 36.38228], [140.41699, 36.38201]]}, "properties": {"id": "GEOM_TOKYO_2627", "route_id": "R_06E4D384", "route_name": null, "route_color": "#22A6B3", "route_text_color": null, "line_name": "常磐線", "operator_id": "jr_east", "representation": "service_path", "min_zoom": 0, "max_zoom": 24, "offset_rank": 0}}, {"type": "Feature", "bbox": [140.45496, 36.37295, 140.45772, 36.37311], "geometry": {"type": "LineString", "coordinates": [[140.45772, 36.37295], [140.45496, 36.37311]]}, "properties": {"id": "GEOM_TOKYO_2629", "route_id": "R_06E4D384", "route_name": null, "route_color": "#22A6B3", "route_text_color": null, "line_name": "常磐線", "operator_id": "jr_east", "representation": "service_path", "min_zoom": 0, "max_zoom": 24, "offset_rank": 0}}, {"type": "Feature", "bbox": [140.54016, 36.42961, 140.54086, 36.43133], "geometry": {"type": "LineString", "coordinates": [[140.54086, 36.43133], [140.54016, 36.42961]]}, "properties": {"id": "GEOM_TOKYO_2636", "route_id": "R_06E4D384", "route_name": null, "route_color": "#22A6B3", "route_text_color": null, "line_name": "常磐線", "operator_id": "jr_east", "representation": "service_path", "min_zoom": 0, "max_zoom": 24, "offset_rank": 0}}, {"type": "Feature", "bbox": [140.52402, 36.3931, 140.52441, 36.39505], "geometry": {"type": "LineString", "coordinates": [[140.52402, 36.3931], [140.52437, 36.39486], [140.52441, 36.39505]]}, "properties": {"id": "GEOM_TOKYO_2644", "route_id": "R_06E4D384", "route_name": null, "route_color": "#22A6B3", "route_text_color": null, "line_name": "常磐線", "operator_id": "jr_east", "representation": "service_path", "min_zoom": 0, "max_zoom": 24, "offset_rank": 0}}, {"type": "Feature", "bbox": [140.54086, 36.43133, 140.56517, 36.46483], "geometry": {"type": "LineString", "coordinates": [[140.56517, 36.46483], [140.56476, 36.46451], [140.56353, 36.46357], [140.56335, 36.46342], [140.56183, 36.46223], [140.56141, 36.4619], [140.56035, 36.46108], [140.55864, 36.45973], [140.55728, 36.45868], [140.55672, 36.45824], [140.55591, 36.45761], [140.55489, 36.4568], [140.55485, 36.45677], [140.55399, 36.45599], [140.55374, 36.45572], [140.55334, 36.45529], [140.55303, 36.45491], [140.5528, 36.45462], [140.55258, 36.45433], [140.55196, 36.45337], [140.55175, 36.45304], [140.551, 36.45187], [140.55003, 36.45029], [140.54906, 36.4487], [140.54878, 36.44824], [140.5482, 36.44728], [140.5479, 36.4468], [140.54741, 36.44602], [140.54644, 36.44444], [140.54578, 36.4434], [140.54536, 36.44271], [140.54531, 36.44263], [140.54521, 36.44246], [140.54514, 36.4423], [140.54504, 36.44208], [140.54465, 36.44107], [140.54407, 36.43955], [140.5434, 36.43788], [140.54278, 36.43627], [140.54208, 36.43445], [140.5416, 36.43325], [140.54142, 36.43279], [140.54114, 36.43207], [140.54086, 36.43133]]}, "properties": {"id": "GEOM_TOKYO_2647", "route_id": "R_06E4D384", "route_name": null, "route_color": "#22A6B3", "route_text_color": null, "line_name": "常磐線", "operator_id": "jr_east", "representation": "service_path", "min_zoom": 0, "max_zoom": 24, "offset_rank": 0}}]}