{"type": "FeatureCollection", "features": [{"type": "Feature", "bbox": [129.9989525761053, 33.10660482408079, 129.9989525761053, 33.10660482408079], "geometry": {"type": "Point", "coordinates": [129.9989525761053, 33.10660482408079]}, "properties": {"id": "PS_977304512B8F", "station_group_id": "SG_026CE7BFA52D", "operator_id": "jr_kyushu", "operator_ids": "jr_kyushu", "name_en": "嬉野温泉", "name_ja": "嬉野温泉", "label_rank": 72, "tags": ["tokyo", "v3"]}}, {"type": "Feature", "bbox": [130.0230793694156, 33.1962133212902, 130.0230793694156, 33.1962133212902], "geometry": {"type": "Point", "coordinates": [130.0230793694156, 33.1962133212902]}, "properties": {"id": "PS_C7A647B66933", "station_group_id": "SG_BAD10B5F897A", "operator_id": "jr_kyushu", "operator_ids": "jr_kyushu", "name_en": "武雄温泉", "name_ja": "武雄温泉", "label_rank": 72, "tags": ["tokyo", "v3"]}}]}