{"type": "FeatureCollection", "features": [{"type": "Feature", "bbox": [138.24847131500002, 37.081367150000005, 138.24847131500002, 37.081367150000005], "geometry": {"type": "Point", "coordinates": [138.24847131500002, 37.081367150000005]}, "properties": {"id": "PS_86F854C07A8D", "station_group_id": "SG_526C00D69A9C", "operator_id": "jr_east", "operator_ids": "jr_east", "name_en": "上越妙高", "name_ja": "上越妙高", "label_rank": 72, "tags": ["tokyo", "v3"]}}, {"type": "Feature", "bbox": [138.24847131500002, 37.081367150000005, 138.24847131500002, 37.081367150000005], "geometry": {"type": "Point", "coordinates": [138.24847131500002, 37.081367150000005]}, "properties": {"id": "PS_6031CBEDF4AD", "station_group_id": "SG_526C00D69A9C", "operator_id": "jr_west", "operator_ids": "jr_west", "name_en": "上越妙高", "name_ja": "上越妙高", "label_rank": 72, "tags": ["tokyo", "v3"]}}]}