{"type": "FeatureCollection", "features": [{"type": "Feature", "bbox": [138.21179999999998, 35.9304, 138.21179999999998, 35.9304], "geometry": {"type": "Point", "coordinates": [138.21179999999998, 35.9304]}, "properties": {"id": "PS_809841F730C1", "station_group_id": "SG_8B6E45BE5EAA", "operator_id": "jr_east", "operator_ids": "jr_east", "name_en": "すずらんの里", "name_ja": "すずらんの里", "label_rank": 72, "tags": ["tokyo", "v3"]}}, {"type": "Feature", "bbox": [138.15176, 35.995000000000005, 138.15176, 35.995000000000005], "geometry": {"type": "Point", "coordinates": [138.15176, 35.995000000000005]}, "properties": {"id": "PS_0BAFE29C177E", "station_group_id": "SG_98EDBD4AFBA7", "operator_id": "jr_east", "operator_ids": "jr_east", "name_en": "茅野", "name_ja": "茅野", "label_rank": 72, "tags": ["tokyo", "v3"]}}, {"type": "Feature", "bbox": [138.197465, 35.94278, 138.197465, 35.94278], "geometry": {"type": "Point", "coordinates": [138.197465, 35.94278]}, "properties": {"id": "PS_C11FEC4A0735", "station_group_id": "SG_3027776D5635", "operator_id": "jr_east", "operator_ids": "jr_east", "name_en": "青柳", "name_ja": "青柳", "label_rank": 72, "tags": ["tokyo", "v3"]}}]}