{"type": "FeatureCollection", "features": [{"type": "Feature", "bbox": [138.275465, 35.88496, 138.275465, 35.88496], "geometry": {"type": "Point", "coordinates": [138.275465, 35.88496]}, "properties": {"id": "PS_8EF4A96E0E92", "station_group_id": "SG_0C9898F04525", "name_en": "信濃境", "name_ja": "信濃境", "label_rank": 72, "tags": ["tokyo", "v3"]}}, {"type": "Feature", "bbox": [138.237865, 35.912265, 138.237865, 35.912265], "geometry": {"type": "Point", "coordinates": [138.237865, 35.912265]}, "properties": {"id": "PS_FDD42784BCF9", "station_group_id": "SG_2A6485FE1908", "name_en": "富士見", "name_ja": "富士見", "label_rank": 72, "tags": ["tokyo", "v3"]}}, {"type": "Feature", "bbox": [138.316425, 35.86381, 138.316425, 35.86381], "geometry": {"type": "Point", "coordinates": [138.316425, 35.86381]}, "properties": {"id": "PS_28141F7C4061", "station_group_id": "SG_6EC56F0107CE", "name_en": "小淵沢", "name_ja": "小淵沢", "label_rank": 72, "tags": ["tokyo", "v3"]}}, {"type": "Feature", "bbox": [138.39429, 35.7907, 138.39429, 35.7907], "geometry": {"type": "Point", "coordinates": [138.39429, 35.7907]}, "properties": {"id": "PS_E2AB7FCA27D0", "station_group_id": "SG_9CD8D7ADAFBA", "name_en": "日野春", "name_ja": "日野春", "label_rank": 72, "tags": ["tokyo", "v3"]}}, {"type": "Feature", "bbox": [138.36649999999997, 35.82714, 138.36649999999997, 35.82714], "geometry": {"type": "Point", "coordinates": [138.36649999999997, 35.82714]}, "properties": {"id": "PS_6D8C83D0F8DB", "station_group_id": "SG_8C62A3BB80A7", "name_en": "長坂", "name_ja": "長坂", "label_rank": 72, "tags": ["tokyo", "v3"]}}]}