{"type": "FeatureCollection", "features": [{"type": "Feature", "bbox": [138.20358, 34.836405, 138.20358, 34.836405], "geometry": {"type": "Point", "coordinates": [138.20358, 34.836405]}, "properties": {"id": "PS_712E2F8B367A", "station_group_id": "SG_628F18925EB7", "operator_id": "jr_central", "operator_ids": "jr_central", "name_en": "六合", "name_ja": "六合", "label_rank": 72, "tags": ["tokyo", "v3"]}}, {"type": "Feature", "bbox": [138.173425, 34.83015, 138.173425, 34.83015], "geometry": {"type": "Point", "coordinates": [138.173425, 34.83015]}, "properties": {"id": "PS_E6D96BE0D0D4", "station_group_id": "SG_504B323C6A03", "operator_id": "jr_central", "operator_ids": "jr_central", "name_en": "島田", "name_ja": "島田", "label_rank": 72, "tags": ["tokyo", "v3"]}}, {"type": "Feature", "bbox": [138.31848, 34.872285000000005, 138.31848, 34.872285000000005], "geometry": {"type": "Point", "coordinates": [138.31848, 34.872285000000005]}, "properties": {"id": "PS_FEE69B133B03", "station_group_id": "SG_4E007D7FCA86", "operator_id": "jr_central", "operator_ids": "jr_central", "name_en": "焼津", "name_ja": "焼津", "label_rank": 72, "tags": ["tokyo", "v3"]}}, {"type": "Feature", "bbox": [138.25286999999997, 34.84957, 138.25286999999997, 34.84957], "geometry": {"type": "Point", "coordinates": [138.25286999999997, 34.84957]}, "properties": {"id": "PS_BFACFEBD692D", "station_group_id": "SG_043A178C4574", "operator_id": "jr_central", "operator_ids": "jr_central", "name_en": "藤枝", "name_ja": "藤枝", "label_rank": 72, "tags": ["tokyo", "v3"]}}, {"type": "Feature", "bbox": [138.285595, 34.859804999999994, 138.285595, 34.859804999999994], "geometry": {"type": "Point", "coordinates": [138.285595, 34.859804999999994]}, "properties": {"id": "PS_D4B05503B50B", "station_group_id": "SG_983D068529E7", "operator_id": "jr_central", "operator_ids": "jr_central", "name_en": "西焼津", "name_ja": "西焼津", "label_rank": 72, "tags": ["tokyo", "v3"]}}, {"type": "Feature", "bbox": [138.12582500000002, 34.819235000000006, 138.12582500000002, 34.819235000000006], "geometry": {"type": "Point", "coordinates": [138.12582500000002, 34.819235000000006]}, "properties": {"id": "PS_BE6ED289E230", "station_group_id": "SG_256A76D85E7D", "operator_id": "jr_central", "operator_ids": "jr_central", "name_en": "金谷", "name_ja": "金谷", "label_rank": 72, "tags": ["tokyo", "v3"]}}]}